<?xml version="1.0" encoding="UTF-8"?><kml xmlns="http://www.opengis.net/kml/2.2" xmlns:gx="http://www.google.com/kml/ext/2.2"><Document><name> Location history from 2021-11-22 to 2021-11-22 </name><open>1</open><description></description><StyleMap id="multiTrack"><Pair><key>normal</key><styleUrl>#multiTrack_n</styleUrl></Pair><Pair><key>highlight</key><styleUrl>#multiTrack_h</styleUrl></Pair></StyleMap><Style id="multiTrack_n"><IconStyle><Icon><href>https://earth.google.com/images/kml-icons/track-directional/track-0.png</href></Icon></IconStyle><LineStyle><color>99ffac59</color><width>6</width></LineStyle></Style><Style id="multiTrack_h"><IconStyle><scale>1.2</scale><Icon><href>https://earth.google.com/images/kml-icons/track-directional/track-0.png</href></Icon></IconStyle><LineStyle><color>99ffac59</color><width>8</width></LineStyle></Style><Placemark><name>Crowne Plaza New Orleans French Quarter, an IHG Hotel</name><address>739 Canal St. @, Bourbon St, New Orleans, LA 70130</address><ExtendedData><Data name="Email"><value>syugen.zhou@gmail.com</value></Data><Data name="Category"><value>Hotel</value></Data><Data name="Distance"><value>0</value></Data></ExtendedData><description> Hotel from 2021-11-22T00:39:41.253Z to 2021-11-22T15:19:10.000Z. Distance 0m </description><Point><coordinates>-90.06955909999999,29.953835599999998,0</coordinates></Point><TimeSpan><begin>2021-11-22T00:39:41.253Z</begin><end>2021-11-22T15:19:10.000Z</end></TimeSpan></Placemark><Placemark><name>Oceana Grill</name><address>739 Conti St, New Orleans, LA 70130</address><ExtendedData><Data name="Email"><value>syugen.zhou@gmail.com</value></Data><Data name="Category"><value>Seafood</value></Data><Data name="Distance"><value>0</value></Data></ExtendedData><description> Seafood from 2021-11-22T15:19:10.000Z to 2021-11-22T16:12:57.000Z. Distance 0m </description><Point><coordinates>-90.0675629,29.956229399999998,0</coordinates></Point><TimeSpan><begin>2021-11-22T15:19:10.000Z</begin><end>2021-11-22T16:12:57.000Z</end></TimeSpan></Placemark><Placemark><name>Walking</name><address></address><ExtendedData><Data name="Email"><value>syugen.zhou@gmail.com</value></Data><Data name="Category"><value>Walking</value></Data><Data name="Distance"><value>351</value></Data></ExtendedData><description> Walking from 2021-11-22T16:12:57.414Z to 2021-11-22T16:15:56.999Z. Distance 351m </description><LineString><altitudeMode>clampToGround</altitudeMode><extrude>1</extrude><tesselate>1</tesselate><coordinates>-90.0675718,29.9562027,0 -90.0676853,29.9562811,0 -90.0677556,29.9563261,0 -90.06781079999999,29.9562684,0 -90.06781079999999,29.9562684,0 -90.06790869999999,29.9561582,0 -90.06803559999999,29.956015400000005,0 -90.06845939999998,29.955538600000004,0 -90.06851219999999,29.955478900000003,0 -90.06851739999999,29.9554742,0 -90.06858399999999,29.955401600000002,0 -90.0691433,29.954776100000004,0 -90.0691608,29.954757500000003,0 -90.06921369999999,29.954695300000004,0 -90.0692462,29.954655200000005,0 -90.0698749,29.953959400000006,0 -90.0698033,29.953913900000003,0 -90.0698033,29.953913900000003,0 -90.0696434,29.953806200000002,0 </coordinates></LineString><TimeSpan><begin>2021-11-22T16:12:57.414Z</begin><end>2021-11-22T16:15:56.999Z</end></TimeSpan></Placemark><Placemark><name>Crowne Plaza New Orleans French Quarter, an IHG Hotel</name><address>739 Canal St. @, Bourbon St, New Orleans, LA 70130</address><ExtendedData><Data name="Email"><value>syugen.zhou@gmail.com</value></Data><Data name="Category"><value>Hotel</value></Data><Data name="Distance"><value>0</value></Data></ExtendedData><description> Hotel from 2021-11-22T16:15:56.999Z to 2021-11-22T18:10:34.626Z. Distance 0m </description><Point><coordinates>-90.06955909999999,29.953835599999998,0</coordinates></Point><TimeSpan><begin>2021-11-22T16:15:56.999Z</begin><end>2021-11-22T18:10:34.626Z</end></TimeSpan></Placemark><Placemark><name>Driving</name><address></address><ExtendedData><Data name="Email"><value>syugen.zhou@gmail.com</value></Data><Data name="Category"><value>Driving</value></Data><Data name="Distance"><value>2349</value></Data></ExtendedData><description> Driving from 2021-11-22T18:10:34.626Z to 2021-11-22T18:14:38.587Z. Distance 2349m </description><LineString><altitudeMode>clampToGround</altitudeMode><extrude>1</extrude><tesselate>1</tesselate><coordinates>-90.070094,29.9552606,0 -90.07078340000001,29.954486799999998,0 -90.07078340000001,29.954486799999998,0 -90.0708693,29.9543953,0 -90.0709638,29.9543101,0 -90.0716799,29.9537012,0 -90.07183960000002,29.9535665,0 -90.07196310000002,29.953461400000002,0 -90.07201630000002,29.9534153,0 -90.07205890000002,29.953370999999997,0 -90.07210850000003,29.953299199999993,0 -90.07215540000003,29.953228899999992,0 -90.07218530000003,29.953158999999992,0 -90.07237260000002,29.95254309999999,0 -90.07241350000002,29.95240219999999,0 -90.07260480000002,29.951741299999988,0 -90.07281990000001,29.95105159999999,0 -90.07300950000001,29.95038859999999,0 -90.07302430000001,29.95034029999999,0 -90.07306510000001,29.95020019999999,0 -90.07310220000002,29.95005159999999,0 -90.07335830000002,29.949169999999995,0 -90.07345080000002,29.9488748,0 -90.07373750000002,29.947917099999994,0 -90.07416800000001,29.946488499999997,0 -90.0745009,29.945372699999993,0 -90.07461680000002,29.944977299999994,0 -90.07465860000002,29.944862199999992,0 -90.07465860000002,29.944862199999992,0 -90.07478770000002,29.944711699999996,0 -90.07474110000001,29.944667399999993,0 -90.07463850000002,29.94459589999999,0 -90.07382350000002,29.944073499999988,0 -90.07366180000001,29.94398109999999,0 -90.07355340000001,29.94390199999999,0 -90.07349220000002,29.94386809999999,0 -90.07329050000001,29.943741299999992,0 -90.07313410000002,29.94363599999999,0 -90.07294160000002,29.943496099999987,0 -90.07294160000002,29.943496099999987,0 -90.07294860000002,29.943475999999986,0 -90.07295510000003,29.943448599999982,0 -90.07295750000003,29.943429299999984,0 -90.07295860000002,29.943423499999984,0 -90.07296610000003,29.943380499999986,0 -90.07296710000003,29.943372799999985,0 -90.07297020000003,29.94334059999998,0 -90.07297150000002,29.94331999999998,0 -90.07297090000003,29.94329759999998,0 -90.07296600000004,29.94325459999998,0 -90.07295440000003,29.94320019999998,0 -90.07293850000002,29.943157899999978,0 -90.07293560000002,29.943153599999974,0 -90.07291120000002,29.943113199999978,0 -90.07288850000003,29.943080399999978,0 -90.07285750000004,29.943043799999973,0 -90.07282650000003,29.943012199999973,0 -90.07279670000004,29.94298629999997,0 -90.07276580000004,29.942963899999967,0 -90.07273460000005,29.94295109999997,0 -90.07267290000004,29.942923999999966,0 -90.07260600000005,29.942900399999964,0 -90.07259020000004,29.942897999999964,0 -90.07254300000004,29.942887599999967,0 -90.07249270000004,29.942887399999965,0 -90.07243870000003,29.94288989999996,0 -90.07239790000004,29.942893399999964,0 -90.07235080000004,29.94290109999996,0 -90.07230680000004,29.942911799999962,0 -90.07226980000003,29.94292369999996,0 -90.07222530000003,29.94294369999996,0 -90.07219010000004,29.942963099999965,0 -90.07214960000005,29.942988499999966,0 -90.07212370000005,29.943008599999967,0 -90.07209800000005,29.943030799999967,0 -90.07207410000005,29.943054799999967,0 -90.07205300000005,29.943080299999966,0 -90.07203360000004,29.94310739999997,0 -90.07201670000003,29.94313579999997,0 -90.07200250000004,29.943165299999972,0 -90.07199100000004,29.94319559999997,0 -90.07198210000004,29.94322659999997,0 -90.07175550000004,29.94317189999997,0 -90.07165520000005,29.94314759999997,0 </coordinates></LineString><TimeSpan><begin>2021-11-22T18:10:34.626Z</begin><end>2021-11-22T18:14:38.587Z</end></TimeSpan></Placemark><Placemark><name>The National WWII Museum</name><address>945 Magazine St, New Orleans, LA 70130</address><ExtendedData><Data name="Email"><value>syugen.zhou@gmail.com</value></Data><Data name="Category"><value>War museum</value></Data><Data name="Distance"><value>0</value></Data></ExtendedData><description> War museum from 2021-11-22T18:14:38.587Z to 2021-11-22T20:19:25.242Z. Distance 0m </description><Point><coordinates>-90.07053169999999,29.943071099999997,0</coordinates></Point><TimeSpan><begin>2021-11-22T18:14:38.587Z</begin><end>2021-11-22T20:19:25.242Z</end></TimeSpan></Placemark><Placemark><name>Driving</name><address></address><ExtendedData><Data name="Email"><value>syugen.zhou@gmail.com</value></Data><Data name="Category"><value>Driving</value></Data><Data name="Distance"><value>4725</value></Data></ExtendedData><description> Driving from 2021-11-22T20:19:25.242Z to 2021-11-22T20:27:32.238Z. Distance 4725m </description><LineString><altitudeMode>clampToGround</altitudeMode><extrude>1</extrude><tesselate>1</tesselate><coordinates>-90.0706788,29.9429165,0 -90.0703539,29.942844200000003,0 -90.0695585,29.942690800000005,0 -90.0674299,29.942206000000002,0 -90.06740209999998,29.9421143,0 -90.06750409999998,29.942109000000002,0 -90.06754179999999,29.942081299999998,0 -90.06756499999999,29.942043,0 -90.06810329999998,29.9402173,0 -90.068193,29.9399445,0 -90.06843709999998,29.939959099999996,0 -90.06856299999998,29.939987199999997,0 -90.06874989999999,29.940044099999994,0 -90.06895379999999,29.940126899999996,0 -90.06929029999998,29.940298699999996,0 -90.07002129999998,29.940709599999995,0 -90.07052519999998,29.94097459999999,0 -90.07266189999997,29.942007599999993,0 -90.07266949999998,29.94200889999999,0 -90.07268599999998,29.942007599999993,0 -90.07276459999999,29.94198339999999,0 -90.07297639999999,29.942094599999994,0 -90.07802019999998,29.944927299999993,0 -90.0791666,29.945508599999993,0 -90.07956259999999,29.94572119999999,0 -90.08133459999999,29.94680009999999,0 -90.08361769999999,29.948371499999993,0 -90.0838211,29.948532099999994,0 -90.0839105,29.948611499999995,0 -90.0840733,29.948773099999993,0 -90.0841429,29.948851899999994,0 -90.0842868,29.94904349999999,0 -90.0844682,29.949337599999993,0 -90.08527409999999,29.95085349999999,0 -90.0852628,29.950908799999993,0 -90.0852616,29.950965199999995,0 -90.08527369999999,29.951031999999998,0 -90.08541069999998,29.951419499999997,0 -90.08548869999998,29.951721499999994,0 -90.08553259999998,29.951980999999996,0 -90.08553929999998,29.952081899999996,0 -90.08553149999999,29.952269599999997,0 -90.08550549999998,29.952428499999996,0 -90.08546659999998,29.9525492,0 -90.08538169999999,29.9527428,0 -90.08530959999999,29.952858,0 -90.08523229999997,29.952961099999996,0 -90.08511309999999,29.953089699999992,0 -90.08506379999999,29.95313509999999,0 -90.08494479999999,29.953229399999994,0 -90.08484209999999,29.953299999999995,0 -90.0847158,29.9533721,0 -90.084527,29.9534528,0 -90.0843946,29.9534964,0 -90.08425709999999,29.9535309,0 -90.08347979999999,29.9536524,0 -90.0834383,29.953661699999998,0 -90.08340439999999,29.953673499999997,0 -90.08336379999999,29.953695399999997,0 -90.0833258,29.9537234,0 -90.0831133,29.9537572,0 -90.0829182,29.9538051,0 -90.08268329999999,29.9538853,0 -90.08256429999999,29.9539366,0 -90.08234209999999,29.954052699999995,0 -90.08212089999999,29.954202899999995,0 -90.08195839999999,29.95434209999999,0 -90.0818658,29.95443429999999,0 -90.0799971,29.95652249999999,0 -90.0799694,29.956562699999992,0 -90.07994749999999,29.956602799999988,0 -90.07466699999999,29.962521299999988,0 -90.07439099999999,29.96284589999999,0 -90.07191129999998,29.96561489999999,0 -90.07180999999999,29.96562329999999,0 -90.07180149999999,29.965626099999987,0 -90.0716497,29.965726699999987,0 -90.0715087,29.965801199999987,0 -90.0712926,29.96589589999999,0 -90.0711847,29.965952199999986,0 -90.0711145,29.965998699999986,0 -90.0709801,29.966104099999985,0 -90.0700537,29.967080399999983,0 -90.0700185,29.967105599999982,0 -90.0699909,29.967129599999982,0 -90.0698825,29.96725079999998,0 -90.06982649999999,29.96732169999998,0 -90.0697812,29.96738959999998,0 -90.06975329999999,29.96743989999998,0 -90.0697266,29.967499599999982,0 -90.06967329999999,29.967695699999986,0 -90.0696156,29.96781399999999,0 -90.0695984,29.967842399999988,0 -90.0694306,29.96806489999999,0 -90.0693592,29.96821089999999,0 -90.0688607,29.968797999999985,0 -90.0669794,29.97093059999999,0 -90.0671904,29.971072399999986,0 -90.06731769999999,29.971173999999984,0 -90.0673805,29.971102799999983,0 </coordinates></LineString><TimeSpan><begin>2021-11-22T20:19:25.242Z</begin><end>2021-11-22T20:27:32.238Z</end></TimeSpan></Placemark><Placemark><name>Cajun Seafood</name><address>1479 N Claiborne Ave, New Orleans, LA 70116</address><ExtendedData><Data name="Email"><value>syugen.zhou@gmail.com</value></Data><Data name="Category"><value>Cajun</value></Data><Data name="Distance"><value>0</value></Data></ExtendedData><description> Cajun from 2021-11-22T20:27:32.238Z to 2021-11-22T20:36:54.411Z. Distance 0m </description><Point><coordinates>-90.067697,29.9712008,0</coordinates></Point><TimeSpan><begin>2021-11-22T20:27:32.238Z</begin><end>2021-11-22T20:36:54.411Z</end></TimeSpan></Placemark><Placemark><name>Driving</name><address></address><ExtendedData><Data name="Email"><value>syugen.zhou@gmail.com</value></Data><Data name="Category"><value>Driving</value></Data><Data name="Distance"><value>3079</value></Data></ExtendedData><description> Driving from 2021-11-22T20:36:54.411Z to 2021-11-22T20:50:40.026Z. Distance 3079m </description><LineString><altitudeMode>clampToGround</altitudeMode><extrude>1</extrude><tesselate>1</tesselate><coordinates>-90.0674999,29.9709674,0 -90.0682208,29.970153,0 -90.068381,29.969963099999998,0 -90.0685249,29.969817799999998,0 -90.0687542,29.969573699999994,0 -90.0689829,29.96930829999999,0 -90.0698863,29.968292899999994,0 -90.0700622,29.968119599999998,0 -90.07061769999999,29.967492499999995,0 -90.07067419999998,29.967439499999998,0 -90.07075919999998,29.967348599999998,0 -90.07189719999998,29.966070899999995,0 -90.0719147,29.966047299999993,0 -90.0723044,29.96562879999999,0 -90.07277649999997,29.965070099999988,0 -90.07306769999998,29.96473529999999,0 -90.07325979999997,29.96452889999999,0 -90.07329279999998,29.964466699999992,0 -90.07338509999998,29.964358599999994,0 -90.07178039999998,29.963286999999994,0 -90.07149429999998,29.963077799999994,0 -90.07142279999998,29.963012399999993,0 -90.07137769999999,29.96296779999999,0 -90.07132569999997,29.962909699999994,0 -90.07127979999997,29.962848399999995,0 -90.07124209999996,29.962791899999992,0 -90.07122259999997,29.962758799999992,0 -90.07120549999996,29.962723399999987,0 -90.07119049999997,29.962688299999986,0 -90.07117849999997,29.962655199999986,0 -90.07113719999997,29.962511899999985,0 -90.07103789999996,29.962192299999984,0 -90.07097269999997,29.962020699999982,0 -90.07095879999997,29.961988999999985,0 -90.07089429999998,29.96180679999998,0 -90.07084559999998,29.961697799999982,0 -90.07080199999997,29.961618099999985,0 -90.07063619999997,29.961360499999987,0 -90.07025159999996,29.960886099999982,0 -90.07021509999997,29.960834899999984,0 -90.07017059999997,29.96078589999998,0 -90.07012129999997,29.960720299999977,0 -90.07008889999997,29.960644899999977,0 -90.07007059999997,29.96058059999998,0 -90.07005749999996,29.96052189999998,0 -90.07005169999996,29.960481199999975,0 -90.07004809999997,29.960439399999977,0 -90.07004749999997,29.960353999999974,0 -90.07005829999996,29.960258899999978,0 -90.07007109999996,29.96019309999998,0 -90.07008119999996,29.960156099999978,0 -90.07009909999996,29.960103799999978,0 -90.07015149999997,29.96001999999998,0 -90.07021409999997,29.95992809999998,0 -90.07021899999997,29.959919699999983,0 -90.07026539999997,29.959858999999984,0 -90.07032549999997,29.95978569999998,0 -90.07046669999998,29.95962349999998,0 -90.07046399999997,29.959577499999984,0 -90.07045669999998,29.959532499999984,0 -90.07045129999997,29.959513899999983,0 -90.07043929999998,29.95949149999998,0 -90.07042979999999,29.95947969999998,0 -90.07041849999999,29.95947019999998,0 -90.07040459999999,29.959462099999982,0 -90.07038669999999,29.959456199999984,0 -90.0703631,29.959451699999985,0 -90.07033319999998,29.959448399999985,0 -90.07030869999998,29.959448299999988,0 -90.07028129999999,29.95945089999999,0 -90.0702314,29.95946179999999,0 -90.07012509999998,29.95959769999999,0 -90.07004289999999,29.95968879999999,0 -90.06983869999999,29.95976189999999,0 -90.0698085,29.95976989999999,0 -90.06977529999999,29.95977509999999,0 -90.06970209999999,29.959781899999992,0 -90.06950309999999,29.959776499999993,0 -90.06941679999998,29.959692499999992,0 -90.06939739999999,29.959671199999992,0 -90.06938469999999,29.95964929999999,0 -90.06936059999998,29.959556699999993,0 -90.06946069999998,29.959453299999993,0 -90.06976609999998,29.959105199999993,0 -90.06992269999999,29.95893809999999,0 -90.07185229999999,29.956769199999993,0 -90.07197779999998,29.956632999999993,0 -90.07186119999999,29.956564099999994,0 -90.07092859999999,29.955932599999997,0 -90.07004459999999,29.955316099999994,0 -90.06824329999999,29.9540932,0 -90.06828859999999,29.9540494,0 -90.0688928,29.953372799999997,0 -90.0689953,29.9532629,0 -90.0698991,29.9538711,0 -90.07078340000001,29.954486799999998,0 -90.0715493,29.954987,0 -90.07169060000001,29.9550853,0 -90.07092860000002,29.955932600000004,0 -90.07070840000002,29.955779000000003,0 </coordinates></LineString><TimeSpan><begin>2021-11-22T20:36:54.411Z</begin><end>2021-11-22T20:50:40.026Z</end></TimeSpan></Placemark><Placemark><name>Crowne Plaza New Orleans French Quarter, an IHG Hotel</name><address>739 Canal St. @, Bourbon St, New Orleans, LA 70130</address><ExtendedData><Data name="Email"><value>syugen.zhou@gmail.com</value></Data><Data name="Category"><value>Hotel</value></Data><Data name="Distance"><value>0</value></Data></ExtendedData><description> Hotel from 2021-11-22T20:50:40.026Z to 2021-11-22T22:21:05.000Z. Distance 0m </description><Point><coordinates>-90.06955909999999,29.953835599999998,0</coordinates></Point><TimeSpan><begin>2021-11-22T20:50:40.026Z</begin><end>2021-11-22T22:21:05.000Z</end></TimeSpan></Placemark><Placemark><name>Walking</name><address></address><ExtendedData><Data name="Email"><value>syugen.zhou@gmail.com</value></Data><Data name="Category"><value>Walking</value></Data><Data name="Distance"><value>1053</value></Data></ExtendedData><description> Walking from 2021-11-22T22:21:05.000Z to 2021-11-22T22:33:56.372Z. Distance 1053m </description><LineString><altitudeMode>clampToGround</altitudeMode><extrude>1</extrude><tesselate>1</tesselate><coordinates>-90.06924769999999,29.9535413,0 -90.06980379999999,29.953914200000003,0 -90.06917549999999,29.954609700000006,0 -90.06909269999998,29.954710300000006,0 -90.068443,29.955433900000006,0 -90.0684189,29.955414900000008,0 -90.06673659999998,29.95427320000001,0 -90.06534389999999,29.95581480000001,0 -90.06536389999998,29.955828200000006,0 -90.06529749999999,29.955903500000005,0 -90.06528349999998,29.955894200000007,0 -90.06466449999998,29.956576900000005,0 -90.06463129999997,29.9566096,0 -90.06464179999999,29.956616600000004,0 -90.06459089999998,29.956675200000003,0 -90.06458549999998,29.9566715,0 -90.06426549999998,29.957024800000003,0 -90.06423409999998,29.957050900000002,0 -90.06417069999998,29.957007700000002,0 -90.06383199999998,29.957381200000004,0 -90.06382799999999,29.957424400000004,0 -90.06348039999997,29.957808500000006,0 -90.06331079999998,29.957697800000005,0 -90.06330259999999,29.957704100000004,0 -90.063296,29.957707100000004,0 -90.06329579999999,29.957707400000004,0 -90.06328789999999,29.957709500000004,0 -90.063279,29.9577099,0 -90.0632694,29.9577085,0 -90.0632616,29.9577055,0 -90.0632611,29.957704800000002,0 -90.0632558,29.957701800000002,0 -90.0632497,29.957696,0 -90.0632451,29.9576889,0 -90.0632432,29.957681700000002,0 -90.063244,29.9576714,0 -90.0632452,29.9576684,0 -90.0632452,29.957661800000004,0 -90.0631884,29.9576208,0 -90.0630184,29.957511800000002,0 -90.06300379999999,29.957523800000004,0 -90.0629944,29.957529000000008,0 -90.06297609999999,29.957535700000008,0 -90.0629597,29.95753830000001,0 -90.06294019999999,29.957537900000013,0 -90.0629295,29.957535800000013,0 -90.06291659999998,29.95753180000001,0 -90.06289839999998,29.957521900000014,0 -90.06288839999998,29.957512300000015,0 -90.06287979999998,29.957499900000016,0 -90.06287459999997,29.957488700000013,0 -90.06287149999997,29.957474400000017,0 -90.06287119999998,29.957462400000015,0 -90.06287349999997,29.95745010000001,0 -90.06287879999998,29.95743620000001,0 -90.06288729999997,29.957422600000008,0 -90.06225129999997,29.95700830000001,0 -90.06222789999997,29.95698960000001,0 -90.06227029999997,29.956937600000007,0 -90.06227219999997,29.956932800000008,0 -90.06227179999996,29.956928800000004,0 -90.06227079999996,29.956926700000007,0 -90.06226929999995,29.956925000000005,0 -90.06215419999995,29.956847,0 -90.06208919999996,29.9567967,0 -90.06207749999996,29.9567938,0 -90.06207469999995,29.9567938,0 -90.06206229999995,29.956796299999997,0 -90.06205599999994,29.9567986,0 -90.06199629999995,29.956830399999994,0 -90.06169019999994,29.956620599999994,0 -90.06094259999995,29.95746069999999,0 -90.06088979999994,29.957563999999994,0 -90.06084169999994,29.95767569999999,0 -90.06076939999996,29.957787999999987,0 -90.06095899999994,29.957917399999985,0 -90.06099169999995,29.95794539999999,0 -90.06111559999994,29.95807269999999,0 -90.06112739999995,29.958103899999987,0 -90.06112759999994,29.958114599999984,0 -90.06112469999994,29.95812899999999,0 -90.06112239999993,29.958163999999986,0 -90.06112289999993,29.958176499999986,0 -90.06112539999994,29.95818699999998,0 -90.06112859999993,29.958192899999982,0 -90.06114479999992,29.95820959999998,0 -90.06127579999992,29.95828659999998,0 -90.06123859999991,29.958332299999977,0 -90.06139639999992,29.958428399999978,0 -90.06140399999992,29.958420499999978,0 -90.06233179999992,29.959048699999975,0 -90.06239909999992,29.95909909999997,0 -90.06322339999991,29.959665899999973,0 -90.06329809999991,29.95971249999997,0 -90.06412489999992,29.96027309999997,0 -90.06418599999992,29.960215899999973,0 -90.06482799999992,29.959485899999972,0 -90.06561769999992,29.958615999999974,0 -90.06566389999992,29.95855959999997,0 -90.06631509999991,29.95783319999997,0 </coordinates></LineString><TimeSpan><begin>2021-11-22T22:21:05.000Z</begin><end>2021-11-22T22:33:56.372Z</end></TimeSpan></Placemark><Placemark><name>Moving</name><address></address><ExtendedData><Data name="Email"><value>syugen.zhou@gmail.com</value></Data><Data name="Category"><value>Moving</value></Data><Data name="Distance"><value>801</value></Data></ExtendedData><description> Moving from 2021-11-22T22:33:56.372Z to 2021-11-22T23:01:28.223Z. Distance 801m </description><LineString><altitudeMode>clampToGround</altitudeMode><extrude>1</extrude><tesselate>1</tesselate><coordinates>-90.0641049,29.9571293,0 -90.0641049,29.9571293,0 -90.0636865,29.9574868,0 -90.0628431,29.9575621,0 -90.0626684,29.9566622,0 -90.0617212,29.9565841,0 -90.0626378,29.9571008,0 -90.0612117,29.9583579,0 -90.0620314,29.9588077,0 -90.0614014,29.9584121,0 -90.0614014,29.9584121,0 </coordinates></LineString><TimeSpan><begin>2021-11-22T22:33:56.372Z</begin><end>2021-11-22T23:01:28.223Z</end></TimeSpan></Placemark><Placemark><name>Walking</name><address></address><ExtendedData><Data name="Email"><value>syugen.zhou@gmail.com</value></Data><Data name="Category"><value>Walking</value></Data><Data name="Distance"><value>1569</value></Data></ExtendedData><description> Walking from 2021-11-22T23:01:28.223Z to 2021-11-22T23:15:17.640Z. Distance 1569m </description><LineString><altitudeMode>clampToGround</altitudeMode><extrude>1</extrude><tesselate>1</tesselate><coordinates>-90.0614014,29.9584121,0 -90.0614014,29.9584121,0 -90.064172,29.9602716,0 -90.0651041,29.9592875,0 -90.0664936,29.9577106,0 -90.0685957,29.9553232,0 -90.067512,29.956567,0 -90.0685914,29.9553354,0 -90.06955909999999,29.953835599999998,0 -90.06955909999999,29.953835599999998,0 </coordinates></LineString><TimeSpan><begin>2021-11-22T23:01:28.223Z</begin><end>2021-11-22T23:15:17.640Z</end></TimeSpan></Placemark><Placemark><name>Crowne Plaza New Orleans French Quarter, an IHG Hotel</name><address>739 Canal St. @, Bourbon St, New Orleans, LA 70130</address><ExtendedData><Data name="Email"><value>syugen.zhou@gmail.com</value></Data><Data name="Category"><value>Hotel</value></Data><Data name="Distance"><value>0</value></Data></ExtendedData><description> Hotel from 2021-11-22T23:15:17.640Z to 2021-11-22T23:24:33.998Z. Distance 0m </description><Point><coordinates>-90.06955909999999,29.953835599999998,0</coordinates></Point><TimeSpan><begin>2021-11-22T23:15:17.640Z</begin><end>2021-11-22T23:24:33.998Z</end></TimeSpan></Placemark><Placemark><name>Driving</name><address></address><ExtendedData><Data name="Email"><value>syugen.zhou@gmail.com</value></Data><Data name="Category"><value>Driving</value></Data><Data name="Distance"><value>2853</value></Data></ExtendedData><description> Driving from 2021-11-22T23:24:33.998Z to 2021-11-22T23:28:28.000Z. Distance 2853m </description><LineString><altitudeMode>clampToGround</altitudeMode><extrude>1</extrude><tesselate>1</tesselate><coordinates>-90.06955909999999,29.953835599999998,0 -90.06955909999999,29.953835599999998,0 -90.0695793,29.9553274,0 -90.0746737,29.9571372,0 -90.0759787,29.9579997,0 -90.0819067,29.9620138,0 -90.085463,29.9665633,0 -90.0856619,29.9645898,0 -90.0867599,29.9661254,0 -90.08474149999999,29.9674248,0 -90.08474149999999,29.9674248,0 </coordinates></LineString><TimeSpan><begin>2021-11-22T23:24:33.998Z</begin><end>2021-11-22T23:28:28.000Z</end></TimeSpan></Placemark><Placemark><name>Whole Foods Market</name><address>300 N Broad St, New Orleans, LA 70119</address><ExtendedData><Data name="Email"><value>syugen.zhou@gmail.com</value></Data><Data name="Category"><value>Grocery store</value></Data><Data name="Distance"><value>0</value></Data></ExtendedData><description> Grocery store from 2021-11-22T23:28:28.000Z to 2021-11-22T23:47:39.999Z. Distance 0m </description><Point><coordinates>-90.08474149999999,29.9674248,0</coordinates></Point><TimeSpan><begin>2021-11-22T23:28:28.000Z</begin><end>2021-11-22T23:47:39.999Z</end></TimeSpan></Placemark><Placemark><name>Driving</name><address></address><ExtendedData><Data name="Email"><value>syugen.zhou@gmail.com</value></Data><Data name="Category"><value>Driving</value></Data><Data name="Distance"><value>2651</value></Data></ExtendedData><description> Driving from 2021-11-22T23:47:39.999Z to 2021-11-22T23:57:51.999Z. Distance 2651m </description><LineString><altitudeMode>clampToGround</altitudeMode><extrude>1</extrude><tesselate>1</tesselate><coordinates>-90.08474149999999,29.9674248,0 -90.08474149999999,29.9674248,0 -90.0852499,29.9669235,0 -90.0832921,29.9656973,0 -90.08471,29.9640849,0 -90.0796717,29.9602693,0 -90.0761296,29.9578534,0 -90.0737865,29.9562831,0 -90.0720142,29.9551149,0 -90.0702423,29.9557139,0 -90.0709633,29.955849,0 -90.0703033,29.9556899,0 -90.0702104,29.9556014,0 -90.0701215,29.9552292,0 -90.06955909999999,29.953835599999998,0 -90.06955909999999,29.953835599999998,0 </coordinates></LineString><TimeSpan><begin>2021-11-22T23:47:39.999Z</begin><end>2021-11-22T23:57:51.999Z</end></TimeSpan></Placemark><Placemark><name>Crowne Plaza New Orleans French Quarter, an IHG Hotel</name><address>739 Canal St. @, Bourbon St, New Orleans, LA 70130</address><ExtendedData><Data name="Email"><value>syugen.zhou@gmail.com</value></Data><Data name="Category"><value>Hotel</value></Data><Data name="Distance"><value>0</value></Data></ExtendedData><description> Hotel from 2021-11-22T23:57:51.999Z to 2021-11-23T15:36:02.237Z. Distance 0m </description><Point><coordinates>-90.06955909999999,29.953835599999998,0</coordinates></Point><TimeSpan><begin>2021-11-22T23:57:51.999Z</begin><end>2021-11-23T15:36:02.237Z</end></TimeSpan></Placemark></Document></kml>
