<?xml version="1.0" encoding="UTF-8"?><kml xmlns="http://www.opengis.net/kml/2.2" xmlns:gx="http://www.google.com/kml/ext/2.2"><Document><name> Location history from 2021-11-21 to 2021-11-21 </name><open>1</open><description></description><StyleMap id="multiTrack"><Pair><key>normal</key><styleUrl>#multiTrack_n</styleUrl></Pair><Pair><key>highlight</key><styleUrl>#multiTrack_h</styleUrl></Pair></StyleMap><Style id="multiTrack_n"><IconStyle><Icon><href>https://earth.google.com/images/kml-icons/track-directional/track-0.png</href></Icon></IconStyle><LineStyle><color>99ffac59</color><width>6</width></LineStyle></Style><Style id="multiTrack_h"><IconStyle><scale>1.2</scale><Icon><href>https://earth.google.com/images/kml-icons/track-directional/track-0.png</href></Icon></IconStyle><LineStyle><color>99ffac59</color><width>8</width></LineStyle></Style><Placemark><name>Home (1040 W Washington Ave)</name><address>1040 W Washington Ave, Sunnyvale, CA 94086</address><ExtendedData><Data name="Email"><value>syugen.zhou@gmail.com</value></Data><Data name="Category"><value>Building</value></Data><Data name="Distance"><value>0</value></Data></ExtendedData><description> Building from 2021-11-19T22:29:52.521Z to 2021-11-21T13:47:10.353Z. Distance 0m </description><Point><coordinates>-122.04754319999999,37.379098,0</coordinates></Point><TimeSpan><begin>2021-11-19T22:29:52.521Z</begin><end>2021-11-21T13:47:10.353Z</end></TimeSpan></Placemark><Placemark><name>Driving</name><address></address><ExtendedData><Data name="Email"><value>syugen.zhou@gmail.com</value></Data><Data name="Category"><value>Driving</value></Data><Data name="Distance"><value>41388</value></Data></ExtendedData><description> Driving from 2021-11-21T13:47:10.353Z to 2021-11-21T14:26:42.757Z. Distance 41388m </description><LineString><altitudeMode>clampToGround</altitudeMode><extrude>1</extrude><tesselate>1</tesselate><coordinates>-122.0461555,37.3788598,0 -122.0452794,37.3813993,0 -122.0451717,37.3815251,0 -122.044519,37.3831888,0 -122.0433587,37.386883600000004,0 -122.0440047,37.38699120000001,0 -122.04466060000001,37.387038100000005,0 -122.04517880000002,37.38701050000001,0 -122.04628500000001,37.38675580000001,0 -122.04764680000001,37.38636920000001,0 -122.04774280000001,37.38636660000001,0 -122.04802629999999,37.38626650000001,0 -122.0490847,37.38598360000001,0 -122.04997859999999,37.38586800000001,0 -122.0507928,37.3858764,0 -122.0514499,37.38595500000001,0 -122.0518566,37.386039800000006,0 -122.0573072,37.3877949,0 -122.05853560000001,37.3881334,0 -122.06188590000002,37.389274900000004,0 -122.06767500000001,37.3915551,0 -122.06771060000001,37.3916157,0 -122.06780970000001,37.3916893,0 -122.06785440000002,37.391748400000004,0 -122.06788910000002,37.39186370000001,0 -122.06791270000001,37.3921373,0 -122.0678694,37.392433200000006,0 -122.06783539999999,37.39329710000001,0 -122.0679325,37.3944078,0 -122.06799299999999,37.39447440000001,0 -122.06808819999998,37.394759500000006,0 -122.06807739999998,37.39483280000001,0 -122.06809489999999,37.39489840000001,0 -122.0681695,37.39504730000001,0 -122.0687373,37.39674980000001,0 -122.0688779,37.39686750000001,0 -122.06968660000001,37.39992500000001,0 -122.0697806,37.40055390000001,0 -122.06968090000001,37.40716710000001,0 -122.06972350000001,37.40771260000001,0 -122.0698395,37.408086300000015,0 -122.0699473,37.408328400000016,0 -122.07025240000002,37.40878760000001,0 -122.07068420000002,37.409218400000015,0 -122.07115420000002,37.409540700000015,0 -122.07169530000002,37.40979620000001,0 -122.07348340000001,37.410397800000005,0 -122.07355090000001,37.41040660000001,0 -122.0737797,37.41038000000001,0 -122.0809362,37.413221400000005,0 -122.081983,37.413733300000004,0 -122.08318529999998,37.4144361,0 -122.08431609999998,37.415188,0 -122.09678189999998,37.4242428,0 -122.09841019999998,37.425579,0 -122.10427329999999,37.431154199999995,0 -122.10444299999997,37.4312918,0 -122.10614679999998,37.4329146,0 -122.10628829999999,37.433082199999994,0 -122.12478689999999,37.4507099,0 -122.12622019999999,37.451889099999995,0 -122.1275958,37.4527734,0 -122.14568460000001,37.4633656,0 -122.14594930000001,37.463542600000004,0 -122.1777775,37.4821582,0 -122.1789605,37.4827397,0 -122.18120390000001,37.4836363,0 -122.1834774,37.4843715,0 -122.18544050000001,37.48487850000001,0 -122.18789090000001,37.4853669,0 -122.20691490000003,37.487746900000005,0 -122.20894930000001,37.48807360000001,0 -122.21108010000003,37.48853210000001,0 -122.21302040000003,37.48906800000001,0 -122.21434150000003,37.48950060000001,0 -122.21592800000003,37.49009640000001,0 -122.22423330000005,37.493727000000014,0 -122.22572100000006,37.49427690000002,0 -122.22692990000006,37.49467270000002,0 -122.23321840000006,37.496462000000015,0 -122.23577750000004,37.497262100000015,0 -122.23682970000004,37.49768810000001,0 -122.23792860000005,37.49827010000001,0 -122.23871710000004,37.49878440000001,0 -122.23940460000006,37.49931610000001,0 -122.27421680000003,37.530061900000014,0 -122.27570370000005,37.531525500000015,0 -122.29611240000004,37.553553600000015,0 -122.29721580000005,37.55466430000001,0 -122.30198820000004,37.55990270000001,0 -122.30306200000005,37.56097740000001,0 -122.32924780000006,37.58503800000001,0 -122.32958340000005,37.58531350000001,0 -122.33033000000006,37.585806900000016,0 -122.33102680000007,37.58615500000001,0 -122.33163810000006,37.58639440000002,0 -122.33201090000007,37.58651310000002,0 -122.33266260000005,37.586673400000016,0 -122.33345840000005,37.58678910000002,0 -122.33422790000006,37.58684310000002,0 -122.35326500000006,37.587336000000015,0 -122.35481840000006,37.58751570000002,0 -122.35577470000007,37.58770310000001,0 -122.35717520000007,37.588096100000016,0 -122.35806900000007,37.588423900000016,0 -122.35903670000006,37.58886050000002,0 -122.35997760000006,37.589361300000014,0 -122.36564050000007,37.59301290000002,0 -122.36623190000006,37.59343980000001,0 -122.38590100000008,37.606284500000015,0 -122.38591360000008,37.60638980000002,0 -122.3859251000001,37.60641630000002,0 -122.3869595000001,37.607204000000024,0 -122.39053810000009,37.60959770000002,0 -122.39399380000009,37.611766100000025,0 -122.39512700000009,37.612697000000026,0 -122.39525240000009,37.61295260000003,0 -122.39528960000008,37.61316530000003,0 -122.39527660000009,37.613306900000026,0 -122.39523060000008,37.61344150000003,0 -122.39516540000008,37.61355460000003,0 -122.39500450000007,37.61372590000003,0 -122.39483220000007,37.61383420000003,0 -122.39470950000006,37.61389080000003,0 -122.39397200000005,37.614138000000025,0 -122.39391680000004,37.61414810000003,0 -122.39277160000005,37.61453280000003,0 -122.39264580000005,37.61460100000003,0 -122.39204990000006,37.614762400000025,0 -122.39159790000005,37.61484660000002,0 -122.39113620000006,37.61488560000002,0 -122.39011320000006,37.615083500000026,0 -122.39003100000006,37.61513650000003,0 -122.38864030000006,37.615482400000026,0 -122.38844360000006,37.61551190000003,0 -122.38834710000005,37.615511800000036,0 -122.38782670000003,37.61542870000003,0 -122.38745890000003,37.61529590000003,0 -122.38714360000003,37.61530410000003,0 -122.38700200000002,37.61524910000003,0 -122.38690810000003,37.615232100000036,0 -122.38646830000005,37.61505900000003,0 -122.38619500000004,37.61497920000003,0 -122.38593180000005,37.61495810000003,0 -122.38552470000005,37.61502190000003,0 -122.38514180000006,37.615205300000035,0 -122.38487230000004,37.615443600000035,0 -122.38434920000003,37.61629880000003,0 -122.38432890000004,37.61643000000003,0 -122.38433730000004,37.61654520000003,0 -122.38446950000005,37.61694810000003,0 -122.38456040000005,37.61712870000003,0 -122.38478650000006,37.61728980000003,0 -122.38580170000004,37.617716900000026,0 -122.38589420000004,37.61773710000003,0 -122.38629910000004,37.617751500000026,0 </coordinates></LineString><TimeSpan><begin>2021-11-21T13:47:10.353Z</begin><end>2021-11-21T14:26:42.757Z</end></TimeSpan></Placemark><Placemark><name>San Francisco International Airport</name><address>San Francisco, CA 94128</address><ExtendedData><Data name="Email"><value>syugen.zhou@gmail.com</value></Data><Data name="Category"><value>Airport</value></Data><Data name="Distance"><value>0</value></Data></ExtendedData><description> Airport from 2021-11-21T14:26:42.757Z to 2021-11-21T15:29:27.941Z. Distance 0m </description><Point><coordinates>-122.3789554,37.6213129,0</coordinates></Point><TimeSpan><begin>2021-11-21T14:26:42.757Z</begin><end>2021-11-21T15:29:27.941Z</end></TimeSpan></Placemark><Placemark><name>Flying</name><address></address><ExtendedData><Data name="Email"><value>syugen.zhou@gmail.com</value></Data><Data name="Category"><value>Flying</value></Data><Data name="Distance"><value>2721583</value></Data></ExtendedData><description> Flying from 2021-11-21T15:29:27.941Z to 2021-11-21T19:21:24.000Z. Distance 2721583m </description><LineString><altitudeMode>clampToGround</altitudeMode><extrude>1</extrude><tesselate>1</tesselate><coordinates>-122.38722170185468,37.618215763430086,0 -122.38722170185468,37.618215763430086,0 -122.3879524,37.6182572,0 -122.3872617,37.6181962,0 -122.4312277,37.6349786,0 -102.3704187,33.7375402,0 -94.9671237,29.896882,0 -95.2473285,29.9715154,0 -95.3362962,29.9724031,0 -95.3336708,29.988177,0 -95.33780647592938,29.98769705354766,0 -95.33780647592938,29.98769705354766,0 </coordinates></LineString><TimeSpan><begin>2021-11-21T15:29:27.941Z</begin><end>2021-11-21T19:21:24.000Z</end></TimeSpan></Placemark><Placemark><name>George Bush Intercontinental Airport</name><address>2800 N Terminal Rd, Houston, TX 77032</address><ExtendedData><Data name="Email"><value>syugen.zhou@gmail.com</value></Data><Data name="Category"><value>International airport</value></Data><Data name="Distance"><value>0</value></Data></ExtendedData><description> International airport from 2021-11-21T19:21:24.000Z to 2021-11-21T21:18:37.000Z. Distance 0m </description><Point><coordinates>-95.3367827,29.9902199,0</coordinates></Point><TimeSpan><begin>2021-11-21T19:21:24.000Z</begin><end>2021-11-21T21:18:37.000Z</end></TimeSpan></Placemark><Placemark><name>Flying</name><address></address><ExtendedData><Data name="Email"><value>syugen.zhou@gmail.com</value></Data><Data name="Category"><value>Flying</value></Data><Data name="Distance"><value>500874</value></Data></ExtendedData><description> Flying from 2021-11-21T21:18:37.344Z to 2021-11-21T22:20:54.686Z. Distance 500874m </description><LineString><altitudeMode>clampToGround</altitudeMode><extrude>1</extrude><tesselate>1</tesselate><coordinates>-95.33780647592938,29.98769705354766,0 -95.3325358,29.9851417,0 -95.332307,29.9733736,0 -95.3424111,29.9840165,0 -90.2317427,29.9807243,0 -90.2647181,29.9805896,0 -90.2538625,29.9944525,0 -90.2551134,29.996115800000002,0 -90.2551134,29.996115800000002,0 </coordinates></LineString><TimeSpan><begin>2021-11-21T21:18:37.344Z</begin><end>2021-11-21T22:20:54.686Z</end></TimeSpan></Placemark><Placemark><name>Louis Armstrong New Orleans International Airport</name><address>1 Terminal Dr, Kenner, LA 70062</address><ExtendedData><Data name="Email"><value>syugen.zhou@gmail.com</value></Data><Data name="Category"><value>International airport</value></Data><Data name="Distance"><value>0</value></Data></ExtendedData><description> International airport from 2021-11-21T22:20:54.686Z to 2021-11-21T23:22:26.344Z. Distance 0m </description><Point><coordinates>-90.2592299,29.9910905,0</coordinates></Point><TimeSpan><begin>2021-11-21T22:20:54.686Z</begin><end>2021-11-21T23:22:26.344Z</end></TimeSpan></Placemark><Placemark><name>Driving</name><address></address><ExtendedData><Data name="Email"><value>syugen.zhou@gmail.com</value></Data><Data name="Category"><value>Driving</value></Data><Data name="Distance"><value>34287</value></Data></ExtendedData><description> Driving from 2021-11-21T23:22:26.344Z to 2021-11-22T00:39:41.253Z. Distance 34287m </description><LineString><altitudeMode>clampToGround</altitudeMode><extrude>1</extrude><tesselate>1</tesselate><coordinates>-90.2618409,29.984618299999998,0 -90.2620095,29.984655599999996,0 -90.2620644,29.9846567,0 -90.2621479,29.984637499999998,0 -90.2623635,29.984531699999998,0 -90.25984580000001,29.9839095,0 -90.2597801,29.983704499999998,0 -90.25972850000001,29.983633799999996,0 -90.2596511,29.983562499999994,0 -90.2593343,29.983319899999994,0 -90.258862,29.983001699999992,0 -90.2585208,29.982852199999993,0 -90.2568339,29.982407399999992,0 -90.2516864,29.981371399999993,0 -90.2514314,29.98137299999999,0 -90.2510288,29.98149699999999,0 -90.250883,29.98160719999999,0 -90.250725,29.98178059999999,0 -90.2505678,29.982111499999988,0 -90.24933309999999,29.985878199999988,0 -90.2490546,29.986445699999987,0 -90.2483123,29.987590099999984,0 -90.2480992,29.987981799999982,0 -90.24793069999998,29.988426599999983,0 -90.24782009999998,29.988875899999982,0 -90.24777469999998,29.989240599999984,0 -90.24776649999998,29.98946419999998,0 -90.24783039999998,29.99060999999998,0 -90.24778149999997,29.991112699999977,0 -90.24772609999997,29.99133489999998,0 -90.24662679999997,29.99445499999998,0 -90.24545899999997,29.998100499999982,0 -90.24511629999996,29.99938979999998,0 -90.24384529999996,30.003518099999983,0 -90.24374919999997,30.003735099999982,0 -90.24338709999996,30.00489219999998,0 -90.24314829999997,30.006350799999982,0 -90.24316139999996,30.00642089999998,0 -90.24316379999996,30.006567399999984,0 -90.24319199999998,30.006698799999985,0 -90.24320609999998,30.006847699999984,0 -90.24569859999997,30.007021599999987,0 -90.24733109999998,30.007026899999985,0 -90.25022559999996,30.006849199999987,0 -90.26533529999996,30.00567889999999,0 -90.26570559999998,30.00562609999999,0 -90.26621919999998,30.00560329999999,0 -90.26621939999997,30.005459099999992,0 -90.26617709999998,30.00512339999999,0 -90.26595649999997,30.00436419999999,0 -90.26575859999998,30.00249489999999,0 -90.26569129999997,30.002235499999994,0 -90.26560129999997,30.002035099999997,0 -90.26546719999997,30.0018334,0 -90.26528689999996,30.001625699999995,0 -90.26506639999997,30.001445099999998,0 -90.26494009999998,30.001367799999997,0 -90.26463099999998,30.0012209,0 -90.26445869999998,30.0011664,0 -90.26300149999997,30.000828799999997,0 -90.26252009999997,30.000782599999997,0 -90.26152339999997,30.000780499999998,0 -90.26145229999997,30.000771399999998,0 -90.26136919999998,30.0007399,0 -90.26126739999997,30.0006822,0 -90.26120919999998,30.000598600000004,0 -90.26114329999999,30.0005403,0 -90.26098319999998,30.000467200000003,0 -90.26090689999998,30.0004539,0 -90.2608291,30.000452199999998,0 -90.26075219999998,30.0004622,0 -90.26067839999999,30.000483400000004,0 -90.26060989999998,30.0005154,0 -90.26051999999999,30.0005845,0 -90.26045579999999,30.0006644,0 -90.26044689999999,30.000683500000004,0 -90.26022689999998,30.000758600000005,0 -90.26014669999999,30.000770500000005,0 -90.25978849999998,30.000767200000006,0 -90.2595954,30.000743000000003,0 -90.25950979999999,30.0007227,0 -90.25930679999998,30.000651499999996,0 -90.25920429999998,30.000603599999998,0 -90.25900429999999,30.000473899999996,0 -90.25886049999998,30.0003365,0 -90.25877519999999,30.0002293,0 -90.25869279999999,30.000091499999996,0 -90.25861809999999,29.999899799999994,0 -90.25858639999998,29.999688499999994,0 -90.25860899999998,29.999230299999994,0 -90.25859049999998,29.999068099999995,0 -90.25853549999998,29.998872399999996,0 -90.25846289999998,29.998719799999993,0 -90.25833029999998,29.998525899999994,0 -90.25823089999997,29.998419499999994,0 -90.25805379999997,29.9982755,0 -90.25790849999998,29.998187999999995,0 -90.25779279999999,29.998132099999996,0 -90.2575196,29.998036599999992,0 -90.25720019999999,29.997998399999993,0 -90.25277099999998,29.997758599999994,0 -90.25246539999999,29.997691599999996,0 -90.25222469999999,29.997599499999996,0 -90.25214639999999,29.997558999999995,0 -90.25205639999999,29.9974751,0 -90.25202259999999,29.997415399999998,0 -90.25200499999998,29.997348599999995,0 -90.25200269999999,29.997279799999998,0 -90.2520132,29.997230199999994,0 -90.25204359999998,29.997168499999997,0 -90.25208569999998,29.9971098,0 -90.25214639999999,29.997063200000003,0 -90.25227729999999,29.997000500000002,0 -90.2523696,29.996987400000002,0 -90.25254829999999,29.9969884,0 -90.25394419999999,29.9970805,0 -90.25412969999998,29.9970781,0 -90.25420339999998,29.9970672,0 -90.25427979999998,29.997044000000002,0 -90.25437209999998,29.9970015,0 -90.25452629999997,29.9967425,0 -90.25458239999998,29.996601899999998,0 -90.25460339999997,29.996517899999997,0 -90.25459169999996,29.9963347,0 -90.25456949999996,29.996249699999996,0 -90.25448659999996,29.996089899999998,0 -90.25435919999997,29.9959462,0 -90.25421319999995,29.9958561,0 -90.25413139999996,29.995819700000002,0 -90.25406359999995,29.9957999,0 -90.25395649999996,29.995782300000005,0 -90.25327559999995,29.99574400000001,0 -90.25173359999995,29.99583650000001,0 -90.25157589999996,29.99586800000001,0 -90.25144099999996,29.99593310000001,0 -90.25136379999996,29.99600110000001,0 -90.25129259999997,29.99611220000001,0 -90.25126899999997,29.996185000000008,0 -90.25125499999996,29.99627100000001,0 -90.25124909999995,29.99678300000001,0 -90.25129949999996,29.99702580000001,0 -90.25138409999995,29.997226100000013,0 -90.25162949999996,29.997522300000014,0 -90.25170539999996,29.997590900000016,0 -90.25183189999997,29.99766830000001,0 -90.25205719999997,29.997764800000013,0 -90.25221119999996,29.997805000000014,0 -90.25237819999997,29.99782640000001,0 -90.25721229999998,29.998089700000016,0 -90.25747599999997,29.998131200000014,0 -90.25766399999998,29.998186200000017,0 -90.25784169999997,29.998257300000013,0 -90.25798269999997,29.998343000000016,0 -90.25815469999998,29.998486300000017,0 -90.25827279999997,29.998627100000018,0 -90.25834749999996,29.998748400000018,0 -90.25839969999996,29.99886110000002,0 -90.25844229999996,29.99899430000002,0 -90.25846189999996,29.999101600000024,0 -90.25846849999996,29.999282300000022,0 -90.25844279999997,29.99963990000002,0 -90.25845179999996,29.999776900000022,0 -90.25848059999997,29.99992310000002,0 -90.25858439999996,30.000179300000024,0 -90.25869369999997,30.000346300000025,0 -90.25881479999997,30.000479700000025,0 -90.25903739999997,30.000657700000023,0 -90.25921779999997,30.000759400000025,0 -90.25937079999997,30.000828000000027,0 -90.25950339999997,30.00086320000003,0 -90.25972749999997,30.000889600000026,0 -90.26024769999998,30.000900400000024,0 -90.26032029999999,30.000915700000025,0 -90.26037709999999,30.000942100000024,0 -90.26046319999998,30.001004500000025,0 -90.26050319999999,30.001062900000022,0 -90.26055399999998,30.001114400000024,0 -90.2606141,30.001157300000024,0 -90.26068169999999,30.001190600000026,0 -90.26075469999998,30.001212500000026,0 -90.2608308,30.001223800000027,0 -90.26090789999999,30.001223500000027,0 -90.26098359999999,30.001211600000026,0 -90.26105549999998,30.00118850000003,0 -90.26112149999997,30.00115500000003,0 -90.26117969999997,30.00111200000003,0 -90.26124169999997,30.001039900000027,0 -90.26134609999997,30.00098800000003,0 -90.26152369999997,30.00092690000003,0 -90.26162339999996,30.000918100000032,0 -90.26266199999996,30.000931000000033,0 -90.26285369999997,30.00094910000003,0 -90.26312679999997,30.000996700000034,0 -90.26442949999996,30.001296500000034,0 -90.26464419999996,30.001375200000037,0 -90.26474519999998,30.001423200000033,0 -90.26505239999997,30.001604500000038,0 -90.26516499999997,30.001697800000038,0 -90.26540389999998,30.001963400000037,0 -90.26550179999998,30.00212040000003,0 -90.26558869999998,30.002314200000033,0 -90.26564169999999,30.002496400000037,0 -90.26573369999998,30.003382100000035,0 -90.26569789999998,30.004114500000032,0 -90.26571129999999,30.004297600000037,0 -90.26579009999999,30.004577900000037,0 -90.26588149999998,30.005396400000034,0 -90.26586999999999,30.005479200000035,0 -90.2658793,30.00561850000004,0 -90.26587189999998,30.005782500000038,0 -90.26588779999999,30.005922100000042,0 -90.26580609999999,30.00624420000004,0 -90.26572439999998,30.00640250000004,0 -90.26511099999999,30.00719470000004,0 -90.26492509999999,30.007364300000038,0 -90.26484749999999,30.007419600000038,0 -90.2647112,30.00749260000004,0 -90.2633363,30.00758470000004,0 -90.2618028,30.00780920000004,0 -90.2616591,30.007886500000037,0 -90.24385050000001,30.009269700000036,0 -90.2430504,30.00930340000004,0 -90.2419208,30.009309000000037,0 -90.21425430000001,30.007528400000037,0 -90.2135583,30.007427400000036,0 -90.21310810000001,30.007340400000036,0 -90.21243700000001,30.007165800000035,0 -90.2119007,30.006990900000034,0 -90.21124859999999,30.006727700000038,0 -90.2109147,30.00657310000004,0 -90.21023029999999,30.006198700000038,0 -90.2040773,30.00235150000004,0 -90.2032019,30.00185830000004,0 -90.2021261,30.001328700000045,0 -90.2005827,30.000700200000043,0 -90.19952319999999,30.00036380000005,0 -90.1979939,29.99997660000005,0 -90.1965592,29.99972580000005,0 -90.1954798,29.99960330000005,0 -90.16393939999999,29.997695200000052,0 -90.161925,29.997612600000053,0 -90.16173799999999,29.997616100000055,0 -90.12559329999999,29.996063000000053,0 -90.12534709999998,29.995991700000054,0 -90.12447589999998,29.99588780000005,0 -90.12191459999998,29.99549710000005,0 -90.12140999999998,29.995387300000054,0 -90.12083979999998,29.99523170000005,0 -90.12046139999998,29.99510810000005,0 -90.11989239999998,29.994888600000046,0 -90.11944089999999,29.994686200000043,0 -90.11890119999998,29.99440180000004,0 -90.11850529999998,29.99416410000004,0 -90.11810409999997,29.993890000000043,0 -90.11764049999998,29.993495700000043,0 -90.11732189999998,29.99315690000004,0 -90.11710819999998,29.99288170000004,0 -90.11687389999997,29.992520400000036,0 -90.11676259999997,29.992315700000034,0 -90.11653749999998,29.991783900000033,0 -90.11641639999998,29.991356700000033,0 -90.11634679999996,29.990922500000032,0 -90.11632669999996,29.99048780000003,0 -90.11637919999997,29.98907440000003,0 -90.11639989999998,29.988962100000034,0 -90.11640779999996,29.988722800000037,0 -90.11639539999996,29.988514500000033,0 -90.11625449999997,29.987636300000034,0 -90.11606959999997,29.986796900000034,0 -90.11294609999997,29.978699500000033,0 -90.11287059999997,29.978562800000034,0 -90.11169809999996,29.975718800000035,0 -90.11060449999997,29.972476700000037,0 -90.10894189999998,29.969310700000037,0 -90.10871009999997,29.968957900000035,0 -90.10834869999998,29.96850280000003,0 -90.10562399999996,29.965898200000034,0 -90.10478409999996,29.965207800000037,0 -90.09366589999996,29.957281100000035,0 -90.09365529999997,29.957153500000036,0 -90.09364989999996,29.957143700000035,0 -90.09331739999996,29.95683940000004,0 -90.09241549999996,29.955909900000037,0 -90.09213459999997,29.955685700000043,0 -90.09191189999997,29.95553830000004,0 -90.09148809999998,29.95531730000004,0 -90.09124219999998,29.955217300000037,0 -90.09079589999997,29.95508350000004,0 -90.08667969999998,29.954263600000036,0 -90.08662839999997,29.954293900000035,0 -90.08660319999997,29.954301000000036,0 -90.08657399999997,29.954303100000036,0 -90.08396709999997,29.953889600000036,0 -90.08367769999997,29.953818600000034,0 -90.08259549999997,29.953336700000033,0 -90.08188349999996,29.953080100000033,0 -90.08178239999995,29.953064400000034,0 -90.08171879999996,29.953064100000034,0 -90.07841849999997,29.951693500000037,0 -90.07779079999996,29.95140920000004,0 -90.07500579999997,29.95047890000004,0 -90.06939979999997,29.949210500000042,0 -90.06857089999997,29.951901800000037,0 -90.06834709999997,29.952419000000038,0 -90.06811239999998,29.952668500000037,0 -90.07169059999997,29.955085300000036,0 -90.07092859999997,29.95593260000004,0 -90.07034309999997,29.955524300000043,0 </coordinates></LineString><TimeSpan><begin>2021-11-21T23:22:26.344Z</begin><end>2021-11-22T00:39:41.253Z</end></TimeSpan></Placemark><Placemark><name>Crowne Plaza New Orleans French Quarter, an IHG Hotel</name><address>739 Canal St. @, Bourbon St, New Orleans, LA 70130</address><ExtendedData><Data name="Email"><value>syugen.zhou@gmail.com</value></Data><Data name="Category"><value>Hotel</value></Data><Data name="Distance"><value>0</value></Data></ExtendedData><description> Hotel from 2021-11-22T00:39:41.253Z to 2021-11-22T15:19:10.000Z. Distance 0m </description><Point><coordinates>-90.06955909999999,29.953835599999998,0</coordinates></Point><TimeSpan><begin>2021-11-22T00:39:41.253Z</begin><end>2021-11-22T15:19:10.000Z</end></TimeSpan></Placemark></Document></kml>
