<?xml version="1.0" encoding="UTF-8"?><kml xmlns="http://www.opengis.net/kml/2.2" xmlns:gx="http://www.google.com/kml/ext/2.2"><Document><name> Location history from 2021-11-29 to 2021-11-29 </name><open>1</open><description></description><StyleMap id="multiTrack"><Pair><key>normal</key><styleUrl>#multiTrack_n</styleUrl></Pair><Pair><key>highlight</key><styleUrl>#multiTrack_h</styleUrl></Pair></StyleMap><Style id="multiTrack_n"><IconStyle><Icon><href>https://earth.google.com/images/kml-icons/track-directional/track-0.png</href></Icon></IconStyle><LineStyle><color>99ffac59</color><width>6</width></LineStyle></Style><Style id="multiTrack_h"><IconStyle><scale>1.2</scale><Icon><href>https://earth.google.com/images/kml-icons/track-directional/track-0.png</href></Icon></IconStyle><LineStyle><color>99ffac59</color><width>8</width></LineStyle></Style><Placemark><name>Holiday Inn Express &amp; Suites Jersey City - Holland Tunnel, an IHG Hotel</name><address>180 14th St, Jersey City, NJ 07310</address><ExtendedData><Data name="Email"><value>syugen.zhou@gmail.com</value></Data><Data name="Category"><value>Hotel</value></Data><Data name="Distance"><value>0</value></Data></ExtendedData><description> Hotel from 2021-11-28T21:59:02.999Z to 2021-11-29T14:34:46.002Z. Distance 0m </description><Point><coordinates>-74.04046799999999,40.7318455,0</coordinates></Point><TimeSpan><begin>2021-11-28T21:59:02.999Z</begin><end>2021-11-29T14:34:46.002Z</end></TimeSpan></Placemark><Placemark><name>Walking</name><address></address><ExtendedData><Data name="Email"><value>syugen.zhou@gmail.com</value></Data><Data name="Category"><value>Walking</value></Data><Data name="Distance"><value>2045</value></Data></ExtendedData><description> Walking from 2021-11-29T14:34:46.002Z to 2021-11-29T14:54:01.036Z. Distance 2045m </description><LineString><altitudeMode>clampToGround</altitudeMode><extrude>1</extrude><tesselate>1</tesselate><coordinates>-74.0394905,40.731619599999995,0 -74.039456,40.73161639999999,0 -74.0393618,40.73160759999999,0 -74.039148,40.73158769999999,0 -74.0379765,40.73148919999999,0 -74.0375928,40.73144919999999,0 -74.037245,40.731396499999995,0 -74.03709020000001,40.73137719999999,0 -74.0369915,40.731366699999995,0 -74.0369139,40.7313596,0 -74.03630079999999,40.731300499999996,0 -74.03564209999999,40.7312392,0 -74.0351529,40.73118369999999,0 -74.0346857,40.7311285,0 -74.034655,40.731111999999996,0 -74.0345845,40.731085699999994,0 -74.0345045,40.73106289999999,0 -74.0345045,40.73106289999999,0 -74.0346203,40.730312399999995,0 -74.0346363,40.730242499999996,0 -74.0346754,40.730059499999996,0 -74.0347123,40.7298748,0 -74.03471320000001,40.7298709,0 -74.03478080000001,40.729528900000005,0 -74.0347946,40.7294597,0 -74.0348139,40.7293891,0 -74.0348336,40.7293308,0 -74.03485,40.729259899999995,0 -74.034859,40.72918799999999,0 -74.0348732,40.729089099999996,0 -74.0348845,40.72895869999999,0 -74.03488349999999,40.72894889999999,0 -74.0348845,40.72885779999999,0 -74.034865,40.72876279999999,0 -74.03484710000001,40.72869179999999,0 -74.0347778,40.72843469999999,0 -74.03474630000001,40.728310499999985,0 -74.03472890000002,40.72823769999999,0 -74.03469270000001,40.72806939999998,0 -74.03465790000001,40.72790099999998,0 -74.03463880000001,40.72775079999998,0 -74.03464060000002,40.72762919999998,0 -74.03464990000002,40.72750899999998,0 -74.03468120000002,40.72735939999998,0 -74.03471820000003,40.727272699999986,0 -74.03501130000002,40.726780199999986,0 -74.03512020000002,40.72661389999998,0 -74.03512020000002,40.72661389999998,0 -74.03516370000001,40.726628099999985,0 -74.03521860000002,40.72664449999998,0 -74.03528730000002,40.72666879999998,0 -74.03532930000003,40.72668559999998,0 -74.03534090000002,40.726692599999986,0 -74.03537850000004,40.72671519999998,0 -74.03545130000003,40.726739399999985,0 -74.03549710000003,40.72674409999998,0 -74.03554580000002,40.72675069999998,0 -74.03555930000003,40.72675399999998,0 -74.03562450000003,40.72677009999998,0 -74.03570120000003,40.726787099999974,0 -74.03578910000003,40.726796799999974,0 -74.03593610000003,40.72680849999998,0 -74.03602960000002,40.72681649999998,0 -74.03621740000003,40.72683339999998,0 -74.03628430000002,40.72683779999998,0 -74.03634960000002,40.726843199999976,0 -74.03635510000001,40.72684369999998,0 -74.03642600000002,40.72684959999998,0 -74.03646400000001,40.72685379999998,0 -74.03650460000001,40.72685709999998,0 -74.03672990000003,40.72687569999998,0 -74.03720670000001,40.72692539999998,0 -74.03742920000002,40.72694139999998,0 -74.03746930000003,40.72694429999998,0 -74.03757180000002,40.726951599999985,0 -74.03763730000003,40.726958899999985,0 -74.03768930000003,40.726976399999984,0 -74.03772150000002,40.72698219999999,0 -74.03817070000002,40.72702569999999,0 -74.03817070000002,40.72702569999999,0 -74.03814500000003,40.727204499999985,0 -74.03811930000003,40.727383299999985,0 -74.03809270000004,40.72756889999999,0 -74.03817380000004,40.72757709999999,0 -74.03819640000003,40.72757929999999,0 -74.03841800000004,40.727600999999986,0 -74.03866710000003,40.72762599999998,0 -74.03872520000003,40.72763209999999,0 -74.03873470000003,40.72763289999999,0 -74.03880210000003,40.72764069999998,0 -74.03904060000004,40.727657599999986,0 -74.03927980000003,40.72765939999998,0 -74.03939490000003,40.72766019999998,0 -74.03951710000003,40.727657999999984,0 -74.03953770000003,40.727657599999986,0 -74.03956590000003,40.72765789999999,0 </coordinates></LineString><TimeSpan><begin>2021-11-29T14:34:46.002Z</begin><end>2021-11-29T14:54:01.036Z</end></TimeSpan></Placemark><Placemark><name>Newport Centre</name><address>30 Mall Dr W, Jersey City, NJ 07310</address><ExtendedData><Data name="Email"><value>syugen.zhou@gmail.com</value></Data><Data name="Category"><value>Shopping mall</value></Data><Data name="Distance"><value>0</value></Data></ExtendedData><description> Shopping mall from 2021-11-29T14:54:01.036Z to 2021-11-29T15:04:23.138Z. Distance 0m </description><Point><coordinates>-74.0381184,40.727140999999996,0</coordinates></Point><TimeSpan><begin>2021-11-29T14:54:01.036Z</begin><end>2021-11-29T15:04:23.138Z</end></TimeSpan></Placemark><Placemark><name>Driving</name><address></address><ExtendedData><Data name="Email"><value>syugen.zhou@gmail.com</value></Data><Data name="Category"><value>Driving</value></Data><Data name="Distance"><value>1986</value></Data></ExtendedData><description> Driving from 2021-11-29T15:04:23.138Z to 2021-11-29T15:11:55.000Z. Distance 1986m </description><LineString><altitudeMode>clampToGround</altitudeMode><extrude>1</extrude><tesselate>1</tesselate><coordinates>-74.0386675,40.727745999999996,0 -74.0386558,40.727829199999995,0 -74.0386266,40.7280067,0 -74.038466,40.7289799,0 -74.0384287,40.729057499999996,0 -74.038415,40.7291021,0 -74.0384038,40.729138500000005,0 -74.038394,40.729161500000004,0 -74.038369,40.729217500000004,0 -74.03834909999999,40.729251700000006,0 -74.03832870000001,40.7292751,0 -74.0383059,40.729296100000006,0 -74.0382729,40.7293225,0 -74.0382729,40.7293225,0 -74.03809499999998,40.729347700000005,0 -74.03788279999999,40.729375000000005,0 -74.03773829999999,40.7294195,0 -74.03741269999999,40.7294435,0 -74.03722269999999,40.729453299999996,0 -74.0369762,40.7294565,0 -74.03685259999999,40.7294529,0 -74.03671789999999,40.7294499,0 -74.03658549999999,40.7294452,0 -74.03645409999999,40.7294362,0 -74.03591119999999,40.7294067,0 -74.03575919999999,40.7293949,0 -74.03494859999998,40.729309900000004,0 -74.03479859999999,40.7292895,0 -74.03479859999999,40.7292895,0 -74.03460349999999,40.7292542,0 -74.03457149999998,40.729395100000005,0 -74.03454019999998,40.729593400000006,0 -74.03450439999999,40.7297953,0 -74.03450399999998,40.729798800000005,0 -74.03450099999999,40.7298136,0 -74.03445269999997,40.7300905,0 -74.03422959999997,40.7310629,0 -74.03422959999997,40.7310629,0 -74.03421139999998,40.7311563,0 -74.03443729999998,40.731191100000004,0 -74.03453399999998,40.7311853,0 -74.03463009999997,40.731172,0 -74.03466739999998,40.731162700000006,0 -74.03514569999997,40.7312193,0 -74.03563569999997,40.73127480000001,0 -74.03629489999999,40.7313362,0 -74.03690799999998,40.7313953,0 -74.0370416,40.73140760000001,0 -74.03723649999999,40.731431900000004,0 -74.0375849,40.7314847,0 -74.0379706,40.731524900000004,0 -74.03914250000001,40.73162340000001,0 -74.0394036,40.731647800000005,0 -74.0394848,40.7316553,0 -74.0395038,40.7315594,0 -74.0397239,40.73158060000001,0 -74.0399704,40.73159950000001,0 -74.0401253,40.731615000000005,0 -74.0401253,40.731615000000005,0 -74.0401008,40.73179100000001,0 </coordinates></LineString><TimeSpan><begin>2021-11-29T15:04:23.138Z</begin><end>2021-11-29T15:11:55.000Z</end></TimeSpan></Placemark><Placemark><name>Holiday Inn Express &amp; Suites Jersey City - Holland Tunnel, an IHG Hotel</name><address>180 14th St, Jersey City, NJ 07310</address><ExtendedData><Data name="Email"><value>syugen.zhou@gmail.com</value></Data><Data name="Category"><value>Hotel</value></Data><Data name="Distance"><value>0</value></Data></ExtendedData><description> Hotel from 2021-11-29T15:11:55.000Z to 2021-11-29T15:13:40.000Z. Distance 0m </description><Point><coordinates>-74.04046799999999,40.7318455,0</coordinates></Point><TimeSpan><begin>2021-11-29T15:11:55.000Z</begin><end>2021-11-29T15:13:40.000Z</end></TimeSpan></Placemark><Placemark><name>Driving</name><address></address><ExtendedData><Data name="Email"><value>syugen.zhou@gmail.com</value></Data><Data name="Category"><value>Driving</value></Data><Data name="Distance"><value>142676</value></Data></ExtendedData><description> Driving from 2021-11-29T15:13:40.000Z to 2021-11-29T17:31:31.416Z. Distance 142676m </description><LineString><altitudeMode>clampToGround</altitudeMode><extrude>1</extrude><tesselate>1</tesselate><coordinates>-74.04010079999999,40.731791,0 -74.04012529999999,40.731615,0 -74.0448749,40.73204749999999,0 -74.04549069999999,40.73202919999999,0 -74.04844199999998,40.7316304,0 -74.04994269999999,40.7312964,0 -74.05017579999999,40.731327400000005,0 -74.0508416,40.7312755,0 -74.05182719999999,40.731449500000004,0 -74.0526415,40.731919100000006,0 -74.0552575,40.72995670000001,0 -74.05557619999999,40.7303635,0 -74.05614489999999,40.72986550000001,0 -74.0595857,40.732597600000005,0 -74.06065100000001,40.732751300000004,0 -74.0605627,40.733133200000005,0 -74.06065100000001,40.732751300000004,0 -74.0595857,40.732597600000005,0 -74.05485780000001,40.72881230000001,0 -74.0545755,40.72809240000001,0 -74.0517114,40.72533730000001,0 -74.0438624,40.724651400000006,0 -74.04374879999999,40.725353100000014,0 -74.0406258,40.72507860000002,0 -74.0404516,40.72501060000001,0 -74.0400626,40.72496600000001,0 -74.0393226,40.72472340000001,0 -74.0357511,40.72438320000001,0 -74.0352564,40.72580790000001,0 -74.034464,40.72713550000001,0 -74.0343528,40.72771420000001,0 -74.0346143,40.72874430000001,0 -74.0346035,40.72925420000001,0 -74.0342114,40.73115630000001,0 -74.03443730000001,40.73119110000001,0 -74.03466740000002,40.73116270000001,0 -74.03948480000001,40.73165530000001,0 -74.03950380000002,40.73155940000001,0 -74.04487490000001,40.73204750000001,0 -74.04549070000002,40.73202920000001,0 -74.04844200000001,40.73163040000001,0 -74.0499427,40.73129640000001,0 -74.05017580000002,40.73132740000001,0 -74.05084160000001,40.73127550000002,0 -74.05182720000002,40.73144950000002,0 -74.05238110000002,40.73173820000002,0 -74.06181780000003,40.73969940000001,0 -74.05339390000003,40.75179840000001,0 -74.05294360000002,40.75225050000001,0 -74.05124440000003,40.75308550000001,0 -74.05111770000002,40.75320440000001,0 -74.04885310000003,40.753692100000016,0 -74.04808980000003,40.754185100000015,0 -74.04584100000002,40.75738480000002,0 -74.04920740000004,40.75862160000001,0 -74.04966800000004,40.759402500000014,0 -74.04988850000002,40.759606900000016,0 -74.05080350000003,40.76010070000002,0 -74.04944670000003,40.76206420000002,0 -74.04953180000004,40.762313800000015,0 -74.04213440000004,40.77243880000001,0 -74.04207360000002,40.77286220000001,0 -74.04217150000002,40.77333330000001,0 -74.04238870000003,40.773678400000016,0 -74.04363060000003,40.77474530000001,0 -74.04475860000002,40.77605060000001,0 -74.04538720000002,40.777077700000014,0 -74.04560240000004,40.777828700000015,0 -74.04548590000003,40.778129600000014,0 -74.04542420000003,40.778187400000014,0 -74.04528330000004,40.778240300000014,0 -74.04498830000003,40.778193500000015,0 -74.04485550000004,40.77812350000002,0 -74.04470940000003,40.77795290000002,0 -74.04469020000005,40.77776230000002,0 -74.04480040000004,40.777652300000014,0 -74.04495030000004,40.777606200000015,0 -74.04506420000003,40.77761560000002,0 -74.04590140000003,40.77788920000002,0 -74.04598740000003,40.777878500000014,0 -74.05149090000003,40.77989450000002,0 -74.05155020000004,40.77999680000002,0 -74.05192110000003,40.780237000000014,0 -74.05218500000004,40.78051530000001,0 -74.05237630000003,40.78088810000001,0 -74.05242250000003,40.781176000000016,0 -74.05183920000005,40.784163200000016,0 -74.05146540000004,40.785146300000015,0 -74.05108420000005,40.785709300000015,0 -74.04938440000005,40.787605000000006,0 -74.04939840000006,40.78772820000001,0 -74.03418440000004,40.80355770000001,0 -74.03203570000004,40.80632680000001,0 -74.03000960000004,40.80990190000001,0 -74.02860580000005,40.81394330000001,0 -74.02664450000006,40.82556540000001,0 -74.02618780000006,40.82672790000001,0 -74.02522950000005,40.828295000000004,0 -74.02219570000005,40.83200610000001,0 -74.01810930000005,40.84082550000001,0 -74.01787350000005,40.84170020000001,0 -74.01757320000006,40.84616100000001,0 -74.01731810000005,40.84727210000001,0 -74.01200710000006,40.85851260000001,0 -74.01162520000007,40.85982060000001,0 -74.01152650000006,40.86095070000001,0 -74.01159060000005,40.861937100000006,0 -74.01153410000006,40.8620366,0 -74.01163300000006,40.86298790000001,0 -74.01187000000006,40.86387920000001,0 -74.01210510000006,40.8642904,0 -74.01250130000005,40.864720500000004,0 -74.01301990000005,40.86501020000001,0 -74.01407270000004,40.865260500000005,0 -74.01714450000004,40.865565100000005,0 -74.01726040000005,40.865632700000006,0 -74.02830640000005,40.8671494,0 -74.03113950000005,40.8673179,0 -74.04522660000005,40.8672358,0 -74.05132500000005,40.86776210000001,0 -74.05298500000005,40.8680911,0 -74.05405470000005,40.8684316,0 -74.05527050000005,40.868978500000004,0 -74.05695510000005,40.8700951,0 -74.05936190000006,40.8723545,0 -74.06144990000006,40.8747696,0 -74.06146510000006,40.87488749999999,0 -74.06296860000006,40.87774219999999,0 -74.06312640000007,40.87784549999999,0 -74.06672040000008,40.88514489999999,0 -74.06847780000008,40.887034799999995,0 -74.06881940000008,40.88752889999999,0 -74.07299290000007,40.89680399999999,0 -74.07321580000009,40.89778629999999,0 -74.07322130000009,40.898482699999995,0 -74.07069690000009,40.909785799999995,0 -74.07068620000008,40.910714899999995,0 -74.07089340000009,40.9119203,0 -74.07203090000007,40.9144199,0 -74.07245260000008,40.9156876,0 -74.07258340000007,40.9169942,0 -74.07233530000008,40.919948299999994,0 -74.07054430000008,40.9283363,0 -74.07044270000007,40.9308019,0 -74.07226620000007,40.950382399999995,0 -74.07268300000007,40.95259479999999,0 -74.07356760000008,40.9555399,0 -74.08291880000007,40.9784862,0 -74.08374280000007,40.9797173,0 -74.08527730000007,40.98115979999999,0 -74.08903230000007,40.983355499999995,0 -74.09032510000007,40.98439679999999,0 -74.09177950000007,40.98587239999999,0 -74.09441640000007,40.9890152,0 -74.09497280000008,40.989894799999995,0 -74.09540090000007,40.990891399999995,0 -74.09593320000006,40.992788499999996,0 -74.09664880000007,40.994517,0 -74.09784380000008,40.9964943,0 -74.09983210000009,40.9989114,0 -74.10056230000008,41.0000024,0 -74.10140550000007,41.001977,0 -74.10176460000008,41.0037391,0 -74.10258700000007,41.0058618,0 -74.10341530000007,41.007144,0 -74.10639150000007,41.010371299999996,0 -74.10670330000006,41.0109746,0 -74.10692890000007,41.0118631,0 -74.10754510000007,41.016583,0 -74.11178950000007,41.0349357,0 -74.11283660000008,41.0379801,0 -74.12177770000007,41.0588267,0 -74.12295390000007,41.060586199999996,0 -74.12451360000009,41.06211329999999,0 -74.12630500000007,41.063339899999995,0 -74.13086580000008,41.06541599999999,0 -74.13234060000008,41.066311899999995,0 -74.13507170000007,41.06848219999999,0 -74.14630410000007,41.076172099999994,0 -74.14744170000007,41.077079899999994,0 -74.14877360000008,41.0785264,0 -74.14969020000008,41.079995600000004,0 -74.15337500000007,41.0894851,0 -74.15575320000006,41.0943374,0 -74.15632550000007,41.0952482,0 -74.15696310000007,41.0960074,0 -74.15819730000007,41.0970903,0 -74.15921440000007,41.097748599999996,0 -74.16585530000008,41.10132399999999,0 -74.16633800000007,41.10170409999999,0 -74.16700130000007,41.10247879999999,0 -74.16724820000006,41.10294949999999,0 -74.16749090000006,41.103927599999984,0 -74.16736190000006,41.10478059999999,0 -74.16702490000006,41.10548099999999,0 -74.16516470000006,41.108288899999984,0 -74.16518610000007,41.108411899999986,0 -74.16392650000006,41.110893899999986,0 -74.16182930000005,41.11384409999999,0 -74.16137600000005,41.11504999999999,0 -74.16134540000004,41.116699099999984,0 -74.16216010000005,41.120843499999985,0 -74.16239850000005,41.12151869999998,0 -74.16291770000005,41.12242709999998,0 -74.16476500000005,41.12432879999999,0 -74.16547560000004,41.125291699999984,0 -74.16563410000005,41.12538269999998,0 -74.16720680000005,41.12916649999998,0 -74.16791990000006,41.132181599999974,0 -74.16823260000005,41.13595609999998,0 -74.16856150000005,41.13713649999998,0 -74.16933580000006,41.13859669999998,0 -74.17025110000006,41.13969529999998,0 -74.17099850000005,41.140367099999985,0 -74.17252650000006,41.141373399999985,0 -74.17431860000005,41.14214759999999,0 -74.17611200000005,41.14260929999999,0 -74.18082260000004,41.14325789999999,0 -74.18220460000005,41.14360079999999,0 -74.18339010000005,41.144041499999986,0 -74.18480580000005,41.14477869999999,0 -74.18560710000004,41.14532879999999,0 -74.18702860000005,41.14670329999999,0 -74.18783930000004,41.14791599999999,0 -74.18868490000004,41.150082899999994,0 -74.18896440000003,41.15182209999999,0 -74.18889360000003,41.1534171,0 -74.18869790000002,41.15439299999999,0 -74.18812310000003,41.15593909999999,0 -74.18757160000001,41.15693019999999,0 -74.18491830000002,41.16053889999999,0 -74.18432150000002,41.162034199999994,0 -74.18418520000002,41.162816199999995,0 -74.18418910000003,41.1642461,0 -74.18462150000002,41.165963299999994,0 -74.18615720000003,41.169798799999995,0 -74.18631990000002,41.171231999999996,0 -74.18624340000002,41.17207719999999,0 -74.18594320000003,41.17325769999999,0 -74.18161540000003,41.18281029999999,0 -74.18125310000002,41.18388989999999,0 -74.18092380000002,41.185929599999994,0 -74.18097470000002,41.18753609999999,0 -74.18182950000002,41.193327899999986,0 -74.18188980000002,41.19563779999999,0 -74.18119740000002,41.199545599999986,0 -74.18110640000002,41.20104449999999,0 -74.18155990000001,41.20480559999999,0 -74.18126080000002,41.209885799999995,0 -74.18135160000001,41.21211119999999,0 -74.18214340000002,41.21559289999999,0 -74.18399880000003,41.220348599999994,0 -74.18420660000002,41.221471799999996,0 -74.18423080000002,41.2228371,0 -74.18402460000003,41.2240142,0 -74.18359720000002,41.225168000000004,0 -74.18280090000003,41.226429100000004,0 -74.18216720000004,41.2271349,0 -74.17726720000003,41.2310308,0 -74.17586980000004,41.2324557,0 -74.17409710000004,41.2348299,0 -74.17328420000004,41.236310100000004,0 -74.16967560000005,41.245061400000004,0 -74.16759680000004,41.248544900000006,0 -74.16583460000004,41.2508294,0 -74.16080190000004,41.25632480000001,0 -74.15886230000004,41.258835000000005,0 -74.15760910000004,41.2610255,0 -74.15299170000003,41.2708262,0 -74.15200510000003,41.2723477,0 -74.14288810000004,41.282778900000004,0 -74.14195140000004,41.2840763,0 -74.14114930000004,41.285553,0 -74.13879030000004,41.2933341,0 -74.13768050000003,41.2960043,0 -74.13662370000003,41.2978004,0 -74.13535130000004,41.29954190000001,0 -74.13277990000003,41.30250920000001,0 -74.12847940000005,41.30673130000001,0 -74.12642080000005,41.30825240000001,0 -74.11966160000004,41.31249220000001,0 -74.11800750000005,41.31378690000001,0 -74.11680340000004,41.31494990000001,0 -74.11512230000004,41.316995000000006,0 -74.11407510000004,41.318694900000004,0 -74.11309770000004,41.3209316,0 -74.11255980000003,41.32300020000001,0 -74.11236010000003,41.32480520000001,0 -74.11252860000005,41.32758690000001,0 -74.11337070000003,41.33057430000001,0 -74.11653410000004,41.337692200000006,0 -74.11714950000005,41.34028130000001,0 -74.11724000000005,41.34178630000001,0 -74.11710750000005,41.34348710000001,0 -74.11651680000004,41.34581200000001,0 -74.11589690000005,41.34723820000001,0 -74.11490770000005,41.34881780000001,0 -74.11426060000005,41.34960850000001,0 -74.10884910000004,41.355021400000005,0 -74.10726040000004,41.35690310000001,0 -74.10559260000005,41.359328700000006,0 -74.10414760000005,41.361885900000004,0 -74.10189200000005,41.36687480000001,0 -74.10143950000005,41.36883900000001,0 -74.10148440000006,41.37110470000001,0 -74.10296190000005,41.37589270000001,0 -74.10320460000005,41.37730190000001,0 -74.10319370000006,41.37876820000001,0 -74.10290280000007,41.38026370000001,0 -74.10199640000008,41.382315000000006,0 -74.09502410000006,41.39155600000001,0 -74.08363970000006,41.40313580000001,0 -74.07120780000005,41.414361500000005,0 -74.07015560000006,41.41576080000001,0 -74.06940220000006,41.41732150000001,0 -74.06899000000006,41.41903980000001,0 -74.06695060000007,41.44075290000001,0 -74.06435720000006,41.451680800000005,0 -74.06430090000006,41.45375550000001,0 -74.06484900000007,41.456455600000005,0 -74.06529550000006,41.45758610000001,0 -74.07800380000006,41.47966830000001,0 -74.07893270000007,41.48187130000001,0 -74.07927730000006,41.483355300000014,0 -74.07938740000006,41.48566300000001,0 -74.07921410000006,41.487417400000005,0 -74.07651340000005,41.501544800000005,0 -74.07494520000006,41.507256100000006,0 -74.07489830000006,41.507272400000005,0 -74.07459220000005,41.50788500000001,0 -74.07426740000005,41.508314600000006,0 -74.07381270000006,41.508716500000006,0 -74.07297090000006,41.509172400000004,0 -74.07147640000005,41.50957660000001,0 -74.07071680000006,41.50994620000001,0 -74.07036640000005,41.51039640000001,0 -74.06924010000004,41.51286980000001,0 -74.06869400000005,41.513527400000015,0 -74.06815090000005,41.513925700000016,0 -74.06774220000005,41.514087400000015,0 -74.06714630000006,41.514191300000014,0 -74.06625790000005,41.51423100000002,0 -74.05258030000006,41.51337930000002,0 -74.04983380000006,41.51346610000002,0 -74.04808990000005,41.51366520000002,0 -74.04510610000005,41.514275800000014,0 -74.04282640000005,41.51500240000002,0 -74.03269700000006,41.51903960000001,0 -74.03098910000006,41.51943410000002,0 -74.02971020000005,41.51954340000002,0 -74.02363150000006,41.519461100000015,0 -74.02354380000006,41.519407600000015,0 -74.02197600000007,41.51918700000002,0 -74.02017560000007,41.519119300000014,0 -74.02123050000007,41.521135100000016,0 -74.02137860000006,41.521702200000014,0 -74.02134680000006,41.52258900000002,0 -74.02117780000007,41.523120100000014,0 -74.01829480000006,41.52881170000001,0 -74.01740730000007,41.529959800000015,0 -74.01523650000007,41.53391590000002,0 -74.01514300000007,41.534011800000016,0 -74.01371890000007,41.53666830000002,0 -74.01321220000007,41.537964500000015,0 -74.01304140000006,41.538719700000016,0 -74.01281060000005,41.541409500000015,0 -74.01232700000006,41.54297230000002,0 -74.01173620000006,41.544089000000014,0 -74.00994870000007,41.54568180000002,0 -74.00698480000005,41.54763110000002,0 -74.00658980000006,41.548089900000015,0 -74.00532250000006,41.55086290000001,0 -74.00487150000005,41.55479810000002,0 -74.00317860000006,41.56031030000001,0 -74.00130360000006,41.56371320000001,0 -74.00104350000005,41.56401510000001,0 -73.99733640000005,41.56642390000001,0 -73.99723040000006,41.56645920000001,0 -73.99474810000007,41.56814780000001,0 -73.99473100000006,41.568195300000006,0 -73.99173040000005,41.571187400000014,0 -73.98996080000006,41.574319500000016,0 -73.98916490000006,41.57684910000002,0 -73.98906120000007,41.576953400000015,0 -73.98830470000006,41.57932610000001,0 -73.98834150000006,41.579394100000016,0 -73.98666210000006,41.582474900000015,0 -73.98469310000006,41.58447810000002,0 -73.98266070000007,41.58711440000002,0 -73.98171150000006,41.589099800000014,0 -73.97742300000007,41.59449880000002,0 -73.97602410000007,41.59561330000002,0 -73.97534660000008,41.59635990000001,0 -73.97400840000007,41.59860850000001,0 -73.97280700000009,41.60027100000001,0 -73.97251300000008,41.60124900000002,0 -73.97227410000008,41.604516400000016,0 -73.97220830000008,41.60468090000002,0 -73.96769710000008,41.61074690000002,0 -73.96518840000007,41.61471700000002,0 -73.96485960000008,41.61557220000002,0 -73.96421820000009,41.61903750000002,0 -73.96420070000008,41.61971610000002,0 -73.96456840000008,41.62259510000002,0 -73.96376990000007,41.625995900000014,0 -73.96366100000007,41.627532400000014,0 -73.96312480000007,41.630430400000016,0 -73.96265700000008,41.63197000000002,0 -73.96262100000007,41.632511000000015,0 -73.96304300000008,41.63470200000002,0 -73.96268800000007,41.63827600000001,0 -73.96163420000008,41.643221400000016,0 -73.96148900000009,41.64484700000002,0 -73.96163500000009,41.64579200000002,0 -73.96260730000007,41.64814620000001,0 -73.96272430000008,41.648853400000014,0 -73.96264300000009,41.650773000000015,0 -73.96158700000008,41.654291000000015,0 -73.96146880000008,41.65547000000001,0 -73.96159810000007,41.657139600000015,0 -73.96156450000007,41.65721880000002,0 -73.96187240000008,41.661422000000016,0 -73.96182450000006,41.663030800000016,0 -73.96051270000007,41.66860900000001,0 -73.96039400000006,41.67114700000001,0 -73.95977840000006,41.67583690000001,0 -73.95977800000006,41.67698440000001,0 -73.96093060000005,41.68130190000001,0 -73.96148020000005,41.68583900000001,0 -73.96177390000005,41.68670850000001,0 -73.96225620000006,41.68753780000001,0 -73.96500650000006,41.69099710000001,0 -73.96544000000006,41.691866900000015,0 -73.96587450000006,41.69395880000001,0 -73.96585980000005,41.69405390000001,0 -73.96626460000006,41.69507180000001,0 -73.96793870000006,41.697701400000014,0 -73.96810730000006,41.69882210000001,0 -73.96792930000005,41.69957620000001,0 -73.96786180000005,41.69964570000001,0 -73.96750340000006,41.70091280000002,0 -73.96754120000006,41.70444600000002,0 -73.96733660000005,41.705403400000016,0 -73.96699810000005,41.70626330000002,0 -73.96671340000005,41.70654750000001,0 -73.96128060000005,41.70870010000001,0 -73.95962030000005,41.70919170000001,0 -73.95818260000004,41.70942090000001,0 -73.95687640000004,41.70948600000001,0 -73.95574850000006,41.709389900000005,0 -73.95504710000004,41.70925480000001,0 -73.95404000000005,41.708868300000006,0 -73.95331580000006,41.70838370000001,0 -73.95274980000006,41.70777600000001,0 -73.95235960000007,41.706987000000005,0 -73.95227620000006,41.70603150000001,0 -73.95239830000006,41.70551650000001,0 -73.95284910000005,41.70450200000001,0 -73.95286380000005,41.704288700000006,0 -73.95278430000005,41.704024100000005,0 -73.95265860000006,41.70384820000001,0 -73.95247360000005,41.70369900000001,0 -73.95202430000005,41.703518800000005,0 -73.93911580000005,41.70215700000001,0 -73.93704890000005,41.70245740000001,0 -73.93665520000006,41.70240030000001,0 -73.93653180000007,41.7022752,0 -73.93651570000007,41.70217710000001,0 -73.93684030000006,41.70120380000001,0 -73.93689920000006,41.70114360000001,0 -73.93687250000006,41.700915400000014,0 -73.93674240000006,41.70069210000001,0 -73.93659150000005,41.70059750000001,0 -73.93644830000005,41.700578400000005,0 -73.93632650000005,41.70060170000001,0 -73.93606970000005,41.70082780000001,0 -73.93609870000004,41.70356080000001,0 -73.93623950000004,41.70414560000001,0 -73.93702850000005,41.70604300000001,0 -73.93746760000005,41.708952200000006,0 -73.93737840000004,41.70953400000001,0 -73.93685340000005,41.71101970000001,0 -73.93619420000005,41.71390790000001,0 -73.93563140000003,41.71480080000001,0 -73.93481310000004,41.71552770000002,0 -73.93325720000004,41.716525400000016,0 -73.93279420000005,41.716922300000014,0 -73.93239320000005,41.71743580000002,0 -73.93196860000005,41.718267300000015,0 -73.93131930000006,41.72028560000002,0 -73.93132750000005,41.72101830000002,0 -73.93254280000005,41.727778600000015,0 -73.93262390000005,41.72785870000002,0 -73.93308310000006,41.72995840000002,0 -73.93305090000007,41.73012320000002,0 -73.93375600000006,41.733353900000026,0 -73.93375850000005,41.73411460000003,0 -73.93359830000006,41.734683500000024,0 -73.93303240000006,41.73557160000002,0 -73.93106050000006,41.73729160000003,0 -73.93082740000006,41.737578500000026,0 -73.93083170000004,41.73764180000003,0 -73.93030890000004,41.73862750000002,0 -73.93019920000005,41.73917600000002,0 -73.93019970000006,41.73975960000003,0 -73.93103540000006,41.74272970000003,0 -73.93100640000006,41.74388510000002,0 -73.93092000000006,41.74399930000002,0 -73.92803380000007,41.743715900000026,0 -73.92563390000007,41.74368200000002,0 -73.92451230000006,41.74390960000002,0 -73.92376040000006,41.74386680000002,0 -73.92275270000006,41.74353790000002,0 -73.92009060000005,41.74336220000002,0 -73.91960720000006,41.74344280000002,0 -73.91687980000006,41.744236100000016,0 -73.91547320000005,41.744464700000016,0 -73.91498270000005,41.74439690000001,0 -73.91470850000005,41.74431050000001,0 -73.91381860000006,41.744182000000016,0 -73.91318200000006,41.74430500000002,0 -73.91153340000005,41.74509310000002,0 -73.91169180000006,41.74563450000002,0 -73.91172310000006,41.74671170000002,0 -73.91162090000006,41.747242300000025,0 -73.91143630000006,41.747554800000024,0 -73.91006160000006,41.74891740000002,0 -73.90847660000006,41.75096440000002,0 -73.90821150000006,41.751482700000025,0 -73.90810360000006,41.75212200000002,0 -73.90816160000007,41.752654300000025,0 -73.90857170000007,41.753630100000024,0 -73.90861450000007,41.754838400000025,0 -73.90885730000007,41.756004500000024,0 -73.90872370000005,41.75692530000003,0 -73.90842690000007,41.75755360000003,0 -73.90679330000007,41.75988480000003,0 -73.90659400000007,41.76036490000003,0 -73.90643470000006,41.761134700000035,0 -73.90651440000008,41.76240640000003,0 -73.90702380000006,41.76347950000003,0 -73.90388330000006,41.76339720000003,0 -73.90225430000007,41.76300640000003,0 -73.90144370000006,41.763023700000026,0 -73.90126330000005,41.76295260000003,0 -73.90090000000005,41.76253160000003,0 -73.90060150000006,41.762358000000035,0 -73.90039990000005,41.76210710000003,0 </coordinates></LineString><TimeSpan><begin>2021-11-29T15:13:40.000Z</begin><end>2021-11-29T17:31:31.416Z</end></TimeSpan></Placemark><Placemark><name>Eleanor Roosevelt National Historic Site</name><address>106 Valkill Park Rd, Hyde Park, NY 12538</address><ExtendedData><Data name="Email"><value>syugen.zhou@gmail.com</value></Data><Data name="Category"><value>Historical place</value></Data><Data name="Distance"><value>0</value></Data></ExtendedData><description> Historical place from 2021-11-29T17:31:31.416Z to 2021-11-29T17:42:45.416Z. Distance 0m </description><Point><coordinates>-73.8992628,41.7618313,0</coordinates></Point><TimeSpan><begin>2021-11-29T17:31:31.416Z</begin><end>2021-11-29T17:42:45.416Z</end></TimeSpan></Placemark><Placemark><name>Driving</name><address></address><ExtendedData><Data name="Email"><value>syugen.zhou@gmail.com</value></Data><Data name="Category"><value>Driving</value></Data><Data name="Distance"><value>4725</value></Data></ExtendedData><description> Driving from 2021-11-29T17:42:45.416Z to 2021-11-29T17:50:35.412Z. Distance 4725m </description><LineString><altitudeMode>clampToGround</altitudeMode><extrude>1</extrude><tesselate>1</tesselate><coordinates>-73.90023760000001,41.761997699999995,0 -73.9002593,41.7620041,0 -73.90031450000001,41.7620321,0 -73.90042460000001,41.7621289,0 -73.90060150000001,41.762358,0 -73.9006811,41.7624198,0 -73.90090000000001,41.7625316,0 -73.90098160000001,41.762606500000004,0 -73.9010991,41.7627377,0 -73.9011907,41.7628817,0 -73.90126330000001,41.762952600000006,0 -73.90134010000001,41.7629947,0 -73.90144370000002,41.763023700000005,0 -73.90176000000001,41.763025500000005,0 -73.90225430000001,41.7630064,0 -73.90237090000001,41.763017399999995,0 -73.9026298,41.7630715,0 -73.90341710000001,41.7633091,0 -73.90364830000001,41.7633469,0 -73.90388330000002,41.7633972,0 -73.90413240000001,41.7634169,0 -73.9042847,41.7634173,0 -73.90452090000001,41.76339910000001,0 -73.90614510000002,41.763466900000005,0 -73.90702380000002,41.76347950000001,0 -73.90709940000002,41.76345680000001,0 -73.90706080000002,41.76335610000001,0 -73.90697780000002,41.76319570000001,0 -73.90666020000003,41.76245390000001,0 -73.90650980000002,41.76200450000001,0 -73.90644430000002,41.76166150000001,0 -73.90643300000002,41.76152350000001,0 -73.90643470000003,41.76113470000001,0 -73.90647610000003,41.7607988,0 -73.90659400000003,41.760364900000006,0 -73.90667780000003,41.76013480000001,0 -73.90679330000003,41.75988480000001,0 -73.90708810000002,41.75937530000001,0 -73.90725150000003,41.7591315,0 -73.90809700000003,41.7580292,0 -73.90842690000002,41.7575536,0 -73.90851740000002,41.757469900000004,0 -73.90857250000002,41.7573975,0 -73.90877760000002,41.7570509,0 -73.90885320000002,41.7568322,0 -73.90903910000003,41.756611,0 -73.90914130000003,41.756541000000006,0 -73.90927280000002,41.756491800000006,0 -73.90937360000002,41.75647810000001,0 -73.90946420000002,41.75647390000001,0 -73.90986000000002,41.756486900000006,0 -73.91030520000002,41.75660490000001,0 -73.91073440000002,41.75676100000001,0 -73.91103740000003,41.75690510000001,0 -73.91201650000004,41.75745530000001,0 -73.91233100000002,41.757604100000016,0 -73.91255020000003,41.75769140000001,0 -73.91277550000002,41.75776740000001,0 -73.91310000000003,41.75785900000001,0 -73.91331090000003,41.757906100000014,0 -73.91367280000001,41.75796510000001,0 -73.91404880000002,41.75800280000001,0 -73.91909120000003,41.75815910000001,0 -73.91969660000002,41.75822480000001,0 -73.92012700000002,41.758302900000004,0 -73.92030320000003,41.758343200000006,0 -73.92067680000002,41.758448900000005,0 -73.92097790000004,41.7585485,0 -73.92340730000004,41.759462400000004,0 -73.92390150000004,41.7596081,0 -73.92422620000004,41.75967850000001,0 -73.92450150000003,41.759723400000006,0 -73.92488680000004,41.75976330000001,0 -73.92622160000003,41.75981660000001,0 -73.92635690000004,41.759836000000014,0 -73.92876610000005,41.759956400000014,0 -73.92899730000005,41.75993900000001,0 -73.93045460000006,41.75997150000001,0 -73.93044860000006,41.760258000000015,0 -73.93006330000006,41.76469180000001,0 -73.93004330000005,41.765183600000015,0 -73.93007030000005,41.765242700000016,0 -73.92999410000006,41.76654960000002,0 -73.92996400000006,41.76682020000001,0 -73.92992330000006,41.767545100000014,0 -73.92994180000005,41.76797970000001,0 -73.93020600000004,41.77020510000001,0 -73.93018910000004,41.77029160000001,0 -73.93032330000004,41.771575200000015,0 -73.93090190000004,41.771575700000014,0 -73.93360020000004,41.77142270000002,0 -73.93367530000005,41.77140270000001,0 -73.93370480000004,41.771387700000005,0 -73.93376330000005,41.77134110000001,0 -73.93378900000005,41.771309400000014,0 -73.93380540000004,41.77127370000001,0 -73.93381070000004,41.77123170000001,0 -73.93378660000005,41.77048550000001,0 -73.93436330000004,41.77044750000001,0 -73.93433060000004,41.76996170000001,0 </coordinates></LineString><TimeSpan><begin>2021-11-29T17:42:45.416Z</begin><end>2021-11-29T17:50:35.412Z</end></TimeSpan></Placemark><Placemark><name>Home of Franklin D. Roosevelt National Historic Site</name><address>4097 Albany Post Rd, Hyde Park, NY 12538</address><ExtendedData><Data name="Email"><value>syugen.zhou@gmail.com</value></Data><Data name="Category"><value>National park</value></Data><Data name="Distance"><value>0</value></Data></ExtendedData><description> National park from 2021-11-29T17:50:35.412Z to 2021-11-29T19:04:36.113Z. Distance 0m </description><Point><coordinates>-73.935295,41.767553899999996,0</coordinates></Point><TimeSpan><begin>2021-11-29T17:50:35.412Z</begin><end>2021-11-29T19:04:36.113Z</end></TimeSpan></Placemark><Placemark><name>Driving</name><address></address><ExtendedData><Data name="Email"><value>syugen.zhou@gmail.com</value></Data><Data name="Category"><value>Driving</value></Data><Data name="Distance"><value>1586</value></Data></ExtendedData><description> Driving from 2021-11-29T19:04:36.113Z to 2021-11-29T19:05:40.000Z. Distance 1586m </description><LineString><altitudeMode>clampToGround</altitudeMode><extrude>1</extrude><tesselate>1</tesselate><coordinates>-73.9343306,41.7699617,0 -73.9343548,41.770321,0 -73.93436329999999,41.770447499999996,0 -73.93436329999999,41.770447499999996,0 -73.93450139999999,41.7704245,0 -73.93453629999999,41.770416,0 -73.93453629999999,41.770416,0 -73.93457119999998,41.770765499999996,0 -73.93456799999998,41.77077439999999,0 -73.93456019999999,41.77079609999999,0 -73.9345307,41.770821899999994,0 -73.93448159999998,41.77083869999999,0 -73.9343724,41.770854699999994,0 -73.93404149999999,41.7708745,0 -73.933804,41.770884599999995,0 -73.93301149999999,41.770916699999994,0 -73.9325829,41.77093399999999,0 -73.9324495,41.77094559999999,0 -73.932294,41.77097359999999,0 -73.932294,41.77097359999999,0 -73.9321983,41.77086079999999,0 -73.93220709999999,41.77084079999999,0 -73.932216,41.770803499999985,0 -73.93222159999999,41.770753499999984,0 -73.93222429999999,41.770724499999986,0 -73.93222429999999,41.770693399999985,0 -73.93222429999999,41.77066929999999,0 -73.93222569999999,41.77064229999999,0 -73.93221769999998,41.770612299999996,0 -73.93219629999999,41.770587299999995,0 -73.93216829999999,41.7705583,0 -73.93211859999998,41.7705042,0 -73.93200219999999,41.77040209999999,0 -73.93194199999998,41.77035909999999,0 -73.93188439999997,41.770325099999994,0 -73.93183419999998,41.7702981,0 -73.93177729999998,41.770274099999995,0 -73.93173169999997,41.770254099999995,0 -73.93167949999999,41.77024089999999,0 -73.93163249999999,41.77022789999999,0 -73.93157499999998,41.770216899999994,0 -73.93152009999999,41.77020889999999,0 -73.9314637,41.77020679999999,0 -73.93121329999998,41.7702147,0 -73.93032779999999,41.770273499999995,0 -73.93024349999999,41.770288199999996,0 -73.93024349999999,41.770288199999996,0 -73.930206,41.7702051,0 -73.9301253,41.769507999999995,0 -73.9300974,41.7692688,0 -73.9300316,41.768746900000004,0 -73.9299418,41.7679797,0 -73.9299273,41.767772,0 -73.9299242,41.767701599999995,0 -73.9299233,41.76754509999999,0 -73.9299292,41.76738939999999,0 -73.9299479,41.767075899999995,0 -73.929964,41.7668202,0 -73.9299941,41.7665496,0 -73.9300222,41.76605299999999,0 -73.9300703,41.765242699999995,0 -73.9301033,41.76519069999999,0 -73.9301246,41.76501849999999,0 -73.9301502,41.76469679999999,0 -73.9302737,41.763402099999986,0 -73.9302825,41.763306499999985,0 -73.9303481,41.76259859999998,0 -73.9303737,41.76234609999999,0 -73.9303737,41.76234609999999,0 -73.93053520000001,41.762353699999984,0 -73.93062510000001,41.76235799999999,0 </coordinates></LineString><TimeSpan><begin>2021-11-29T19:04:36.113Z</begin><end>2021-11-29T19:05:40.000Z</end></TimeSpan></Placemark><Placemark><name>Dunkin'</name><address>3979 Albany Post Rd, Hyde Park, NY 12538</address><ExtendedData><Data name="Email"><value>syugen.zhou@gmail.com</value></Data><Data name="Category"><value>Coffee shop</value></Data><Data name="Distance"><value>0</value></Data></ExtendedData><description> Coffee shop from 2021-11-29T19:05:40.000Z to 2021-11-29T19:29:11.000Z. Distance 0m </description><Point><coordinates>-73.93063889999999,41.7621955,0</coordinates></Point><TimeSpan><begin>2021-11-29T19:05:40.000Z</begin><end>2021-11-29T19:29:11.000Z</end></TimeSpan></Placemark><Placemark><name>Driving</name><address></address><ExtendedData><Data name="Email"><value>syugen.zhou@gmail.com</value></Data><Data name="Category"><value>Driving</value></Data><Data name="Distance"><value>121106</value></Data></ExtendedData><description> Driving from 2021-11-29T19:29:11.999Z to 2021-11-29T21:01:08.000Z. Distance 121106m </description><LineString><altitudeMode>clampToGround</altitudeMode><extrude>1</extrude><tesselate>1</tesselate><coordinates>-73.93048,41.7620368,0 -73.93040040000001,41.76201,0 -73.93097870000001,41.749691299999995,0 -73.93084310000002,41.746357999999994,0 -73.93105010000002,41.74400819999999,0 -73.93100640000002,41.74388509999999,0 -73.93103540000001,41.74272969999999,0 -73.93019970000002,41.73975959999999,0 -73.93030890000001,41.73862749999999,0 -73.93083170000001,41.73764179999999,0 -73.93093150000001,41.737616499999994,0 -73.93308040000001,41.735701999999996,0 -73.93353440000001,41.735117699999996,0 -73.93379670000002,41.7345432,0 -73.93391890000001,41.73357749999999,0 -73.93318280000001,41.73009499999999,0 -73.93308310000002,41.729958399999994,0 -73.93262390000001,41.72785869999999,0 -73.93266520000002,41.72774989999999,0 -73.93145660000002,41.72093349999999,0 -73.93152650000002,41.719937499999986,0 -73.93249080000001,41.717498599999985,0 -73.93301270000002,41.716884599999986,0 -73.93530090000002,41.71529729999998,0 -73.93606560000002,41.714403199999985,0 -73.93647240000001,41.713453499999986,0 -73.9375442,41.709228999999986,0 -73.9371045,41.70559939999999,0 -73.937195,41.70358909999999,0 -73.93661770000001,41.702791799999986,0 -73.93664720000001,41.70266969999998,0 -73.93672360000001,41.70259359999998,0 -73.93704890000001,41.70245739999998,0 -73.9391158,41.70215699999998,0 -73.9515281,41.70348569999998,0 -73.9521343,41.70362989999998,0 -73.9525285,41.70385619999998,0 -73.95274450000001,41.704220599999985,0 -73.9527512,41.704413899999984,0 -73.9522134,41.70580659999998,0 -73.9521745,41.70655749999998,0 -73.9524132,41.707391499999986,0 -73.9527753,41.707961199999986,0 -73.9532903,41.708473799999986,0 -73.95440210000001,41.70912459999999,0 -73.9553583,41.70940389999999,0 -73.95775210000001,41.70959109999999,0 -73.9588813,41.70951509999999,0 -73.9602546,41.70923269999999,0 -73.9613825,41.70884729999999,0 -73.9636905,41.70777599999999,0 -73.9644201,41.707659899999996,0 -73.9648962,41.70771089999999,0 -73.9653254,41.70786609999999,0 -73.9656928,41.70814039999999,0 -73.9657894,41.70837369999999,0 -73.9657483,41.708800899999986,0 -73.9646496,41.71108239999999,0 -73.9646508,41.71126199999999,0 -73.9633021,41.71535999999999,0 -73.9632174,41.71544219999999,0 -73.9623811,41.7179903,0 -73.9612448,41.7197851,0 -73.96084850000001,41.7208391,0 -73.96076490000002,41.7214204,0 -73.96178790000002,41.729986800000006,0 -73.96100980000003,41.734343900000006,0 -73.96113280000003,41.735409700000005,0 -73.96418500000003,41.742175100000004,0 -73.96581050000003,41.7418406,0 -73.96693770000003,41.7417229,0 -73.96704080000002,41.741681400000004,0 -73.96799820000003,41.7416694,0 -73.97010520000002,41.7418892,0 -73.98041490000001,41.7447832,0 -73.98271450000001,41.745164300000006,0 -73.98439100000002,41.745203000000004,0 -73.98676670000002,41.74491230000001,0 -74.00396570000002,41.74035150000001,0 -74.01128190000003,41.73885430000001,0 -74.01726270000003,41.73801840000001,0 -74.02374130000003,41.73748450000001,0 -74.02971750000003,41.73728550000001,0 -74.03198150000003,41.737369400000006,0 -74.05105800000003,41.739668200000004,0 -74.05781160000002,41.740829600000005,0 -74.06161440000002,41.7411742,0 -74.06237730000002,41.73646240000001,0 -74.06256950000004,41.736242000000004,0 -74.06302700000003,41.736023,0 -74.06343540000003,41.7359671,0 -74.06749620000004,41.7362243,0 -74.06797440000004,41.73605140000001,0 -74.06828540000004,41.735774600000006,0 -74.06838950000004,41.73558190000001,0 -74.06840990000003,41.73523490000001,0 -74.06826780000004,41.73492040000001,0 -74.06701580000004,41.73364010000001,0 -74.06667530000004,41.73310300000001,0 -74.06650300000004,41.732498400000004,0 -74.06650260000004,41.731871100000006,0 -74.06644240000003,41.7317778,0 -74.06713820000003,41.729399400000005,0 -74.06864980000002,41.7261151,0 -74.07164170000001,41.7210137,0 -74.07470230000003,41.71042070000001,0 -74.07902310000003,41.702531300000004,0 -74.07973790000003,41.699524600000004,0 -74.07980550000002,41.697316,0 -74.07938160000002,41.694757499999994,0 -74.07785300000002,41.689819699999994,0 -74.07771610000002,41.687733599999994,0 -74.07787500000002,41.6861396,0 -74.07848410000003,41.6839642,0 -74.08015260000002,41.680018999999994,0 -74.0805021,41.6786106,0 -74.0806857,41.676308899999995,0 -74.08055010000001,41.674763299999995,0 -74.07880770000001,41.66814899999999,0 -74.07842390000002,41.66527409999999,0 -74.07843830000002,41.65898949999999,0 -74.077045,41.64837119999999,0 -74.0772073,41.64492589999999,0 -74.0786756,41.63750219999999,0 -74.07905099999999,41.628375799999986,0 -74.0795079,41.62566969999999,0 -74.0817692,41.61752389999999,0 -74.08342999999999,41.60595309999999,0 -74.0887432,41.58878829999999,0 -74.08900799999999,41.58583999999998,0 -74.0888215,41.58386329999998,0 -74.0880948,41.58118499999999,0 -74.08583309999999,41.57619889999999,0 -74.08510079999999,41.57396049999999,0 -74.0835652,41.565899399999985,0 -74.08145609999998,41.55893279999999,0 -74.08094349999999,41.55613519999999,0 -74.080677,41.55145169999999,0 -74.08027459999998,41.54898209999999,0 -74.07719439999998,41.53972899999999,0 -74.07629209999999,41.53548649999999,0 -74.0755081,41.52770359999999,0 -74.0738475,41.51839349999999,0 -74.0737247,41.516082199999985,0 -74.073914,41.51289259999999,0 -74.0744368,41.510046299999985,0 -74.0770882,41.500187899999986,0 -74.07957680000001,41.486620899999984,0 -74.0796605,41.48467429999999,0 -74.0791535,41.48123589999999,0 -74.077791,41.47779959999999,0 -74.06567290000001,41.45786239999999,0 -74.06480900000001,41.455632399999985,0 -74.06448550000002,41.452798299999984,0 -74.06475490000001,41.450608999999986,0 -74.06699120000002,41.44192049999999,0 -74.06931570000002,41.41867879999999,0 -74.06986340000002,41.41687179999999,0 -74.07094200000002,41.415061499999986,0 -74.07189360000001,41.41399419999999,0 -74.09017630000001,41.397621999999984,0 -74.09332550000002,41.394207999999985,0 -74.10228490000001,41.38232999999998,0 -74.10296850000002,41.38088599999999,0 -74.10341970000002,41.37911339999999,0 -74.103469,41.37726809999999,0 -74.10318690000001,41.37571999999999,0 -74.1018897,41.37184869999999,0 -74.10168850000001,41.37068799999999,0 -74.1017355,41.36849419999999,0 -74.1020416,41.36719379999999,0 -74.1043292,41.36204759999999,0 -74.1060571,41.35902379999998,0 -74.1081631,41.35614169999998,0 -74.1152574,41.34873099999999,0 -74.1164759,41.34657629999999,0 -74.11723529999999,41.34418079999999,0 -74.1174502,41.34263949999999,0 -74.1174263,41.34053649999999,0 -74.1171974,41.33910999999999,0 -74.11663039999999,41.33726339999999,0 -74.11309409999998,41.32901829999999,0 -74.1126618,41.32669789999999,0 -74.1126001,41.32516559999999,0 -74.11286019999999,41.32276309999999,0 -74.11325269999999,41.32123819999999,0 -74.11418289999999,41.31900179999999,0 -74.1153478,41.31707309999999,0 -74.11653229999999,41.315581399999985,0 -74.11882779999999,41.31337819999999,0 -74.1286726,41.30676969999999,0 -74.1324894,41.30305549999999,0 -74.1358365,41.29918919999999,0 -74.13693339999999,41.29763899999999,0 -74.1385409,41.29457819999999,0 -74.1411917,41.28622219999999,0 -74.1427178,41.28344869999999,0 -74.151735,41.27315289999999,0 -74.1534784,41.2705613,0 -74.15901559999999,41.25927709999999,0 -74.1598976,41.2579382,0 -74.16676269999999,41.2501469,0 -74.16794929999999,41.248543399999996,0 -74.16991789999999,41.2452197,0 -74.1735799,41.236360999999995,0 -74.1750515,41.2339214,0 -74.1763113,41.232377199999995,0 -74.17802539999998,41.2307236,0 -74.18238849999999,41.227310499999994,0 -74.18359549999998,41.22581609999999,0 -74.18424519999998,41.2243624,0 -74.18448289999998,41.223408299999996,0 -74.18451439999998,41.221370799999995,0 -74.18426149999999,41.22015079999999,0 -74.18205629999999,41.21420309999999,0 -74.18164289999999,41.21187889999999,0 -74.18190089999999,41.20553559999999,0 -74.1814189,41.200985499999994,0 -74.1814784,41.19987739999999,0 -74.1821327,41.196457599999995,0 -74.18216199999999,41.19351699999999,0 -74.18130139999998,41.18756299999999,0 -74.18125649999999,41.18580369999999,0 -74.18170819999999,41.183476099999986,0 -74.18628029999998,41.17320819999998,0 -74.18658679999999,41.171894399999985,0 -74.18652209999999,41.17000779999998,0 -74.1846449,41.16502679999998,0 -74.18450019999999,41.16421199999998,0 -74.1845518,41.16249629999998,0 -74.1847277,41.16177409999998,0 -74.18524799999999,41.160575499999986,0 -74.1880137,41.15677169999998,0 -74.1886773,41.15541189999998,0 -74.1890722,41.15413079999998,0 -74.1892791,41.152502699999985,0 -74.1892156,41.15120439999998,0 -74.18888599999998,41.149703899999984,0 -74.18802319999999,41.14778149999999,0 -74.1874333,41.14689629999998,0 -74.1864711,41.14581239999998,0 -74.1848126,41.14456339999998,0 -74.1837841,41.144023099999984,0 -74.1824586,41.14350399999998,0 -74.1805209,41.143033099999975,0 -74.17518450000001,41.14222719999998,0 -74.17372800000001,41.14174329999997,0 -74.17239990000002,41.14109699999998,0 -74.17158830000002,41.14057179999998,0 -74.17012340000001,41.13927509999998,0 -74.16911970000002,41.13784359999998,0 -74.16843980000003,41.13579759999998,0 -74.16784490000002,41.130451499999985,0 -74.16611650000002,41.125842699999986,0 -74.16480620000003,41.12357169999999,0 -74.16485650000003,41.12347509999999,0 -74.16351890000003,41.12131439999999,0 -74.16170190000003,41.117467699999985,0 -74.16147120000002,41.11622409999999,0 -74.16150810000002,41.11534859999999,0 -74.16183880000003,41.11423519999999,0 -74.16404930000003,41.11106849999999,0 -74.16552150000003,41.10828859999999,0 -74.16721020000004,41.10616799999999,0 -74.16738240000004,41.10604659999999,0 -74.16883490000005,41.10355569999999,0 -74.16927230000005,41.10226319999999,0 -74.16957860000004,41.10006289999998,0 -74.16844340000003,41.08772879999998,0 -74.16864780000003,41.085131099999984,0 -74.16943510000003,41.08212529999998,0 -74.17015340000003,41.080402599999985,0 -74.17155250000002,41.07792149999998,0 -74.18332590000003,41.06326629999999,0 -74.18542960000003,41.05971889999998,0 -74.19161760000003,41.04524199999998,0 -74.19207190000003,41.043801799999976,0 -74.19240250000003,41.04190289999998,0 -74.19263910000002,41.03830379999998,0 -74.19317650000004,41.03620109999998,0 -74.19385410000004,41.034722699999975,0 -74.19515850000003,41.032820699999974,0 -74.19736860000003,41.03068509999998,0 -74.19935660000003,41.02935069999997,0 -74.20403200000003,41.02691789999998,0 -74.20985920000003,41.02321639999998,0 -74.21245220000003,41.02188169999998,0 -74.21569770000002,41.02078099999998,0 -74.21715810000002,41.02047899999998,0 -74.21726470000002,41.02051729999997,0 -74.21792800000001,41.02053539999997,0 -74.21922740000001,41.020892599999975,0 -74.21962490000001,41.02093229999998,0 -74.22034670000001,41.02083519999998,0 -74.2206896,41.02069119999998,0 -74.2210895,41.020405699999976,0 -74.2213282,41.02009629999998,0 -74.2214591,41.01969599999998,0 -74.2214297,41.01929349999998,0 -74.2212177,41.018877799999984,0 -74.2209347,41.01859739999998,0 -74.2203111,41.01829619999998,0 -74.2186301,41.01795229999998,0 -74.2174229,41.017525899999974,0 -74.21730670000001,41.01754149999998,0 -74.19457000000001,41.00813479999998,0 -74.19195350000001,41.006743299999975,0 -74.19005600000001,41.00540409999998,0 -74.16257780000001,40.98268609999998,0 -74.16155850000001,40.981540699999975,0 -74.16106850000001,40.98079439999998,0 -74.1604725,40.97949449999997,0 -74.1601591,40.978035499999976,0 -74.16013840000001,40.97488499999997,0 -74.15983480000001,40.97344919999997,0 -74.1591077,40.97195599999997,0 -74.1582506,40.97087539999997,0 -74.15666230000001,40.96946049999997,0 -74.1566572,40.969380599999965,0 -74.15636429999999,40.96903599999997,0 -74.15630039999999,40.96875079999997,0 -74.15639879999999,40.967912299999966,0 -74.15625569999999,40.967494399999964,0 -74.15590949999999,40.96708569999996,0 -74.15589759999999,40.96697719999996,0 -74.15605969999999,40.96670389999996,0 -74.15791819999998,40.96553189999997,0 -74.15872759999998,40.96473689999996,0 -74.16031729999997,40.96242849999996,0 -74.16314969999999,40.95356019999996,0 -74.16456469999999,40.945127099999965,0 -74.16395229999999,40.94135119999996,0 -74.16398619999998,40.940248099999955,0 -74.16484009999998,40.93755109999996,0 -74.16477679999998,40.93729449999996,0 -74.16505579999998,40.93708109999996,0 -74.16748289999998,40.934244499999956,0 -74.16856099999998,40.93101749999996,0 -74.16803979999999,40.92760879999996,0 -74.16971299999997,40.925356899999954,0 -74.17002549999998,40.92436699999996,0 -74.16996439999998,40.92430949999996,0 -74.17172779999999,40.92317599999996,0 -74.17278089999999,40.922755999999964,0 -74.17272889999998,40.92266899999996,0 -74.17282759999999,40.92058319999996,0 -74.17361269999998,40.92051419999996,0 -74.17530819999999,40.91982659999996,0 -74.17547699999999,40.91966749999996,0 -74.17563719999998,40.91912139999996,0 -74.1753256,40.918243599999954,0 -74.17543589999998,40.918140199999954,0 -74.17796569999999,40.917197199999954,0 -74.17807119999998,40.917084799999955,0 -74.17805759999997,40.916947999999955,0 -74.17763099999998,40.916231099999955,0 -74.17775009999997,40.91612509999995,0 -74.17862699999996,40.915798199999955,0 -74.17960949999997,40.91493199999996,0 -74.17966689999997,40.915062099999965,0 -74.17967729999998,40.91538749999996,0 -74.17990179999998,40.91541959999996,0 -74.17985239999999,40.91569269999996,0 -74.17996449999998,40.91524249999996,0 </coordinates></LineString><TimeSpan><begin>2021-11-29T19:29:11.999Z</begin><end>2021-11-29T21:01:08.000Z</end></TimeSpan></Placemark><Placemark><name>Paterson Great Falls National Historical Park</name><address>72 McBride Ave Ext, Paterson, NJ 07501</address><ExtendedData><Data name="Email"><value>syugen.zhou@gmail.com</value></Data><Data name="Category"><value>National park</value></Data><Data name="Distance"><value>0</value></Data></ExtendedData><description> National park from 2021-11-29T21:01:08.000Z to 2021-11-29T21:16:11.397Z. Distance 0m </description><Point><coordinates>-74.1800403,40.9149503,0</coordinates></Point><TimeSpan><begin>2021-11-29T21:01:08.000Z</begin><end>2021-11-29T21:16:11.397Z</end></TimeSpan></Placemark><Placemark><name>Driving</name><address></address><ExtendedData><Data name="Email"><value>syugen.zhou@gmail.com</value></Data><Data name="Category"><value>Driving</value></Data><Data name="Distance"><value>11547</value></Data></ExtendedData><description> Driving from 2021-11-29T21:16:11.397Z to 2021-11-29T21:28:52.411Z. Distance 11547m </description><LineString><altitudeMode>clampToGround</altitudeMode><extrude>1</extrude><tesselate>1</tesselate><coordinates>-74.1797474,40.914812399999995,0 -74.1798577,40.9147306,0 -74.1801088,40.9145962,0 -74.1800217,40.9145365,0 -74.1797637,40.9142589,0 -74.17911099999999,40.9133797,0 -74.17831239999998,40.912107899999995,0 -74.17758239999999,40.912356700000004,0 -74.17743979999999,40.9122899,0 -74.17739529999999,40.912246499999995,0 -74.17721669999999,40.9119628,0 -74.17709849999999,40.9118914,0 -74.1765933,40.9111085,0 -74.17571849999999,40.9100283,0 -74.1729015,40.907447,0 -74.1724211,40.9068822,0 -74.17222699999999,40.9065841,0 -74.1720122,40.9061512,0 -74.17182999999999,40.9056086,0 -74.17175359999999,40.905203,0 -74.17132759999998,40.900009100000005,0 -74.17122539999998,40.8994652,0 -74.17105439999997,40.898900499999996,0 -74.17067329999998,40.898097199999995,0 -74.16873679999998,40.894799899999995,0 -74.16840699999997,40.894060399999994,0 -74.16828969999997,40.8936857,0 -74.16815489999998,40.89304409999999,0 -74.16810089999998,40.892498399999994,0 -74.16812519999998,40.89174699999999,0 -74.16839949999998,40.88945109999999,0 -74.16840059999997,40.88879339999999,0 -74.16832329999997,40.88814869999999,0 -74.16654329999997,40.87938929999999,0 -74.16645249999998,40.87864429999999,0 -74.16636119999997,40.87856339999999,0 -74.16637279999998,40.87729559999999,0 -74.16670579999999,40.87420709999999,0 -74.16695029999998,40.87289849999999,0 -74.1672297,40.87194729999999,0 -74.16778729999999,40.870576099999994,0 -74.16838949999999,40.869381999999995,0 -74.16908559999999,40.8682692,0 -74.17194059999999,40.864285,0 -74.17257549999998,40.8632021,0 -74.17294929999998,40.862397,0 -74.17333919999999,40.861368600000006,0 -74.17439089999999,40.8576441,0 -74.17469049999998,40.856814500000006,0 -74.1760377,40.8539932,0 -74.17661679999999,40.852924800000004,0 -74.1765696,40.8528393,0 -74.1769241,40.852010899999996,0 -74.176953,40.8518581,0 -74.1769557,40.851588,0 -74.17693349999999,40.8514461,0 -74.17687539999999,40.8512705,0 -74.1766709,40.850944000000005,0 -74.17644139999999,40.8507334,0 -74.17626879999999,40.85061610000001,0 -74.1760702,40.85051010000001,0 -74.1759434,40.85046230000001,0 -74.17555159999999,40.85036310000001,0 -74.1746922,40.85023450000001,0 -74.1744512,40.85023730000001,0 -74.1740028,40.85031570000001,0 -74.1739554,40.85031570000001,0 -74.17384179999999,40.85028960000001,0 -74.173715,40.85022200000002,0 -74.17323640000001,40.84982040000001,0 -74.173036,40.84973040000001,0 -74.1690143,40.84534300000002,0 -74.168226,40.84460700000002,0 -74.16732300000001,40.84385200000001,0 -74.16657000000001,40.843294000000014,0 -74.165,40.842286000000016,0 -74.16389930000001,40.84168660000002,0 -74.1499166,40.83498320000002,0 -74.1414876,40.83109540000001,0 -74.14150280000001,40.83104890000001,0 -74.14144230000001,40.83091250000001,0 -74.14143980000001,40.83086200000001,0 -74.14146280000001,40.83079740000001,0 -74.14158790000002,40.83066670000001,0 -74.14163340000002,40.83064540000001,0 -74.14169820000001,40.830631800000006,0 -74.14177570000001,40.83063430000001,0 -74.14185480000002,40.830653100000006,0 -74.14231210000001,40.83086480000001,0 -74.14243100000002,40.83094440000001,0 -74.1424678,40.83098540000001,0 -74.14184100000001,40.83153430000001,0 -74.14103810000002,40.83204210000001,0 -74.14000360000001,40.83260300000001,0 -74.13995050000001,40.832549500000006,0 -74.13912660000001,40.83211330000001,0 -74.1388445,40.83189390000001,0 -74.138625,40.831660000000014,0 -74.138226,40.83135140000001,0 -74.13744790000001,40.830972800000005,0 </coordinates></LineString><TimeSpan><begin>2021-11-29T21:16:11.397Z</begin><end>2021-11-29T21:28:52.411Z</end></TimeSpan></Placemark><Placemark><name>Costco Wholesale</name><address>20 Bridewell Pl, Clifton, NJ 07014</address><ExtendedData><Data name="Email"><value>syugen.zhou@gmail.com</value></Data><Data name="Category"><value>Warehouse store</value></Data><Data name="Distance"><value>0</value></Data></ExtendedData><description> Warehouse store from 2021-11-29T21:28:52.411Z to 2021-11-29T21:42:14.420Z. Distance 0m </description><Point><coordinates>-74.1367906,40.8314891,0</coordinates></Point><TimeSpan><begin>2021-11-29T21:28:52.411Z</begin><end>2021-11-29T21:42:14.420Z</end></TimeSpan></Placemark><Placemark><name>Driving</name><address></address><ExtendedData><Data name="Email"><value>syugen.zhou@gmail.com</value></Data><Data name="Category"><value>Driving</value></Data><Data name="Distance"><value>20559</value></Data></ExtendedData><description> Driving from 2021-11-29T21:42:14.420Z to 2021-11-29T22:28:19.415Z. Distance 20559m </description><LineString><altitudeMode>clampToGround</altitudeMode><extrude>1</extrude><tesselate>1</tesselate><coordinates>-74.1386316,40.831985599999996,0 -74.1386271,40.8319602,0 -74.1386014,40.8319062,0 -74.13849830000001,40.831784899999995,0 -74.1384499,40.8317449,0 -74.13827959999999,40.831665699999995,0 -74.1382484,40.831665199999996,0 -74.1382376,40.831672299999994,0 -74.1381036,40.831823299999996,0 -74.13799549999999,40.83176519999999,0 -74.138301,40.8314066,0 -74.13862499999999,40.83166,0 -74.1386828,40.831736199999995,0 -74.13884449999999,40.8318939,0 -74.1391266,40.832113299999996,0 -74.1399505,40.8325495,0 -74.1400036,40.832603,0 -74.1401481,40.8325105,0 -74.1410381,40.832042099999995,0 -74.141841,40.831534299999994,0 -74.1424678,40.830985399999996,0 -74.142431,40.83094439999999,0 -74.1423121,40.83086479999999,0 -74.1420614,40.830738,0 -74.1418548,40.83065309999999,0 -74.1417757,40.83063429999999,0 -74.1416982,40.83063179999999,0 -74.1416334,40.830645399999995,0 -74.14135160000001,40.830757399999996,0 -74.1412536,40.830780499999996,0 -74.1411606,40.83079069999999,0 -74.1410508,40.83078299999999,0 -74.1409291,40.830752299999986,0 -74.1406492,40.83071419999999,0 -74.12623789999999,40.824063999999986,0 -74.12397779999999,40.82290719999999,0 -74.1218318,40.82167549999999,0 -74.1170284,40.81862849999999,0 -74.11486229999998,40.817344599999984,0 -74.11072829999999,40.81507539999999,0 -74.1100101,40.81472219999999,0 -74.10201009999999,40.811154699999996,0 -74.10137759999999,40.810929099999996,0 -74.1006577,40.8107209,0 -74.0998953,40.810561,0 -74.0987043,40.81038529999999,0 -74.097506,40.81031049999999,0 -74.09685839999999,40.81031679999999,0 -74.09565219999999,40.8103765,0 -74.09052789999998,40.8109092,0 -74.0897155,40.810970499999996,0 -74.08867019999998,40.8109908,0 -74.08751529999999,40.81094709999999,0 -74.08626589999999,40.8108144,0 -74.08549699999999,40.8106838,0 -74.0845959,40.8104842,0 -74.084051,40.8103384,0 -74.08285699999999,40.80994689999999,0 -74.0818613,40.8095381,0 -74.0785483,40.8079793,0 -74.0782186,40.8078433,0 -74.0770175,40.8072383,0 -74.0762456,40.8067521,0 -74.0757303,40.8063836,0 -74.07496760000001,40.805739499999994,0 -74.07441860000002,40.80521039999999,0 -74.0738707,40.80461879999999,0 -74.07348990000001,40.8041158,0 -74.07296660000002,40.803239899999994,0 -74.0724079,40.802070799999996,0 -74.0720112,40.801384799999994,0 -74.07158290000001,40.800788299999994,0 -74.07125410000002,40.80041459999999,0 -74.07060300000002,40.79985949999999,0 -74.06998500000002,40.799436199999995,0 -74.0675202,40.79796389999999,0 -74.06676120000002,40.79757609999999,0 -74.06651470000001,40.797476599999996,0 -74.06598380000001,40.79729629999999,0 -74.06297680000002,40.796440999999994,0 -74.06182740000001,40.796057899999994,0 -74.06102220000001,40.795726499999994,0 -74.06015610000001,40.79531239999999,0 -74.05968540000002,40.795057199999995,0 -74.05901420000002,40.794651599999995,0 -74.05171240000001,40.7894891,0 -74.05116060000002,40.789065099999995,0 -74.05034620000002,40.7883368,0 -74.04984390000003,40.7878057,0 -74.04937390000002,40.7872483,0 -74.04874360000002,40.78634100000001,0 -74.0484727,40.785870300000006,0 -74.0481235,40.78515030000001,0 -74.0477472,40.7840928,0 -74.04767670000001,40.783950100000006,0 -74.0469688,40.78171290000001,0 -74.04703540000001,40.781627400000005,0 -74.04698690000001,40.78137240000001,0 -74.04700690000001,40.78109390000001,0 -74.04721580000002,40.78029290000001,0 -74.04721660000001,40.78013210000001,0 -74.04718840000001,40.77995150000001,0 -74.04712540000001,40.77977870000001,0 -74.04700850000002,40.77958540000001,0 -74.04679670000002,40.77932040000002,0 -74.04676880000001,40.77924330000002,0 -74.04596540000001,40.77833500000001,0 -74.04584730000002,40.77812990000002,0 -74.04579470000002,40.77800180000001,0 -74.04551030000003,40.77705240000002,0 -74.04470030000003,40.775663600000016,0 -74.04415490000004,40.77506020000001,0 -74.04360640000003,40.77458960000001,0 -74.04267770000003,40.77386110000001,0 -74.04253070000003,40.773726400000015,0 -74.04233580000003,40.77345720000002,0 -74.04219410000003,40.77307680000002,0 -74.04225440000003,40.77271720000002,0 -74.04235340000004,40.77242230000002,0 -74.04246600000003,40.77220080000002,0 -74.04318710000003,40.77110270000002,0 -74.04697560000004,40.76610120000002,0 -74.05000580000004,40.76179640000002,0 -74.05005970000003,40.761777100000025,0 -74.05008940000003,40.76176050000002,0 -74.05023670000004,40.761623800000024,0 -74.05062620000004,40.76132940000002,0 -74.05120200000005,40.760976100000015,0 -74.05133160000004,40.760881800000014,0 -74.05180820000004,40.76041630000001,0 -74.04995870000005,40.75953780000001,0 -74.04987040000005,40.75948390000001,0 -74.04970920000005,40.75931890000002,0 -74.04963670000006,40.759222000000015,0 -74.04931700000006,40.758629300000024,0 -74.04926640000006,40.758569700000024,0 -74.04923530000006,40.75854730000002,0 -74.04856580000006,40.75831780000002,0 -74.04842030000006,40.75829660000002,0 -74.04584100000005,40.757384800000025,0 -74.04777090000006,40.754549500000024,0 -74.04808980000006,40.75418510000002,0 -74.04853240000007,40.753858800000025,0 -74.04885310000007,40.75369210000002,0 -74.04933200000006,40.753562700000025,0 -74.05092050000006,40.75327420000003,0 -74.05092870000007,40.753275200000026,0 -74.05132390000007,40.75313390000002,0 -74.05209410000008,40.752736300000024,0 -74.05304220000008,40.75229710000003,0 -74.05324410000007,40.75213400000003,0 -74.05344520000008,40.75188740000003,0 -74.05444880000007,40.75048640000003,0 -74.05831960000008,40.744726400000026,0 -74.06197080000008,40.739676700000025,0 -74.06187880000009,40.739618200000024,0 -74.05914340000008,40.73731770000002,0 -74.05369020000008,40.732525600000024,0 -74.05356370000008,40.73236280000002,0 -74.05287370000008,40.73175490000002,0 -74.05507170000007,40.730077100000024,0 -74.05525750000008,40.72995670000002,0 -74.05464490000007,40.72821780000002,0 -74.05457550000007,40.728092400000016,0 -74.05437720000008,40.727869300000016,0 -74.05341360000007,40.72690160000001,0 -74.05171140000007,40.725337300000014,0 -74.04386240000007,40.72465140000001,0 -74.04374880000007,40.72535310000002,0 -74.04062580000007,40.72507860000002,0 -74.04045160000008,40.72501060000002,0 -74.04006260000008,40.724966000000016,0 -74.03932260000008,40.724723400000016,0 -74.03892900000008,40.72466720000001,0 -74.03575110000008,40.72438320000002,0 -74.03554420000009,40.72492730000002,0 -74.0354754000001,40.725293600000015,0 -74.0352564000001,40.72580790000002,0 -74.03446400000009,40.72713550000002,0 -74.03440490000008,40.72730400000002,0 -74.03437540000007,40.727442300000014,0 -74.03435280000008,40.72771420000002,0 -74.03437360000008,40.72784990000002,0 -74.03440690000008,40.72796490000002,0 </coordinates></LineString><TimeSpan><begin>2021-11-29T21:42:14.420Z</begin><end>2021-11-29T22:28:19.415Z</end></TimeSpan></Placemark><Placemark><name>Chef Tan</name><address>558 Washington Blvd, Jersey City, NJ 07310</address><ExtendedData><Data name="Email"><value>syugen.zhou@gmail.com</value></Data><Data name="Category"><value>Chinese</value></Data><Data name="Distance"><value>0</value></Data></ExtendedData><description> Chinese from 2021-11-29T22:28:19.415Z to 2021-11-30T01:27:11.733Z. Distance 0m </description><Point><coordinates>-74.0342187,40.728366799999996,0</coordinates></Point><TimeSpan><begin>2021-11-29T22:28:19.415Z</begin><end>2021-11-30T01:27:11.733Z</end></TimeSpan></Placemark><Placemark><name>Newport</name><address>Jersey City, NJ</address><ExtendedData><Data name="Email"><value>syugen.zhou@gmail.com</value></Data><Data name="Category"><value></value></Data><Data name="Distance"><value>0</value></Data></ExtendedData><description>  from 2021-11-30T01:27:11.733Z to 2021-11-30T01:36:14.407Z. Distance 0m </description><Point><coordinates>-74.0344188,40.729028799999995,0</coordinates></Point><TimeSpan><begin>2021-11-30T01:27:11.733Z</begin><end>2021-11-30T01:36:14.407Z</end></TimeSpan></Placemark><Placemark><name>Driving</name><address></address><ExtendedData><Data name="Email"><value>syugen.zhou@gmail.com</value></Data><Data name="Category"><value>Driving</value></Data><Data name="Distance"><value>43874</value></Data></ExtendedData><description> Driving from 2021-11-30T01:36:14.407Z to 2021-11-30T02:58:45.385Z. Distance 43874m </description><LineString><altitudeMode>clampToGround</altitudeMode><extrude>1</extrude><tesselate>1</tesselate><coordinates>-74.0376129,40.725207,0 -74.0376959,40.724677299999996,0 -74.039082,40.72478629999999,0 -74.0398722,40.72503019999999,0 -74.03992,40.72507909999999,0 -74.0402156,40.725167699999986,0 -74.0402991,40.72522879999999,0 -74.04039759999999,40.725352499999985,0 -74.04003209999999,40.72767179999999,0 -74.03999429999999,40.72770049999999,0 -74.039729,40.72949449999999,0 -74.0396508,40.729708499999994,0 -74.0395925,40.72977769999999,0 -74.03945590000001,40.72983899999999,0 -74.0390944,40.72991609999999,0 -74.0366482,40.72978769999999,0 -74.03570599999999,40.729625599999984,0 -74.03219549999999,40.72869989999999,0 -74.0269666,40.72826339999998,0 -74.01510909999999,40.726416599999986,0 -74.01227449999999,40.72613469999999,0 -74.011867,40.72603159999999,0 -74.0111191,40.72571759999999,0 -74.0065948,40.722500199999985,0 -74.00653360000001,40.72239179999999,0 -74.00652510000002,40.722081499999994,0 -74.00658310000001,40.721919799999995,0 -74.00664290000002,40.72183109999999,0 -74.006781,40.721720299999994,0 -74.00692910000001,40.721656599999996,0 -74.00706720000001,40.721624,0 -74.00760100000001,40.721606799999996,0 -74.007778,40.721545799999994,0 -74.00792150000001,40.721433999999995,0 -74.0079913,40.721314,0 -74.00800720000001,40.72118389999999,0 -74.00799270000002,40.7211083,0 -74.0078644,40.720941999999994,0 -74.0077539,40.720872899999996,0 -74.0075433,40.720817,0 -74.00741880000001,40.720816,0 -74.0072044,40.7208722,0 -74.0071242,40.7209169,0 -74.00702830000002,40.7210081,0 -74.00682410000002,40.721480400000004,0 -74.00674470000001,40.721593,0 -74.00651080000002,40.7217946,0 -74.00646910000002,40.7218152,0 -74.00636910000001,40.72183640000001,0 -74.00508640000001,40.7216911,0 -73.99862790000002,40.717072200000004,0 -73.9961961,40.7162083,0 -73.99609070000001,40.716124199999996,0 -73.99583530000001,40.7157127,0 -73.99580460000001,40.7156251,0 -73.99571710000001,40.7155164,0 -73.99508390000001,40.714944800000005,0 -73.9853609,40.697563800000005,0 -73.98344820000001,40.6937136,0 -73.98427620000001,40.6937711,0 -73.98431560000002,40.6937182,0 -73.98431940000002,40.6936877,0 -73.98428460000001,40.6936127,0 -73.98320030000001,40.6935815,0 -73.9842057,40.6955667,0 -73.9841572,40.6956956,0 -73.9841442,40.695934199999996,0 -73.98224289999999,40.6958738,0 -73.98215239999999,40.6959074,0 -73.9816482,40.695974,0 -73.98081839999999,40.6962283,0 -73.98045019999998,40.6962862,0 -73.979739,40.69626950000001,0 -73.97963079999998,40.69631050000001,0 -73.9653096,40.695746600000014,0 -73.96488049999999,40.69578870000001,0 -73.9641114,40.695988100000015,0 -73.9636712,40.696196100000016,0 -73.96343449999999,40.69634340000002,0 -73.96297669999998,40.69674360000002,0 -73.96275779999999,40.69703040000002,0 -73.96257189999999,40.69738700000002,0 -73.96189679999999,40.699582800000016,0 -73.96137279999999,40.700861500000016,0 -73.956813,40.70888230000002,0 -73.9541683,40.712845500000014,0 -73.9537047,40.71340760000002,0 -73.9516495,40.71525970000002,0 -73.95045640000001,40.71614370000002,0 -73.94606120000002,40.71897890000002,0 -73.94186300000001,40.72146700000002,0 -73.9402393,40.722606800000015,0 -73.9382096,40.72369240000002,0 -73.937576,40.72393670000002,0 -73.9352599,40.72452840000002,0 -73.9350474,40.72454260000002,0 -73.93268520000001,40.725077200000015,0 -73.932038,40.725296600000014,0 -73.9313711,40.72559640000002,0 -73.930707,40.72598520000002,0 -73.93029720000001,40.726283200000026,0 -73.9273845,40.72882210000002,0 -73.9269039,40.72936410000002,0 -73.9251163,40.73198170000002,0 -73.9249805,40.732027600000016,0 -73.9246226,40.73252940000002,0 -73.9243894,40.732717600000015,0 -73.92408490000001,40.732856200000015,0 -73.9237885,40.73291850000001,0 -73.92355239999999,40.73292470000001,0 -73.92002889999999,40.732339400000015,0 -73.9193396,40.73212130000001,0 -73.9188961,40.731892500000015,0 -73.9180667,40.73155650000002,0 -73.9141857,40.730453900000015,0 -73.9121404,40.72997460000001,0 -73.9112475,40.729704200000015,0 -73.9103271,40.729327300000016,0 -73.9097984,40.72902300000001,0 -73.90948440000001,40.728708200000014,0 -73.9070509,40.72713660000001,0 -73.9060796,40.72667300000001,0 -73.9053304,40.72640870000001,0 -73.9041947,40.72612810000001,0 -73.8947133,40.72522460000001,0 -73.8940675,40.725202300000014,0 -73.89268709999999,40.72530350000002,0 -73.8912811,40.72561480000002,0 -73.8900621,40.726101200000016,0 -73.8879544,40.72733980000001,0 -73.8868375,40.72785110000001,0 -73.8858776,40.72813530000001,0 -73.8847494,40.72832620000001,0 -73.8812838,40.72860450000001,0 -73.8802894,40.728778600000005,0 -73.8792011,40.72910620000001,0 -73.8763484,40.730214200000006,0 -73.869614,40.73224760000001,0 -73.8656078,40.733579000000006,0 -73.85595880000001,40.73643980000001,0 -73.852127,40.737222200000005,0 -73.8504182,40.73773630000001,0 -73.8481199,40.73865110000001,0 -73.8392653,40.74280810000001,0 -73.8382719,40.74311270000001,0 -73.83726170000001,40.74330290000001,0 -73.8365367,40.74337360000001,0 -73.835878,40.74338450000001,0 -73.8301977,40.74286570000001,0 -73.83005010000001,40.74278380000001,0 -73.8285542,40.74255150000001,0 -73.8284384,40.74248550000001,0 -73.8276805,40.742406900000006,0 -73.8273793,40.742330800000005,0 -73.82659170000001,40.741890500000004,0 -73.8252743,40.7417473,0 -73.82493280000001,40.740042900000006,0 -73.82489950000001,40.739506500000005,0 -73.8254064,40.7340795,0 -73.825377,40.73372090000001,0 -73.8252232,40.73329520000001,0 -73.8245564,40.73200250000001,0 -73.82469540000001,40.73198170000001,0 -73.83025980000001,40.73032820000001,0 -73.83034540000001,40.73028100000001,0 -73.83106040000001,40.72957930000001,0 -73.83179820000001,40.729996000000014,0 -73.8320781,40.730079400000015,0 -73.83232600000001,40.730100700000015,0 -73.83267110000001,40.73006130000002,0 -73.8330751,40.72992890000002,0 -73.8338734,40.73055940000002,0 -73.8342243,40.730934800000014,0 -73.8343794,40.73117760000002,0 -73.8345505,40.731300300000015,0 -73.8358972,40.73392360000002,0 -73.8361455,40.73454260000002,0 -73.8363153,40.73524670000002,0 -73.8362403,40.73532150000002,0 -73.8361449,40.735864300000024,0 -73.8357532,40.73701490000002,0 -73.835724,40.73754130000002,0 -73.8358758,40.738076800000016,0 -73.83655139999999,40.739243600000016,0 -73.8367146,40.73961520000002,0 -73.83710649999999,40.74138410000002,0 -73.8370839,40.74184040000002,0 -73.83694799999999,40.742192400000015,0 -73.8368958,40.74226400000002,0 -73.8371387,40.743560600000016,0 -73.8371172,40.743753900000016,0 -73.83700359999999,40.74400210000002,0 -73.8367638,40.74421990000002,0 -73.8359292,40.744740700000015,0 -73.8355029,40.74529610000001,0 -73.83462779999999,40.746878500000015,0 -73.83444159999999,40.74711720000001,0 -73.8341317,40.74736930000002,0 -73.8331127,40.747999000000014,0 -73.8330049,40.74815060000001,0 -73.8321733,40.751622800000014,0 -73.8321752,40.75177820000001,0 -73.834199,40.75809720000001,0 -73.83415169999999,40.758137800000014,0 -73.8338208,40.75829520000001,0 -73.83381580000001,40.758325700000015,0 -73.83013240000001,40.759566200000016,0 -73.8244269,40.76099770000001,0 -73.8259868,40.76440710000001,0 -73.828108,40.76405940000001,0 -73.83328,40.76282080000001,0 -73.8360191,40.76285900000001,0 -73.8380918,40.762672300000006,0 -73.838485,40.76274560000001,0 -73.8386616,40.76282640000001,0 -73.8388644,40.76299010000001,0 -73.83928150000001,40.763566300000015,0 -73.8394468,40.763666600000015,0 -73.83962960000001,40.76371380000001,0 -73.83989170000001,40.763709500000004,0 -73.84006320000002,40.7636667,0 -73.84023070000002,40.7635664,0 -73.84037070000001,40.763393400000005,0 -73.84041310000002,40.76322770000001,0 -73.84040390000001,40.763118500000004,0 -73.84031320000001,40.76295350000001,0 -73.8397522,40.76247730000001,0 -73.83904690000001,40.76125000000001,0 -73.83892500000002,40.76083680000001,0 -73.83887890000001,40.75993400000001,0 -73.83882190000001,40.759846800000005,0 -73.83895380000001,40.75858950000001,0 -73.83889750000002,40.7578899,0 -73.83825750000001,40.7550177,0 -73.83786020000002,40.754197000000005,0 -73.83524440000002,40.7503145,0 -73.834996,40.7498241,0 -73.83484620000002,40.749331399999996,0 -73.83478140000001,40.74861489999999,0 -73.83492760000001,40.747815499999994,0 -73.83515910000001,40.74728009999999,0 -73.8354003,40.74690039999999,0 -73.83720050000001,40.74475699999999,0 -73.83760000000001,40.74397669999999,0 -73.8377767,40.743208499999994,0 -73.83778430000001,40.742181499999994,0 -73.83766130000001,40.74154549999999,0 -73.8368914,40.73890149999998,0 -73.836696,40.73785419999999,0 -73.8364921,40.73524669999999,0 -73.8362384,40.73429569999999,0 -73.8324346,40.72694779999999,0 -73.83202440000001,40.72642679999999,0 -73.83155980000001,40.72599169999999,0 -73.82950939999999,40.72459789999999,0 -73.8289201,40.724127899999985,0 -73.82830360000001,40.72352439999999,0 -73.82761610000001,40.72266289999998,0 -73.82652340000001,40.720787499999986,0 -73.8263637,40.720271199999985,0 -73.8262874,40.71943719999998,0 -73.82637190000001,40.717482899999986,0 -73.82625650000001,40.71653289999999,0 -73.8259577,40.71567249999999,0 -73.8251798,40.71440729999999,0 -73.824296,40.71324089999999,0 -73.82420760000001,40.713184099999985,0 -73.82361370000001,40.71251389999998,0 -73.8230585,40.71198639999999,0 -73.8213566,40.710607999999986,0 -73.82035010000001,40.70950269999999,0 -73.81998490000001,40.70897859999999,0 -73.8200257,40.70888679999999,0 -73.81945830000001,40.707509999999985,0 -73.81830620000001,40.705821399999984,0 -73.81821480000002,40.705780899999986,0 -73.81768070000003,40.70486779999999,0 -73.81756180000002,40.70483299999998,0 -73.81424150000002,40.697986499999985,0 -73.81270240000002,40.69548619999998,0 -73.80718270000001,40.68566629999998,0 -73.80722370000001,40.68555449999998,0 -73.8065473,40.68365129999998,0 -73.8065635,40.68352509999998,0 -73.8062204,40.68280109999998,0 -73.82546479999999,40.67735119999998,0 -73.8256183,40.67722419999998,0 -73.8295972,40.677871799999984,0 -73.8309168,40.67817669999998,0 -73.8308947,40.67805799999998,0 -73.8311433,40.67717329999998,0 -73.8311524,40.67667189999998,0 -73.8312381,40.67635889999998,0 -73.83136669999999,40.67611439999998,0 -73.83155629999999,40.67587609999998,0 -73.83174639999999,40.675707299999985,0 -73.83192179999999,40.67560359999999,0 -73.83219039999999,40.67553439999999,0 -73.83163559999998,40.67540249999998,0 -73.83154639999998,40.67539819999998,0 -73.83146429999998,40.67541979999998,0 -73.83141729999998,40.67544979999998,0 -73.83124109999999,40.67575369999998,0 -73.83117959999998,40.67578559999998,0 -73.83106019999998,40.67579009999998,0 -73.83099779999998,40.67576789999998,0 -73.83090519999999,40.67568299999998,0 -73.8309008,40.67559449999998,0 -73.8311114,40.67510309999998,0 -73.8308988,40.675609999999985,0 -73.8308615,40.67565339999999,0 -73.83084639999998,40.67571369999999,0 -73.83090619999999,40.67605899999999,0 -73.83080049999998,40.67641619999999,0 -73.83087879999998,40.67645119999999,0 -73.83108189999999,40.67649179999999,0 -73.83099809999997,40.67712039999999,0 -73.83114989999997,40.67712389999999,0 -73.83115239999997,40.676671899999995,0 -73.83123809999996,40.6763589,0 -73.83136669999996,40.676114399999996,0 -73.83155629999996,40.675876099999996,0 -73.83174639999996,40.6757073,0 -73.83192179999996,40.6756036,0 -73.83219039999996,40.6755344,0 -73.83232169999997,40.6754369,0 -73.83332369999997,40.6750473,0 -73.83366879999997,40.674847500000006,0 </coordinates></LineString><TimeSpan><begin>2021-11-30T01:36:14.407Z</begin><end>2021-11-30T02:58:45.385Z</end></TimeSpan></Placemark><Placemark><name>Hyatt Regency Jfk Airport At Resorts World New York</name><address>110-00 Rockaway Blvd, Queens, NY 11417</address><ExtendedData><Data name="Email"><value>syugen.zhou@gmail.com</value></Data><Data name="Category"><value>Hotel</value></Data><Data name="Distance"><value>0</value></Data></ExtendedData><description> Hotel from 2021-11-30T02:58:45.385Z to 2021-11-30T12:07:05.000Z. Distance 0m </description><Point><coordinates>-73.8327454,40.6737227,0</coordinates></Point><TimeSpan><begin>2021-11-30T02:58:45.385Z</begin><end>2021-11-30T12:07:05.000Z</end></TimeSpan></Placemark></Document></kml>
