<?xml version="1.0" encoding="UTF-8"?><kml xmlns="http://www.opengis.net/kml/2.2" xmlns:gx="http://www.google.com/kml/ext/2.2"><Document><name> Location history from 2021-11-24 to 2021-11-24 </name><open>1</open><description></description><StyleMap id="multiTrack"><Pair><key>normal</key><styleUrl>#multiTrack_n</styleUrl></Pair><Pair><key>highlight</key><styleUrl>#multiTrack_h</styleUrl></Pair></StyleMap><Style id="multiTrack_n"><IconStyle><Icon><href>https://earth.google.com/images/kml-icons/track-directional/track-0.png</href></Icon></IconStyle><LineStyle><color>99ffac59</color><width>6</width></LineStyle></Style><Style id="multiTrack_h"><IconStyle><scale>1.2</scale><Icon><href>https://earth.google.com/images/kml-icons/track-directional/track-0.png</href></Icon></IconStyle><LineStyle><color>99ffac59</color><width>8</width></LineStyle></Style><Placemark><name>Crowne Plaza New Orleans French Quarter, an IHG Hotel</name><address>739 Canal St. @, Bourbon St, New Orleans, LA 70130</address><ExtendedData><Data name="Email"><value>syugen.zhou@gmail.com</value></Data><Data name="Category"><value>Hotel</value></Data><Data name="Distance"><value>0</value></Data></ExtendedData><description> Hotel from 2021-11-23T22:16:36.573Z to 2021-11-24T15:37:52.896Z. Distance 0m </description><Point><coordinates>-90.06955909999999,29.953835599999998,0</coordinates></Point><TimeSpan><begin>2021-11-23T22:16:36.573Z</begin><end>2021-11-24T15:37:52.896Z</end></TimeSpan></Placemark><Placemark><name>Driving</name><address></address><ExtendedData><Data name="Email"><value>syugen.zhou@gmail.com</value></Data><Data name="Category"><value>Driving</value></Data><Data name="Distance"><value>2428</value></Data></ExtendedData><description> Driving from 2021-11-24T15:37:52.896Z to 2021-11-24T15:43:03.868Z. Distance 2428m </description><LineString><altitudeMode>clampToGround</altitudeMode><extrude>1</extrude><tesselate>1</tesselate><coordinates>-90.0696594,29.9537098,0 -90.0698991,29.9538711,0 -90.0705464,29.954321800000002,0 -90.0707834,29.954486799999998,0 -90.0711973,29.9547579,0 -90.0715493,29.954987,0 -90.0716906,29.9550853,0 -90.0718373,29.955184799999998,0 -90.0726182,29.9557072,0 -90.0726182,29.9557072,0 -90.0725514,29.9557801,0 -90.0718612,29.956564099999998,0 -90.0718272,29.956600100000003,0 -90.0717468,29.956693200000004,0 -90.07140539999999,29.957076600000004,0 -90.0712947,29.957200900000004,0 -90.0711901,29.957318300000004,0 -90.07046329999999,29.958135200000008,0 -90.07012639999999,29.958512900000006,0 -90.06981319999998,29.958862200000006,0 -90.06973159999998,29.958949300000004,0 -90.0696538,29.9590326,0 -90.0690983,29.959659000000002,0 -90.068406,29.960435900000004,0 -90.0680234,29.960863800000006,0 -90.0679889,29.960902800000007,0 -90.06786260000001,29.961045500000004,0 -90.06761000000002,29.96133100000001,0 -90.06697400000002,29.96204600000001,0 -90.0669074,29.96211480000001,0 -90.0661773,29.962924900000008,0 -90.06578890000002,29.963362800000006,0 -90.06546990000001,29.963722500000006,0 -90.06481690000001,29.964452200000004,0 -90.06477470000002,29.964494600000002,0 -90.06408210000002,29.9652631,0 -90.06359130000001,29.9658105,0 -90.06359130000001,29.9658105,0 -90.06352660000002,29.965768899999997,0 -90.06331600000001,29.965622199999995,0 -90.06310980000002,29.96547899999999,0 -90.06267740000003,29.96517869999999,0 -90.06257430000002,29.965115199999985,0 -90.06246250000002,29.965040999999985,0 -90.06178060000002,29.964570099999982,0 -90.06174800000002,29.964545499999986,0 -90.06155920000002,29.96441799999998,0 -90.06090160000002,29.96395489999998,0 -90.06086290000003,29.96392309999998,0 -90.06079660000003,29.963876799999984,0 -90.06062110000003,29.963757499999986,0 -90.05997000000004,29.963314699999984,0 -90.05985320000003,29.963237799999984,0 -90.05907100000003,29.96270869999998,0 -90.05880770000003,29.96252399999998,0 -90.05845110000004,29.96227399999998,0 -90.05806690000004,29.96200449999998,0 -90.05785600000004,29.96186189999998,0 -90.05768560000004,29.961748099999983,0 -90.05757760000004,29.961669499999978,0 </coordinates></LineString><TimeSpan><begin>2021-11-24T15:37:52.896Z</begin><end>2021-11-24T15:43:03.868Z</end></TimeSpan></Placemark><Placemark><name>New Orleans Jazz Museum</name><address>400 Esplanade Ave, New Orleans, LA 70116</address><ExtendedData><Data name="Email"><value>syugen.zhou@gmail.com</value></Data><Data name="Category"><value>Heritage museum</value></Data><Data name="Distance"><value>0</value></Data></ExtendedData><description> Heritage museum from 2021-11-24T15:43:03.868Z to 2021-11-24T16:12:05.970Z. Distance 0m </description><Point><coordinates>-90.0578479,29.9612216,0</coordinates></Point><TimeSpan><begin>2021-11-24T15:43:03.868Z</begin><end>2021-11-24T16:12:05.970Z</end></TimeSpan></Placemark><Placemark><name>Driving</name><address></address><ExtendedData><Data name="Email"><value>syugen.zhou@gmail.com</value></Data><Data name="Category"><value>Driving</value></Data><Data name="Distance"><value>32632</value></Data></ExtendedData><description> Driving from 2021-11-24T16:12:05.970Z to 2021-11-24T16:43:59.941Z. Distance 32632m </description><LineString><altitudeMode>clampToGround</altitudeMode><extrude>1</extrude><tesselate>1</tesselate><coordinates>-90.0575322,29.961636399999996,0 -90.056904,29.961203599999997,0 -90.0564128,29.9615513,0 -90.05630409999999,29.9616511,0 -90.0561939,29.961796600000003,0 -90.0561675,29.961911500000003,0 -90.05622149999999,29.9626308,0 -90.0562487,29.9627037,0 -90.05674359999999,29.969073299999998,0 -90.05670889999999,29.969552299999997,0 -90.0570355,29.973620099999998,0 -90.0608046,29.9733752,0 -90.0608906,29.9733331,0 -90.0614564,29.973230000000004,0 -90.0654172,29.972979100000003,0 -90.0659569,29.972833700000002,0 -90.06622360000001,29.972715900000004,0 -90.06637920000001,29.9726142,0 -90.06658890000001,29.972425199999996,0 -90.06675600000001,29.9721948,0 -90.06710890000001,29.971441700000003,0 -90.0676083,29.9707304,0 -90.0676255,29.970613100000005,0 -90.08082040000001,29.955824500000002,0 -90.0811303,29.955564800000005,0 -90.08191450000001,29.955086600000005,0 -90.08200310000001,29.955005200000002,0 -90.08287940000001,29.9546001,0 -90.0834715,29.954412300000005,0 -90.08519170000001,29.954096700000004,0 -90.0856612,29.953936300000006,0 -90.08582340000001,29.953855,0 -90.08616900000001,29.9536176,0 -90.0863503,29.9534513,0 -90.0866257,29.9530921,0 -90.0867248,29.9529021,0 -90.0868225,29.952626599999995,0 -90.0868847,29.9522311,0 -90.08682499999999,29.951796699999996,0 -90.08673809999999,29.951505599999997,0 -90.0864011,29.9508759,0 -90.0860604,29.9504309,0 -90.08443209999999,29.948668400000006,0 -90.08402279999999,29.948309400000003,0 -90.0826417,29.947449000000002,0 -90.08252809999999,29.947460000000003,0 -90.08156,29.9467985,0 -90.07937039999999,29.9454666,0 -90.07322169999999,29.942038499999995,0 -90.0730595,29.941926099999993,0 -90.06718299999999,29.938660099999993,0 -90.06610129999999,29.938184099999994,0 -90.0651836,29.937917999999993,0 -90.0645783,29.937805299999994,0 -90.0637012,29.937722499999992,0 -90.04258899999999,29.93784809999999,0 -90.04218209999999,29.937821199999988,0 -90.04153029999999,29.937717099999986,0 -90.0408824,29.937513499999984,0 -90.0401724,29.937172799999985,0 -90.0398277,29.936948699999984,0 -90.03945320000001,29.936653699999983,0 -90.0388969,29.936061499999983,0 -90.03863750000001,29.93566529999998,0 -90.0384128,29.93515299999998,0 -90.038193,29.93410509999998,0 -90.0381732,29.933549699999983,0 -90.0385096,29.92939899999998,0 -90.0386567,29.92874029999998,0 -90.038951,29.92788159999998,0 -90.03928760000001,29.927186799999983,0 -90.04605620000001,29.916712399999984,0 -90.04665750000001,29.915986799999985,0 -90.04736070000001,29.915351999999984,0 -90.04799870000002,29.914905299999983,0 -90.06134720000001,29.90690869999998,0 -90.06477710000001,29.90506209999998,0 -90.07153700000002,29.90073689999998,0 -90.07226410000001,29.90039679999998,0 -90.07296070000002,29.900131199999983,0 -90.07968170000001,29.898494699999983,0 -90.08606700000001,29.896611599999982,0 -90.08760500000001,29.896292599999978,0 -90.0913744,29.89580949999998,0 -90.0916002,29.895848699999977,0 -90.09534450000001,29.89546209999998,0 -90.09538780000001,29.89546739999998,0 -90.0955119,29.895519199999978,0 -90.10021920000001,29.894927299999978,0 -90.09957280000002,29.88798869999998,0 -90.09933490000002,29.88643719999998,0 -90.09765010000001,29.867967699999973,0 -90.09763300000002,29.865921999999976,0 -90.09743560000001,29.863659099999975,0 -90.09744850000001,29.863297299999978,0 -90.09756700000001,29.862683399999977,0 -90.0977993,29.862174099999976,0 -90.09814140000002,29.861712899999976,0 -90.10023980000001,29.859434199999978,0 -90.10359220000002,29.85620989999998,0 -90.10404700000002,29.855873999999975,0 -90.10507430000001,29.85528639999998,0 -90.10423150000001,29.849816399999977,0 -90.09823550000002,29.819121599999974,0 -90.09800000000001,29.81746149999998,0 -90.09796260000002,29.81645949999998,0 -90.10016530000001,29.778138899999977,0 -90.10037200000001,29.77794139999998,0 -90.1004752,29.777890599999974,0 -90.1006081,29.777851999999978,0 -90.1007323,29.77784279999998,0 -90.10246020000001,29.778225299999978,0 -90.10293370000001,29.778388799999973,0 -90.10685790000001,29.78005979999997,0 -90.11088060000002,29.782064499999976,0 -90.1123553,29.782938999999974,0 -90.1144151,29.784364199999974,0 -90.11466770000001,29.784571399999972,0 -90.1148663,29.784402899999975,0 -90.1150947,29.784284399999976,0 -90.11515840000001,29.784232099999976,0 -90.11517480000002,29.78420649999998,0 -90.11518450000001,29.78408529999998,0 -90.1151609,29.784005499999978,0 </coordinates></LineString><TimeSpan><begin>2021-11-24T16:12:05.970Z</begin><end>2021-11-24T16:43:59.941Z</end></TimeSpan></Placemark><Placemark><name>Barataria Preserve Visitor Center</name><address>6588 Barataria Blvd, Marrero, LA 70072</address><ExtendedData><Data name="Email"><value>syugen.zhou@gmail.com</value></Data><Data name="Category"><value>Visitor center</value></Data><Data name="Distance"><value>0</value></Data></ExtendedData><description> Visitor center from 2021-11-24T16:43:59.941Z to 2021-11-24T17:09:45.999Z. Distance 0m </description><Point><coordinates>-90.11549769999999,29.7839404,0</coordinates></Point><TimeSpan><begin>2021-11-24T16:43:59.941Z</begin><end>2021-11-24T17:09:45.999Z</end></TimeSpan></Placemark><Placemark><name>Driving</name><address></address><ExtendedData><Data name="Email"><value>syugen.zhou@gmail.com</value></Data><Data name="Category"><value>Driving</value></Data><Data name="Distance"><value>9226</value></Data></ExtendedData><description> Driving from 2021-11-24T17:09:45.999Z to 2021-11-24T17:21:07.000Z. Distance 9226m </description><LineString><altitudeMode>clampToGround</altitudeMode><extrude>1</extrude><tesselate>1</tesselate><coordinates>-90.11516089999999,29.784005499999996,0 -90.1149193,29.784053999999998,0 -90.1147225,29.784111199999998,0 -90.1148663,29.784402899999993,0 -90.11466770000001,29.784571399999994,0 -90.1144151,29.78436419999999,0 -90.1123553,29.782938999999992,0 -90.1113545,29.78232599999999,0 -90.1108806,29.782064499999994,0 -90.1068579,29.780059799999993,0 -90.1029337,29.778388799999995,0 -90.1024602,29.778225299999995,0 -90.10073229999999,29.7778428,0 -90.1004588,29.777757099999995,0 -90.10042159999999,29.777739899999997,0 -90.10037379999999,29.777704999999994,0 -90.10028679999999,29.777602599999994,0 -90.10020029999998,29.777447399999996,0 -90.10064839999998,29.769967199999996,0 -90.10064429999998,29.769951899999995,0 -90.10062719999999,29.7699225,0 -90.10058159999998,29.7698913,0 -90.10060229999999,29.769766300000004,0 -90.10060309999999,29.769187500000005,0 -90.10055099999998,29.768317600000003,0 -90.09984399999999,29.762476400000004,0 -90.0994533,29.758157300000004,0 -90.09946409999998,29.7574633,0 -90.09950559999999,29.7571111,0 -90.09962689999999,29.756576700000004,0 -90.09977689999998,29.756129100000003,0 -90.09988119999997,29.755894000000005,0 -90.10016689999998,29.755351800000003,0 -90.10038219999998,29.7550266,0 -90.10073349999998,29.754594900000004,0 -90.10112149999998,29.754219200000005,0 -90.10165679999997,29.753797500000005,0 -90.10173339999997,29.753787100000004,0 -90.10179019999997,29.753763700000004,0 -90.10206099999996,29.75359810000001,0 -90.10219789999996,29.753539300000007,0 -90.10228599999996,29.753514700000007,0 -90.10240679999995,29.753502100000002,0 -90.10248769999997,29.7535046,0 -90.10259689999995,29.753526100000002,0 -90.10273879999997,29.753591200000002,0 -90.10283929999997,29.753663200000002,0 -90.10289969999997,29.753735300000006,0 -90.10296449999996,29.753844600000004,0 -90.10298849999997,29.753912900000003,0 -90.10299729999997,29.753981800000005,0 -90.10298349999997,29.754098100000007,0 -90.10294999999996,29.754194800000008,0 -90.10283349999996,29.75439010000001,0 -90.10270979999996,29.75453610000001,0 -90.10258139999996,29.754654900000006,0 -90.10236679999996,29.754775100000007,0 -90.10216979999996,29.754853600000004,0 -90.10114319999995,29.755091300000004,0 -90.10098009999994,29.755140500000003,0 -90.10080899999994,29.755210800000004,0 -90.10059429999994,29.755338400000007,0 -90.10042219999994,29.755484100000004,0 -90.10027239999994,29.755677100000003,0 -90.10008199999993,29.755995000000002,0 -90.09989589999994,29.756397500000006,0 -90.09982889999995,29.756592000000005,0 -90.09970859999994,29.757065600000004,0 -90.09966909999994,29.757375400000008,0 -90.09965439999993,29.757806700000007,0 -90.09966799999994,29.758094400000004,0 -90.09993059999995,29.76065880000001,0 -90.10277569999995,29.760537400000008,0 -90.10334439999995,29.760483000000008,0 -90.10440379999996,29.760291200000008,0 -90.10487799999996,29.760240400000004,0 -90.10622359999995,29.760200600000008,0 -90.10672969999996,29.760155300000008,0 -90.11945309999996,29.758505700000008,0 -90.11987199999996,29.75840020000001,0 -90.12022609999995,29.75825520000001,0 -90.13509269999996,29.75065340000001,0 -90.13520389999996,29.75058530000001,0 -90.13535409999996,29.750473300000014,0 -90.13548059999997,29.750339100000016,0 -90.13556319999998,29.750196900000017,0 -90.13561429999997,29.75004790000002,0 -90.13563549999998,29.74991550000002,0 -90.13563789999998,29.74979720000002,0 -90.13561319999997,29.749620700000023,0 -90.13559559999996,29.749560600000024,0 -90.13553699999997,29.749428500000025,0 -90.13071409999996,29.742235400000027,0 -90.13172439999997,29.741987500000022,0 -90.13185859999997,29.741931600000022,0 -90.13187559999997,29.741915600000024,0 -90.13188479999998,29.741899500000024,0 -90.13189029999998,29.741860000000027,0 -90.13181019999998,29.741570600000024,0 -90.13178279999998,29.741502600000025,0 </coordinates></LineString><TimeSpan><begin>2021-11-24T17:09:45.999Z</begin><end>2021-11-24T17:21:07.000Z</end></TimeSpan></Placemark><Placemark><name>Airboat Adventures</name><address>5145 Fleming Park Rd, Lafitte, LA 70067</address><ExtendedData><Data name="Email"><value>syugen.zhou@gmail.com</value></Data><Data name="Category"><value>Tourist attraction</value></Data><Data name="Distance"><value>0</value></Data></ExtendedData><description> Tourist attraction from 2021-11-24T17:21:07.000Z to 2021-11-24T18:08:11.920Z. Distance 0m </description><Point><coordinates>-90.1316204,29.7417697,0</coordinates></Point><TimeSpan><begin>2021-11-24T17:21:07.000Z</begin><end>2021-11-24T18:08:11.920Z</end></TimeSpan></Placemark><Placemark><name>Boating</name><address></address><ExtendedData><Data name="Email"><value>syugen.zhou@gmail.com</value></Data><Data name="Category"><value>Boating</value></Data><Data name="Distance"><value>5103</value></Data></ExtendedData><description> Boating from 2021-11-24T18:08:11.920Z to 2021-11-24T18:43:51.807Z. Distance 5103m </description><LineString><altitudeMode>clampToGround</altitudeMode><extrude>1</extrude><tesselate>1</tesselate><coordinates>-90.1316204,29.741769700000003,0 -90.1316204,29.741769700000003,0 -90.131694,29.7414672,0 -90.1324499,29.7395245,0 -90.1318037,29.7385003,0 -90.1314975,29.7374585,0 -90.13285,29.7384737,0 -90.132931,29.7391484,0 -90.1324651,29.7410086,0 -90.1341155,29.7425555,0 -90.1451849,29.7348088,0 -90.1490926,29.7301355,0 -90.1513787,29.7252098,0 -90.1489357,29.7237429,0 -90.1459807,29.7224084,0 -90.1393053,29.7228978,0 -90.1391227,29.7229364,0 -90.1392972,29.722858,0 -90.1392972,29.722858,0 </coordinates></LineString><TimeSpan><begin>2021-11-24T18:08:11.920Z</begin><end>2021-11-24T18:43:51.807Z</end></TimeSpan></Placemark><Placemark><name>Princess and the Frog Filming</name><address>Unnamed Road, Barataria, LA 70036</address><ExtendedData><Data name="Email"><value>syugen.zhou@gmail.com</value></Data><Data name="Category"><value>Tourist attraction</value></Data><Data name="Distance"><value>0</value></Data></ExtendedData><description> Tourist attraction from 2021-11-24T18:43:51.807Z to 2021-11-24T19:02:44.589Z. Distance 0m </description><Point><coordinates>-90.1392972,29.722858,0</coordinates></Point><TimeSpan><begin>2021-11-24T18:43:51.807Z</begin><end>2021-11-24T19:02:44.589Z</end></TimeSpan></Placemark><Placemark><name>Boating</name><address></address><ExtendedData><Data name="Email"><value>syugen.zhou@gmail.com</value></Data><Data name="Category"><value>Boating</value></Data><Data name="Distance"><value>4776</value></Data></ExtendedData><description> Boating from 2021-11-24T19:02:44.589Z to 2021-11-24T19:30:51.287Z. Distance 4776m </description><LineString><altitudeMode>clampToGround</altitudeMode><extrude>1</extrude><tesselate>1</tesselate><coordinates>-90.1392972,29.722858,0 -90.1392972,29.722858,0 -90.1391462,29.7229272,0 -90.1418605,29.7209931,0 -90.1496799,29.7241471,0 -90.1522122,29.7258422,0 -90.1508049,29.7285968,0 -90.1468868,29.7323301,0 -90.1424125,29.7382745,0 -90.1387542,29.7428623,0 -90.1361447,29.7450239,0 -90.1317606,29.7414156,0 -90.1316204,29.741769700000003,0 -90.1316204,29.741769700000003,0 </coordinates></LineString><TimeSpan><begin>2021-11-24T19:02:44.589Z</begin><end>2021-11-24T19:30:51.287Z</end></TimeSpan></Placemark><Placemark><name>Airboat Adventures</name><address>5145 Fleming Park Rd, Lafitte, LA 70067</address><ExtendedData><Data name="Email"><value>syugen.zhou@gmail.com</value></Data><Data name="Category"><value>Tourist attraction</value></Data><Data name="Distance"><value>0</value></Data></ExtendedData><description> Tourist attraction from 2021-11-24T19:30:51.287Z to 2021-11-24T19:45:14.302Z. Distance 0m </description><Point><coordinates>-90.1316204,29.7417697,0</coordinates></Point><TimeSpan><begin>2021-11-24T19:30:51.287Z</begin><end>2021-11-24T19:45:14.302Z</end></TimeSpan></Placemark><Placemark><name>Driving</name><address></address><ExtendedData><Data name="Email"><value>syugen.zhou@gmail.com</value></Data><Data name="Category"><value>Driving</value></Data><Data name="Distance"><value>45355</value></Data></ExtendedData><description> Driving from 2021-11-24T19:45:14.302Z to 2021-11-24T20:46:49.749Z. Distance 45355m </description><LineString><altitudeMode>clampToGround</altitudeMode><extrude>1</extrude><tesselate>1</tesselate><coordinates>-90.1317548,29.741433200000003,0 -90.1316808,29.741251400000003,0 -90.1316584,29.741223800000004,0 -90.1315846,29.741176300000006,0 -90.13147889999999,29.741150100000006,0 -90.13138259999998,29.741145400000004,0 -90.13092249999998,29.741235400000004,0 -90.1301663,29.741430400000006,0 -90.13553699999999,29.749428500000004,0 -90.1356132,29.749620700000005,0 -90.13563789999999,29.7497972,0 -90.13563549999999,29.749915500000004,0 -90.1356143,29.750047900000002,0 -90.13556319999999,29.7501969,0 -90.1354806,29.750339099999998,0 -90.13535409999999,29.750473299999996,0 -90.13509269999999,29.75065339999999,0 -90.12022609999998,29.75825519999999,0 -90.11987199999999,29.758400199999993,0 -90.11945309999997,29.75850569999999,0 -90.10672969999999,29.76015529999999,0 -90.10622359999998,29.76020059999999,0 -90.10487799999999,29.760240399999986,0 -90.10440379999999,29.760291199999987,0 -90.10334439999997,29.76048299999999,0 -90.10277569999997,29.76053739999999,0 -90.10005009999998,29.760652499999992,0 -90.09976949999998,29.758005299999994,0 -90.09976499999996,29.757546199999993,0 -90.09980279999996,29.757158199999992,0 -90.09991489999996,29.756668299999994,0 -90.10014499999997,29.756097599999993,0 -90.10031969999997,29.75578919999999,0 -90.10041359999997,29.75565639999999,0 -90.10053089999997,29.75552879999999,0 -90.10061599999997,29.75545549999999,0 -90.10078419999998,29.755339199999987,0 -90.10098879999998,29.755244999999988,0 -90.10222059999998,29.754936499999992,0 -90.10250669999998,29.75481329999999,0 -90.10260869999998,29.75474499999999,0 -90.10285809999996,29.754518099999988,0 -90.10301119999997,29.754309499999987,0 -90.10304749999997,29.754230199999984,0 -90.10308239999998,29.75410039999998,0 -90.10309429999997,29.75396019999998,0 -90.10306679999998,29.753827999999977,0 -90.10297969999998,29.75365679999998,0 -90.10274609999998,29.75330419999998,0 -90.10269739999997,29.75324839999998,0 -90.10263319999999,29.753208899999983,0 -90.10260269999998,29.753199399999982,0 -90.10255869999997,29.753194599999983,0 -90.10252569999997,29.75319799999998,0 -90.10244269999998,29.75322199999998,0 -90.10233389999998,29.75327679999998,0 -90.10174459999998,29.753649499999977,0 -90.10171689999997,29.753677099999976,0 -90.10168019999998,29.753737399999977,0 -90.10165679999997,29.75379749999998,0 -90.10112149999998,29.75421919999998,0 -90.10073349999998,29.75459489999998,0 -90.10038219999998,29.755026599999976,0 -90.10016689999998,29.75535179999998,0 -90.09977689999998,29.756129099999978,0 -90.09962689999999,29.756576699999975,0 -90.09950559999999,29.757111099999975,0 -90.09946409999998,29.757463299999973,0 -90.0994533,29.758157299999976,0 -90.09984399999999,29.76247639999998,0 -90.10055099999998,29.76831759999998,0 -90.10060309999999,29.76918749999998,0 -90.10060229999999,29.769766299999976,0 -90.10058159999998,29.769891299999976,0 -90.10055,29.769920599999974,0 -90.1005247,29.769976799999977,0 -90.1003045,29.771426299999977,0 -90.1002358,29.772120499999975,0 -90.0976872,29.816529999999972,0 -90.09770519999998,29.81716899999997,0 -90.09786669999998,29.81860139999997,0 -90.10414899999999,29.850748599999967,0 -90.10482339999999,29.85489749999997,0 -90.10472239999999,29.855155199999974,0 -90.10465379999998,29.85527599999997,0 -90.10464039999998,29.85532369999997,0 -90.10409979999997,29.855631199999973,0 -90.10370019999998,29.855899299999972,0 -90.10326229999997,29.856260099999975,0 -90.10060559999997,29.858819099999973,0 -90.09857739999997,29.86096579999997,0 -90.09793339999997,29.86169569999997,0 -90.09766299999997,29.86207079999997,0 -90.09745909999997,29.86246499999997,0 -90.09736629999996,29.862714999999973,0 -90.09730309999996,29.86295949999997,0 -90.09725569999996,29.86327569999997,0 -90.09724669999997,29.86352199999997,0 -90.09746429999997,29.866097699999973,0 -90.09744379999997,29.86740149999997,0 -90.09746359999995,29.867974199999974,0 -90.09907389999996,29.88599019999997,0 -90.09940109999997,29.888006699999973,0 -90.09999109999997,29.894293099999974,0 -90.09595419999997,29.894791599999973,0 -90.09576049999997,29.89488259999997,0 -90.09555779999998,29.894947899999973,0 -90.09303749999998,29.89527209999997,0 -90.09224959999997,29.895419099999973,0 -90.09217949999999,29.895494299999974,0 -90.08748199999998,29.896093599999976,0 -90.08694429999998,29.89618929999997,0 -90.0792862,29.89803309999997,0 -90.07312089999999,29.899865499999976,0 -90.0720397,29.900261399999977,0 -90.0713209,29.90060579999998,0 -90.0706941,29.90098089999998,0 -90.06472819999999,29.904835999999978,0 -90.0638994,29.905318299999976,0 -90.0611908,29.90674339999998,0 -90.0478827,29.914721899999982,0 -90.04737820000001,29.91506089999998,0 -90.0470523,29.915314999999975,0 -90.0466194,29.915705099999975,0 -90.0462244,29.91612829999998,0 -90.04587040000001,29.91658079999998,0 -90.03952890000001,29.926350299999978,0 -90.03904460000001,29.927169099999976,0 -90.03862500000001,29.927955399999973,0 -90.0383269,29.928592699999975,0 -90.03763269999999,29.93041819999997,0 -90.0375075,29.93085119999997,0 -90.0373673,29.931573899999975,0 -90.0372569,29.932776899999972,0 -90.03728650000001,29.934464299999973,0 -90.0373471,29.934828799999973,0 -90.0374503,29.935221299999974,0 -90.0376141,29.93559909999997,0 -90.0377741,29.935878299999967,0 -90.0381228,29.936348099999968,0 -90.03860669999999,29.936856899999967,0 -90.0389659,29.93716139999997,0 -90.039299,29.937405399999967,0 -90.0397656,29.937693199999966,0 -90.04008189999999,29.937860199999964,0 -90.04069179999999,29.938117399999964,0 -90.0411168,29.93825369999996,0 -90.04178879999999,29.938400399999963,0 -90.04215299999998,29.93844609999996,0 -90.04955839999998,29.93887799999996,0 -90.05132439999998,29.938926199999962,0 -90.06466929999998,29.938824299999965,0 -90.06505859999999,29.938857399999964,0 -90.06548219999999,29.938918699999963,0 -90.0659319,29.939015099999967,0 -90.06747479999999,29.939478999999963,0 -90.06755829999999,29.939588399999966,0 -90.06826279999999,29.939824899999966,0 -90.06890579999998,29.94012169999997,0 -90.06994129999998,29.940771999999967,0 -90.07097929999998,29.94133209999997,0 -90.07113679999998,29.941451799999964,0 -90.07120219999997,29.94152029999996,0 -90.07129979999998,29.941662299999965,0 -90.07136799999998,29.941822599999966,0 -90.07139389999998,29.94205779999997,0 -90.07137859999997,29.942169499999967,0 -90.07114209999997,29.943018399999968,0 -90.07118369999998,29.943163699999968,0 -90.06887039999997,29.951003299999964,0 -90.06857089999997,29.95190179999997,0 -90.06834709999997,29.952418999999967,0 -90.06811239999998,29.952668499999966,0 -90.07678649999997,29.95855129999997,0 -90.07603589999997,29.95937989999997,0 -90.07715909999997,29.96013459999997,0 -90.07924619999997,29.957792599999973,0 -90.07932229999997,29.95768529999997,0 -90.07995709999997,29.95699179999997,0 -90.08010879999998,29.95678919999997,0 -90.08254999999997,29.954000199999975,0 -90.08268599999998,29.953868499999974,0 -90.08421089999999,29.952112699999972,0 -90.08431209999998,29.952045499999972,0 -90.08456889999998,29.951821899999974,0 -90.08484089999997,29.951656199999974,0 -90.08488579999998,29.951636699999973,0 -90.08501619999997,29.95162879999997,0 -90.08514849999997,29.951641499999972,0 -90.08535589999997,29.95169809999997,0 -90.08555159999997,29.951804499999966,0 -90.08559749999998,29.951840099999966,0 -90.08586119999997,29.952179399999963,0 -90.08599229999997,29.952322299999963,0 -90.08631609999996,29.952608199999965,0 -90.08655819999997,29.952769799999967,0 -90.08735329999996,29.953189399999967,0 -90.08900589999998,29.95420809999997,0 -90.08908779999997,29.954231599999968,0 -90.08918599999997,29.95423959999997,0 -90.09028389999997,29.95508279999997,0 -90.09873119999997,29.961138799999972,0 -90.09923799999997,29.96146859999997,0 -90.10128409999997,29.96292059999997,0 -90.10188309999997,29.963301399999967,0 -90.10468029999997,29.96530959999997,0 -90.10521409999997,29.96572799999997,0 -90.10812409999998,29.968488399999973,0 -90.10855569999998,29.96901539999997,0 -90.10896029999996,29.96964749999997,0 -90.11046199999997,29.972554099999968,0 -90.11058019999997,29.972844899999966,0 -90.11157569999999,29.975871199999965,0 -90.11577399999999,29.986627999999968,0 -90.11587539999998,29.986944199999964,0 -90.11606139999998,29.98781249999996,0 -90.11611809999998,29.98825449999996,0 -90.11613559999999,29.98890869999996,0 -90.11607579999999,29.99022739999996,0 -90.1160099,29.990388099999958,0 -90.1158611,29.991670099999958,0 -90.1155635,29.997586899999956,0 -90.11548839999999,29.998159199999954,0 -90.11528059999999,29.998803799999955,0 -90.1150992,29.999224899999955,0 -90.1140773,30.012815599999957,0 -90.1140601,30.01288629999996,0 -90.11354250000001,30.020237799999954,0 -90.1139268,30.02023329999996,0 -90.1140611,30.02020919999996,0 -90.1144385,30.02002679999996,0 -90.11454490000001,30.01999399999996,0 -90.11474830000002,30.01985569999996,0 -90.11503090000002,30.01970749999996,0 -90.11524720000001,30.01963399999996,0 -90.11537020000002,30.019604699999963,0 -90.11571530000002,30.01955479999996,0 -90.11967050000001,30.019755999999962,0 -90.11973900000001,30.019771599999963,0 -90.11995200000001,30.019775099999965,0 -90.12031810000002,30.01981189999996,0 -90.12045920000001,30.01980959999996,0 -90.1218927,30.019998899999962,0 -90.1227188,30.020014599999964,0 </coordinates></LineString><TimeSpan><begin>2021-11-24T19:45:14.302Z</begin><end>2021-11-24T20:46:49.749Z</end></TimeSpan></Placemark><Placemark><name>Schaefer Seafood</name><address>1726 Lake Ave, Metairie, LA 70005</address><ExtendedData><Data name="Email"><value>syugen.zhou@gmail.com</value></Data><Data name="Category"><value>Seafood</value></Data><Data name="Distance"><value>0</value></Data></ExtendedData><description> Seafood from 2021-11-24T20:46:49.749Z to 2021-11-24T20:54:31.590Z. Distance 0m </description><Point><coordinates>-90.1234217,30.019339,0</coordinates></Point><TimeSpan><begin>2021-11-24T20:46:49.749Z</begin><end>2021-11-24T20:54:31.590Z</end></TimeSpan></Placemark><Placemark><name>Driving</name><address></address><ExtendedData><Data name="Email"><value>syugen.zhou@gmail.com</value></Data><Data name="Category"><value>Driving</value></Data><Data name="Distance"><value>11921</value></Data></ExtendedData><description> Driving from 2021-11-24T20:54:31.590Z to 2021-11-24T21:05:38.587Z. Distance 11921m </description><LineString><altitudeMode>clampToGround</altitudeMode><extrude>1</extrude><tesselate>1</tesselate><coordinates>-90.1230291,30.019758099999997,0 -90.12301719999999,30.0200082,0 -90.1224149,30.020015699999995,0 -90.1218927,30.019998899999994,0 -90.12045920000001,30.01980959999999,0 -90.12035070000002,30.01972739999999,0 -90.11968120000002,30.019592199999988,0 -90.11930920000002,30.019550499999987,0 -90.11572810000001,30.019350399999986,0 -90.11528150000002,30.01934649999999,0 -90.11517340000002,30.019361099999987,0 -90.11507580000001,30.01932399999999,0 -90.11487230000002,30.01928339999999,0 -90.114844,30.01927159999999,0 -90.11475080000002,30.019213499999992,0 -90.11477680000002,30.01908389999999,0 -90.11513190000002,30.01444619999999,0 -90.11514540000002,30.01435979999999,0 -90.11522750000003,30.01303909999999,0 -90.11524430000003,30.012944799999985,0 -90.11531120000002,30.012113799999987,0 -90.11530910000002,30.01206319999999,0 -90.11558400000001,30.00856999999999,0 -90.11623100000001,29.999698699999993,0 -90.1162292,29.99905549999999,0 -90.11625700000002,29.999011599999992,0 -90.11601540000001,29.998403299999993,0 -90.1158824,29.997991799999994,0 -90.11584070000002,29.9977377,0 -90.11601400000002,29.994319400000002,0 -90.11612080000002,29.9936951,0 -90.11630970000002,29.993061100000002,0 -90.1166414,29.9921457,0 -90.11672110000002,29.991811899999995,0 -90.11674380000001,29.991542499999998,0 -90.11674600000002,29.991234999999996,0 -90.11673210000002,29.991022799999996,0 -90.11649110000002,29.989782399999992,0 -90.11645430000003,29.989141199999995,0 -90.11639990000002,29.988962099999995,0 -90.11640780000002,29.988722799999998,0 -90.11639540000002,29.988514499999997,0 -90.11625450000001,29.987636299999995,0 -90.11606960000002,29.986796899999995,0 -90.11294610000003,29.978699499999998,0 -90.11287060000002,29.978562799999995,0 -90.11169810000001,29.975718799999996,0 -90.11072920000001,29.972799499999994,0 -90.11060450000001,29.97247669999999,0 -90.1089419,29.96931069999999,0 -90.10871010000001,29.968957899999992,0 -90.10834870000001,29.96850279999999,0 -90.105624,29.96589819999999,0 -90.1047841,29.965207799999995,0 -90.1004595,29.96207679999999,0 -90.0936659,29.957281099999992,0 -90.0936553,29.957153499999993,0 -90.0936499,29.957143699999992,0 -90.0933174,29.956839399999993,0 -90.0925914,29.95607789999999,0 -90.0924155,29.955909899999988,0 -90.09213460000001,29.95568569999999,0 -90.09191190000001,29.95553829999999,0 -90.09170690000002,29.95542309999999,0 -90.0914881,29.955317299999994,0 -90.09124220000001,29.955217299999994,0 -90.09100520000003,29.955138799999993,0 -90.09079590000002,29.955083499999994,0 -90.08406110000001,29.953746399999996,0 -90.08379430000002,29.953713299999993,0 -90.08354880000002,29.953707999999995,0 -90.08332580000001,29.953723399999994,0 -90.08311330000001,29.95375719999999,0 -90.08291820000001,29.953805099999993,0 -90.0826833,29.953885299999992,0 -90.0825643,29.95393659999999,0 -90.0823421,29.95405269999999,0 -90.08212089999999,29.954202899999988,0 -90.0819584,29.954342099999984,0 -90.0799971,29.956522499999984,0 -90.0799475,29.95660279999998,0 -90.0719113,29.965614899999984,0 -90.07181,29.965623299999983,0 -90.0718015,29.96562609999998,0 -90.07164970000001,29.96572669999998,0 -90.07118470000002,29.965952199999982,0 -90.07098010000001,29.96610409999998,0 -90.07005370000002,29.96708039999998,0 -90.06999090000001,29.967129599999975,0 -90.0698265,29.967321699999978,0 -90.06978120000001,29.967389599999976,0 -90.06972660000001,29.967499599999975,0 -90.0696733,29.96769569999998,0 -90.0695984,29.96784239999998,0 -90.0694306,29.968064899999984,0 -90.0693592,29.96821089999998,0 -90.0669794,29.97093059999998,0 -90.0671904,29.97107239999998,0 -90.06731769999999,29.97117399999998,0 -90.0675455,29.970915699999978,0 </coordinates></LineString><TimeSpan><begin>2021-11-24T20:54:31.590Z</begin><end>2021-11-24T21:05:38.587Z</end></TimeSpan></Placemark><Placemark><name>Cajun Seafood</name><address>1479 N Claiborne Ave, New Orleans, LA 70116</address><ExtendedData><Data name="Email"><value>syugen.zhou@gmail.com</value></Data><Data name="Category"><value>Cajun</value></Data><Data name="Distance"><value>0</value></Data></ExtendedData><description> Cajun from 2021-11-24T21:05:38.587Z to 2021-11-24T21:25:55.561Z. Distance 0m </description><Point><coordinates>-90.067697,29.9712008,0</coordinates></Point><TimeSpan><begin>2021-11-24T21:05:38.587Z</begin><end>2021-11-24T21:25:55.561Z</end></TimeSpan></Placemark><Placemark><name>Driving</name><address></address><ExtendedData><Data name="Email"><value>syugen.zhou@gmail.com</value></Data><Data name="Category"><value>Driving</value></Data><Data name="Distance"><value>2601</value></Data></ExtendedData><description> Driving from 2021-11-24T21:25:55.561Z to 2021-11-24T21:32:28.000Z. Distance 2601m </description><LineString><altitudeMode>clampToGround</altitudeMode><extrude>1</extrude><tesselate>1</tesselate><coordinates>-90.0677183,29.970719400000004,0 -90.0682208,29.970153,0 -90.068381,29.969963099999998,0 -90.0685249,29.969817799999998,0 -90.0687542,29.969573699999994,0 -90.0688626,29.969450599999995,0 -90.0689829,29.96930829999999,0 -90.0698863,29.968292899999994,0 -90.0700622,29.968119599999998,0 -90.07061769999999,29.967492499999995,0 -90.07067419999998,29.967439499999998,0 -90.07075919999998,29.967348599999998,0 -90.07189719999998,29.966070899999995,0 -90.0719147,29.966047299999993,0 -90.0723044,29.96562879999999,0 -90.07277649999997,29.965070099999988,0 -90.07290149999999,29.96492859999999,0 -90.07306769999998,29.96473529999999,0 -90.07325979999997,29.96452889999999,0 -90.07329279999998,29.964466699999992,0 -90.07338509999998,29.964358599999994,0 -90.07178039999998,29.963286999999994,0 -90.07149429999998,29.963077799999994,0 -90.07142279999998,29.963012399999993,0 -90.07137769999999,29.96296779999999,0 -90.07132569999997,29.962909699999994,0 -90.07127979999997,29.962848399999995,0 -90.07124209999996,29.962791899999992,0 -90.07122259999997,29.962758799999992,0 -90.07120549999996,29.962723399999987,0 -90.07119049999997,29.962688299999986,0 -90.07117849999997,29.962655199999986,0 -90.07113719999997,29.962511899999985,0 -90.07103789999996,29.962192299999984,0 -90.07097269999997,29.962020699999982,0 -90.07095879999997,29.961988999999985,0 -90.07089429999998,29.96180679999998,0 -90.07084559999998,29.961697799999982,0 -90.07080199999997,29.961618099999985,0 -90.07070609999997,29.961471399999983,0 -90.07063619999997,29.96136049999998,0 -90.07050409999998,29.961200499999975,0 -90.07025159999996,29.96088609999998,0 -90.07021509999997,29.960834899999977,0 -90.07017059999997,29.960785899999973,0 -90.07012129999997,29.960720299999974,0 -90.07008889999997,29.96064489999997,0 -90.07007059999997,29.96058059999997,0 -90.07005749999996,29.960521899999975,0 -90.07005169999996,29.960481199999972,0 -90.07004809999997,29.96043939999997,0 -90.07004749999997,29.96035399999997,0 -90.07005829999996,29.96025889999997,0 -90.07007109999996,29.960193099999973,0 -90.07008119999996,29.960156099999974,0 -90.07009909999996,29.96010379999997,0 -90.07015149999997,29.96001999999997,0 -90.07021409999997,29.959928099999974,0 -90.07021899999997,29.959919699999976,0 -90.07026539999997,29.959858999999977,0 -90.07032549999997,29.959785699999976,0 -90.07046669999998,29.959623499999974,0 -90.07046399999997,29.959577499999977,0 -90.07046029999998,29.959550799999977,0 -90.07045669999998,29.959532499999977,0 -90.07045129999997,29.959513899999976,0 -90.07043929999998,29.959491499999974,0 -90.07042979999999,29.959479699999974,0 -90.07041849999999,29.959470199999974,0 -90.07040459999999,29.959462099999975,0 -90.07038669999999,29.959456199999977,0 -90.0703631,29.959451699999978,0 -90.07033319999998,29.959448399999978,0 -90.07030869999998,29.95944829999998,0 -90.07028129999999,29.959450899999982,0 -90.0702314,29.959461799999982,0 -90.07012509999998,29.959597699999982,0 -90.07004289999999,29.959688799999984,0 -90.0698568,29.959756099999982,0 -90.06983869999999,29.959761899999982,0 -90.0698085,29.959769899999984,0 -90.06977529999999,29.959775099999987,0 -90.06970209999999,29.959781899999985,0 -90.06957039999999,29.959777499999987,0 -90.06950309999999,29.95977649999999,0 -90.06941679999998,29.959692499999985,0 -90.06939739999999,29.959671199999985,0 -90.06938469999999,29.959649299999985,0 -90.06937419999998,29.959611899999988,0 -90.06936059999998,29.959556699999993,0 -90.06946069999998,29.959453299999993,0 -90.06976609999998,29.959105199999993,0 -90.06992269999999,29.95893809999999,0 -90.07056809999999,29.95820579999999,0 -90.07185229999999,29.956769199999993,0 -90.07197779999998,29.956632999999993,0 -90.07186119999999,29.956564099999994,0 -90.07092859999999,29.955932599999997,0 -90.07004459999999,29.955316099999994,0 -90.0697703,29.955130099999998,0 </coordinates></LineString><TimeSpan><begin>2021-11-24T21:25:55.561Z</begin><end>2021-11-24T21:32:28.000Z</end></TimeSpan></Placemark><Placemark><name>Crowne Plaza New Orleans French Quarter, an IHG Hotel</name><address>739 Canal St. @, Bourbon St, New Orleans, LA 70130</address><ExtendedData><Data name="Email"><value>syugen.zhou@gmail.com</value></Data><Data name="Category"><value>Hotel</value></Data><Data name="Distance"><value>0</value></Data></ExtendedData><description> Hotel from 2021-11-24T21:32:28.000Z to 2021-11-25T11:11:54.000Z. Distance 0m </description><Point><coordinates>-90.06955909999999,29.953835599999998,0</coordinates></Point><TimeSpan><begin>2021-11-24T21:32:28.000Z</begin><end>2021-11-25T11:11:54.000Z</end></TimeSpan></Placemark></Document></kml>
