<?xml version="1.0" encoding="UTF-8"?><kml xmlns="http://www.opengis.net/kml/2.2" xmlns:gx="http://www.google.com/kml/ext/2.2"><Document><name> Location history from 2021-11-26 to 2021-11-26 </name><open>1</open><description></description><StyleMap id="multiTrack"><Pair><key>normal</key><styleUrl>#multiTrack_n</styleUrl></Pair><Pair><key>highlight</key><styleUrl>#multiTrack_h</styleUrl></Pair></StyleMap><Style id="multiTrack_n"><IconStyle><Icon><href>https://earth.google.com/images/kml-icons/track-directional/track-0.png</href></Icon></IconStyle><LineStyle><color>99ffac59</color><width>6</width></LineStyle></Style><Style id="multiTrack_h"><IconStyle><scale>1.2</scale><Icon><href>https://earth.google.com/images/kml-icons/track-directional/track-0.png</href></Icon></IconStyle><LineStyle><color>99ffac59</color><width>8</width></LineStyle></Style><Placemark><name>Holiday Inn Express &amp; Suites Jersey City - Holland Tunnel, an IHG Hotel</name><address>180 14th St, Jersey City, NJ 07310</address><ExtendedData><Data name="Email"><value>syugen.zhou@gmail.com</value></Data><Data name="Category"><value>Hotel</value></Data><Data name="Distance"><value>0</value></Data></ExtendedData><description> Hotel from 2021-11-26T03:13:06.338Z to 2021-11-26T16:26:58.012Z. Distance 0m </description><Point><coordinates>-74.04046799999999,40.7318455,0</coordinates></Point><TimeSpan><begin>2021-11-26T03:13:06.338Z</begin><end>2021-11-26T16:26:58.012Z</end></TimeSpan></Placemark><Placemark><name>In a taxi</name><address></address><ExtendedData><Data name="Email"><value>syugen.zhou@gmail.com</value></Data><Data name="Category"><value>In a taxi</value></Data><Data name="Distance"><value>1283</value></Data></ExtendedData><description> In a taxi from 2021-11-26T16:26:58.012Z to 2021-11-26T16:33:17.215Z. Distance 1283m </description><LineString><altitudeMode>clampToGround</altitudeMode><extrude>1</extrude><tesselate>1</tesselate><coordinates>-74.04010079999999,40.731791,0 -74.04012529999999,40.731615,0 -74.04012529999999,40.731615,0 -74.0407245,40.731668299999995,0 -74.04109679999999,40.7317014,0 -74.04109679999999,40.7317014,0 -74.04114119999998,40.7314314,0 -74.0411711,40.731276099999995,0 -74.0411823,40.7312109,0 -74.0412012,40.731071199999995,0 -74.0412407,40.7308253,0 -74.0412444,40.7307944,0 -74.0412556,40.7307118,0 -74.0412793,40.7305634,0 -74.04129259999999,40.730479700000004,0 -74.0413101,40.7303531,0 -74.041335,40.7301902,0 -74.04137349999999,40.729936200000004,0 -74.0413986,40.7297342,0 -74.041425,40.729555000000005,0 -74.04147760000001,40.72919790000001,0 -74.0414804,40.72917910000001,0 -74.04152350000001,40.72893400000001,0 -74.04153930000001,40.728832000000004,0 -74.04165820000001,40.7280822,0 -74.04166930000001,40.727929100000004,0 -74.04167970000002,40.72785100000001,0 -74.04174150000001,40.72737720000001,0 -74.04178640000002,40.727067500000004,0 -74.04186770000001,40.726641300000004,0 -74.04196160000002,40.72600310000001,0 -74.04197480000002,40.7259248,0 -74.0420868,40.7252115,0 -74.0420868,40.7252115,0 -74.04185110000002,40.7251903,0 -74.04161540000001,40.725169099999995,0 -74.040823,40.7250977,0 -74.04062580000002,40.725078599999996,0 -74.04045160000001,40.72501059999999,0 -74.04036660000001,40.72500029999999,0 -74.04023070000001,40.72498999999999,0 -74.0401475,40.72498089999999,0 -74.0400626,40.72496599999999,0 -74.0399959,40.724946899999985,0 -74.039927,40.72492659999999,0 -74.0398107,40.72488569999999,0 -74.03968470000001,40.72483899999999,0 -74.03955160000001,40.72479479999999,0 -74.039437,40.724754199999985,0 -74.0393226,40.72472339999999,0 -74.03910690000001,40.724688599999986,0 -74.038929,40.724667199999985,0 -74.03845820000001,40.72462709999999,0 -74.03821590000001,40.72460799999999,0 -74.0380815,40.72459459999999,0 -74.0377177,40.724567499999985,0 -74.0370678,40.72451019999998,0 -74.0369714,40.724507999999986,0 -74.0369215,40.724502399999984,0 -74.0364322,40.724459899999985,0 -74.0359082,40.724404499999984,0 -74.0359082,40.724404499999984,0 -74.0357511,40.724383199999984,0 -74.03570710000001,40.72447859999998,0 -74.03566280000001,40.72458279999998,0 -74.0355442,40.72492729999998,0 -74.03553280000001,40.72498259999998,0 -74.03550950000002,40.72511019999998,0 -74.0355092,40.72511149999998,0 -74.03550850000002,40.72511549999999,0 -74.03547540000001,40.725293599999986,0 -74.03539520000002,40.72548209999999,0 -74.03538600000002,40.72550669999999,0 -74.03534210000001,40.72560959999999,0 -74.03533540000002,40.72563119999999,0 -74.03525640000002,40.72580789999999,0 -74.03501010000002,40.72623069999999,0 -74.03490850000001,40.72640519999999,0 -74.03469800000002,40.726732099999985,0 -74.03456000000001,40.72695849999999,0 -74.03446400000001,40.72713549999999,0 -74.03444260000002,40.727200899999985,0 </coordinates></LineString><TimeSpan><begin>2021-11-26T16:26:58.012Z</begin><end>2021-11-26T16:33:17.215Z</end></TimeSpan></Placemark><Placemark><name>Newport</name><address>Jersey City, NJ 07310</address><ExtendedData><Data name="Email"><value>syugen.zhou@gmail.com</value></Data><Data name="Category"><value>Train station</value></Data><Data name="Distance"><value>0</value></Data></ExtendedData><description> Train station from 2021-11-26T16:33:17.215Z to 2021-11-26T16:45:16.399Z. Distance 0m </description><Point><coordinates>-74.0337579,40.7269845,0</coordinates></Point><TimeSpan><begin>2021-11-26T16:33:17.215Z</begin><end>2021-11-26T16:45:16.399Z</end></TimeSpan></Placemark><Placemark><name>On a train</name><address></address><ExtendedData><Data name="Email"><value>syugen.zhou@gmail.com</value></Data><Data name="Category"><value>On a train</value></Data><Data name="Distance"><value>3462</value></Data></ExtendedData><description> On a train from 2021-11-26T16:45:16.399Z to 2021-11-26T16:50:23.576Z. Distance 3462m </description><LineString><altitudeMode>clampToGround</altitudeMode><extrude>1</extrude><tesselate>1</tesselate><coordinates>-74.0337579,40.7269845,0 -74.041167,40.7191931,0 -74.057339,40.7274719,0 -74.0626164,40.7318158,0 -74.0626901,40.73265,0 </coordinates></LineString><TimeSpan><begin>2021-11-26T16:45:16.399Z</begin><end>2021-11-26T16:50:23.576Z</end></TimeSpan></Placemark><Placemark><name>Journal Square</name><address>1 Path Plaza, Jersey City, NJ 07306</address><ExtendedData><Data name="Email"><value>syugen.zhou@gmail.com</value></Data><Data name="Category"><value>Train station</value></Data><Data name="Distance"><value>0</value></Data></ExtendedData><description> Train station from 2021-11-26T16:50:23.576Z to 2021-11-26T17:00:30.555Z. Distance 0m </description><Point><coordinates>-74.0626901,40.73265,0</coordinates></Point><TimeSpan><begin>2021-11-26T16:50:23.576Z</begin><end>2021-11-26T17:00:30.555Z</end></TimeSpan></Placemark><Placemark><name>On a train</name><address></address><ExtendedData><Data name="Email"><value>syugen.zhou@gmail.com</value></Data><Data name="Category"><value>On a train</value></Data><Data name="Distance"><value>5650</value></Data></ExtendedData><description> On a train from 2021-11-26T17:00:30.555Z to 2021-11-26T17:14:28.000Z. Distance 5650m </description><LineString><altitudeMode>clampToGround</altitudeMode><extrude>1</extrude><tesselate>1</tesselate><coordinates>-74.0626901,40.73265,0 -74.0605994,40.7304177,0 -74.0341666,40.7270724,0 -73.9987644,40.7342458,0 </coordinates></LineString><TimeSpan><begin>2021-11-26T17:00:30.555Z</begin><end>2021-11-26T17:14:28.000Z</end></TimeSpan></Placemark><Placemark><name>9 St</name><address>W 9th St, New York, NY 10011</address><ExtendedData><Data name="Email"><value>syugen.zhou@gmail.com</value></Data><Data name="Category"><value>Train station</value></Data><Data name="Distance"><value>0</value></Data></ExtendedData><description> Train station from 2021-11-26T17:14:28.000Z to 2021-11-26T17:19:38.000Z. Distance 0m </description><Point><coordinates>-73.9987644,40.7342458,0</coordinates></Point><TimeSpan><begin>2021-11-26T17:14:28.000Z</begin><end>2021-11-26T17:19:38.000Z</end></TimeSpan></Placemark><Placemark><name>On a bus</name><address></address><ExtendedData><Data name="Email"><value>syugen.zhou@gmail.com</value></Data><Data name="Category"><value>On a bus</value></Data><Data name="Distance"><value>1115</value></Data></ExtendedData><description> On a bus from 2021-11-26T17:19:38.535Z to 2021-11-26T17:37:15.999Z. Distance 1115m </description><LineString><altitudeMode>clampToGround</altitudeMode><extrude>1</extrude><tesselate>1</tesselate><coordinates>-73.9987644,40.7342458,0 -73.9992775,40.7336202,0 -73.9968266,40.7324503,0 -73.9931268,40.7308826,0 -73.9888369,40.7290554,0 -73.988711,40.729186999999996,0 -73.988711,40.729186999999996,0 </coordinates></LineString><TimeSpan><begin>2021-11-26T17:19:38.535Z</begin><end>2021-11-26T17:37:15.999Z</end></TimeSpan></Placemark><Placemark><name>CheLi</name><address>19 St Marks Pl, New York, NY 10003</address><ExtendedData><Data name="Email"><value>syugen.zhou@gmail.com</value></Data><Data name="Category"><value>Shanghainese</value></Data><Data name="Distance"><value>0</value></Data></ExtendedData><description> Shanghainese from 2021-11-26T17:37:15.999Z to 2021-11-26T18:06:08.998Z. Distance 0m </description><Point><coordinates>-73.988711,40.729186999999996,0</coordinates></Point><TimeSpan><begin>2021-11-26T17:37:15.999Z</begin><end>2021-11-26T18:06:08.998Z</end></TimeSpan></Placemark><Placemark><name>Walking</name><address></address><ExtendedData><Data name="Email"><value>syugen.zhou@gmail.com</value></Data><Data name="Category"><value>Walking</value></Data><Data name="Distance"><value>1267</value></Data></ExtendedData><description> Walking from 2021-11-26T18:06:08.998Z to 2021-11-26T18:15:53.000Z. Distance 1267m </description><LineString><altitudeMode>clampToGround</altitudeMode><extrude>1</extrude><tesselate>1</tesselate><coordinates>-73.9892497,40.7293363,0 -73.989707,40.7295292,0 -73.9897271,40.7295376,0 -73.9898064,40.7294553,0 -73.989829,40.7294318,0 -73.98982840000001,40.7294314,0 -73.9898232,40.72943840000001,0 -73.9898491,40.72944940000001,0 -73.9901201,40.729564800000006,0 -73.990196,40.72960080000001,0 -73.9907024,40.72978070000001,0 -73.9907087,40.72976110000001,0 -73.9907318,40.72977340000001,0 -73.99082920000001,40.729825200000015,0 -73.99085240000001,40.729837500000016,0 -73.99084160000001,40.72987140000002,0 -73.99109920000001,40.72997570000002,0 -73.99110840000002,40.729969900000015,0 -73.99125350000001,40.73003280000002,0 -73.991281,40.730044700000015,0 -73.9912537,40.730061700000014,0 -73.9921736,40.73045410000002,0 -73.992304,40.73053030000001,0 -73.9923401,40.730545700000015,0 -73.9923732,40.730505500000014,0 -73.9923993,40.73051680000001,0 -73.9925379,40.73057650000001,0 -73.99254,40.730573800000016,0 -73.9926781,40.73063060000001,0 -73.99282290000001,40.730681300000015,0 -73.9932387,40.73086720000001,0 -73.99324980000002,40.73085430000001,0 -73.99336640000001,40.73091340000001,0 -73.993345,40.73093810000001,0 -73.99402590000001,40.73122610000001,0 -73.9940579,40.73118810000001,0 -73.99407370000002,40.73119720000001,0 -73.99415780000001,40.73124580000001,0 -73.9941409,40.73126590000001,0 -73.9947513,40.73152300000002,0 -73.9947723,40.73149830000002,0 -73.9947801,40.73150170000002,0 -73.9949123,40.731559900000015,0 -73.99494149999998,40.73157280000002,0 -73.99493229999999,40.73158370000002,0 -73.99498469999999,40.73160530000002,0 -73.99502609999999,40.73162230000002,0 -73.99526759999999,40.731723700000025,0 -73.99548109999999,40.73181340000002,0 -73.9956878,40.73189980000002,0 -73.995763,40.73193180000002,0 -73.99586599999999,40.73197360000002,0 -73.9960814,40.732057200000014,0 -73.9962079,40.73210830000002,0 -73.9962815,40.73213800000002,0 -73.9963097,40.73214740000002,0 -73.9963066,40.73215150000002,0 -73.9963451,40.732167300000015,0 -73.9964992,40.73223050000002,0 -73.9964914,40.732241000000016,0 -73.9967319,40.73234390000002,0 -73.9969543,40.73244290000002,0 -73.9972813,40.732583800000015,0 -73.99730939999999,40.732595900000014,0 -73.99731559999998,40.732601500000015,0 -73.99760449999998,40.73272460000002,0 -73.99779799999999,40.732807100000024,0 -73.99796119999999,40.73285070000002,0 -73.997999,40.73286750000002,0 -73.99800479999999,40.73286080000002,0 -73.9981167,40.73291300000002,0 -73.9981112,40.732919400000014,0 -73.99866800000001,40.733153000000016,0 -73.99909930000001,40.733337900000016,0 -73.99921400000001,40.73337480000002,0 -73.9993865,40.73344880000002,0 -73.99948830000001,40.73349630000002,0 -73.9995111,40.73346560000002,0 -73.99967190000002,40.73370030000002,0 -73.99975060000001,40.733594400000015,0 -73.99980990000002,40.733513000000016,0 -73.99997580000002,40.733289800000016,0 -74.00003550000001,40.733202800000015,0 -74.00014870000001,40.73305060000001,0 -74.00063200000001,40.73328450000002,0 -74.00063310000002,40.733283000000014,0 -74.00070000000001,40.733316500000015,0 -74.00069930000001,40.73331750000001,0 -74.00104740000002,40.73349140000001,0 -74.00114930000001,40.733815000000014,0 -74.00125600000001,40.73378420000002,0 -74.00125410000001,40.73377830000001,0 -74.00133720000001,40.733762900000016,0 -74.00137910000001,40.73376070000002,0 -74.0016255,40.73374000000002,0 -74.0017736,40.733721400000015,0 -74.0017957,40.73371830000002,0 -74.0018869,40.733720300000016,0 -74.001949,40.733713100000024,0 -74.0021569,40.733684600000025,0 </coordinates></LineString><TimeSpan><begin>2021-11-26T18:06:08.998Z</begin><end>2021-11-26T18:15:53.000Z</end></TimeSpan></Placemark><Placemark><name>The Stonewall Inn</name><address>53 Christopher St, New York, NY 10014</address><ExtendedData><Data name="Email"><value>syugen.zhou@gmail.com</value></Data><Data name="Category"><value>Gay bar</value></Data><Data name="Distance"><value>0</value></Data></ExtendedData><description> Gay bar from 2021-11-26T18:15:53.000Z to 2021-11-26T18:27:48.000Z. Distance 0m </description><Point><coordinates>-74.00216259999999,40.7338326,0</coordinates></Point><TimeSpan><begin>2021-11-26T18:15:53.000Z</begin><end>2021-11-26T18:27:48.000Z</end></TimeSpan></Placemark><Placemark><name>On a bus</name><address></address><ExtendedData><Data name="Email"><value>syugen.zhou@gmail.com</value></Data><Data name="Category"><value>On a bus</value></Data><Data name="Distance"><value>1249</value></Data></ExtendedData><description> On a bus from 2021-11-26T18:27:48.999Z to 2021-11-26T18:30:39.395Z. Distance 1249m </description><LineString><altitudeMode>clampToGround</altitudeMode><extrude>1</extrude><tesselate>1</tesselate><coordinates>-74.00216259999999,40.7338326,0 -74.0013149,40.7335792,0 -73.9951585,40.7317777,0 -73.9892899,40.7293055,0 -73.988711,40.729186999999996,0 -73.988711,40.729186999999996,0 </coordinates></LineString><TimeSpan><begin>2021-11-26T18:27:48.999Z</begin><end>2021-11-26T18:30:39.395Z</end></TimeSpan></Placemark><Placemark><name>CheLi</name><address>19 St Marks Pl, New York, NY 10003</address><ExtendedData><Data name="Email"><value>syugen.zhou@gmail.com</value></Data><Data name="Category"><value>Shanghainese</value></Data><Data name="Distance"><value>0</value></Data></ExtendedData><description> Shanghainese from 2021-11-26T18:30:39.395Z to 2021-11-26T20:16:19.777Z. Distance 0m </description><Point><coordinates>-73.988711,40.729186999999996,0</coordinates></Point><TimeSpan><begin>2021-11-26T18:30:39.395Z</begin><end>2021-11-26T20:16:19.777Z</end></TimeSpan></Placemark><Placemark><name>On the subway</name><address></address><ExtendedData><Data name="Email"><value>syugen.zhou@gmail.com</value></Data><Data name="Category"><value>On the subway</value></Data><Data name="Distance"><value>3609</value></Data></ExtendedData><description> On the subway from 2021-11-26T20:16:19.777Z to 2021-11-26T20:30:53.670Z. Distance 3609m </description><LineString><altitudeMode>clampToGround</altitudeMode><extrude>1</extrude><tesselate>1</tesselate><coordinates>-73.988711,40.729186999999996,0 -73.988711,40.729186999999996,0 -73.9888921,40.7291794,0 -73.9910712,40.7301276,0 -73.9923829,40.730574,0 -73.9908809,40.7352959,0 -73.9890612,40.741302,0 -73.9880645,40.7501466,0 -73.9848157,40.759252,0 </coordinates></LineString><TimeSpan><begin>2021-11-26T20:16:19.777Z</begin><end>2021-11-26T20:30:53.670Z</end></TimeSpan></Placemark><Placemark><name>Walking</name><address></address><ExtendedData><Data name="Email"><value>syugen.zhou@gmail.com</value></Data><Data name="Category"><value>Walking</value></Data><Data name="Distance"><value>13</value></Data></ExtendedData><description> Walking from 2021-11-26T20:30:53.670Z to 2021-11-26T20:35:37.000Z. Distance 13m </description><LineString><altitudeMode>clampToGround</altitudeMode><extrude>1</extrude><tesselate>1</tesselate><coordinates>-73.984939,40.7591682,0 -73.984939,40.7591682,0 </coordinates></LineString><TimeSpan><begin>2021-11-26T20:30:53.670Z</begin><end>2021-11-26T20:35:37.000Z</end></TimeSpan></Placemark><Placemark><name>TKTS Times Square</name><address>Broadway at, W 47th St, New York, NY 10036</address><ExtendedData><Data name="Email"><value>syugen.zhou@gmail.com</value></Data><Data name="Category"><value>Event ticket seller</value></Data><Data name="Distance"><value>0</value></Data></ExtendedData><description> Event ticket seller from 2021-11-26T20:35:37.000Z to 2021-11-26T21:23:55.000Z. Distance 0m </description><Point><coordinates>-73.984939,40.7591682,0</coordinates></Point><TimeSpan><begin>2021-11-26T20:35:37.000Z</begin><end>2021-11-26T21:23:55.000Z</end></TimeSpan></Placemark><Placemark><name>Walking</name><address></address><ExtendedData><Data name="Email"><value>syugen.zhou@gmail.com</value></Data><Data name="Category"><value>Walking</value></Data><Data name="Distance"><value>2133</value></Data></ExtendedData><description> Walking from 2021-11-26T21:23:55.486Z to 2021-11-26T21:51:53.000Z. Distance 2133m </description><LineString><altitudeMode>clampToGround</altitudeMode><extrude>1</extrude><tesselate>1</tesselate><coordinates>-73.9848176,40.759086599999996,0 -73.9851005,40.758680899999995,0 -73.98522930000001,40.75857609999999,0 -73.98533250000001,40.75844149999999,0 -73.98541700000001,40.75834789999999,0 -73.9856149,40.75809149999999,0 -73.98569250000001,40.757967799999996,0 -73.98570980000001,40.757942899999996,0 -73.98549440000001,40.75785079999999,0 -73.9855247,40.757807299999996,0 -73.9855255,40.7577753,0 -73.9858074,40.757355499999996,0 -73.98587719999999,40.75722449999999,0 -73.9861064,40.756639699999994,0 -73.98621729999999,40.75637389999999,0 -73.98637829999998,40.75592569999999,0 -73.98644569999999,40.755953399999996,0 -73.98657539999999,40.755768399999994,0 -73.9865593,40.755761099999994,0 -73.98659209999998,40.75566589999999,0 -73.98661789999998,40.75558019999999,0 -73.9867604,40.755166999999986,0 -73.9867634,40.75516829999999,0 -73.98680189999999,40.755027099999985,0 -73.9867912,40.75502259999999,0 -73.986803,40.75498459999999,0 -73.98683199999999,40.75490479999999,0 -73.9869195,40.75462259999999,0 -73.986955,40.75453549999999,0 -73.9869768,40.75446529999999,0 -73.986976,40.754464999999996,0 -73.98702250000001,40.754324,0 -73.98692810000001,40.754276499999996,0 -73.98711090000002,40.753720200000004,0 -73.98721900000002,40.753765400000006,0 -73.98725870000003,40.75361230000001,0 -73.98724610000002,40.753607,0 -73.98732410000002,40.75332660000001,0 -73.98739440000003,40.753104900000004,0 -73.98739520000002,40.7530183,0 -73.98744530000003,40.75303950000001,0 -73.98747370000004,40.75287840000001,0 -73.98746380000003,40.75287420000001,0 -73.98749580000003,40.75276080000001,0 -73.98761070000003,40.752298200000006,0 -73.98762660000003,40.75230500000001,0 -73.98766840000003,40.75215430000001,0 -73.98763830000003,40.75214150000001,0 -73.98774840000003,40.75156820000001,0 -73.98775190000003,40.75155780000001,0 -73.98776900000004,40.75156480000001,0 -73.98779560000004,40.75141460000002,0 -73.98777240000004,40.75140500000002,0 -73.98787830000005,40.75081350000002,0 -73.98788390000003,40.75079060000002,0 -73.98790930000004,40.750801200000026,0 -73.98793360000003,40.750672100000024,0 -73.98784490000003,40.75062130000002,0 -73.98785620000004,40.75055200000002,0 -73.98780290000003,40.75053520000002,0 -73.98779180000002,40.75052910000002,0 -73.98778360000003,40.750521900000024,0 -73.98777950000003,40.75051490000002,0 -73.98777530000002,40.75050270000002,0 -73.98777620000003,40.75046990000002,0 -73.98776940000005,40.75042980000002,0 -73.98776440000005,40.75034230000002,0 -73.98777170000004,40.75009620000002,0 -73.98776550000005,40.75005150000002,0 -73.98777230000005,40.75002610000002,0 -73.98778050000004,40.74998030000002,0 -73.98777330000004,40.749960100000024,0 -73.98780010000004,40.74991920000002,0 -73.98780240000005,40.74992020000002,0 -73.98790990000005,40.74977630000002,0 -73.98788400000005,40.74976470000002,0 -73.98790270000005,40.749738300000026,0 -73.98772160000004,40.74966190000002,0 -73.98803130000005,40.74923690000002,0 -73.98804900000005,40.74913180000002,0 -73.98801820000006,40.74911840000002,0 -73.98809750000005,40.749002500000024,0 -73.98807100000005,40.748990900000024,0 -73.98809620000006,40.748810900000024,0 -73.98812110000006,40.74868880000002,0 -73.98816360000005,40.74842770000002,0 -73.98817380000006,40.74837900000002,0 -73.98827310000006,40.74841770000002,0 -73.98830530000005,40.74826380000002,0 -73.98828390000006,40.74825540000002,0 -73.98829390000006,40.74821850000002,0 -73.98838260000005,40.747658000000015,0 -73.98841130000005,40.74766890000002,0 -73.98843380000005,40.74753980000002,0 -73.98840360000005,40.747528400000014,0 -73.98840750000005,40.747510300000016,0 -73.98821570000005,40.74743150000002,0 -73.98821390000006,40.74743990000002,0 -73.98773230000005,40.747239100000016,0 -73.98662120000004,40.74675560000002,0 </coordinates></LineString><TimeSpan><begin>2021-11-26T21:23:55.486Z</begin><end>2021-11-26T21:51:53.000Z</end></TimeSpan></Placemark><Placemark><name>Osamil</name><address>5 W 31st St, New York, NY 10001</address><ExtendedData><Data name="Email"><value>syugen.zhou@gmail.com</value></Data><Data name="Category"><value>Gastropub</value></Data><Data name="Distance"><value>0</value></Data></ExtendedData><description> Gastropub from 2021-11-26T21:51:53.000Z to 2021-11-26T23:37:47.335Z. Distance 0m </description><Point><coordinates>-73.98647489999999,40.7468947,0</coordinates></Point><TimeSpan><begin>2021-11-26T21:51:53.000Z</begin><end>2021-11-26T23:37:47.335Z</end></TimeSpan></Placemark><Placemark><name>Walking</name><address></address><ExtendedData><Data name="Email"><value>syugen.zhou@gmail.com</value></Data><Data name="Category"><value>Walking</value></Data><Data name="Distance"><value>1842</value></Data></ExtendedData><description> Walking from 2021-11-26T23:37:47.335Z to 2021-11-27T00:14:41.000Z. Distance 1842m </description><LineString><altitudeMode>clampToGround</altitudeMode><extrude>1</extrude><tesselate>1</tesselate><coordinates>-73.9853876,40.7471171,0 -73.98499,40.7476735,0 -73.98496829999999,40.7476645,0 -73.98487619999997,40.7478005,0 -73.98488979999998,40.74780619999999,0 -73.98470159999998,40.74805819999999,0 -73.98464429999997,40.74813819999999,0 -73.98450159999997,40.74832939999999,0 -73.98449269999998,40.74832569999999,0 -73.98437729999998,40.74848089999998,0 -73.98439399999998,40.748487799999985,0 -73.98434169999997,40.74855789999999,0 -73.98413359999998,40.74883629999999,0 -73.98400069999998,40.74901269999999,0 -73.98399469999998,40.749010199999994,0 -73.98392079999998,40.74911439999999,0 -73.98393119999999,40.74911879999999,0 -73.98377289999999,40.74933709999999,0 -73.98367409999999,40.7494738,0 -73.98356489999999,40.749624399999995,0 -73.98355329999998,40.749619499999994,0 -73.98346209999998,40.749741799999995,0 -73.98347369999999,40.749746699999996,0 -73.98330699999998,40.7499763,0 -73.98310339999999,40.75024609999999,0 -73.98309379999999,40.7502413,0 -73.98299999999999,40.75037549999999,0 -73.9830099,40.7503804,0 -73.9827301,40.750777299999996,0 -73.9826674,40.75086029999999,0 -73.9826494,40.750852599999995,0 -73.9825687,40.750963799999994,0 -73.98255280000001,40.7509856,0 -73.98256479999999,40.750990699999996,0 -73.9823526,40.7512992,0 -73.9822194,40.751478299999995,0 -73.9821941,40.751467299999995,0 -73.9821022,40.751600499999995,0 -73.9821134,40.751605399999995,0 -73.9819257,40.7518697,0 -73.98175640000001,40.7520947,0 -73.98174670000002,40.7520914,0 -73.98167280000001,40.7521952,0 -73.98165920000001,40.7522142,0 -73.98167810000001,40.7522206,0 -73.98160270000001,40.7523172,0 -73.98146240000001,40.752514,0 -73.9813182,40.7527125,0 -73.9813014,40.7527054,0 -73.98122430000002,40.75281220000001,0 -73.98121080000001,40.752830800000005,0 -73.98122210000001,40.752835600000004,0 -73.9811478,40.7529352,0 -73.9809719,40.7531727,0 -73.98093680000001,40.7532188,0 -73.9808654,40.753317499999994,0 -73.9808388,40.753352799999995,0 -73.98082690000001,40.753347999999995,0 -73.98070630000001,40.7535229,0 -73.9807158,40.753526799999996,0 -73.9806634,40.7536001,0 -73.980341,40.7540438,0 -73.98033489999999,40.7540536,0 -73.9803249,40.754049599999995,0 -73.9802354,40.754169399999995,0 -73.9802402,40.754171299999996,0 -73.980172,40.75426699999999,0 -73.98003189999999,40.75445309999999,0 -73.97996629999999,40.754539099999995,0 -73.9799178,40.7546089,0 -73.97986179999998,40.7546847,0 -73.97985669999998,40.7546822,0 -73.97978929999998,40.7547815,0 -73.97977559999998,40.7548016,0 -73.97979179999997,40.7548094,0 -73.97942009999997,40.7553061,0 -73.97941149999997,40.7553025,0 -73.97932399999996,40.75542239999999,0 -73.97932479999996,40.7554227,0 -73.97917649999995,40.7556262,0 -73.97905019999996,40.755794,0 -73.97895709999996,40.755926099999996,0 -73.97895149999997,40.7559238,0 -73.97886209999997,40.7560473,0 -73.97887809999996,40.756053599999994,0 -73.97857749999996,40.75646309999999,0 -73.97852359999996,40.756536299999986,0 -73.97851319999997,40.75654819999999,0 -73.97850079999996,40.756542999999986,0 -73.97840929999995,40.75667559999999,0 -73.97841879999996,40.75667959999999,0 -73.97805449999996,40.757201399999985,0 -73.97803629999996,40.757193499999985,0 -73.97794929999995,40.75731669999998,0 -73.97794489999995,40.75731479999999,0 -73.97776959999996,40.75754149999999,0 -73.97766059999996,40.75769359999999,0 -73.97759189999996,40.75778269999999,0 -73.97757909999996,40.757799799999994,0 -73.97751059999996,40.75777079999999,0 </coordinates></LineString><TimeSpan><begin>2021-11-26T23:37:47.335Z</begin><end>2021-11-27T00:14:41.000Z</end></TimeSpan></Placemark><Placemark><name>Saks Fifth Avenue</name><address>611 5th Ave, New York, NY 10022</address><ExtendedData><Data name="Email"><value>syugen.zhou@gmail.com</value></Data><Data name="Category"><value>Department store</value></Data><Data name="Distance"><value>0</value></Data></ExtendedData><description> Department store from 2021-11-27T00:14:41.000Z to 2021-11-27T00:43:03.000Z. Distance 0m </description><Point><coordinates>-73.9769663,40.7580958,0</coordinates></Point><TimeSpan><begin>2021-11-27T00:14:41.000Z</begin><end>2021-11-27T00:43:03.000Z</end></TimeSpan></Placemark><Placemark><name>Walking</name><address></address><ExtendedData><Data name="Email"><value>syugen.zhou@gmail.com</value></Data><Data name="Category"><value>Walking</value></Data><Data name="Distance"><value>905</value></Data></ExtendedData><description> Walking from 2021-11-27T00:43:03.633Z to 2021-11-27T00:50:46.218Z. Distance 905m </description><LineString><altitudeMode>clampToGround</altitudeMode><extrude>1</extrude><tesselate>1</tesselate><coordinates>-73.9777952,40.75794,0 -73.97783390000001,40.7578883,0 -73.977894,40.757810299999996,0 -73.97792990000002,40.75776379999999,0 -73.9779941,40.757674099999996,0 -73.97819670000001,40.757412099999996,0 -73.9782007,40.75741359999999,0 -73.9782169,40.75739169999999,0 -73.9782753,40.757312899999995,0 -73.97828820000001,40.7572955,0 -73.97828820000001,40.7572955,0 -73.978367,40.7573253,0 -73.9785001,40.757375599999996,0 -73.97858100000002,40.7574095,0 -73.97873980000001,40.7574762,0 -73.97886580000001,40.7575328,0 -73.9790875,40.7576268,0 -73.9791957,40.757672799999995,0 -73.97934410000002,40.757736,0 -73.97946790000002,40.7577784,0 -73.98126620000002,40.7585378,0 -73.98126800000001,40.758535300000005,0 -73.98128950000002,40.7585446,0 -73.98151550000001,40.7586421,0 -73.98151090000002,40.7586486,0 -73.98153830000001,40.7586594,0 -73.98185130000002,40.758791699999996,0 -73.98188480000002,40.7588059,0 -73.98208490000002,40.758883499999996,0 -73.98226760000003,40.75897199999999,0 -73.98258400000002,40.75910639999999,0 -73.98262200000002,40.7591225,0 -73.98305880000002,40.759308,0 -73.98325430000001,40.7593914,0 -73.98361950000002,40.7595465,0 -73.98409010000002,40.7597464,0 -73.98409680000002,40.75973669999999,0 -73.98411970000002,40.759746099999994,0 -73.98432540000002,40.759829999999994,0 -73.98435400000001,40.759841699999996,0 -73.98435400000001,40.759841699999996,0 -73.9845418,40.759570999999994,0 -73.9845913,40.75949969999999,0 -73.98471640000001,40.759341199999994,0 -73.98471640000001,40.759341199999994,0 -73.984924,40.759429499999996,0 -73.98492230000001,40.7594338,0 -73.98494840000001,40.7594458,0 -73.9851404,40.7595342,0 -73.9851641,40.759545100000004,0 -73.9851677,40.759536,0 -73.9861549,40.7599444,0 </coordinates></LineString><TimeSpan><begin>2021-11-27T00:43:03.633Z</begin><end>2021-11-27T00:50:46.218Z</end></TimeSpan></Placemark><Placemark><name>Barrymore Theatre</name><address>243 W 47th St, New York, NY 10036</address><ExtendedData><Data name="Email"><value>syugen.zhou@gmail.com</value></Data><Data name="Category"><value>Performing arts theater</value></Data><Data name="Distance"><value>0</value></Data></ExtendedData><description> Performing arts theater from 2021-11-27T00:50:46.218Z to 2021-11-27T03:50:33.080Z. Distance 0m </description><Point><coordinates>-73.98624029999999,40.760010199999996,0</coordinates></Point><TimeSpan><begin>2021-11-27T00:50:46.218Z</begin><end>2021-11-27T03:50:33.080Z</end></TimeSpan></Placemark><Placemark><name>On the subway</name><address></address><ExtendedData><Data name="Email"><value>syugen.zhou@gmail.com</value></Data><Data name="Category"><value>On the subway</value></Data><Data name="Distance"><value>5914</value></Data></ExtendedData><description> On the subway from 2021-11-27T03:50:33.080Z to 2021-11-27T04:20:34.481Z. Distance 5914m </description><LineString><altitudeMode>clampToGround</altitudeMode><extrude>1</extrude><tesselate>1</tesselate><coordinates>-73.98624029999999,40.760010199999996,0 -73.98624029999999,40.760010199999996,0 -73.9861165,40.7599574,0 -73.9883794,40.7485271,0 -73.9930174,40.7430165,0 -74.0341455,40.7271135,0 -74.0341455,40.7271135,0 </coordinates></LineString><TimeSpan><begin>2021-11-27T03:50:33.080Z</begin><end>2021-11-27T04:20:34.481Z</end></TimeSpan></Placemark><Placemark><name>Newport</name><address>Jersey City, NJ 07310</address><ExtendedData><Data name="Email"><value>syugen.zhou@gmail.com</value></Data><Data name="Category"><value>Train station</value></Data><Data name="Distance"><value>0</value></Data></ExtendedData><description> Train station from 2021-11-27T04:20:34.481Z to 2021-11-27T04:35:20.000Z. Distance 0m </description><Point><coordinates>-74.0337579,40.7269845,0</coordinates></Point><TimeSpan><begin>2021-11-27T04:20:34.481Z</begin><end>2021-11-27T04:35:20.000Z</end></TimeSpan></Placemark><Placemark><name>In a taxi</name><address></address><ExtendedData><Data name="Email"><value>syugen.zhou@gmail.com</value></Data><Data name="Category"><value>In a taxi</value></Data><Data name="Distance"><value>903</value></Data></ExtendedData><description> In a taxi from 2021-11-27T04:35:20.000Z to 2021-11-27T04:42:26.049Z. Distance 903m </description><LineString><altitudeMode>clampToGround</altitudeMode><extrude>1</extrude><tesselate>1</tesselate><coordinates>-74.034418,40.727268699999996,0 -74.0344069,40.72729929999999,0 -74.0344049,40.727304,0 -74.0343754,40.72744229999999,0 -74.03435920000001,40.72757669999999,0 -74.03435280000001,40.727714199999994,0 -74.0343736,40.72784989999999,0 -74.0344069,40.727964899999996,0 -74.03441769999999,40.728023799999995,0 -74.0344351,40.7280897,0 -74.03448449999999,40.7282856,0 -74.03455079999999,40.728517399999994,0 -74.03458069999999,40.728626899999995,0 -74.0346143,40.7287443,0 -74.03461449999999,40.728747,0 -74.03462599999999,40.728829999999995,0 -74.03462899999998,40.7288781,0 -74.03463059999999,40.7289443,0 -74.03462339999999,40.729022400000005,0 -74.03461769999998,40.729091100000005,0 -74.03461259999997,40.7291504,0 -74.03460349999999,40.7292542,0 -74.03457149999998,40.729395100000005,0 -74.03454019999998,40.729593400000006,0 -74.03450439999999,40.7297953,0 -74.03450399999998,40.729798800000005,0 -74.03450099999999,40.7298136,0 -74.03445269999997,40.7300905,0 -74.03422959999997,40.7310629,0 -74.03422959999997,40.7310629,0 -74.03421139999998,40.7311563,0 -74.03443729999998,40.731191100000004,0 -74.03453399999998,40.7311853,0 -74.03463009999997,40.731172,0 -74.03466739999998,40.731162700000006,0 -74.03514569999997,40.7312193,0 -74.03563569999997,40.73127480000001,0 -74.03629489999999,40.7313362,0 -74.03690799999998,40.7313953,0 -74.0370416,40.73140760000001,0 -74.03723649999999,40.731431900000004,0 -74.0375849,40.7314847,0 -74.0379706,40.731524900000004,0 -74.03914250000001,40.73162340000001,0 -74.0394036,40.731647800000005,0 -74.0394848,40.7316553,0 -74.0395038,40.7315594,0 -74.0397239,40.73158060000001,0 -74.0399704,40.73159950000001,0 -74.0401253,40.731615000000005,0 -74.0401253,40.731615000000005,0 -74.0401008,40.73179100000001,0 -74.04007080000001,40.73200610000001,0 </coordinates></LineString><TimeSpan><begin>2021-11-27T04:35:20.000Z</begin><end>2021-11-27T04:42:26.049Z</end></TimeSpan></Placemark><Placemark><name>Holiday Inn Express &amp; Suites Jersey City - Holland Tunnel, an IHG Hotel</name><address>180 14th St, Jersey City, NJ 07310</address><ExtendedData><Data name="Email"><value>syugen.zhou@gmail.com</value></Data><Data name="Category"><value>Hotel</value></Data><Data name="Distance"><value>0</value></Data></ExtendedData><description> Hotel from 2021-11-27T04:42:26.049Z to 2021-11-27T15:08:12.000Z. Distance 0m </description><Point><coordinates>-74.04046799999999,40.7318455,0</coordinates></Point><TimeSpan><begin>2021-11-27T04:42:26.049Z</begin><end>2021-11-27T15:08:12.000Z</end></TimeSpan></Placemark></Document></kml>
