<?xml version="1.0" encoding="UTF-8"?><kml xmlns="http://www.opengis.net/kml/2.2" xmlns:gx="http://www.google.com/kml/ext/2.2"><Document><name> Location history from 2021-02-19 to 2021-02-19 </name><open>1</open><description></description><StyleMap id="multiTrack"><Pair><key>normal</key><styleUrl>#multiTrack_n</styleUrl></Pair><Pair><key>highlight</key><styleUrl>#multiTrack_h</styleUrl></Pair></StyleMap><Style id="multiTrack_n"><IconStyle><Icon><href>https://earth.google.com/images/kml-icons/track-directional/track-0.png</href></Icon></IconStyle><LineStyle><color>99ffac59</color><width>6</width></LineStyle></Style><Style id="multiTrack_h"><IconStyle><scale>1.2</scale><Icon><href>https://earth.google.com/images/kml-icons/track-directional/track-0.png</href></Icon></IconStyle><LineStyle><color>99ffac59</color><width>8</width></LineStyle></Style><Placemark><name>702 Marlin Ave</name><address>702 Marlin Ave, Foster City, CA 94404</address><ExtendedData><Data name="Email"><value>syugen.zhou@gmail.com</value></Data><Data name="Category"><value></value></Data><Data name="Distance"><value>0</value></Data></ExtendedData><description>  from 2021-02-18T03:16:49.999Z to 2021-02-19T22:32:40.000Z. Distance 0m </description><Point><coordinates>-122.25498479999999,37.5541321,0</coordinates></Point><TimeSpan><begin>2021-02-18T03:16:49.999Z</begin><end>2021-02-19T22:32:40.000Z</end></TimeSpan></Placemark><Placemark><name>Driving</name><address></address><ExtendedData><Data name="Email"><value>syugen.zhou@gmail.com</value></Data><Data name="Category"><value>Driving</value></Data><Data name="Distance"><value>20454</value></Data></ExtendedData><description> Driving from 2021-02-19T22:32:40.000Z to 2021-02-19T22:49:19.000Z. Distance 20454m </description><LineString><altitudeMode>clampToGround</altitudeMode><extrude>1</extrude><tesselate>1</tesselate><coordinates>-122.25540089999998,37.554019499999995,0 -122.2555829,37.55380819999999,0 -122.25695209999998,37.5545706,0 -122.25799099999998,37.555179499999994,0 -122.25894519999997,37.5556953,0 -122.26070299999998,37.5567215,0 -122.2675732,37.5605833,0 -122.26799609999999,37.5608486,0 -122.2696225,37.5617861,0 -122.2703576,37.56228349999999,0 -122.27036039999999,37.5622872,0 -122.27150939999999,37.562941099999996,0 -122.27201249999999,37.56241849999999,0 -122.27252209999997,37.56198049999999,0 -122.27307969999997,37.562512899999994,0 -122.27314039999997,37.562585299999995,0 -122.27318039999997,37.562642999999994,0 -122.27323009999998,37.5627332,0 -122.27327179999996,37.5628349,0 -122.27329859999998,37.5629637,0 -122.27330499999997,37.563085900000004,0 -122.27329699999996,37.5632007,0 -122.27327789999997,37.563292100000005,0 -122.27322139999995,37.563444800000006,0 -122.27313919999997,37.5635819,0 -122.27310669999999,37.5636211,0 -122.27250379999998,37.5642136,0 -122.2723896,37.564313500000004,0 -122.2723826,37.56432650000001,0 -122.272368,37.56446770000001,0 -122.26922040000001,37.567317,0 -122.26913140000002,37.567385900000005,0 -122.24493910000001,37.5894765,0 -122.24458720000003,37.58975160000001,0 -122.2440382,37.5901275,0 -122.2435531,37.590400900000006,0 -122.2431403,37.59060650000001,0 -122.24250640000001,37.59087060000001,0 -122.24212700000002,37.59100140000001,0 -122.22001830000002,37.59759760000001,0 -122.21959940000002,37.59773470000001,0 -122.1746699,37.61107810000001,0 -122.15556860000001,37.616749000000006,0 -122.154807,37.61694760000001,0 -122.15300480000002,37.61736110000001,0 -122.15242060000003,37.61751840000001,0 -122.15144450000004,37.617824600000006,0 -122.14985820000003,37.618414900000005,0 -122.12134580000001,37.62801040000001,0 -122.12079420000002,37.62817640000001,0 -122.11378560000003,37.630527300000004,0 -122.11358510000004,37.63050210000001,0 -122.11153720000003,37.6310391,0 -122.11142350000003,37.6310507,0 -122.11136120000002,37.6310504,0 -122.11119750000003,37.631030800000005,0 -122.11047660000003,37.63088450000001,0 -122.11031790000003,37.6308609,0 -122.11023880000002,37.6308583,0 -122.11011000000002,37.6308701,0 -122.11005570000002,37.630881200000005,0 -122.10936070000001,37.63111320000001,0 -122.1102513,37.63256810000001,0 -122.11045730000001,37.6328523,0 -122.11051300000001,37.63291520000001,0 -122.1109195,37.63351080000001,0 -122.11118479999999,37.6338282,0 -122.11121489999998,37.633913500000006,0 -122.11123699999999,37.633945100000005,0 -122.11152019999999,37.634185800000004,0 -122.11177389999997,37.634348200000005,0 -122.11198139999998,37.63446180000001,0 -122.11306469999998,37.63497660000001,0 -122.11341619999997,37.635218800000004,0 -122.11388309999997,37.6356054,0 -122.11392709999997,37.635629300000005,0 -122.11401449999997,37.63565560000001,0 -122.11554299999997,37.63704990000001,0 -122.11559179999996,37.63718130000001,0 -122.11599969999997,37.63760040000001,0 -122.11783899999996,37.63931380000001,0 -122.11859989999998,37.63997290000002,0 -122.11892899999998,37.64029900000002,0 -122.11904479999998,37.64043210000002,0 -122.11916529999999,37.640590300000014,0 -122.1194041,37.64095160000002,0 -122.1195115,37.641055100000024,0 -122.1196901,37.64148650000002,0 -122.1197906,37.64181040000002,0 -122.1198514,37.64220560000002,0 -122.11986359999999,37.64235840000001,0 -122.1198916,37.64360830000002,0 -122.1199283,37.64424850000002,0 -122.11992910000001,37.64452230000002,0 -122.11995500000002,37.64503930000002,0 -122.11995450000002,37.64530340000002,0 -122.12010420000001,37.64844200000002,0 -122.12010630000002,37.64897400000002,0 -122.12009710000001,37.649102200000016,0 -122.1201743,37.650852100000016,0 </coordinates></LineString><TimeSpan><begin>2021-02-19T22:32:40.000Z</begin><end>2021-02-19T22:49:19.000Z</end></TimeSpan></Placemark><Placemark><name>Escape Campervans</name><address>22990 Clawiter Rd, Hayward, CA 94545</address><ExtendedData><Data name="Email"><value>syugen.zhou@gmail.com</value></Data><Data name="Category"><value>Recreational vehicle rental agency</value></Data><Data name="Distance"><value>0</value></Data></ExtendedData><description> Recreational vehicle rental agency from 2021-02-19T22:49:19.000Z to 2021-02-19T23:55:55.000Z. Distance 0m </description><Point><coordinates>-122.119844,37.650717,0</coordinates></Point><TimeSpan><begin>2021-02-19T22:49:19.000Z</begin><end>2021-02-19T23:55:55.000Z</end></TimeSpan></Placemark><Placemark><name>Driving</name><address></address><ExtendedData><Data name="Email"><value>syugen.zhou@gmail.com</value></Data><Data name="Category"><value>Driving</value></Data><Data name="Distance"><value>3723</value></Data></ExtendedData><description> Driving from 2021-02-19T23:55:55.999Z to 2021-02-20T00:03:04.000Z. Distance 3723m </description><LineString><altitudeMode>clampToGround</altitudeMode><extrude>1</extrude><tesselate>1</tesselate><coordinates>-122.12017159999999,37.6507966,0 -122.12018379999998,37.65104649999999,0 -122.11995669999997,37.6510512,0 -122.11972959999997,37.6510558,0 -122.11867939999998,37.6510774,0 -122.11866649999997,37.650723,0 -122.11866529999998,37.650500300000004,0 -122.11863399999999,37.6498963,0 -122.11863239999998,37.6496667,0 -122.1186307,37.6494338,0 -122.11862989999999,37.64933,0 -122.11858369999999,37.6486179,0 -122.11836029999998,37.6486125,0 -122.1177477,37.648627,0 -122.11695479999999,37.6486429,0 -122.11677889999997,37.6486446,0 -122.11545649999998,37.6486776,0 -122.11501159999996,37.648692399999995,0 -122.11482169999998,37.648699199999996,0 -122.11469039999997,37.6487102,0 -122.11461429999999,37.6487242,0 -122.11455059999997,37.64873879999999,0 -122.11448359999997,37.64876049999999,0 -122.11412259999996,37.64890139999999,0 -122.11332279999995,37.649211999999984,0 -122.11254989999995,37.64951179999999,0 -122.11105249999994,37.65009289999999,0 -122.11083549999995,37.65017189999999,0 -122.11076199999995,37.65019579999999,0 -122.11067719999994,37.65021999999999,0 -122.11062359999994,37.65023519999999,0 -122.11054349999993,37.65025439999999,0 -122.11045479999993,37.650270099999986,0 -122.11032439999994,37.650286599999994,0 -122.11019309999993,37.65029839999999,0 -122.11010919999993,37.650304299999995,0 -122.11009319999992,37.650304799999994,0 -122.10990529999991,37.65031019999999,0 -122.10973059999989,37.650319999999994,0 -122.1096369999999,37.65032909999999,0 -122.10959229999989,37.65033379999999,0 -122.10947759999989,37.650348099999995,0 -122.10938229999991,37.650366399999996,0 -122.1092652999999,37.65039899999999,0 -122.10885619999989,37.65054059999999,0 -122.10868249999987,37.65060519999999,0 -122.1090394999999,37.651196699999986,0 -122.10962819999989,37.652192699999986,0 -122.10993049999988,37.65270179999999,0 -122.10994299999989,37.652722799999985,0 -122.1101365999999,37.65304859999999,0 -122.1102041999999,37.65316149999999,0 -122.1103542999999,37.653390899999984,0 -122.11045779999989,37.653548999999984,0 -122.1109427999999,37.65426809999998,0 -122.1111089999999,37.65452179999998,0 -122.11115299999989,37.654588899999986,0 -122.11136149999989,37.65490479999998,0 -122.11162159999989,37.655287399999985,0 -122.11176509999989,37.65551079999999,0 -122.1118794999999,37.65568649999999,0 -122.1121501999999,37.65610239999999,0 -122.1131272999999,37.65769649999999,0 -122.11353549999991,37.65833889999999,0 -122.1144909999999,37.65990939999999,0 -122.1148449999999,37.66049699999999,0 -122.11551009999991,37.66155999999999,0 -122.1159640999999,37.66230699999999,0 -122.1169517999999,37.663908899999996,0 -122.1170899999999,37.66414029999999,0 -122.1171398999999,37.66421909999999,0 -122.1172004999999,37.664321599999994,0 -122.11746129999989,37.66479309999999,0 -122.1179336999999,37.66557219999999,0 -122.11800039999989,37.66568919999999,0 -122.11808249999987,37.66581439999999,0 -122.11827369999986,37.666116399999986,0 -122.11843029999986,37.66636789999999,0 -122.11852369999986,37.66652789999999,0 -122.11860399999986,37.66665729999999,0 -122.11868539999986,37.666813899999994,0 -122.11896859999986,37.66725409999999,0 -122.11923189999985,37.66765929999999,0 -122.11935649999985,37.66784999999999,0 -122.11961969999984,37.66824689999999,0 -122.11994339999983,37.66878469999999,0 -122.12020379999983,37.669204499999985,0 -122.12042419999983,37.66956779999999,0 -122.12070919999984,37.67002149999999,0 -122.12087779999982,37.67030779999999,0 -122.12098849999981,37.670485099999986,0 -122.12108999999982,37.67066529999999,0 -122.12114789999983,37.67075169999999,0 -122.12163389999981,37.67151339999999,0 -122.12147469999982,37.67158509999999,0 -122.12160299999981,37.67176409999998,0 -122.12167389999982,37.67186699999999,0 -122.12171619999982,37.67193419999999,0 -122.1217758999998,37.67202249999998,0 -122.12222879999982,37.672729299999986,0 </coordinates></LineString><TimeSpan><begin>2021-02-19T23:55:55.999Z</begin><end>2021-02-20T00:03:04.000Z</end></TimeSpan></Placemark><Placemark><name>San Lorenzo</name><address>California</address><ExtendedData><Data name="Email"><value>syugen.zhou@gmail.com</value></Data><Data name="Category"><value></value></Data><Data name="Distance"><value>0</value></Data></ExtendedData><description>  from 2021-02-20T00:03:04.000Z to 2021-02-20T00:17:58.999Z. Distance 0m </description><Point><coordinates>-122.12670539999999,37.6793968,0</coordinates></Point><TimeSpan><begin>2021-02-20T00:03:04.000Z</begin><end>2021-02-20T00:17:58.999Z</end></TimeSpan></Placemark><Placemark><name>Driving</name><address></address><ExtendedData><Data name="Email"><value>syugen.zhou@gmail.com</value></Data><Data name="Category"><value>Driving</value></Data><Data name="Distance"><value>80051</value></Data></ExtendedData><description> Driving from 2021-02-20T00:17:58.999Z to 2021-02-20T02:16:54.999Z. Distance 80051m </description><LineString><altitudeMode>clampToGround</altitudeMode><extrude>1</extrude><tesselate>1</tesselate><coordinates>-122.12231129999998,37.672858,0 -122.12245659999999,37.6730751,0 -122.12260249999999,37.673004999999996,0 -122.1233989,37.67427669999999,0 -122.1239422,37.67518669999999,0 -122.12666809999999,37.67941719999999,0 -122.1260081,37.67969509999999,0 -122.12567239999998,37.679866399999995,0 -122.12551119999999,37.67997809999999,0 -122.1252148,37.680242699999994,0 -122.12421819999999,37.68118009999999,0 -122.12387989999999,37.68146399999999,0 -122.12357219999998,37.681755499999994,0 -122.12349999999998,37.68181809999999,0 -122.12334519999997,37.68192809999999,0 -122.1231955,37.682014499999994,0 -122.1229986,37.68210609999999,0 -122.122828,37.682165099999985,0 -122.1224798,37.682268599999986,0 -122.1215094,37.682590099999985,0 -122.1212856,37.68267409999999,0 -122.121227,37.68270189999999,0 -122.12100170000001,37.68282849999999,0 -122.1207819,37.68297969999999,0 -122.1202094,37.68342469999999,0 -122.11973629999999,37.68374169999999,0 -122.11931039999997,37.68404329999999,0 -122.11915659999997,37.68409639999999,0 -122.11907249999997,37.68411379999999,0 -122.11895119999998,37.68412589999999,0 -122.11674559999997,37.684271499999994,0 -122.11678799999999,37.68467009999999,0 -122.11687479999998,37.685910099999994,0 -122.11686029999998,37.68614009999999,0 -122.11685449999997,37.68664759999999,0 -122.11641969999998,37.68664999999999,0 -122.11638439999999,37.6866588,0 -122.11633499999998,37.686682899999994,0 -122.11599339999997,37.68669009999999,0 -122.11430399999996,37.68669069999999,0 -122.11407509999997,37.68670729999999,0 -122.11377529999997,37.68673789999999,0 -122.10815749999996,37.68764139999998,0 -122.10712569999998,37.68782619999998,0 -122.10718179999996,37.68800179999998,0 -122.10723159999996,37.68821229999998,0 -122.10723519999996,37.688284199999984,0 -122.10722419999998,37.68835519999998,0 -122.10720539999997,37.688411399999985,0 -122.10719179999998,37.68844159999998,0 -122.10717209999997,37.688474499999984,0 -122.10712679999997,37.68853559999998,0 -122.10709779999999,37.68856699999998,0 -122.1070179,37.688628899999976,0 -122.1069525,37.68866439999998,0 -122.10688360000002,37.68869189999998,0 -122.1068058,37.68871349999998,0 -122.10532430000002,37.68896259999998,0 -122.10516150000001,37.68906269999998,0 -122.0951025,37.69018009999998,0 -122.09465879999999,37.69021329999998,0 -122.09427899999999,37.69025049999998,0 -122.09249719999998,37.690384899999984,0 -122.0898966,37.690483999999984,0 -122.0839166,37.69052569999998,0 -122.07811509999999,37.690512699999985,0 -122.07654279999998,37.69054439999998,0 -122.07515569999998,37.69054559999998,0 -122.07299489999998,37.69057319999998,0 -122.07177859999999,37.69061699999998,0 -122.07069509999998,37.69069319999998,0 -122.0690006,37.690886299999974,0 -122.0680343,37.69107509999998,0 -122.0678689,37.691118599999974,0 -122.0667333,37.691359499999976,0 -122.06639509999998,37.69144849999998,0 -122.06622689999999,37.69150069999998,0 -122.0599003,37.69326639999998,0 -122.0594772,37.69337299999997,0 -122.0592548,37.69341779999997,0 -122.0581006,37.69354439999997,0 -122.05779079999999,37.69356939999997,0 -122.0576719,37.69357369999997,0 -122.05744200000001,37.69359069999997,0 -122.05701930000001,37.69360459999997,0 -122.0564857,37.69359239999997,0 -122.0559539,37.69356189999997,0 -122.05322540000002,37.69326629999997,0 -122.0528576,37.693241899999975,0 -122.05236930000001,37.693225499999976,0 -122.05178000000001,37.693227899999975,0 -122.05115080000002,37.693255899999976,0 -122.05046290000001,37.69332769999998,0 -122.05012320000002,37.69337369999998,0 -122.04934920000001,37.69351319999998,0 -122.0490201,37.693588999999974,0 -122.0484022,37.693752499999974,0 -122.0478035,37.693948399999975,0 -122.0471898,37.69418099999998,0 -122.04669120000001,37.69440109999998,0 -122.04635570000002,37.69456789999998,0 -122.04593780000002,37.694793699999984,0 -122.04570300000002,37.69492979999998,0 -122.04518980000003,37.69525429999998,0 -122.04484540000003,37.695497899999985,0 -122.04366140000003,37.69650999999998,0 -122.04146940000004,37.69854309999998,0 -122.04106320000004,37.698934399999985,0 -122.04049800000006,37.69943379999998,0 -122.03999400000005,37.69982779999998,0 -122.03975190000006,37.699997299999986,0 -122.03912340000005,37.70040129999998,0 -122.03887730000005,37.70053989999998,0 -122.03845200000005,37.70076369999998,0 -122.03817580000006,37.700895999999986,0 -122.03745760000005,37.701190799999985,0 -122.03691710000004,37.70138249999999,0 -122.03632810000005,37.70155409999999,0 -122.03585170000007,37.701674099999984,0 -122.03520350000007,37.70180599999998,0 -122.03495420000006,37.70184649999999,0 -122.03380320000007,37.70196479999999,0 -122.03317630000008,37.70199199999999,0 -122.03285240000007,37.701989499999996,0 -122.03227710000006,37.701967999999994,0 -122.03180750000006,37.701929699999994,0 -122.03124010000006,37.7018633,0 -122.03072540000005,37.7017824,0 -122.03036990000005,37.7017125,0 -122.03003420000005,37.7016371,0 -122.02774430000005,37.70101029999999,0 -122.02748980000004,37.70095059999999,0 -122.02692670000003,37.7008454,0 -122.02624890000004,37.70074989999999,0 -122.02584050000004,37.700709499999995,0 -122.02519600000005,37.700670499999994,0 -122.02486790000006,37.70066249999999,0 -122.02431880000005,37.7006668,0 -122.02375490000006,37.7006939,0 -122.02317820000006,37.7007484,0 -122.02254330000007,37.7008357,0 -122.02209030000006,37.700917600000004,0 -122.02161250000005,37.7010227,0 -122.02112110000004,37.701150500000004,0 -122.02059540000005,37.701312300000005,0 -122.02026060000004,37.70142800000001,0 -122.01855930000004,37.702066,0 -122.01810330000004,37.7022174,0 -122.01779400000005,37.702309299999996,0 -122.01720830000004,37.702456999999995,0 -122.01684690000005,37.702533499999994,0 -122.01649990000004,37.702597999999995,0 -122.01618280000004,37.702648499999995,0 -122.01555990000004,37.7027215,0 -122.01528630000004,37.702742400000005,0 -122.00275960000005,37.7033372,0 -122.00149060000004,37.703359799999994,0 -122.00034300000006,37.703325799999995,0 -121.99919250000005,37.7032289,0 -121.99837660000004,37.703134899999995,0 -121.99763010000007,37.703020599999995,0 -121.99657040000007,37.702802299999995,0 -121.99576930000005,37.702616199999994,0 -121.99498580000005,37.70239419999999,0 -121.99452160000004,37.70224919999999,0 -121.99404480000004,37.702088399999994,0 -121.99326760000005,37.701798499999995,0 -121.99282140000004,37.701617299999995,0 -121.98989180000005,37.7003394,0 -121.98942750000006,37.7001573,0 -121.98893670000005,37.699987199999995,0 -121.98849650000004,37.6998551,0 -121.98819890000006,37.6997748,0 -121.98787000000004,37.6996957,0 -121.98740450000005,37.6995978,0 -121.98692900000005,37.699516700000004,0 -121.98656710000003,37.699466799999996,0 -121.98346180000003,37.6991193,0 -121.98188250000003,37.6988916,0 -121.97334220000002,37.6974271,0 -121.97232920000002,37.6972906,0 -121.97163680000001,37.6972145,0 -121.97108340000003,37.697164199999996,0 -121.97016580000002,37.6971011,0 -121.96928960000002,37.6970635,0 -121.96822760000002,37.6970482,0 -121.96736260000002,37.697057199999996,0 -121.96607900000001,37.697108699999994,0 -121.96565620000001,37.6971382,0 -121.96425400000003,37.6972673,0 -121.96296030000002,37.6974373,0 -121.96100750000002,37.69777339999999,0 -121.96082650000002,37.6978106,0 -121.95894490000002,37.6981373,0 -121.95810310000003,37.6982223,0 -121.95754580000002,37.698260399999995,0 -121.95713330000002,37.698267699999995,0 -121.93703800000002,37.6981102,0 -121.9361504,37.6981191,0 -121.93563520000001,37.6981361,0 -121.9349478,37.698179599999996,0 -121.9342799,37.6982505,0 -121.933804,37.6983129,0 -121.93349800000001,37.6983636,0 -121.93300540000001,37.6984573,0 -121.93216810000001,37.6986416,0 -121.92999220000002,37.699164200000006,0 -121.92654300000002,37.6999318,0 -121.92312450000003,37.700731000000005,0 -121.92015750000003,37.7013844,0 -121.91935020000003,37.701525800000006,0 -121.91825030000003,37.701663100000005,0 -121.91768540000002,37.70170340000001,0 -121.91704390000002,37.701729300000004,0 -121.91614900000002,37.701730500000004,0 -121.91253890000002,37.701689300000005,0 -121.91111290000002,37.701635800000005,0 -121.91015280000002,37.7016149,0 -121.90990470000001,37.701603600000006,0 -121.90047220000001,37.7014356,0 -121.8947739,37.701388400000006,0 -121.89318189999999,37.7013909,0 -121.8923399,37.7014044,0 -121.8874135,37.70135870000001,0 -121.88409589999999,37.70135330000001,0 -121.88342369999998,37.70136270000001,0 -121.88061739999999,37.70135660000001,0 -121.880467,37.70136210000001,0 -121.8794057,37.70136590000001,0 -121.87929259999999,37.701371500000015,0 -121.8753423,37.70134870000001,0 -121.8743811,37.70135490000001,0 -121.87017449999999,37.701302700000014,0 -121.86895639999999,37.70130670000002,0 -121.85614699999998,37.701169700000015,0 -121.85600899999997,37.70117290000002,0 -121.85503779999998,37.701164700000014,0 -121.85460899999998,37.70117180000002,0 -121.84793119999999,37.70113950000002,0 -121.84168509999999,37.70106710000002,0 -121.8406608,37.70106790000002,0 -121.8395763,37.701050500000015,0 -121.83928159999999,37.701054200000016,0 -121.8381378,37.70103660000002,0 -121.8373559,37.701037400000025,0 -121.83670220000002,37.70102390000002,0 -121.8361828,37.70102500000002,0 -121.83506810000002,37.70099310000002,0 -121.82330510000001,37.70089250000002,0 -121.82204820000001,37.700899700000015,0 -121.81073140000001,37.700804800000014,0 -121.81028460000002,37.70079290000002,0 -121.80883810000002,37.700795000000014,0 -121.79516990000002,37.700660800000016,0 -121.79485090000003,37.70064600000002,0 -121.79448210000004,37.70061930000002,0 -121.79431200000003,37.70060030000002,0 -121.79399790000004,37.700554600000025,0 -121.79366180000004,37.70049110000002,0 -121.79213250000002,37.70013690000002,0 -121.78999770000003,37.69968360000002,0 -121.78951260000002,37.69959420000002,0 -121.78881670000001,37.69950000000002,0 -121.78833820000003,37.69945550000003,0 -121.78798600000003,37.699433300000024,0 -121.78790990000005,37.699443000000024,0 -121.78720630000005,37.69943670000003,0 -121.78644330000006,37.69947010000003,0 -121.77688290000005,37.70030950000003,0 -121.77574960000005,37.70044940000003,0 -121.77110430000006,37.70118310000004,0 -121.76422890000006,37.70232340000003,0 -121.76311020000006,37.70249390000003,0 -121.76174210000005,37.70265350000003,0 -121.76090440000004,37.70272520000003,0 -121.75934260000004,37.70279700000003,0 -121.75830110000003,37.702806400000036,0 -121.75667690000003,37.70276850000003,0 -121.74448360000004,37.70225260000003,0 -121.74348970000005,37.70223330000003,0 -121.74303870000004,37.70224360000004,0 -121.74242220000004,37.702270600000034,0 -121.74073990000004,37.70243760000003,0 -121.74000990000003,37.70255420000003,0 -121.73920970000002,37.70271660000004,0 -121.73879130000003,37.70281870000004,0 -121.73786560000003,37.70307740000003,0 -121.73708080000003,37.703333500000035,0 -121.73659560000002,37.70351060000003,0 -121.72841240000001,37.70695710000003,0 -121.7283277,37.70697840000003,0 -121.7265397,37.707742400000036,0 -121.7259063,37.708028000000034,0 -121.7209185,37.71014320000003,0 -121.72007959999998,37.710486800000034,0 -121.7195831,37.710704500000034,0 -121.71645299999999,37.711994700000034,0 -121.716005,37.71219940000004,0 -121.71275149999998,37.71357170000004,0 -121.7072088,37.71596360000004,0 -121.7067294,37.716154900000035,0 -121.70619579999999,37.71634260000003,0 -121.70509249999998,37.71669530000003,0 -121.70408849999998,37.71696460000004,0 -121.7036617,37.717063300000035,0 -121.6874667,37.72040410000004,0 -121.68619079999999,37.72069540000004,0 -121.6828106,37.72153380000003,0 -121.6823817,37.72161700000003,0 -121.6819457,37.72168220000003,0 -121.6814144,37.72172810000003,0 -121.68099649999999,37.72174660000003,0 -121.68050889999999,37.72174670000003,0 -121.68035299999998,37.72174210000003,0 -121.6799394,37.72171160000003,0 -121.6768405,37.72138780000003,0 -121.6764249,37.72133110000003,0 -121.67619260000001,37.72129030000003,0 -121.67579769999999,37.72120820000003,0 -121.67558939999999,37.72115540000003,0 -121.675201,37.72104350000003,0 -121.6747138,37.72087610000003,0 -121.67444040000001,37.72076630000003,0 -121.673999,37.72056390000002,0 -121.673626,37.720365900000026,0 -121.6733451,37.720199900000026,0 -121.6720869,37.71935230000002,0 -121.6716156,37.71906510000002,0 -121.67135,37.71891970000002,0 -121.670981,37.718742300000024,0 -121.67058139999999,37.718569200000026,0 -121.6703464,37.718477200000024,0 -121.6700419,37.718367900000025,0 -121.66976240000001,37.71827880000003,0 -121.66943530000002,37.71818570000002,0 -121.66897210000002,37.71807330000002,0 -121.6685547,37.71799300000002,0 -121.66824430000001,37.71794420000002,0 -121.66792190000002,37.71790340000002,0 -121.66759980000002,37.71787120000002,0 -121.66710200000003,37.71784130000002,0 -121.66676810000003,37.71783540000002,0 -121.66631900000004,37.71784360000002,0 -121.66598770000003,37.717861900000024,0 -121.66577860000002,37.71787970000002,0 -121.66529030000004,37.71793660000002,0 -121.66494380000003,37.71799090000002,0 -121.66428430000003,37.71812370000002,0 -121.66102790000004,37.71903330000002,0 -121.66087670000003,37.71908050000002,0 -121.65774070000002,37.71996450000002,0 -121.65697180000004,37.72020090000002,0 -121.64695010000004,37.72342990000002,0 -121.64654510000004,37.72358300000002,0 -121.63721920000003,37.72666600000002,0 -121.63692900000004,37.726770100000024,0 -121.63660020000003,37.726899100000026,0 -121.63628550000003,37.727038800000024,0 -121.63595500000002,37.72720030000003,0 -121.63555290000002,37.72741930000003,0 -121.63513280000001,37.72769290000003,0 -121.63499680000001,37.72779390000002,0 -121.6347378,37.728007600000026,0 -121.63433730000001,37.72840830000003,0 -121.63404690000002,37.72873320000003,0 -121.63281970000003,37.730233200000036,0 -121.63260860000004,37.73047000000003,0 -121.63240100000004,37.73068390000004,0 -121.63194840000006,37.73111690000004,0 -121.63162560000005,37.731404800000035,0 -121.63137780000005,37.731609200000044,0 -121.63099970000006,37.731888300000044,0 -121.63073860000004,37.73206700000004,0 -121.63021570000004,37.732403500000046,0 -121.62994270000003,37.73256550000004,0 -121.62956210000004,37.73277260000005,0 -121.62920130000003,37.73295020000005,0 -121.62890640000003,37.733078200000044,0 -121.62862370000003,37.73318550000005,0 -121.62829540000004,37.73329570000004,0 -121.62797180000004,37.73339040000005,0 -121.62764620000004,37.733471000000044,0 -121.62731160000003,37.73353880000004,0 -121.62698000000003,37.73359280000004,0 -121.62664140000004,37.73363410000004,0 -121.62629400000004,37.73366480000004,0 -121.62302610000005,37.73386770000004,0 -121.61425040000005,37.73448350000004,0 -121.61217600000005,37.73465300000004,0 -121.61182300000006,37.734696000000035,0 -121.61099810000005,37.73481500000004,0 -121.60916270000004,37.73516650000004,0 -121.60797480000005,37.73543700000004,0 -121.60719160000006,37.735640600000046,0 -121.60132070000006,37.73727150000004,0 -121.60011910000006,37.737562400000044,0 -121.59894370000005,37.73781040000004,0 -121.58924790000005,37.73964570000005,0 -121.58347000000005,37.740700400000044,0 -121.57922620000006,37.74129890000004,0 -121.57750930000006,37.741477000000046,0 -121.57391300000008,37.74175130000005,0 -121.57381120000008,37.74168940000005,0 -121.57380700000006,37.74168840000005,0 -121.57011840000007,37.74182830000005,0 -121.56941120000008,37.74183150000005,0 -121.56895270000008,37.74181650000005,0 -121.56805280000009,37.74176390000005,0 -121.56730360000009,37.74168050000005,0 -121.56437230000007,37.741279400000046,0 -121.56275520000007,37.74109950000005,0 -121.56208610000007,37.74100480000005,0 -121.56157930000008,37.74090430000005,0 -121.56109120000008,37.74078520000005,0 -121.56077010000008,37.740689000000046,0 -121.5604312000001,37.74057130000004,0 -121.55994050000011,37.74037800000004,0 -121.5593995000001,37.740124100000045,0 -121.55881640000011,37.739801100000044,0 -121.55800970000013,37.73927940000004,0 -121.55761820000012,37.73899860000004,0 -121.55724180000011,37.73871090000004,0 -121.55259260000011,37.73484000000004,0 -121.55118880000009,37.73358430000005,0 -121.5502132000001,37.732677600000045,0 -121.5379306000001,37.72162420000004,0 -121.5376299000001,37.72136730000005,0 -121.5374199000001,37.72117400000004,0 -121.53696470000011,37.720780400000045,0 -121.5362712000001,37.72020920000004,0 -121.5353219000001,37.71947690000004,0 -121.53433790000011,37.718779400000045,0 -121.53354310000012,37.718249800000045,0 -121.53300460000011,37.71790770000004,0 -121.52495920000011,37.71303860000004,0 -121.52491320000011,37.71301510000004,0 -121.52305370000009,37.71188570000004,0 -121.5226629000001,37.71163240000004,0 -121.5210871000001,37.71070130000004,0 -121.4870359000001,37.690096900000036,0 -121.48637150000009,37.68970810000003,0 -121.41666220000009,37.64743840000004,0 -121.41456100000008,37.64618570000004,0 -121.41394410000008,37.645777900000034,0 -121.41360860000009,37.64561940000004,0 -121.41325700000009,37.64539090000004,0 -121.41199070000008,37.64462450000004,0 -121.41063970000008,37.64378170000004,0 -121.41013500000008,37.64349190000004,0 -121.37476250000007,37.62201810000005,0 -121.37410880000007,37.621604500000046,0 -121.37306030000006,37.62091580000005,0 -121.37139600000006,37.61974900000005,0 -121.37082180000006,37.619323700000045,0 -121.32551150000006,37.58445000000004,0 -121.32541800000006,37.58430600000005,0 -121.32524490000007,37.58416120000005,0 -121.32385640000005,37.582912200000045,0 -121.32378780000006,37.582817900000045,0 -121.32374440000005,37.58270280000004,0 -121.32372900000004,37.582638500000044,0 -121.32372200000005,37.58256590000004,0 -121.32372440000005,37.58250890000004,0 -121.32374230000005,37.58240010000004,0 -121.32382660000003,37.582125900000044,0 -121.32386280000004,37.58203980000004,0 -121.32387350000005,37.58198980000004,0 -121.32387220000005,37.58192710000004,0 -121.32385880000005,37.58187930000004,0 -121.32382800000006,37.58182940000004,0 -121.32378640000006,37.58178260000004,0 -121.32364430000007,37.581658900000036,0 </coordinates></LineString><TimeSpan><begin>2021-02-20T00:17:58.999Z</begin><end>2021-02-20T02:16:54.999Z</end></TimeSpan></Placemark><Placemark><name>Westley Rest Area - Southbound</name><address>Westley, CA 95387</address><ExtendedData><Data name="Email"><value>syugen.zhou@gmail.com</value></Data><Data name="Category"><value>Rest stop</value></Data><Data name="Distance"><value>0</value></Data></ExtendedData><description> Rest stop from 2021-02-20T02:16:54.999Z to 2021-02-20T02:35:34.999Z. Distance 0m </description><Point><coordinates>-121.3236476,37.5812374,0</coordinates></Point><TimeSpan><begin>2021-02-20T02:16:54.999Z</begin><end>2021-02-20T02:35:34.999Z</end></TimeSpan></Placemark><Placemark><name>Driving</name><address></address><ExtendedData><Data name="Email"><value>syugen.zhou@gmail.com</value></Data><Data name="Category"><value>Driving</value></Data><Data name="Distance"><value>358808</value></Data></ExtendedData><description> Driving from 2021-02-20T02:35:34.999Z to 2021-02-20T05:51:59.000Z. Distance 358808m </description><LineString><altitudeMode>clampToGround</altitudeMode><extrude>1</extrude><tesselate>1</tesselate><coordinates>-121.32364910000001,37.5816631,0 -121.32348060000002,37.581525400000004,0 -121.3232526,37.581360700000005,0 -121.3230743,37.5812438,0 -121.3229133,37.5811524,0 -121.3227926,37.581119400000006,0 -121.3226786,37.581110900000006,0 -121.3225794,37.5811258,0 -121.32239499999999,37.581198,0 -121.32207579999998,37.5812746,0 -121.32194439999998,37.58131650000001,0 -121.32186129999998,37.581325500000005,0 -121.32182569999999,37.58132570000001,0 -121.32176179999999,37.5813162,0 -121.32172949999999,37.581307200000005,0 -121.3216522,37.58127390000001,0 -121.32039230000001,37.5804174,0 -121.3197816,37.5799552,0 -121.31961739999998,37.5799118,0 -121.2785999,37.5482951,0 -121.2784871,37.5482,0 -121.2783795,37.5481269,0 -121.2626327,37.535980099999996,0 -121.26260839999999,37.5359651,0 -121.26036789999999,37.5342322,0 -121.2589846,37.533112700000004,0 -121.22594190000001,37.505041299999995,0 -121.22397339999999,37.5034705,0 -121.21272850000001,37.4952201,0 -121.21223800000001,37.494841799999996,0 -121.21121490000002,37.4939984,0 -121.21022620000002,37.4931066,0 -121.2044618,37.4874323,0 -121.20357419999999,37.4865087,0 -121.1811401,37.4642136,0 -121.1803629,37.4633982,0 -121.17925869999999,37.4621195,0 -121.17826459999999,37.4608165,0 -121.1707496,37.4501581,0 -121.1630119,37.4396849,0 -121.16216709999999,37.4384007,0 -121.16143149999999,37.4373468,0 -121.1609009,37.436377699999994,0 -121.16055329999999,37.4356398,0 -121.1503943,37.415280599999996,0 -121.1495733,37.41370129999999,0 -121.14910090000001,37.412866599999994,0 -121.14858000000001,37.41200669999999,0 -121.1478322,37.41085259999999,0 -121.13074189999998,37.386318499999994,0 -121.1300843,37.3852377,0 -121.129622,37.384376399999994,0 -121.1292933,37.3836952,0 -121.1289969,37.383015699999994,0 -121.1286646,37.38213929999999,0 -121.1066791,37.3145944,0 -121.10611479999999,37.3125672,0 -121.10161959999998,37.294995799999995,0 -121.10150839999997,37.2946099,0 -121.09865079999996,37.283460299999994,0 -121.09859869999997,37.2833208,0 -121.09790759999996,37.280480999999995,0 -121.09772529999995,37.2798389,0 -121.07740859999994,37.200435899999995,0 -121.07711519999994,37.1994671,0 -121.07653719999995,37.1979935,0 -121.07614449999993,37.1970866,0 -121.07562919999994,37.196103699999995,0 -121.07534039999993,37.1956048,0 -121.07476549999993,37.1946883,0 -121.02237659999992,37.1144868,0 -121.02130609999992,37.112919899999994,0 -121.02000919999993,37.111193,0 -121.01058679999994,37.0996227,0 -121.01054199999993,37.0995597,0 -121.00606199999993,37.094075499999995,0 -121.00494339999992,37.0927834,0 -121.00377409999992,37.0915111,0 -120.96804709999992,37.054646600000005,0 -120.96747049999992,37.0540772,0 -120.94291139999991,37.0286984,0 -120.94257219999992,37.028368799999996,0 -120.92099869999993,37.0060677,0 -120.91980989999992,37.0047831,0 -120.91708989999994,37.0019586,0 -120.91631309999994,37.0011014,0 -120.90962389999993,36.9934688,0 -120.90882539999994,36.9925933,0 -120.88987879999995,36.9709248,0 -120.88906679999994,36.9700799,0 -120.88844529999994,36.96948220000001,0 -120.88763909999993,36.968751600000004,0 -120.88724119999993,36.96841110000001,0 -120.84259139999995,36.93184810000001,0 -120.84100369999994,36.930501400000004,0 -120.83957139999994,36.92922620000001,0 -120.83816829999994,36.9279275,0 -120.82857159999995,36.9184959,0 -120.82610239999997,36.916174500000004,0 -120.81984319999995,36.9105165,0 -120.81869119999995,36.9093747,0 -120.81762199999996,36.90822120000001,0 -120.80171419999995,36.8899562,0 -120.80126319999994,36.8894122,0 -120.80037539999994,36.8882856,0 -120.79952759999995,36.887130500000005,0 -120.71518529999993,36.764575400000005,0 -120.71459249999992,36.763670600000005,0 -120.69816499999992,36.7397148,0 -120.69791529999992,36.739372800000005,0 -120.68375069999993,36.718741,0 -120.68264989999992,36.7172475,0 -120.68143699999993,36.7156831,0 -120.68052069999993,36.7144259,0 -120.64285899999993,36.665328800000005,0 -120.63977949999993,36.661380400000006,0 -120.61192579999994,36.625040000000006,0 -120.61115929999995,36.62414400000001,0 -120.61046449999995,36.623408500000004,0 -120.60948879999995,36.622475800000004,0 -120.60875149999994,36.621839400000006,0 -120.60828369999994,36.6214577,0 -120.55092899999994,36.578171499999996,0 -120.55091859999993,36.57816569999999,0 -120.47594269999993,36.52148139999999,0 -120.47506429999993,36.520779299999994,0 -120.47397349999993,36.5198373,0 -120.47329649999993,36.5192011,0 -120.44971379999993,36.4958276,0 -120.44812959999993,36.4941729,0 -120.44692059999993,36.4928277,0 -120.43775239999995,36.4822587,0 -120.43429809999994,36.4784403,0 -120.40797869999994,36.4508853,0 -120.38200289999995,36.4218971,0 -120.38124889999995,36.4210264,0 -120.37268389999994,36.4114572,0 -120.37199839999995,36.4107198,0 -120.35454659999994,36.391218099999996,0 -120.35340999999994,36.389911,0 -120.29970729999995,36.329843499999996,0 -120.29829459999996,36.3282253,0 -120.28408329999995,36.311230099999996,0 -120.28272459999994,36.309675399999996,0 -120.27376219999994,36.2998785,0 -120.27287939999992,36.298864,0 -120.27192939999993,36.2978245,0 -120.27133539999993,36.297113100000004,0 -120.27062839999994,36.296181000000004,0 -120.27012669999992,36.2954468,0 -120.20432559999992,36.191048900000006,0 -120.20308679999992,36.1890311,0 -120.19745079999993,36.180099000000006,0 -120.19695399999992,36.1793667,0 -120.19637079999991,36.178585600000005,0 -120.19580709999991,36.177891800000005,0 -120.19150179999991,36.173200400000006,0 -120.18971059999991,36.17118870000001,0 -120.13801309999991,36.11462770000001,0 -120.13583669999991,36.11229620000001,0 -120.10727989999992,36.08101570000001,0 -120.10648709999991,36.080180100000014,0 -120.1060740999999,36.07977340000001,0 -120.10518099999992,36.078951300000014,0 -120.1045466999999,36.078419400000016,0 -120.1034857999999,36.07759760000002,0 -120.10268619999991,36.07703950000002,0 -120.10137789999992,36.07620280000002,0 -120.05356329999992,36.04738800000002,0 -120.05066149999992,36.04572990000002,0 -120.02452689999993,36.031357800000016,0 -120.02374909999993,36.03090580000001,0 -120.02245419999991,36.03011510000002,0 -119.99558389999991,36.012836100000015,0 -119.9947294999999,36.012255400000015,0 -119.9884710999999,36.008240500000014,0 -119.98760109999989,36.00764390000001,0 -119.98675969999988,36.00700890000001,0 -119.98607899999988,36.006454200000015,0 -119.98528699999989,36.00575830000001,0 -119.96070329999989,35.98180290000001,0 -119.96052859999988,35.98161920000001,0 -119.86624439999987,35.88952470000001,0 -119.86412039999988,35.88736320000002,0 -119.86264809999986,35.88581290000001,0 -119.86257309999986,35.88574360000001,0 -119.86243959999986,35.885591800000014,0 -119.83029689999985,35.851647700000015,0 -119.82925949999986,35.850468700000015,0 -119.82450849999985,35.84466600000001,0 -119.82432279999985,35.844420600000014,0 -119.82257269999985,35.84230820000001,0 -119.82225959999987,35.8419043,0 -119.81689999999986,35.83532960000001,0 -119.81341209999985,35.83085500000001,0 -119.81064949999985,35.82716680000001,0 -119.81007879999986,35.82635560000001,0 -119.78479469999986,35.792562200000006,0 -119.78438289999985,35.79204860000001,0 -119.78414449999987,35.79177430000001,0 -119.78348329999987,35.7910644,0 -119.78294339999988,35.790440800000006,0 -119.78256069999988,35.78995050000001,0 -119.77963209999987,35.78599560000001,0 -119.77910559999987,35.78531970000001,0 -119.77578009999985,35.780774600000015,0 -119.77480439999985,35.779507500000015,0 -119.77204309999986,35.77578610000001,0 -119.77139189999987,35.77486000000001,0 -119.77045799999986,35.77365870000002,0 -119.76999339999986,35.77300240000002,0 -119.76575069999987,35.767255900000016,0 -119.76483719999986,35.766101800000015,0 -119.76227699999987,35.76257610000002,0 -119.76120399999988,35.76118390000002,0 -119.76015929999988,35.75971820000002,0 -119.7576028999999,35.75632030000003,0 -119.7570222999999,35.75535680000002,0 -119.7565948999999,35.75479750000002,0 -119.7565463999999,35.754721500000024,0 -119.75012729999989,35.74612600000002,0 -119.74997219999989,35.74589950000002,0 -119.74697679999989,35.74189090000002,0 -119.7468933999999,35.74176570000002,0 -119.73953919999991,35.731902900000016,0 -119.73906739999993,35.73129700000002,0 -119.73871799999992,35.73081170000002,0 -119.73871059999993,35.730795700000016,0 -119.73718909999994,35.728768500000015,0 -119.73698189999993,35.72846370000001,0 -119.73684179999994,35.728294300000016,0 -119.73646799999993,35.72778790000001,0 -119.73640439999993,35.72769060000001,0 -119.73353959999992,35.72382510000001,0 -119.73325549999991,35.723464600000014,0 -119.68861199999992,35.66350990000001,0 -119.68602519999992,35.65997190000001,0 -119.6468403999999,35.607303900000005,0 -119.6458728999999,35.60610980000001,0 -119.6453427999999,35.60549220000001,0 -119.64450839999989,35.604573200000004,0 -119.6133312999999,35.57204300000001,0 -119.61212989999989,35.570831600000005,0 -119.61037309999989,35.569154100000006,0 -119.53855219999988,35.503179800000005,0 -119.5382261999999,35.502900800000006,0 -119.5379227999999,35.5026081,0 -119.53060989999992,35.4958988,0 -119.52936499999993,35.4948483,0 -119.52821179999992,35.4939459,0 -119.43237949999993,35.424343900000004,0 -119.39130079999994,35.394252200000004,0 -119.36471389999994,35.375089700000004,0 -119.33968519999995,35.357358,0 -119.33964089999996,35.3572607,0 -119.33963479999997,35.3572528,0 -119.33885289999998,35.3566162,0 -119.33868889999997,35.356471799999994,0 -119.33846349999997,35.3562248,0 -119.33829689999996,35.355955699999996,0 -119.33823699999995,35.355821,0 -119.33816439999997,35.3556125,0 -119.33813389999996,35.3554759,0 -119.33812359999995,35.355326700000006,0 -119.33812209999996,35.355113900000006,0 -119.33813439999994,35.354943500000005,0 -119.33658059999996,35.354962900000004,0 -119.33456289999997,35.354937,0 -119.33380649999995,35.354901,0 -119.33368679999995,35.3549028,0 -119.33306519999996,35.354877099999996,0 -119.33288379999996,35.3548796,0 -119.33253179999997,35.35485719999999,0 -119.25406929999997,35.35439149999999,0 -119.25403719999997,35.354379699999996,0 -119.25399619999996,35.35437259999999,0 -119.25368249999995,35.35435229999999,0 -119.25313189999996,35.354253099999994,0 -119.25300939999997,35.35424399999999,0 -119.25280799999997,35.35425209999999,0 -119.25264949999996,35.35428059999999,0 -119.25258759999997,35.354283899999984,0 -119.25254129999998,35.35427809999998,0 -119.25248659999998,35.35426069999998,0 -119.25237449999997,35.35420819999998,0 -119.25235659999997,35.35418259999999,0 -119.25233849999998,35.35416469999999,0 -119.25230179999998,35.35414029999999,0 -119.25225529999999,35.35411849999999,0 -119.2522303,35.35411089999999,0 -119.2521778,35.35410229999999,0 -119.25212410000002,35.35410289999999,0 -119.25207160000002,35.354112399999984,0 -119.25204670000002,35.354120399999985,0 -119.25202090000002,35.35414019999999,0 -119.251974,35.354186099999986,0 -119.25190490000001,35.354285799999985,0 -119.25188550000003,35.35432979999999,0 -119.25187750000002,35.35437619999999,0 -119.25188120000001,35.354422899999996,0 -119.25188740000002,35.35444579999999,0 -119.2519081,35.35448939999999,0 -119.25193929999999,35.35452869999999,0 -119.25195839999998,35.35454619999999,0 -119.25200269999998,35.354575999999994,0 -119.25205339999998,35.354597899999995,0 -119.25210859999999,35.35461089999999,0 -119.25216579999999,35.35461449999999,0 -119.25222269999998,35.35460859999999,0 -119.25227699999998,35.35459339999999,0 -119.25231319999999,35.354576699999996,0 -119.2523262,35.3545648,0 -119.2523616,35.3545198,0 -119.25237629999998,35.3544948,0 -119.25239799999997,35.3544411,0 -119.25240899999997,35.3543829,0 -119.25240849999999,35.3543224,0 -119.25240369999999,35.354291800000006,0 -119.2523856,35.35423250000001,0 -119.2523745,35.35420820000001,0 -119.2523566,35.35418260000001,0 -119.25233850000001,35.35416470000001,0 -119.25230180000001,35.35414030000002,0 -119.25225530000002,35.35411850000001,0 -119.25223030000002,35.354110900000016,0 -119.25217780000003,35.354102300000015,0 -119.25212410000003,35.354102900000015,0 -119.25207160000005,35.35411240000001,0 -119.25204670000005,35.35412040000001,0 -119.25202090000005,35.35414020000001,0 -119.25197400000003,35.354186100000014,0 -119.25195340000005,35.35421170000001,0 -119.25192290000004,35.35426000000001,0 -119.25182840000004,35.35426700000001,0 -119.25170210000002,35.35429250000001,0 -119.25156720000003,35.35432770000001,0 -119.25143020000002,35.35435150000001,0 -119.251332,35.35435610000001,0 -119.25036970000001,35.35433890000001,0 -119.2502693,35.35435370000001,0 -119.24956879999999,35.35434130000001,0 -119.19872459999999,35.35437820000001,0 -119.1977041,35.354397900000016,0 -119.18535849999999,35.35443800000001,0 -119.1845839,35.354383100000014,0 -119.1825429,35.354341800000014,0 -119.17929710000001,35.35437910000001,0 -119.17842070000002,35.35441180000001,0 -119.17810310000002,35.35444720000001,0 -119.17781290000002,35.35449710000002,0 -119.17726530000002,35.35461220000001,0 -119.17606320000002,35.354943100000014,0 -119.17577850000004,35.35505640000002,0 -119.17540120000002,35.35522430000002,0 -119.17488720000003,35.35549140000001,0 -119.17239880000001,35.35697410000001,0 -119.1714805,35.35745290000001,0 -119.17092120000001,35.35771350000001,0 -119.17021550000001,35.35801220000001,0 -119.16948440000003,35.358287800000014,0 -119.16904540000003,35.35843760000001,0 -119.16812680000002,35.35871440000001,0 -119.16751610000001,35.35887210000001,0 -119.16673710000002,35.35904330000001,0 -119.16612950000003,35.35915640000001,0 -119.16517960000003,35.35929480000001,0 -119.16436500000003,35.359380500000015,0 -119.16372550000003,35.35942400000001,0 -119.16292190000001,35.35945120000002,0 -119.15425550000002,35.359457200000016,0 -119.15376510000002,35.35947420000001,0 -119.15328000000001,35.35951190000001,0 -119.15281850000001,35.35956110000001,0 -119.15200340000001,35.35968120000001,0 -119.1466238,35.36071980000001,0 -119.14591940000001,35.36087270000001,0 -119.14275770000002,35.361489200000015,0 -119.14200620000001,35.36162140000002,0 -119.1415386,35.361689800000015,0 -119.14065510000002,35.361786600000016,0 -119.13992820000001,35.361829100000016,0 -119.13907640000002,35.36185440000001,0 -119.1006174,35.36172220000001,0 -119.10000390000002,35.36175090000001,0 -119.09957990000002,35.361794900000014,0 -119.09926490000002,35.36183850000001,0 -119.09891830000001,35.36190040000001,0 -119.0982156,35.36206640000001,0 -119.09797879999999,35.36213470000001,0 -119.09756510000001,35.36227260000002,0 -119.09723540000002,35.362400600000015,0 -119.09676150000003,35.362612200000015,0 -119.09640420000002,35.36279540000002,0 -119.09589750000002,35.36309420000001,0 -119.09548170000002,35.36338140000001,0 -119.09500380000001,35.36376650000001,0 -119.0947816,35.363968500000006,0 -119.0945146,35.364236000000005,0 -119.09430769999999,35.36446680000001,0 -119.0932515,35.365754800000005,0 -119.0929302,35.3661012,0 -119.09254250000001,35.366462600000006,0 -119.0923013,35.366654200000006,0 -119.0918459,35.366982400000005,0 -119.09171819999999,35.36708920000001,0 -119.0913402,35.36731640000001,0 -119.0910712,35.36746020000001,0 -119.0906365,35.36766400000001,0 -119.09035800000001,35.36778010000001,0 -119.09005850000001,35.36789170000001,0 -119.0897749,35.36798560000001,0 -119.08923850000001,35.368134000000005,0 -119.0888499,35.36821890000001,0 -119.0883376,35.36830420000001,0 -119.0880284,35.36834060000001,0 -119.08758300000001,35.36837250000001,0 -119.08707100000002,35.36838980000001,0 -119.08669760000002,35.368381500000005,0 -119.08633920000003,35.36836070000001,0 -119.08569420000002,35.368285300000004,0 -119.08530840000002,35.368216700000005,0 -119.0848318,35.3681094,0 -119.08236099999999,35.367472600000006,0 -119.081969,35.36738780000001,0 -119.08158189999999,35.36731780000001,0 -119.0809306,35.36722860000001,0 -119.08023750000001,35.36717160000001,0 -119.07977930000001,35.36715430000001,0 -119.07931500000001,35.36715560000001,0 -119.07861250000002,35.36718770000001,0 -119.07823470000002,35.36722240000001,0 -119.0777048,35.36729280000001,0 -119.07720420000001,35.36737940000001,0 -119.07687920000002,35.367446500000014,0 -119.07646790000003,35.367545000000014,0 -119.07584430000001,35.36772480000001,0 -119.07538750000002,35.36788080000001,0 -119.07515030000002,35.36797120000001,0 -119.06940250000001,35.370430600000006,0 -119.06896210000001,35.37059800000001,0 -119.0680188,35.37090880000001,0 -119.0676639,35.37100640000001,0 -119.0666278,35.37124350000001,0 -119.06612489999999,35.37133400000001,0 -119.0656915,35.37139900000002,0 -119.0650042,35.37147260000002,0 -119.0641949,35.371525900000016,0 -119.0637489,35.37153560000002,0 -119.06337339999999,35.37153270000002,0 -119.06216749999999,35.37145340000002,0 -119.06158199999997,35.37137690000002,0 -119.06127199999996,35.37132340000002,0 -119.06067119999997,35.37117380000002,0 -119.06035199999997,35.371080900000024,0 -119.06007899999996,35.37098950000002,0 -119.05959809999996,35.37080810000002,0 -119.05929859999996,35.37067920000002,0 -119.05904119999997,35.37054190000002,0 -119.05866799999997,35.37030720000002,0 -119.05833609999998,35.37012110000002,0 -119.05822249999999,35.36997360000002,0 -119.05793069999999,35.369683100000024,0 -119.05785279999999,35.369557900000025,0 -119.05783769999998,35.369515300000025,0 -119.05782719999998,35.36946510000002,0 -119.05783069999998,35.36935130000003,0 -119.05786909999996,35.369218600000025,0 -119.05789929999997,35.36916840000002,0 -119.05794929999998,35.369106800000026,0 -119.05800509999997,35.36905470000002,0 -119.05811429999997,35.36898360000003,0 -119.05817369999995,35.36895700000002,0 -119.05825029999997,35.368932200000025,0 -119.05836169999996,35.368915800000025,0 -119.05847229999995,35.36891720000003,0 -119.05858269999995,35.368930500000026,0 -119.05867109999996,35.36894950000003,0 -119.05875119999996,35.36897680000003,0 -119.05881639999997,35.369008200000025,0 -119.05887219999997,35.369043500000025,0 -119.05894599999995,35.36910810000002,0 -119.05898789999995,35.36917060000002,0 -119.05901629999994,35.36922430000002,0 -119.05905229999993,35.36932950000001,0 -119.05906109999992,35.369380100000015,0 -119.05906199999993,35.36945320000002,0 -119.05903159999993,35.36957610000002,0 -119.05894979999992,35.369703600000015,0 -119.05872209999993,35.36992200000002,0 -119.05824659999992,35.370292100000015,0 -119.05821939999991,35.37033060000002,0 -119.05819019999991,35.37040080000001,0 -119.05787169999991,35.37057320000001,0 -119.05718459999991,35.37097720000001,0 -119.05674409999992,35.371198000000014,0 -119.05560559999991,35.37170080000001,0 -119.05451369999992,35.37209710000001,0 -119.05383379999992,35.37230300000002,0 -119.05338229999992,35.37242490000002,0 -119.05290349999994,35.37253280000002,0 -119.05205289999995,35.372681900000025,0 -119.05112759999994,35.37280580000002,0 -119.05038509999994,35.37286810000002,0 -119.04975779999994,35.37289030000002,0 -119.04747949999994,35.37289010000002,0 -119.04691409999994,35.372924000000026,0 -119.04628439999993,35.37300100000002,0 -119.04609449999994,35.373036300000024,0 -119.04584299999995,35.37309500000002,0 -119.04535669999994,35.37324260000002,0 -119.04447669999995,35.373482600000024,0 -119.04368119999995,35.37363550000003,0 -119.04270209999994,35.37380100000002,0 -119.04257209999994,35.37381180000002,0 -119.04242739999994,35.37381600000002,0 -119.04221739999996,35.37381220000002,0 -119.04193489999994,35.37378120000002,0 -119.04169369999994,35.373736500000014,0 -119.04085499999995,35.373540200000015,0 -119.04056799999995,35.37349730000002,0 -119.04031779999997,35.373478200000015,0 -119.03960099999998,35.37346150000002,0 -119.03866579999998,35.37340930000002,0 -119.03867619999998,35.37353670000002,0 -119.03861629999997,35.375348500000015,0 -119.03861509999997,35.37676550000002,0 -119.03860829999996,35.37685330000002,0 -119.03861399999997,35.37776230000002,0 -119.03858569999996,35.37864320000002,0 -119.03859709999998,35.380913200000016,0 -119.03794479999998,35.38080760000002,0 -119.03751419999996,35.38076080000002,0 -119.03735359999995,35.38075240000002,0 -119.03657569999996,35.380781300000024,0 -119.03512909999995,35.38095320000002,0 -119.03478339999995,35.381004600000026,0 -119.03429869999995,35.38101460000003,0 -119.02857359999997,35.38099340000002,0 -119.02843659999996,35.380981400000024,0 -119.02802759999997,35.38091780000002,0 -119.02776639999996,35.38079010000003,0 -119.02701289999997,35.38029040000003,0 -119.02688009999997,35.380210500000025,0 -119.02676459999996,35.38015790000002,0 -119.02662309999995,35.38011150000002,0 -119.02621219999996,35.38004350000002,0 -119.02294359999995,35.38007210000002,0 -119.01525519999994,35.38003280000002,0 -119.01478419999994,35.380054100000024,0 -119.01455409999994,35.38007950000002,0 -119.01441579999994,35.38010320000002,0 -119.01420439999993,35.38015670000002,0 -119.01402739999993,35.38021610000003,0 -119.01150939999992,35.381162700000026,0 -119.01126779999993,35.38126920000003,0 -119.01078849999993,35.38150640000003,0 -119.01007529999994,35.381914700000024,0 -119.00914969999992,35.382408400000024,0 -119.00892339999993,35.38251840000002,0 -119.00856859999992,35.38267390000002,0 -119.00806909999991,35.38286840000002,0 -119.00773659999992,35.38298130000002,0 -119.00713279999992,35.38314740000002,0 -119.00661719999992,35.383255800000015,0 -119.00617069999993,35.38332700000002,0 -119.00527329999993,35.38340570000002,0 -119.00486099999993,35.38341980000002,0 -118.99704029999995,35.38346570000002,0 -118.99635599999995,35.383509100000026,0 -118.99568329999995,35.383583100000024,0 -118.99496539999996,35.38369310000002,0 -118.99428489999995,35.383825700000024,0 -118.99383909999995,35.38393020000003,0 -118.98691889999994,35.38582180000003,0 -118.98642589999994,35.385970400000026,0 -118.98584679999995,35.38619480000003,0 -118.98554439999995,35.38632790000003,0 -118.98510539999995,35.38654070000003,0 -118.98460049999996,35.38682750000003,0 -118.98421909999996,35.38707650000003,0 -118.98371939999997,35.387448400000025,0 -118.98102009999997,35.389668200000024,0 -118.98053339999997,35.390031200000024,0 -118.97985609999996,35.390474600000026,0 -118.97922079999995,35.39084670000002,0 -118.97852739999995,35.391200000000026,0 -118.97783219999995,35.391505100000025,0 -118.97709089999995,35.391786600000025,0 -118.97615849999994,35.392078600000026,0 -118.96346509999994,35.39553920000002,0 -118.96251429999994,35.395761800000024,0 -118.96175069999994,35.395904000000016,0 -118.96127779999995,35.395977500000015,0 -118.96032529999997,35.39609020000002,0 -118.95965199999995,35.396143000000016,0 -118.95866459999995,35.39617630000002,0 -118.95294539999996,35.39623510000002,0 -118.95275229999997,35.39622360000002,0 -118.94184549999996,35.39634410000002,0 -118.93406419999997,35.396379400000015,0 -118.92744579999996,35.396491900000015,0 -118.89746239999997,35.39680590000002,0 -118.89655519999997,35.39683710000001,0 -118.89620599999996,35.396862800000015,0 -118.89468349999997,35.397053800000016,0 -118.89379079999996,35.39720800000001,0 -118.89102489999996,35.39782860000002,0 -118.89039759999996,35.397916000000016,0 -118.88961799999997,35.397974900000015,0 -118.88926929999997,35.397991800000014,0 -118.88819579999995,35.39800740000002,0 -118.88244639999995,35.39799810000002,0 -118.88171019999994,35.398035300000025,0 -118.88088649999995,35.39812330000002,0 -118.88038739999993,35.398218700000015,0 -118.88006949999995,35.39829180000002,0 -118.87903029999994,35.39861880000002,0 -118.87852139999993,35.39881520000002,0 -118.87813619999994,35.39899310000002,0 -118.87760869999993,35.39929590000002,0 -118.87714699999992,35.39961480000002,0 -118.87368819999993,35.40228700000002,0 -118.87333299999993,35.40253270000002,0 -118.87285229999993,35.40283950000002,0 -118.87158369999995,35.40355600000002,0 -118.87116389999993,35.40375560000002,0 -118.86999749999994,35.404250900000015,0 -118.86971129999993,35.40434730000002,0 -118.86922469999993,35.404544500000014,0 -118.86839079999994,35.40483920000002,0 -118.86835539999994,35.40486760000002,0 -118.86437409999992,35.40612580000002,0 -118.86431599999993,35.40613810000002,0 -118.86212579999993,35.406865700000026,0 -118.85965549999993,35.407632900000024,0 -118.85986719999994,35.40846550000003,0 -118.85987349999994,35.40882800000003,0 -118.86004489999993,35.409574500000026,0 -118.86013939999994,35.41029200000003,0 -118.86016519999994,35.41064780000003,0 -118.86016529999995,35.41121570000003,0 -118.86014319999994,35.41155490000003,0 -118.86002339999995,35.41229450000003,0 -118.85998749999995,35.41260470000003,0 -118.85993229999994,35.412911400000034,0 -118.85925979999993,35.414911600000025,0 -118.85893199999994,35.41603320000003,0 -118.85887909999992,35.416297800000024,0 -118.85827079999993,35.41832820000003,0 -118.85793279999993,35.419290000000025,0 -118.85778529999992,35.419787400000025,0 -118.85773499999993,35.42000160000003,0 -118.85768119999994,35.42031370000002,0 -118.85764039999995,35.42080190000002,0 -118.85764619999996,35.421176600000024,0 -118.85769199999997,35.421645500000025,0 -118.85780609999996,35.42210880000002,0 -118.85805839999996,35.42280950000002,0 -118.85817509999997,35.42304340000002,0 -118.85931689999995,35.42487560000002,0 -118.86010069999996,35.42623530000002,0 -118.86062789999995,35.427063500000024,0 -118.86089839999994,35.42741400000002,0 -118.86116569999994,35.42773400000002,0 -118.86136999999995,35.42803090000002,0 -118.86145479999996,35.42812210000002,0 -118.86177899999997,35.42841660000002,0 -118.86200319999996,35.42859560000002,0 -118.86226969999996,35.42878330000002,0 -118.86248489999997,35.42891740000002,0 -118.86289779999997,35.42914720000002,0 -118.86328249999997,35.429327500000014,0 -118.86360519999998,35.429454700000015,0 -118.86413619999998,35.42962920000002,0 -118.86431219999999,35.42967590000002,0 -118.86485179999998,35.42978850000002,0 -118.86535369999999,35.42985330000002,0 -118.8656281,35.42987400000002,0 -118.86786959999999,35.42998150000002,0 -118.8688701,35.42999920000002,0 -118.86956049999999,35.42999060000002,0 -118.86938669999998,35.43039880000002,0 -118.86927529999998,35.43058000000002,0 -118.86911579999997,35.43078490000002,0 -118.8689697,35.43092660000002,0 -118.8687138,35.43114610000002,0 -118.86835959999999,35.43142380000002,0 -118.86767569999999,35.43180130000002,0 -118.86535749999999,35.433406900000016,0 -118.86518559999999,35.433505900000014,0 -118.8638912,35.434414300000014,0 -118.8635701,35.43462330000001,0 -118.8618193,35.435683900000015,0 -118.8616995,35.43578580000001,0 -118.8615928,35.435908200000014,0 -118.86154400000001,35.43598340000001,0 -118.86146550000002,35.43617120000001,0 -118.8614433,35.43626950000001,0 -118.86143530000001,35.43646130000001,0 -118.8614453,35.43653510000001,0 -118.8614638,35.4366101,0 -118.8615129,35.436747200000006,0 -118.86158989999998,35.4368749,0 -118.86169459999998,35.436997700000006,0 -118.86182099999999,35.4371061,0 -118.8619959,35.4372124,0 -118.8620739,35.437248100000005,0 -118.8621747,35.4372862,0 -118.8622939,35.4373233,0 -118.8624238,35.4373525,0 -118.86250640000002,35.437362500000006,0 -118.8625944,35.4373652,0 -118.8627445,35.43735770000001,0 -118.86292050000002,35.43733,0 -118.86319180000001,35.4372577,0 -118.86368630000003,35.43708860000001,0 -118.86389050000001,35.43700620000001,0 -118.8640639,35.43692170000001,0 -118.86435700000001,35.43675480000001,0 -118.86463730000001,35.43654870000002,0 -118.8648273,35.436384400000016,0 -118.8649592,35.43625390000001,0 -118.86524109999999,35.43593970000002,0 -118.8656109,35.43549290000002,0 -118.86572339999998,35.43532360000002,0 -118.8661929,35.435451000000015,0 -118.8663397,35.43547900000002,0 -118.8668563,35.43553060000002,0 -118.8676259,35.435559300000016,0 -118.8679367,35.435593500000024,0 -118.8681692,35.43562790000002,0 -118.86860649999998,35.43574750000002,0 -118.86886039999997,35.43583920000002,0 -118.86907869999996,35.435932900000026,0 -118.87055149999996,35.436778600000025,0 -118.87086349999997,35.436942800000025,0 -118.87106049999997,35.437032100000025,0 -118.87124919999995,35.43710120000002,0 -118.87161739999996,35.437209000000024,0 -118.87183159999996,35.43724850000002,0 -118.87211169999998,35.43728830000002,0 -118.87245299999996,35.43731070000002,0 -118.87292719999998,35.43728990000002,0 -118.87332659999997,35.437229600000016,0 -118.87355699999998,35.43717590000002,0 -118.87376149999999,35.43711640000002,0 -118.87401259999999,35.43702620000002,0 -118.87416989999998,35.43696010000002,0 -118.87444439999999,35.436817400000024,0 -118.87469919999998,35.436656300000024,0 -118.87491229999999,35.43649630000002,0 -118.87509579999998,35.43634100000002,0 -118.87519529999999,35.436240800000014,0 -118.87532359999997,35.436086400000015,0 -118.87595309999999,35.43521680000001,0 -118.87611879999999,35.43502830000001,0 -118.87624809999998,35.43492100000001,0 -118.87659719999998,35.435155400000006,0 -118.87673119999998,35.43522670000001,0 -118.87716589999998,35.435396200000014,0 -118.87706769999997,35.435595100000015,0 -118.87693529999997,35.435778100000014,0 -118.87667839999997,35.436028700000016,0 -118.87659549999996,35.43608560000001,0 -118.87639069999997,35.43618270000001,0 -118.87596059999997,35.436342400000015,0 -118.87586879999996,35.43638900000001,0 -118.87583329999997,35.43641200000001,0 -118.87581059999997,35.43643520000001,0 -118.87579119999998,35.436465100000014,0 -118.87577799999998,35.43649330000001,0 -118.87576249999998,35.43658260000001,0 -118.87576489999998,35.43664980000001,0 -118.87577909999999,35.436698600000014,0 -118.87581139999998,35.43675700000001,0 -118.87589059999998,35.43683940000001,0 -118.87591839999996,35.436858400000006,0 -118.87594759999998,35.4368721,0 -118.87598729999999,35.436883900000005,0 -118.87603849999998,35.436894200000005,0 -118.87609279999998,35.4368934,0 -118.8761468,35.436885800000006,0 -118.8764094,35.43681410000001,0 -118.8766994,35.4367011,0 </coordinates></LineString><TimeSpan><begin>2021-02-20T02:35:34.999Z</begin><end>2021-02-20T05:51:59.000Z</end></TimeSpan></Placemark><Placemark><name>Kern River County Park</name><address>Bakersfield, CA 93308</address><ExtendedData><Data name="Email"><value>syugen.zhou@gmail.com</value></Data><Data name="Category"><value>Park</value></Data><Data name="Distance"><value>0</value></Data></ExtendedData><description> Park from 2021-02-20T05:51:59.000Z to 2021-02-20T17:45:59.000Z. Distance 0m </description><Point><coordinates>-118.8913492,35.4359594,0</coordinates></Point><TimeSpan><begin>2021-02-20T05:51:59.000Z</begin><end>2021-02-20T17:45:59.000Z</end></TimeSpan></Placemark></Document></kml>
