<?xml version="1.0" encoding="UTF-8"?><kml xmlns="http://www.opengis.net/kml/2.2" xmlns:gx="http://www.google.com/kml/ext/2.2"><Document><name> Location history from 2021-02-20 to 2021-02-20 </name><open>1</open><description></description><StyleMap id="multiTrack"><Pair><key>normal</key><styleUrl>#multiTrack_n</styleUrl></Pair><Pair><key>highlight</key><styleUrl>#multiTrack_h</styleUrl></Pair></StyleMap><Style id="multiTrack_n"><IconStyle><Icon><href>https://earth.google.com/images/kml-icons/track-directional/track-0.png</href></Icon></IconStyle><LineStyle><color>99ffac59</color><width>6</width></LineStyle></Style><Style id="multiTrack_h"><IconStyle><scale>1.2</scale><Icon><href>https://earth.google.com/images/kml-icons/track-directional/track-0.png</href></Icon></IconStyle><LineStyle><color>99ffac59</color><width>8</width></LineStyle></Style><Placemark><name>Kern River County Park</name><address>Bakersfield, CA 93308</address><ExtendedData><Data name="Email"><value>syugen.zhou@gmail.com</value></Data><Data name="Category"><value>Park</value></Data><Data name="Distance"><value>0</value></Data></ExtendedData><description> Park from 2021-02-20T05:51:59.000Z to 2021-02-20T17:45:59.000Z. Distance 0m </description><Point><coordinates>-118.8913492,35.4359594,0</coordinates></Point><TimeSpan><begin>2021-02-20T05:51:59.000Z</begin><end>2021-02-20T17:45:59.000Z</end></TimeSpan></Placemark><Placemark><name>Driving</name><address></address><ExtendedData><Data name="Email"><value>syugen.zhou@gmail.com</value></Data><Data name="Category"><value>Driving</value></Data><Data name="Distance"><value>11056</value></Data></ExtendedData><description> Driving from 2021-02-20T17:45:59.999Z to 2021-02-20T17:58:48.000Z. Distance 11056m </description><LineString><altitudeMode>clampToGround</altitudeMode><extrude>1</extrude><tesselate>1</tesselate><coordinates>-118.87664819999998,35.4367223,0 -118.87695979999998,35.4365789,0 -118.87750899999998,35.436091499999996,0 -118.87779359999998,35.4357024,0 -118.87781169999997,35.4355985,0 -118.87673119999995,35.435226699999994,0 -118.87624809999996,35.434920999999996,0 -118.87611879999996,35.4350283,0 -118.87595309999996,35.4352168,0 -118.87532359999994,35.4360864,0 -118.87509579999997,35.436341,0 -118.87469919999997,35.436656299999996,0 -118.87416989999996,35.43696009999999,0 -118.87376149999996,35.437116399999994,0 -118.87332659999997,35.437229599999995,0 -118.87292719999998,35.437289899999996,0 -118.87245299999996,35.43731069999999,0 -118.87211169999998,35.43728829999999,0 -118.87161739999998,35.43720899999999,0 -118.87124919999998,35.437101199999994,0 -118.87086349999997,35.43694279999999,0 -118.86907869999999,35.43593289999999,0 -118.86860649999998,35.4357475,0 -118.8681692,35.43562789999999,0 -118.8676259,35.435559299999994,0 -118.8668563,35.43553059999999,0 -118.8663397,35.435478999999994,0 -118.86572339999998,35.4353236,0 -118.86581979999997,35.43508249999999,0 -118.86583839999999,35.43495909999999,0 -118.86581219999998,35.43467989999999,0 -118.86571029999999,35.434411299999994,0 -118.86562129999999,35.43427569999999,0 -118.8655029,35.434149999999995,0 -118.86521649999999,35.43395679999999,0 -118.86511469999999,35.43380409999999,0 -118.8651038,35.43369859999999,0 -118.86518559999999,35.43350589999999,0 -118.86767569999999,35.4318013,0 -118.86835959999999,35.4314238,0 -118.8691158,35.4307849,0 -118.8693867,35.4303988,0 -118.86956050000002,35.429990600000004,0 -118.86786960000002,35.429981500000004,0 -118.86535370000001,35.4298533,0 -118.86485180000001,35.4297885,0 -118.86413620000002,35.4296292,0 -118.86328250000003,35.42932750000001,0 -118.86289780000003,35.4291472,0 -118.86226970000004,35.428783300000006,0 -118.86177900000004,35.428416600000006,0 -118.86137000000006,35.4280309,0 -118.86062790000005,35.42706350000001,0 -118.85805840000006,35.42280950000001,0 -118.85780610000006,35.42210880000001,0 -118.85769200000007,35.42164550000001,0 -118.85764040000007,35.42080190000001,0 -118.85768120000004,35.42031370000001,0 -118.85778530000005,35.41978740000001,0 -118.85887910000005,35.41629780000002,0 -118.85893200000007,35.416033200000015,0 -118.85993230000007,35.41291140000001,0 -118.86014320000007,35.41155490000001,0 -118.86016520000007,35.41064780000001,0 -118.86004490000006,35.409574500000005,0 -118.85987350000006,35.40882800000001,0 -118.85986720000007,35.408465500000005,0 -118.85965550000006,35.4076329,0 -118.86835540000006,35.40486760000001,0 -118.86840340000008,35.40486640000001,0 -118.86975810000007,35.404468900000005,0 -118.87089520000006,35.404006300000006,0 -118.87190120000007,35.40352360000001,0 -118.87318030000006,35.402803000000006,0 -118.87379840000006,35.402403500000005,0 -118.87726730000006,35.3997672,0 -118.87792950000005,35.3993399,0 -118.87856480000006,35.399011099999996,0 -118.87971920000007,35.398561799999996,0 -118.88013770000005,35.398440300000004,0 -118.88124180000007,35.3982298,0 -118.88165760000005,35.398189099999996,0 -118.88942220000006,35.3981753,0 -118.89056020000005,35.3980849,0 -118.89174300000006,35.397886299999996,0 -118.89395450000006,35.397422299999995,0 -118.89578670000004,35.397157299999996,0 -118.89720470000006,35.397069699999996,0 -118.92508290000006,35.3967712,0 -118.92518910000007,35.396819199999996,0 -118.92768970000006,35.3969874,0 -118.92788570000008,35.397041699999996,0 -118.92807870000007,35.3971544,0 -118.92817390000006,35.397249099999996,0 -118.92824300000005,35.39736549999999,0 -118.92828310000006,35.397537699999994,0 -118.92832620000004,35.3981189,0 -118.92938140000004,35.3981011,0 -118.93028170000004,35.3980164,0 -118.93038170000003,35.397975800000005,0 </coordinates></LineString><TimeSpan><begin>2021-02-20T17:45:59.999Z</begin><end>2021-02-20T17:58:48.000Z</end></TimeSpan></Placemark><Placemark><name>Circle K</name><address>5600 Auburn St, Bakersfield, CA 93306</address><ExtendedData><Data name="Email"><value>syugen.zhou@gmail.com</value></Data><Data name="Category"><value>Convenience store</value></Data><Data name="Distance"><value>0</value></Data></ExtendedData><description> Convenience store from 2021-02-20T17:58:48.000Z to 2021-02-20T18:12:35.000Z. Distance 0m </description><Point><coordinates>-118.9305838,35.398356,0</coordinates></Point><TimeSpan><begin>2021-02-20T17:58:48.000Z</begin><end>2021-02-20T18:12:35.000Z</end></TimeSpan></Placemark><Placemark><name>Driving</name><address></address><ExtendedData><Data name="Email"><value>syugen.zhou@gmail.com</value></Data><Data name="Category"><value>Driving</value></Data><Data name="Distance"><value>6186</value></Data></ExtendedData><description> Driving from 2021-02-20T18:12:35.000Z to 2021-02-20T18:19:42.000Z. Distance 6186m </description><LineString><altitudeMode>clampToGround</altitudeMode><extrude>1</extrude><tesselate>1</tesselate><coordinates>-118.92997260000001,35.3972737,0 -118.9299524,35.39706820000001,0 -118.92993720000001,35.39678610000001,0 -118.92992579999999,35.3967297,0 -118.9298915,35.3964086,0 -118.9298392,35.395702199999995,0 -118.9298246,35.3956036,0 -118.92977330000002,35.3953876,0 -118.92969650000002,35.3951491,0 -118.92962160000002,35.39493819999999,0 -118.92931740000002,35.394196699999995,0 -118.92875740000002,35.39268829999999,0 -118.92869750000001,35.39248069999999,0 -118.9286538,35.392270399999994,0 -118.92862790000001,35.3920713,0 -118.92860600000002,35.39134289999999,0 -118.92860690000002,35.391189399999995,0 -118.92858760000003,35.39085799999999,0 -118.92858420000003,35.390657699999984,0 -118.92858840000004,35.39049679999999,0 -118.92858540000003,35.389592499999985,0 -118.92860220000001,35.38937449999999,0 -118.92865030000003,35.38907969999999,0 -118.92870350000003,35.38886209999999,0 -118.92876920000002,35.38864649999999,0 -118.92942770000002,35.38693529999999,0 -118.92959550000002,35.38636889999999,0 -118.92977460000002,35.38582129999999,0 -118.92975360000001,35.38575329999999,0 -118.93000900000001,35.385007999999985,0 -118.93007850000002,35.38473479999999,0 -118.93013150000003,35.38445879999999,0 -118.93014070000004,35.38439139999999,0 -118.93015190000003,35.38365689999999,0 -118.93016960000003,35.38348479999999,0 -118.93017890000003,35.38343429999999,0 -118.93029090000005,35.38329069999999,0 -118.93031350000004,35.383206599999994,0 -118.93036670000004,35.38305069999999,0 -118.93043280000005,35.38289579999999,0 -118.93051370000003,35.38274499999999,0 -118.93060610000003,35.382601099999995,0 -118.93074310000004,35.382426099999996,0 -118.93086500000004,35.3822968,0 -118.93100050000002,35.3821732,0 -118.93125350000004,35.381970499999994,0 -118.93137770000004,35.381845199999994,0 -118.93150350000003,35.3816986,0 -118.93161820000005,35.3815445,0 -118.93172010000004,35.38138449999999,0 -118.93180930000003,35.38121909999999,0 -118.93189240000002,35.38102499999999,0 -118.93196480000002,35.38080689999999,0 -118.93200850000002,35.38058979999999,0 -118.93202490000003,35.38037669999999,0 -118.93201640000004,35.38008539999999,0 -118.93204680000004,35.37844119999999,0 -118.93204050000004,35.37715809999999,0 -118.93197070000005,35.377059899999985,0 -118.93196890000003,35.37662229999999,0 -118.93203100000002,35.37657759999999,0 -118.93203610000002,35.376571699999985,0 -118.9320388,35.37656469999999,0 -118.9320379,35.37624719999999,0 -118.9320556,35.37599139999998,0 -118.9320591,35.37506299999998,0 -118.9320402,35.37296169999998,0 -118.9320202,35.37242329999998,0 -118.93195089999999,35.37228489999998,0 -118.93194509999998,35.37200209999998,0 -118.9319637,35.36879789999998,0 -118.9319563,35.36822789999998,0 -118.93196269999999,35.36559809999998,0 -118.93195579999998,35.365335799999976,0 -118.93204689999999,35.36519189999998,0 -118.93203869999998,35.36498329999998,0 -118.93195259999997,35.36445609999998,0 -118.93193719999998,35.36440869999998,0 -118.93186769999997,35.36413919999998,0 -118.93165499999996,35.36303989999998,0 -118.93162919999996,35.36264469999998,0 -118.93163849999996,35.362433899999985,0 -118.93163819999997,35.36213549999999,0 -118.93165989999996,35.36196859999998,0 -118.93180319999996,35.36124199999998,0 -118.93195569999996,35.36067529999998,0 -118.93202999999997,35.36025239999998,0 -118.93204949999996,35.36016199999998,0 -118.93207769999997,35.35986999999999,0 -118.93205479999997,35.35976729999998,0 -118.93205479999997,35.359643599999984,0 -118.93202169999996,35.35955349999998,0 -118.93201419999997,35.35887369999998,0 -118.93202349999999,35.35854829999999,0 -118.93204029999997,35.35428669999999,0 -118.92694219999997,35.35431769999999,0 -118.92626299999996,35.35431159999999,0 -118.92301089999995,35.35432989999999,0 -118.92038559999996,35.35430779999999,0 -118.91493199999996,35.35434869999999,0 </coordinates></LineString><TimeSpan><begin>2021-02-20T18:12:35.000Z</begin><end>2021-02-20T18:19:42.000Z</end></TimeSpan></Placemark><Placemark><name>McDonald's</name><address>356 Weedpatch Hwy, Bakersfield, CA 93307</address><ExtendedData><Data name="Email"><value>syugen.zhou@gmail.com</value></Data><Data name="Category"><value>Fast Food</value></Data><Data name="Distance"><value>0</value></Data></ExtendedData><description> Fast Food from 2021-02-20T18:19:42.000Z to 2021-02-20T18:26:44.000Z. Distance 0m </description><Point><coordinates>-118.9147684,35.3547102,0</coordinates></Point><TimeSpan><begin>2021-02-20T18:19:42.000Z</begin><end>2021-02-20T18:26:44.000Z</end></TimeSpan></Placemark><Placemark><name>Driving</name><address></address><ExtendedData><Data name="Email"><value>syugen.zhou@gmail.com</value></Data><Data name="Category"><value>Driving</value></Data><Data name="Distance"><value>37063</value></Data></ExtendedData><description> Driving from 2021-02-20T18:26:44.999Z to 2021-02-20T18:51:09.000Z. Distance 37063m </description><LineString><altitudeMode>clampToGround</altitudeMode><extrude>1</extrude><tesselate>1</tesselate><coordinates>-118.91482260000001,35.354349299999996,0 -118.9142673,35.3543556,0 -118.9142826,35.35159399999999,0 -118.91460190000001,35.351306599999994,0 -118.9148627,35.35126819999999,0 -118.91519990000002,35.35141149999999,0 -118.91532730000002,35.351597799999986,0 -118.91526990000004,35.351845099999984,0 -118.91499190000003,35.35203039999998,0 -118.91441870000003,35.35206619999999,0 -118.91428560000004,35.35214229999998,0 -118.89922370000005,35.351041299999984,0 -118.89712380000005,35.350620599999985,0 -118.88062220000005,35.345834799999984,0 -118.86261040000004,35.34286079999999,0 -118.80607960000005,35.32922589999999,0 -118.80384830000003,35.328468099999995,0 -118.80116930000003,35.32705539999999,0 -118.79977630000002,35.32608869999999,0 -118.76935460000001,35.29981649999999,0 -118.76783460000001,35.298752699999994,0 -118.76639580000003,35.2979534,0 -118.73311810000003,35.284461799999995,0 -118.72531850000001,35.2799732,0 -118.72377230000002,35.2792772,0 -118.72185230000001,35.2786336,0 -118.7157241,35.27756230000001,0 -118.7134464,35.276912,0 -118.71173599999999,35.2762064,0 -118.6997523,35.2692563,0 -118.6988454,35.2688579,0 -118.6975049,35.268461300000006,0 -118.69643930000001,35.2682826,0 -118.69436910000002,35.2682697,0 -118.69311310000002,35.2684669,0 -118.68886560000003,35.2697443,0 -118.68576890000004,35.270066500000006,0 -118.68016970000004,35.2697901,0 -118.67822520000004,35.269522200000004,0 -118.66092750000004,35.2645574,0 -118.65840070000004,35.264172300000006,0 -118.64538810000006,35.2635955,0 -118.64188110000005,35.26283050000001,0 -118.63975090000007,35.262726900000004,0 -118.63415360000008,35.2636322,0 -118.62811700000006,35.263729,0 -118.62714940000006,35.2635741,0 -118.62387290000008,35.2626429,0 -118.62151340000007,35.2622336,0 -118.62069140000008,35.2619306,0 -118.61813570000007,35.2602294,0 -118.61575660000008,35.2589459,0 -118.61299490000006,35.256824400000006,0 -118.61242430000006,35.2565,0 -118.61150470000005,35.256183500000006,0 -118.60975050000005,35.255817300000004,0 -118.60903400000005,35.255555400000006,0 -118.60835480000004,35.25515550000001,0 -118.60369160000003,35.251249,0 -118.60202500000003,35.2501057,0 -118.60102480000002,35.249660500000005,0 -118.59539220000002,35.248201800000004,0 -118.59436430000002,35.2475205,0 -118.59237610000004,35.2453761,0 -118.59042220000003,35.2441174,0 -118.58990040000003,35.243610600000004,0 -118.58869470000003,35.2418472,0 -118.58832430000004,35.241464300000004,0 -118.58754580000003,35.2409281,0 -118.58652480000003,35.240538099999995,0 -118.57995320000005,35.2394994,0 -118.57889710000003,35.2391745,0 -118.57808520000003,35.2386893,0 -118.57735620000003,35.237919,0 -118.57518890000001,35.2341074,0 -118.57427150000001,35.2333074,0 -118.57000440000002,35.23104789999999,0 -118.56956620000001,35.230669,0 -118.56908820000001,35.230045399999995,0 -118.5687216,35.22901149999999,0 -118.5684492,35.2254939,0 -118.56849079999999,35.225421,0 -118.5681674,35.22452299999999,0 -118.5672342,35.22323079999999,0 -118.5663366,35.22414539999999,0 -118.56237110000001,35.22307349999999,0 -118.56215910000002,35.223071399999995,0 -118.56150430000001,35.223253799999995,0 -118.56094460000001,35.223222699999994,0 -118.5607994,35.22315859999999,0 -118.5604972,35.22277799999999,0 -118.55815270000001,35.22199529999999,0 -118.55786690000002,35.22202589999999,0 -118.55738180000002,35.22184979999999,0 -118.55742860000002,35.22209669999999,0 -118.55824920000002,35.22276439999999,0 -118.55822120000002,35.22299129999999,0 -118.55844300000001,35.22373009999999,0 -118.55858460000002,35.22391569999999,0 -118.55886750000002,35.22381719999999,0 </coordinates></LineString><TimeSpan><begin>2021-02-20T18:26:44.999Z</begin><end>2021-02-20T18:51:09.000Z</end></TimeSpan></Placemark><Placemark><name>Cesar E. Chavez National Monument</name><address>29700 Woodford-Tehachapi Rd, Keene, CA 93531</address><ExtendedData><Data name="Email"><value>syugen.zhou@gmail.com</value></Data><Data name="Category"><value>Monument</value></Data><Data name="Distance"><value>0</value></Data></ExtendedData><description> Monument from 2021-02-20T18:51:09.000Z to 2021-02-20T19:12:49.000Z. Distance 0m </description><Point><coordinates>-118.559489,35.225443299999995,0</coordinates></Point><TimeSpan><begin>2021-02-20T18:51:09.000Z</begin><end>2021-02-20T19:12:49.000Z</end></TimeSpan></Placemark><Placemark><name>Driving</name><address></address><ExtendedData><Data name="Email"><value>syugen.zhou@gmail.com</value></Data><Data name="Category"><value>Driving</value></Data><Data name="Distance"><value>129669</value></Data></ExtendedData><description> Driving from 2021-02-20T19:12:49.000Z to 2021-02-20T20:30:14.000Z. Distance 129669m </description><LineString><altitudeMode>clampToGround</altitudeMode><extrude>1</extrude><tesselate>1</tesselate><coordinates>-118.55897409999999,35.2237797,0 -118.5590116,35.223766499999996,0 -118.5590409,35.2237223,0 -118.55902730000003,35.2236515,0 -118.55896560000002,35.2236125,0 -118.55890430000001,35.223610799999996,0 -118.55844300000001,35.2237301,0 -118.55822120000002,35.2229913,0 -118.55824920000002,35.222764399999996,0 -118.55761280000002,35.22227699999999,0 -118.5574286,35.222096699999994,0 -118.55737939999999,35.22195889999999,0 -118.55738179999999,35.22184979999999,0 -118.5578669,35.22202589999999,0 -118.5580004,35.22202969999999,0 -118.55815270000001,35.22199529999999,0 -118.5604972,35.22277799999999,0 -118.56058800000001,35.22285209999999,0 -118.56079940000002,35.223158599999984,0 -118.56082190000002,35.22317539999999,0 -118.56094460000003,35.22322269999999,0 -118.56108450000004,35.22324979999999,0 -118.56150430000004,35.223253799999995,0 -118.56215910000004,35.223071399999995,0 -118.56237110000004,35.22307349999999,0 -118.56507880000004,35.22374109999999,0 -118.56633660000003,35.22414539999999,0 -118.56723420000003,35.22323079999999,0 -118.56666050000001,35.22300599999999,0 -118.56622810000002,35.22290039999999,0 -118.56583300000001,35.22284489999999,0 -118.56410180000002,35.22272879999999,0 -118.56396170000002,35.22276359999999,0 -118.56074110000003,35.2223609,0 -118.56012980000004,35.2222125,0 -118.55958910000003,35.2220249,0 -118.55916810000002,35.221835999999996,0 -118.55879030000003,35.2216267,0 -118.55419100000002,35.2184093,0 -118.55377910000001,35.2180593,0 -118.55335860000001,35.2176017,0 -118.55178580000002,35.2155108,0 -118.55153260000002,35.215256,0 -118.55111610000002,35.2149248,0 -118.5508514,35.21475769999999,0 -118.540429,35.20946949999999,0 -118.5393548,35.2090313,0 -118.53623669999999,35.207954799999996,0 -118.53569499999998,35.20773019999999,0 -118.53516889999999,35.20743519999999,0 -118.53048759999999,35.203802399999994,0 -118.53002639999997,35.20351299999999,0 -118.52962429999997,35.203305599999986,0 -118.52029049999997,35.19924239999999,0 -118.51923669999998,35.19867459999999,0 -118.50635059999996,35.18985359999999,0 -118.50574519999998,35.18932059999999,0 -118.50533899999998,35.18886609999999,0 -118.50410589999998,35.18707259999999,0 -118.50360739999999,35.186522499999995,0 -118.50319289999999,35.186156999999994,0 -118.50084799999998,35.184584599999994,0 -118.49999779999997,35.1840912,0 -118.49590309999999,35.182186699999995,0 -118.49524579999999,35.182001799999995,0 -118.4899637,35.1813552,0 -118.489302,35.1811939,0 -118.4888756,35.1810275,0 -118.48851849999998,35.1808427,0 -118.4869921,35.179751499999995,0 -118.4863514,35.179361199999995,0 -118.48591630000001,35.1791462,0 -118.4833389,35.178129999999996,0 -118.4829426,35.1779442,0 -118.4825224,35.177704799999994,0 -118.48206219999999,35.177390499999994,0 -118.481413,35.176810399999994,0 -118.48103950000001,35.17637409999999,0 -118.4799022,35.17453339999999,0 -118.4794854,35.17395659999999,0 -118.4788828,35.17333079999999,0 -118.4773423,35.17200199999999,0 -118.47444669999999,35.16903379999999,0 -118.47427019999999,35.168816599999985,0 -118.4740442,35.168462699999985,0 -118.4737988,35.167865599999985,0 -118.47373859999999,35.167597599999986,0 -118.4733704,35.16390299999999,0 -118.47343949999998,35.16325519999999,0 -118.4739232,35.16132659999998,0 -118.47397649999999,35.16081029999999,0 -118.47389969999999,35.15713189999999,0 -118.47379129999999,35.15648569999999,0 -118.47364669999999,35.15608539999999,0 -118.47352479999998,35.15584339999999,0 -118.47016659999998,35.150917599999985,0 -118.4698274,35.15031639999999,0 -118.4696702,35.14993529999999,0 -118.46952420000001,35.14942329999999,0 -118.46943410000002,35.148638599999984,0 -118.4694769,35.14797549999999,0 -118.46989190000002,35.14616729999999,0 -118.46999070000001,35.14534289999999,0 -118.46996639999999,35.144867799999986,0 -118.4698951,35.14441619999999,0 -118.46974440000001,35.143911999999986,0 -118.46948700000002,35.14333529999999,0 -118.46919090000002,35.142866299999994,0 -118.46883590000002,35.142421199999994,0 -118.46842790000001,35.14201309999999,0 -118.46796210000001,35.14164149999999,0 -118.4675871,35.14139359999999,0 -118.46697909999999,35.14106359999999,0 -118.46613529999999,35.14073769999999,0 -118.4656783,35.14061649999999,0 -118.4604969,35.13974979999999,0 -118.45915229999999,35.13965249999999,0 -118.43633709999997,35.139611399999986,0 -118.43535249999996,35.13954409999999,0 -118.43415229999997,35.139316099999995,0 -118.43339469999995,35.13908939999999,0 -118.41437279999995,35.13083749999999,0 -118.41385129999996,35.1305346,0 -118.41348349999996,35.13027749999999,0 -118.41302549999996,35.129898499999996,0 -118.41262389999996,35.12949509999999,0 -118.41219659999996,35.12894959999999,0 -118.41181019999996,35.128297399999994,0 -118.41110049999997,35.126532999999995,0 -118.41086949999998,35.12608899999999,0 -118.41035119999997,35.125307299999996,0 -118.41006979999996,35.124975299999996,0 -118.40931489999996,35.12425549999999,0 -118.40858639999996,35.1237265,0 -118.40789969999996,35.12332969999999,0 -118.40723509999997,35.123030299999996,0 -118.40645129999997,35.122754699999994,0 -118.37881639999996,35.115430399999994,0 -118.37783449999996,35.115262099999995,0 -118.37726859999997,35.115205499999995,0 -118.36769319999998,35.114869999999996,0 -118.36645619999997,35.1146836,0 -118.35277399999997,35.110808,0 -118.35105669999997,35.1104758,0 -118.34909399999997,35.1102802,0 -118.32430909999998,35.1102077,0 -118.32367289999999,35.110143199999996,0 -118.32307049999999,35.1100398,0 -118.32220229999999,35.1098147,0 -118.3216453,35.10961820000001,0 -118.32108470000001,35.10937390000001,0 -118.32055850000003,35.109094000000006,0 -118.31073480000003,35.1024368,0 -118.31029170000004,35.1020609,0 -118.30989060000003,35.1016503,0 -118.30945520000002,35.101100200000005,0 -118.30820600000003,35.0992692,0 -118.30792350000002,35.098935600000004,0 -118.30751750000002,35.098543600000006,0 -118.30723230000001,35.0983146,0 -118.30667300000002,35.0979376,0 -118.30612570000002,35.0976485,0 -118.30524670000004,35.0973159,0 -118.30478170000004,35.0971931,0 -118.30415910000002,35.097080399999996,0 -118.30352990000004,35.0970233,0 -118.30286920000003,35.097020699999995,0 -118.30209420000003,35.09709589999999,0 -118.30160400000003,35.0971899,0 -118.27334850000001,35.104091499999996,0 -118.27149860000003,35.10445479999999,0 -118.26961320000004,35.10473569999999,0 -118.26752660000005,35.104938299999986,0 -118.26606080000005,35.105016499999984,0 -118.26400330000004,35.105034899999985,0 -118.25903410000004,35.104828099999985,0 -118.25776760000004,35.10486859999998,0 -118.25678750000003,35.10494899999999,0 -118.25537450000004,35.10513959999999,0 -118.25337930000005,35.10557229999999,0 -118.24941300000005,35.10671479999999,0 -118.24837320000005,35.10708939999999,0 -118.22670710000006,35.11703769999999,0 -118.22581310000005,35.117391299999994,0 -118.22512200000006,35.11761129999999,0 -118.22391710000004,35.11789999999999,0 -118.22312490000004,35.11803089999999,0 -118.22229560000005,35.11811759999999,0 -118.22079470000004,35.11815379999999,0 -118.19406780000004,35.116186699999986,0 -118.19049460000004,35.11582979999998,0 -118.18607120000003,35.11515869999998,0 -118.18307570000003,35.11455669999998,0 -118.17841020000004,35.11337589999999,0 -118.17543360000005,35.11245779999998,0 -118.17200440000006,35.11123129999998,0 -118.16821520000006,35.10964409999998,0 -118.15013030000006,35.10127829999998,0 -118.15010210000005,35.101230499999986,0 -118.15005680000006,35.10118919999998,0 -118.14897830000005,35.100549999999984,0 -118.14867550000005,35.100291699999985,0 -118.14692260000004,35.098386599999984,0 -118.14657250000003,35.09807339999998,0 -118.14631290000003,35.097899599999984,0 -118.14560520000002,35.097506799999984,0 -118.14554800000003,35.097499499999984,0 -118.14538510000003,35.09751079999998,0 -118.14526910000002,35.097549499999985,0 -118.14516930000003,35.09760459999998,0 -118.14293000000004,35.10046539999998,0 -118.14292360000005,35.10048419999999,0 -118.13381740000005,35.11216549999999,0 -118.13088000000005,35.11611709999998,0 -118.10097610000005,35.15463909999998,0 -118.09717060000006,35.15898459999998,0 -118.05460610000006,35.21364359999999,0 -118.05408780000005,35.21446859999999,0 -118.05336160000006,35.21592329999999,0 -118.03430000000007,35.267823099999994,0 -118.03351190000006,35.26940929999999,0 -118.03290530000007,35.27034349999999,0 -118.03212010000007,35.271344099999986,0 -118.02115640000007,35.28302519999999,0 -118.02030120000008,35.28381809999999,0 -118.01589930000007,35.28746219999999,0 -118.01265880000007,35.289995499999996,0 -118.00593580000007,35.29556409999999,0 -118.00591320000008,35.295648699999994,0 -118.00516010000008,35.296296899999994,0 -118.0049988000001,35.2963601,0 -117.99103750000009,35.3080324,0 -117.98225350000008,35.3167499,0 -117.98192540000008,35.3171524,0 -117.98144760000008,35.3178429,0 -117.98101820000007,35.3186445,0 -117.97251030000007,35.339771,0 -117.97223020000006,35.340354000000005,0 -117.97093290000004,35.342643,0 -117.97075930000004,35.3431383,0 -117.97065260000004,35.3438104,0 -117.97066810000004,35.3444126,0 -117.97074140000004,35.3448156,0 -117.97085690000004,35.345198599999996,0 -117.97100980000005,35.345553699999996,0 -117.97200540000004,35.3472009,0 -117.97211730000006,35.3474397,0 -117.97224950000007,35.3478418,0 -117.97230780000007,35.3483787,0 -117.97229710000006,35.3498537,0 -117.97232810000006,35.3501285,0 -117.97242450000005,35.3505227,0 -117.97251740000003,35.3507733,0 -117.97264830000005,35.3510237,0 -117.97404000000003,35.3529658,0 -117.97726330000003,35.358404799999995,0 -117.97766290000004,35.3590005,0 -117.97812590000004,35.3595253,0 -117.98097040000002,35.362225,0 -117.98123750000003,35.362574,0 -117.98148920000004,35.362990599999996,0 -117.98172020000004,35.3635425,0 -117.98180230000004,35.363861,0 -117.98187580000003,35.364443200000004,0 -117.98141010000005,35.374667200000005,0 -117.98129360000006,35.375288700000006,0 -117.98057710000006,35.377645400000006,0 -117.98052700000007,35.37813070000001,0 -117.98058410000006,35.378842600000006,0 -117.98076480000007,35.3795117,0 -117.98098910000006,35.379983200000005,0 -117.98122200000006,35.38034820000001,0 -117.98351070000007,35.3829805,0 -117.98390170000006,35.38350380000001,0 -117.98423000000005,35.38408830000001,0 -117.98447130000005,35.38469210000001,0 -117.98463230000006,35.385380100000006,0 -117.98484150000006,35.387768,0 -117.98531630000006,35.3980863,0 -117.98523330000006,35.3988068,0 -117.98513960000007,35.399259300000004,0 -117.97857340000006,35.4203327,0 -117.97836710000007,35.42152230000001,0 -117.97833520000007,35.422183200000006,0 -117.97867410000006,35.432300600000005,0 -117.97864820000007,35.43324220000001,0 -117.97853510000004,35.43417960000001,0 -117.97836420000006,35.43502870000001,0 -117.97812590000007,35.43588820000001,0 -117.97775400000006,35.43688560000001,0 -117.97537070000007,35.44211400000002,0 -117.97534420000008,35.442212900000015,0 -117.90562200000006,35.596586000000016,0 -117.89883150000007,35.60978200000002,0 -117.89648270000006,35.613458600000016,0 -117.88128110000007,35.64299680000001,0 -117.88088750000009,35.64388120000002,0 -117.87551970000007,35.65775050000001,0 -117.87411310000007,35.66106750000001,0 -117.86710880000007,35.67926420000001,0 -117.86683390000007,35.680319200000014,0 -117.86670720000008,35.68117510000001,0 -117.86666410000008,35.682173700000014,0 -117.86997480000008,35.74710330000002,0 -117.86995910000009,35.74761460000001,0 -117.87256250000009,35.79837400000002,0 -117.87227400000008,35.79842030000001,0 -117.87227160000008,35.79837400000002,0 </coordinates></LineString><TimeSpan><begin>2021-02-20T19:12:49.000Z</begin><end>2021-02-20T20:30:14.000Z</end></TimeSpan></Placemark><Placemark><name>Shell</name><address>102 Pearson Rd, Pearsonville, CA 93527</address><ExtendedData><Data name="Email"><value>syugen.zhou@gmail.com</value></Data><Data name="Category"><value>Gas station</value></Data><Data name="Distance"><value>0</value></Data></ExtendedData><description> Gas station from 2021-02-20T20:30:14.000Z to 2021-02-20T20:45:19.275Z. Distance 0m </description><Point><coordinates>-117.87193769999999,35.7985405,0</coordinates></Point><TimeSpan><begin>2021-02-20T20:30:14.000Z</begin><end>2021-02-20T20:45:19.275Z</end></TimeSpan></Placemark><Placemark><name>Driving</name><address></address><ExtendedData><Data name="Email"><value>syugen.zhou@gmail.com</value></Data><Data name="Category"><value>Driving</value></Data><Data name="Distance"><value>108584</value></Data></ExtendedData><description> Driving from 2021-02-20T20:45:19.275Z to 2021-02-20T21:56:36.999Z. Distance 108584m </description><LineString><altitudeMode>clampToGround</altitudeMode><extrude>1</extrude><tesselate>1</tesselate><coordinates>-117.87227159999998,35.798373999999995,0 -117.87227399999998,35.79842029999999,0 -117.87256249999999,35.798373999999995,0 -117.87552609999999,35.85585699999999,0 -117.8756144,35.856728399999994,0 -117.8757627,35.857666599999995,0 -117.87609559999999,35.8591459,0 -117.87629979999997,35.859841100000004,0 -117.87663459999997,35.8608174,0 -117.87727329999997,35.862332099999996,0 -117.87809289999997,35.8638992,0 -117.89656439999996,35.8930301,0 -117.89696639999997,35.89374229999999,0 -117.89762509999997,35.89503679999999,0 -117.89817819999996,35.89629279999999,0 -117.89865579999996,35.89757769999999,0 -117.90385889999996,35.912857599999995,0 -117.90425699999996,35.913928999999996,0 -117.90551919999996,35.916820599999994,0 -117.90742669999996,35.92231439999999,0 -117.90763369999996,35.92309169999999,0 -117.90781769999995,35.924175299999995,0 -117.90813079999994,35.9279933,0 -117.90810659999995,35.9290398,0 -117.90805279999996,35.9296484,0 -117.90794079999995,35.930383799999994,0 -117.90761169999995,35.931678999999995,0 -117.90718809999994,35.932805699999996,0 -117.90610469999994,35.935234099999995,0 -117.90594229999995,35.93571229999999,0 -117.90584519999994,35.93609849999999,0 -117.90580589999995,35.9363557,0 -117.90576249999994,35.9369935,0 -117.90580719999996,35.937600399999994,0 -117.90587819999995,35.9379973,0 -117.91061579999995,35.9556506,0 -117.91078849999994,35.956140399999995,0 -117.91107309999994,35.956789199999996,0 -117.91160969999993,35.9576752,0 -117.91208179999994,35.958312199999995,0 -117.91288629999993,35.9593103,0 -117.91780309999993,35.965950899999996,0 -117.91826829999994,35.966625199999996,0 -117.91888659999992,35.9676998,0 -117.91907679999994,35.968095899999994,0 -117.92289029999993,35.97709139999999,0 -117.92690409999993,35.98609999999999,0 -117.93198969999993,35.997955899999994,0 -117.93265809999994,35.99973289999999,0 -117.94618319999994,36.04226879999999,0 -117.94654849999995,36.04368509999999,0 -117.96045549999995,36.087441999999996,0 -117.96090699999993,36.0887488,0 -117.96955249999993,36.108534299999995,0 -117.97005459999994,36.109785599999995,0 -117.97041929999993,36.110850299999996,0 -117.97063339999994,36.111720999999996,0 -117.97078239999995,36.112601299999994,0 -117.97589599999995,36.15831489999999,0 -117.97720219999994,36.1636516,0 -117.97730679999994,36.164343800000005,0 -117.97736049999992,36.1649369,0 -117.98015649999994,36.2273637,0 -117.98024839999994,36.2280066,0 -117.98038339999994,36.228570700000006,0 -117.98054809999994,36.229006700000006,0 -117.98254529999994,36.2332322,0 -117.98255539999995,36.233242999999995,0 -117.98259679999995,36.2332694,0 -118.00575719999995,36.28146459999999,0 -118.00613409999994,36.282180999999994,0 -118.00642649999995,36.282660699999994,0 -118.00713419999995,36.2834898,0 -118.01660119999995,36.292271199999995,0 -118.01691289999995,36.292588699999996,0 -118.01718729999995,36.292899999999996,0 -118.01765129999995,36.293513399999995,0 -118.01798589999997,36.29405129999999,0 -118.01824509999997,36.29454739999999,0 -118.02681659999998,36.313924199999995,0 -118.02688229999997,36.314123099999996,0 -118.02701729999997,36.314717699999996,0 -118.02705939999997,36.3150748,0 -118.02707929999998,36.320204,0 -118.02705309999999,36.3207071,0 -118.0269438,36.321464399999996,0 -118.02678799999998,36.322160399999994,0 -118.02659249999999,36.32279299999999,0 -118.02619849999998,36.323775299999994,0 -118.02149639999999,36.3339622,0 -118.02121619999998,36.3346338,0 -118.0210073,36.335231799999995,0 -118.0208179,36.3359202,0 -118.02063479999998,36.3370576,0 -118.0205836,36.3378249,0 -118.02063979999998,36.3389662,0 -118.02074299999997,36.339613,0 -118.02328929999999,36.351822399999996,0 -118.02337469999998,36.3523987,0 -118.02358719999997,36.357607699999996,0 -118.02361099999996,36.35779539999999,0 -118.02388309999996,36.3739496,0 -118.02386759999997,36.37436709999999,0 -118.02388819999996,36.3757082,0 -118.02386169999997,36.375813699999995,0 -118.02386179999996,36.3759926,0 -118.02358569999997,36.379498399999996,0 -118.02379459999996,36.390239699999995,0 -118.02396789999996,36.3917803,0 -118.03136719999995,36.4309576,0 -118.03158119999995,36.431874699999995,0 -118.03192289999996,36.4330328,0 -118.03406129999996,36.43903279999999,0 -118.03429519999997,36.439880099999996,0 -118.03441529999995,36.4404349,0 -118.03453249999995,36.441192799999996,0 -118.03461239999994,36.4425694,0 -118.03431729999996,36.449799299999995,0 -118.03431069999993,36.450998799999994,0 -118.03434469999995,36.451619099999995,0 -118.03451549999994,36.4529071,0 -118.03522949999994,36.4568995,0 -118.03530789999994,36.457478599999995,0 -118.03626709999993,36.46270609999999,0 -118.03637229999994,36.4635408,0 -118.03643169999992,36.46465919999999,0 -118.03639729999993,36.46584409999999,0 -118.03602629999995,36.46901059999999,0 -118.03593449999993,36.470288499999995,0 -118.03587809999992,36.47364019999999,0 -118.03579599999993,36.47474149999999,0 -118.03203469999993,36.50399149999999,0 -118.03201729999992,36.50539919999999,0 -118.03209019999993,36.50624659999999,0 -118.03218139999993,36.50685959999999,0 -118.03231859999993,36.50751409999999,0 -118.03268989999994,36.50874199999999,0 -118.03300249999994,36.509530599999984,0 -118.03333789999994,36.51023149999999,0 -118.03383309999992,36.511064799999986,0 -118.04272509999991,36.52376049999998,0 -118.04310209999991,36.52435079999998,0 -118.04342949999992,36.52494319999998,0 -118.04387729999992,36.52590279999998,0 -118.04420999999992,36.52679339999998,0 -118.04436019999991,36.52729339999998,0 -118.04647819999992,36.53789649999998,0 -118.04722059999992,36.54361849999998,0 -118.05078279999994,36.561815999999986,0 -118.05092079999994,36.56239189999999,0 -118.05115789999994,36.563180899999985,0 -118.05149149999994,36.564046199999986,0 -118.05268559999995,36.56643979999999,0 -118.05270559999995,36.56646649999999,0 -118.05282469999996,36.56656079999999,0 -118.05714949999997,36.57593649999999,0 -118.05729139999998,36.57631149999999,0 -118.05736959999997,36.57657789999999,0 -118.05749019999998,36.57711699999999,0 -118.05753169999998,36.577393599999986,0 -118.05756589999999,36.577834399999986,0 -118.05757689999997,36.57863179999998,0 -118.05751299999997,36.57876899999999,0 -118.05752409999997,36.58055729999999,0 -118.05757969999996,36.580650199999994,0 -118.05765349999996,36.593046199999996,0 -118.05767769999994,36.593388,0 -118.05774579999995,36.59388239999999,0 -118.05796999999994,36.5945584,0 -118.06476989999994,36.6084447,0 -118.06485529999993,36.60868489999999,0 -118.06517289999994,36.609812899999994,0 -118.06514849999992,36.609905499999996,0 -118.06581539999992,36.6122764,0 -118.06588499999992,36.612328899999994,0 -118.06691939999993,36.61616219999999,0 -118.06707409999994,36.616628299999995,0 -118.06729589999993,36.61716789999999,0 -118.06840669999993,36.61921629999999,0 -118.06841419999992,36.619348499999994,0 -118.06842259999992,36.61937319999999,0 -118.07254799999991,36.62690539999999,0 -118.08108879999992,36.64007569999999,0 -118.08165669999993,36.6410613,0 -118.09432219999992,36.665604599999995,0 -118.09448609999991,36.66602379999999,0 -118.0946209999999,36.66645249999999,0 -118.09554889999991,36.67104869999999,0 -118.09567409999993,36.67147189999999,0 -118.09587449999992,36.672025999999995,0 -118.09618329999992,36.67267289999999,0 -118.09650299999991,36.673203399999984,0 -118.09688549999991,36.67374549999998,0 -118.09742369999994,36.67437349999999,0 -118.10906139999993,36.68673169999999,0 -118.11317149999991,36.69162459999998,0 -118.12371439999993,36.702795499999986,0 -118.12423839999994,36.70327989999999,0 -118.12517549999993,36.70404039999999,0 -118.12808659999993,36.70606559999999,0 -118.12885909999991,36.70672579999999,0 -118.12938869999991,36.707222299999984,0 -118.12989529999992,36.70775549999998,0 -118.13059529999991,36.70859509999998,0 -118.13713159999992,36.71750429999998,0 -118.13756969999991,36.71821749999998,0 -118.13879679999991,36.72064539999998,0 -118.1393133999999,36.721472999999975,0 -118.1398706999999,36.722251999999976,0 -118.1402270999999,36.72207089999998,0 -118.14081299999991,36.72181769999998,0 -118.1458548999999,36.72866469999998,0 -118.14638609999992,36.728415699999985,0 -118.14641999999992,36.72836239999998,0 -118.14643049999992,36.728307499999985,0 -118.14642229999993,36.728245399999984,0 -118.14638329999993,36.72817949999998,0 -118.14637879999991,36.72812479999998,0 -118.14639099999991,36.72809549999998,0 -118.14640049999991,36.72808399999998,0 -118.1464513999999,36.72804969999998,0 -118.14731649999992,36.72763499999998,0 -118.1473781999999,36.72762649999998,0 -118.14740259999992,36.72762909999998,0 -118.14743399999993,36.72764299999998,0 -118.14747089999993,36.72767789999998,0 -118.14783569999993,36.728200499999986,0 -118.14784419999992,36.72822069999998,0 -118.14784579999991,36.72824359999998,0 -118.1477976999999,36.72835379999998,0 -118.14873129999992,36.72788389999997,0 -118.14899619999993,36.727765499999975,0 -118.14904969999992,36.72775659999997,0 -118.14909189999993,36.72775909999997,0 -118.14914449999992,36.72777989999997,0 -118.1491638999999,36.72779929999997,0 -118.14958349999989,36.72841379999997,0 -118.15284569999989,36.73281709999997,0 -118.15288169999988,36.732841899999976,0 -118.15291999999987,36.73285949999997,0 -118.15296279999987,36.73286819999997,0 -118.15302859999987,36.73287019999997,0 -118.15308179999988,36.732854899999964,0 -118.16099429999989,36.72908669999996,0 -118.16101329999988,36.72906549999996,0 -118.16102159999988,36.729037099999964,0 -118.16101749999989,36.72899919999996,0 -118.1610039999999,36.72896939999996,0 -118.1597112999999,36.72716769999996,0 -118.1597078999999,36.72714079999996,0 -118.1597145999999,36.727115099999956,0 -118.1597431999999,36.72708969999996,0 -118.16115549999991,36.72645549999995,0 -118.16118449999989,36.726415099999954,0 -118.16120319999989,36.72636359999996,0 -118.16119989999989,36.726318999999954,0 -118.1611886999999,36.726283199999955,0 -118.15762799999992,36.72152369999995,0 -118.15760229999991,36.72151109999995,0 -118.15756509999991,36.72150359999995,0 -118.15748849999991,36.72150149999995,0 -118.1573986999999,36.721518499999945,0 -118.1521089999999,36.724067399999946,0 -118.1519808999999,36.72408959999995,0 -118.1519019999999,36.724073999999945,0 -118.1518448999999,36.72404329999994,0 -118.15061769999991,36.72240849999994,0 -118.15055449999991,36.722341099999944,0 -118.15050789999992,36.72231709999994,0 -118.15041899999993,36.72232319999994,0 -118.14646299999994,36.72419789999995,0 -118.14649729999994,36.72426909999995,0 -118.14715579999994,36.72514579999995,0 -118.14784329999995,36.72596939999995,0 -118.14784979999993,36.72601219999995,0 -118.14783369999992,36.72605369999995,0 -118.14779849999991,36.72609119999995,0 -118.1477277999999,36.72613689999995,0 -118.1463682999999,36.72676939999995,0 -118.1463414999999,36.726815199999955,0 -118.1463381999999,36.726852999999956,0 -118.1463484999999,36.726894899999955,0 -118.1464042999999,36.726999999999954,0 -118.1469172999999,36.72770029999996,0 </coordinates></LineString><TimeSpan><begin>2021-02-20T20:45:19.275Z</begin><end>2021-02-20T21:56:36.999Z</end></TimeSpan></Placemark><Placemark><name>Manzanar National Historic Site Visitor Center</name><address>5001 US-395, Independence, CA 93526</address><ExtendedData><Data name="Email"><value>syugen.zhou@gmail.com</value></Data><Data name="Category"><value>Visitor center</value></Data><Data name="Distance"><value>0</value></Data></ExtendedData><description> Visitor center from 2021-02-20T21:56:36.999Z to 2021-02-20T22:07:30.653Z. Distance 0m </description><Point><coordinates>-118.14822219999999,36.7276139,0</coordinates></Point><TimeSpan><begin>2021-02-20T21:56:36.999Z</begin><end>2021-02-20T22:07:30.653Z</end></TimeSpan></Placemark><Placemark><name>Driving</name><address></address><ExtendedData><Data name="Email"><value>syugen.zhou@gmail.com</value></Data><Data name="Category"><value>Driving</value></Data><Data name="Distance"><value>19227</value></Data></ExtendedData><description> Driving from 2021-02-20T22:07:30.653Z to 2021-02-20T22:43:41.999Z. Distance 19227m </description><LineString><altitudeMode>clampToGround</altitudeMode><extrude>1</extrude><tesselate>1</tesselate><coordinates>-118.14947609999999,36.7282547,0 -118.1495835,36.728413800000006,0 -118.15284569999999,36.732817100000005,0 -118.15288169999998,36.732841900000004,0 -118.15291999999997,36.7328595,0 -118.15296279999997,36.7328682,0 -118.15299289999996,36.7328709,0 -118.15302859999996,36.7328702,0 -118.15308179999995,36.7328549,0 -118.15314199999996,36.7328292,0 -118.15321979999997,36.7327862,0 -118.15773719999996,36.730605999999995,0 -118.16099429999996,36.729086699999996,0 -118.16101329999995,36.72906549999999,0 -118.16102159999996,36.72903709999999,0 -118.16101749999997,36.72899919999999,0 -118.16100399999998,36.72896939999999,0 -118.15971129999997,36.72716769999999,0 -118.15970789999997,36.72714079999999,0 -118.15971459999997,36.72711509999999,0 -118.15974319999998,36.727089699999986,0 -118.16115549999998,36.726455499999986,0 -118.16118449999996,36.72641509999999,0 -118.16120319999997,36.726363599999985,0 -118.16119989999997,36.72631899999998,0 -118.16118869999998,36.72628319999998,0 -118.15762799999999,36.721523699999985,0 -118.15760229999998,36.72151109999998,0 -118.15756509999999,36.721503599999984,0 -118.15748849999999,36.72150149999998,0 -118.1574443,36.72150769999998,0 -118.15739869999997,36.72151849999998,0 -118.15210899999997,36.72406739999998,0 -118.15198089999998,36.72408959999998,0 -118.15190199999996,36.72407399999997,0 -118.15184489999997,36.72404329999998,0 -118.15061769999998,36.72240849999997,0 -118.1505545,36.72234109999997,0 -118.15050790000001,36.72231709999998,0 -118.15041900000001,36.72232319999998,0 -118.14802590000001,36.72347669999998,0 -118.14653230000002,36.724160499999975,0 -118.14646300000001,36.72419789999997,0 -118.14649730000001,36.72426909999997,0 -118.14715580000001,36.72514579999998,0 -118.14784330000002,36.725969399999975,0 -118.1478498,36.72601219999998,0 -118.14783369999999,36.72605369999997,0 -118.1477985,36.72609119999998,0 -118.14772779999998,36.72613689999997,0 -118.14636829999999,36.726769399999974,0 -118.1463515,36.72679229999997,0 -118.1463415,36.72681519999997,0 -118.1463382,36.72685299999997,0 -118.1463485,36.72689489999998,0 -118.1464043,36.726999999999975,0 -118.1469842,36.72779119999998,0 -118.1464514,36.72804969999997,0 -118.14640050000001,36.728083999999974,0 -118.14639100000001,36.728095499999974,0 -118.14637880000002,36.728124799999975,0 -118.14637860000002,36.72815909999998,0 -118.14638330000002,36.728179499999975,0 -118.14642230000003,36.72824539999998,0 -118.14642990000002,36.72828499999998,0 -118.14643050000002,36.72830749999998,0 -118.14642000000002,36.72836239999997,0 -118.14638610000002,36.72841569999998,0 -118.1458549,36.728664699999975,0 -118.14081300000001,36.721817699999974,0 -118.1402271,36.72207089999997,0 -118.13968810000001,36.721303899999974,0 -118.1392364,36.72057219999997,0 -118.1389001,36.71993319999997,0 -118.13816330000002,36.71843469999997,0 -118.13780700000001,36.71780139999996,0 -118.1375821,36.717440999999965,0 -118.1370472,36.71666599999997,0 -118.13093839999999,36.70838799999997,0 -118.1304005,36.70770949999997,0 -118.1299587,36.70721439999997,0 -118.1294342,36.70668699999997,0 -118.1285897,36.70598739999996,0 -118.12828750000001,36.70575249999996,0 -118.12566600000002,36.70394009999996,0 -118.12489800000002,36.703377899999964,0 -118.1238377,36.70238249999996,0 -118.1136215,36.69155169999996,0 -118.11282239999998,36.69062729999996,0 -118.10987639999999,36.68707409999996,0 -118.1093324,36.68645449999996,0 -118.1023564,36.679060099999965,0 -118.0977613,36.67439689999997,0 -118.09738039999999,36.67398219999997,0 -118.0972003,36.67376599999997,0 -118.09688709999999,36.67335109999997,0 -118.09661229999999,36.67293439999997,0 -118.09634249999999,36.67245769999997,0 -118.09611749999999,36.671976299999976,0 -118.09593549999998,36.67150629999997,0 -118.09579539999999,36.67104129999997,0 -118.09570449999998,36.67065509999997,0 -118.09562179999998,36.67016579999997,0 -118.09491539999996,36.66310029999997,0 -118.09489469999998,36.66271559999997,0 -118.09489429999999,36.66174399999997,0 -118.09501859999999,36.65869169999997,0 -118.0950089,36.65806509999997,0 -118.09498439999999,36.65768159999997,0 -118.09489419999998,36.65692789999997,0 -118.09475269999997,36.65617499999997,0 -118.09456219999997,36.655433499999965,0 -118.09432779999997,36.65470019999997,0 -118.09399019999998,36.65386819999997,0 -118.09371229999998,36.65328989999997,0 -118.09325799999996,36.652482199999966,0 -118.09282229999997,36.65181559999996,0 -118.09241839999997,36.65126319999997,0 -118.09182169999997,36.650538899999965,0 -118.09115769999997,36.64982809999997,0 -118.08470329999997,36.64385299999997,0 -118.08419369999999,36.643345599999975,0 -118.08338359999999,36.64246559999997,0 -118.08265469999998,36.64159109999998,0 -118.0818243,36.64047099999998,0 -118.0709204,36.62364019999998,0 -118.070514,36.62295059999998,0 -118.0685407,36.61931929999998,0 -118.06853029999999,36.61930809999998,0 -118.0684067,36.61921629999998,0 -118.0673947,36.617370899999976,0 -118.0672959,36.61716789999998,0 -118.06707410000001,36.616628299999974,0 -118.0669194,36.61616219999997,0 -118.065885,36.61232889999997,0 -118.0659171,36.61227289999998,0 -118.065923,36.61225629999998,0 -118.0659242,36.61223819999998,0 -118.0652537,36.60988139999998,0 -118.0652495,36.60987389999998,0 -118.06517289999998,36.60981289999998,0 -118.06485529999999,36.60868489999998,0 -118.06476989999999,36.608444699999986,0 -118.0618166,36.60249119999999,0 </coordinates></LineString><TimeSpan><begin>2021-02-20T22:07:30.653Z</begin><end>2021-02-20T22:43:41.999Z</end></TimeSpan></Placemark><Placemark><name>McDonald's</name><address>601 S Main St, Lone Pine, CA 93545</address><ExtendedData><Data name="Email"><value>syugen.zhou@gmail.com</value></Data><Data name="Category"><value>Fast Food</value></Data><Data name="Distance"><value>0</value></Data></ExtendedData><description> Fast Food from 2021-02-20T22:43:41.999Z to 2021-02-20T23:05:11.999Z. Distance 0m </description><Point><coordinates>-118.06199579999999,36.6022755,0</coordinates></Point><TimeSpan><begin>2021-02-20T22:43:41.999Z</begin><end>2021-02-20T23:05:11.999Z</end></TimeSpan></Placemark><Placemark><name>Driving</name><address></address><ExtendedData><Data name="Email"><value>syugen.zhou@gmail.com</value></Data><Data name="Category"><value>Driving</value></Data><Data name="Distance"><value>7076</value></Data></ExtendedData><description> Driving from 2021-02-20T23:05:11.999Z to 2021-02-20T23:35:59.000Z. Distance 7076m </description><LineString><altitudeMode>clampToGround</altitudeMode><extrude>1</extrude><tesselate>1</tesselate><coordinates>-118.06225389999999,36.6025953,0 -118.0628672,36.6023887,0 -118.0639374,36.6045635,0 -118.0691348,36.602996,0 -118.06945259999999,36.6028559,0 -118.07030319999998,36.602313699999996,0 -118.0706508,36.6021724,0 -118.07120999999998,36.6020376,0 -118.07166959999998,36.6018964,0 -118.07199919999996,36.601838799999996,0 -118.07235169999998,36.6018124,0 -118.07570539999999,36.6019359,0 -118.0795103,36.6016621,0 -118.0802954,36.6015196,0 -118.0834045,36.600823000000005,0 -118.08359319999998,36.6007985,0 -118.08378409999999,36.60079280000001,0 -118.08397529999996,36.600802,0 -118.08526639999995,36.601010200000005,0 -118.08544479999996,36.6010202,0 -118.08562479999996,36.601013800000004,0 -118.08584209999998,36.600984700000005,0 -118.08607719999999,36.6009352,0 -118.08634259999998,36.60085310000001,0 -118.08658909999998,36.60075450000001,0 -118.08680079999998,36.60062750000001,0 -118.08691459999999,36.600537800000005,0 -118.0872089,36.600217900000004,0 -118.08796899999999,36.59911400000001,0 -118.08803789999999,36.59904560000001,0 -118.0881857,36.59893770000001,0 -118.0883255,36.5988747,0 -118.08847929999999,36.59883440000001,0 -118.08863889999999,36.598822600000005,0 -118.08939,36.598904000000005,0 -118.08956479999999,36.5989115,0 -118.08976409999998,36.59890490000001,0 -118.09204369999998,36.598587300000005,0 -118.09249329999999,36.59847620000001,0 -118.09273529999997,36.59836390000001,0 -118.0929858,36.59821030000001,0 -118.09333189999998,36.59804420000001,0 -118.09466589999998,36.59764100000001,0 -118.10029719999999,36.59538820000001,0 -118.10044999999998,36.595314300000005,0 -118.10068019999997,36.59522880000001,0 -118.10083859999997,36.59518840000001,0 -118.10297899999998,36.59493490000001,0 -118.10373769999998,36.59487830000001,0 -118.10424219999999,36.594879700000014,0 -118.10489909999998,36.594942300000014,0 -118.1063339,36.595196600000016,0 -118.10843779999999,36.59548290000001,0 -118.10874689999999,36.59550450000001,0 -118.10884769999998,36.59610410000001,0 -118.10893809999997,36.59626670000001,0 -118.10903679999997,36.59639340000001,0 -118.10914989999998,36.59648960000001,0 -118.10928489999998,36.59655130000001,0 -118.10959409999998,36.59665230000001,0 -118.11087129999999,36.59697540000001,0 -118.11137599999998,36.59714290000001,0 -118.11249409999996,36.59739980000001,0 -118.11292879999996,36.59756090000001,0 -118.11307699999996,36.59763730000001,0 -118.11333199999996,36.59773740000001,0 -118.11387999999995,36.5978198,0 -118.11419899999994,36.597886700000004,0 -118.11452369999994,36.5979904,0 -118.11515729999994,36.598254700000005,0 -118.11604439999992,36.5987077,0 -118.11676369999994,36.5990394,0 -118.11686409999994,36.5990717,0 -118.11706819999993,36.599117500000006,0 -118.11821609999994,36.599272000000006,0 -118.11855449999995,36.5993463,0 -118.11874609999995,36.59941370000001,0 -118.11891479999994,36.59951190000001,0 -118.11920609999994,36.59974220000001,0 -118.11950929999995,36.600014400000006,0 -118.11994499999994,36.60053680000001,0 -118.12040029999996,36.60123010000001,0 -118.12072589999995,36.60193540000001,0 -118.12101179999993,36.602454500000015,0 -118.12137869999994,36.60301200000001,0 -118.12149979999994,36.603265500000006,0 -118.12190159999993,36.6044221,0 -118.12262649999992,36.605557000000005,0 -118.12341329999994,36.60666330000001,0 -118.12400889999994,36.60761450000001,0 -118.12441199999992,36.60817120000001,0 -118.1247724999999,36.60861360000001,0 -118.1250767999999,36.60893540000001,0 -118.12524369999991,36.60915040000001,0 -118.12541719999992,36.609429100000014,0 -118.12546159999994,36.60952840000001,0 -118.12560469999994,36.610205400000005,0 -118.12569209999994,36.61046930000001,0 -118.12597509999993,36.61065900000001,0 -118.12606969999995,36.61069460000001,0 -118.12624279999994,36.61072320000001,0 -118.12650649999995,36.61066060000002,0 -118.12745329999996,36.61034040000001,0 -118.12758099999996,36.61017240000001,0 -118.12757659999995,36.609971000000016,0 -118.12754609999995,36.60978220000001,0 -118.12746549999994,36.609500800000006,0 -118.12707739999993,36.60927050000001,0 -118.12670969999994,36.60898670000001,0 -118.12636729999993,36.608638000000006,0 -118.12626459999993,36.608566900000014,0 -118.12517539999993,36.60808580000001,0 -118.12445479999991,36.60782060000001,0 -118.12400889999991,36.60761450000001,0 -118.12341329999991,36.60666330000001,0 -118.1226264999999,36.60555700000001,0 -118.1219015999999,36.60442210000001,0 -118.12149979999991,36.60326550000001,0 -118.12137869999992,36.603012000000014,0 -118.12104749999992,36.602508700000016,0 </coordinates></LineString><TimeSpan><begin>2021-02-20T23:05:11.999Z</begin><end>2021-02-20T23:35:59.000Z</end></TimeSpan></Placemark><Placemark><name>Mobius Arch Loop Trailhead</name><address>Movie Flat Rd, Lone Pine, CA 93545</address><ExtendedData><Data name="Email"><value>syugen.zhou@gmail.com</value></Data><Data name="Category"><value>Hiking area</value></Data><Data name="Distance"><value>0</value></Data></ExtendedData><description> Hiking area from 2021-02-20T23:35:59.000Z to 2021-02-21T15:33:55.000Z. Distance 0m </description><Point><coordinates>-118.1249464,36.611329399999995,0</coordinates></Point><TimeSpan><begin>2021-02-20T23:35:59.000Z</begin><end>2021-02-21T15:33:55.000Z</end></TimeSpan></Placemark></Document></kml>
