<?xml version="1.0" encoding="UTF-8"?>
<kml xmlns="http://www.opengis.net/kml/2.2" xmlns:gx="http://www.google.com/kml/ext/2.2" xmlns:kml="http://www.opengis.net/kml/2.2" xmlns:atom="http://www.w3.org/2005/Atom">
<Document>
	<name>Location history from 2021-10-16 to 2021-10-16</name>
	<open>1</open>
	<Placemark>
		<name>Shilo Inns Suites</name>
		<address>2963 Main St, Mammoth Lakes, CA 93546</address>
		<description>Hotel from 2021-10-16T03:23:59.922Z to 2021-10-16T15:24:11.999Z. Distance 0m</description>
		<TimeSpan>
			<begin>2021-10-16T03:23:59.922Z</begin>
			<end>2021-10-16T15:24:11.999Z</end>
		</TimeSpan>
		<ExtendedData>
			<Data name="Email">
				<value>syugen.zhou@gmail.com</value>
			</Data>
			<Data name="Category">
				<value>Hotel</value>
			</Data>
			<Data name="Distance">
				<value>0</value>
			</Data>
		</ExtendedData>
		<Point>
			<coordinates>-118.964918,37.6461928,0</coordinates>
		</Point>
	</Placemark>
	<Placemark>
		<name>Driving</name>
		<description>Driving from 2021-10-16T15:24:11.999Z to 2021-10-16T15:56:18.001Z. Distance 12395m</description>
		<TimeSpan>
			<begin>2021-10-16T15:24:11.999Z</begin>
			<end>2021-10-16T15:56:18.001Z</end>
		</TimeSpan>
		<ExtendedData>
			<Data name="Email">
				<value>syugen.zhou@gmail.com</value>
			</Data>
			<Data name="Category">
				<value>Driving</value>
			</Data>
			<Data name="Distance">
				<value>12395</value>
			</Data>
		</ExtendedData>
		<LineString>
			<extrude>1</extrude>
			<coordinates>
				-118.9657007,37.64683530000001,0 -118.976719,37.6487995,0 -118.9831678,37.64839670000001,0 -118.9833821,37.6494188,0 -118.9845438,37.6502725,0 -118.9851901,37.6532714,0 -118.9866675,37.65391950000001,0 -118.9908251,37.65401710000001,0 -118.9927502,37.65616700000001,0 -118.9957794,37.6558063,0 -118.9963022,37.6552659,0 -118.9963354,37.6548365,0 -118.9961465,37.6545568,0 -118.9950045,37.65430660000001,0 -118.9948023,37.65413700000001,0 -118.9948052,37.6535222,0 -118.9963094,37.65275310000001,0 -118.9970163,37.65165700000001,0 -118.997097,37.65075350000001,0 -118.9977209,37.65007410000001,0 -118.9983172,37.64989020000001,0 -118.9993609,37.65014360000001,0 -119.0004225,37.65133560000001,0 -119.0010583,37.65148750000001,0 -119.0035247,37.65034880000001,0 -119.0050404,37.65124990000001,0 -119.0056177,37.6512755,0 -119.007414,37.6507835,0 -119.009831,37.65079170000001,0 -119.0102494,37.65063470000001,0 -119.0120279,37.64890460000001,0 -119.0131651,37.64862370000001,0 -119.0146887,37.64890660000001,0 -119.0156594,37.64941070000001,0 -119.0222251,37.64997930000001,0 -119.0274657,37.65262350000001,0 -119.0287713,37.65415110000001,0 -119.0305279,37.65472360000001,0 -119.0312205,37.65471480000001,0 -119.0341676,37.65378760000001,0 -119.0364052,37.65159610000001,0 -119.0390936,37.6503039,0 -119.0402206,37.65032070000001,0 -119.0417495,37.65076680000001,0 -119.0428736,37.6506965,0 -119.0465731,37.65130880000001,0 -119.0481405,37.6503939,0 -119.0532627,37.65192620000001,0 -119.0544755,37.65313500000001,0 -119.0552507,37.65339030000001,0 -119.0567409,37.65343390000001,0 -119.057818,37.65398240000001,0 -119.0582268,37.65401490000001,0 -119.0600993,37.65318190000001,0 -119.0620042,37.65323860000002,0 -119.062783,37.65374190000001,0 -119.0641998,37.65703430000001,0 -119.064974,37.65773200000001,0 -119.0648579,37.65950570000001,0 -119.0639238,37.66149250000001,0 -119.0652259,37.66457330000001,0 -119.066992,37.66574550000001,0 -119.0674082,37.66649410000001,0 -119.0678044000001,37.66664500000001,0 -119.0698486000001,37.66962380000001,0 -119.0693847000001,37.67186340000001,0 -119.0697363000001,37.67242810000001,0 -119.0697517000001,37.67325760000001,0 -119.0708168000001,37.67376170000001,0 -119.0711525000001,37.67423650000001,0 -119.0775977000001,37.67843400000001,0 -119.0777502000001,37.679137,0 -119.0793282000001,37.68084900000001,0 -119.0799487000001,37.6811483,0 -119.0806302000001,37.6810948,0 -119.0807096000001,37.68030820000001,0 -119.0795026000001,37.67950220000001,0 -119.0785274000001,37.67809310000001,0 -119.0772675000001,37.6774586,0 -119.0771803000001,37.6769821,0 -119.0778426000001,37.675908,0 -119.0773137000001,37.673764,0 -119.0760457000001,37.67268170000001,0 -119.0748103000001,37.6720977,0 -119.0740807000001,37.6706628,0 -119.0732957000001,37.6700451,0 -119.0734643000001,37.6670127,0 -119.0739419000001,37.665901,0 -119.0730061000001,37.6631778,0 -119.0720187000001,37.661967,0 -119.0717783000001,37.6608715,0 -119.0719533000001,37.6605296,0 -119.0714170000001,37.6590278,0 -119.0724409000001,37.6556092,0 -119.0734337000001,37.6545082,0 -119.0737988000001,37.65299569999999,0 -119.0736750000001,37.6525072,0 -119.0742172000001,37.65126059999999,0 -119.0735001000001,37.64806899999999,0 -119.0729804000001,37.64753299999999,0 -119.0729329000001,37.64720509999999,0 -119.0742373000001,37.64583529999999,0 -119.0747638000001,37.64409219999999,0 -119.0737859000001,37.64152319999999,0 -119.0743727000001,37.64037379999998,0 -119.0744054000001,37.63958909999999,0 -119.0754881000001,37.63854389999999,0 -119.0761637000001,37.63843079999999,0 -119.0771286000001,37.63876659999999,0 -119.0772791000001,37.63836469999998,0 -119.0770697000001,37.63767719999998,0 -119.0774798000001,37.63718619999998,0 -119.0780425000001,37.63718859999998,0 -119.0816909000001,37.63552819999997,0 -119.0817921000001,37.63532889999998,0 -119.0815725000001,37.63454849999998,0 -119.0818013000001,37.63371869999998,0 -119.0813250000001,37.63186669999997,0 -119.0816161000001,37.63195149999998,0 -119.0819579000001,37.63241589999998,0 -119.0823318000001,37.63198969999998,0 -119.0831139000001,37.63213499999998,0 -119.0843215000001,37.63159989999998,0 -119.0843590000001,37.63132149999997,0 -119.0839813000001,37.63112159999997,0 -119.0839054000001,37.63070599999998,0 -119.0843232000002,37.63029719999997,0 -119.0852557000001,37.63026779999998,0 
			</coordinates>
			<tesselate>1</tesselate>
		</LineString>
	</Placemark>
	<Placemark>
		<name>Walking</name>
		<description>Walking from 2021-10-16T15:56:18.001Z to 2021-10-16T16:14:01.217Z. Distance 792m</description>
		<TimeSpan>
			<begin>2021-10-16T15:56:18.001Z</begin>
			<end>2021-10-16T16:14:01.217Z</end>
		</TimeSpan>
		<ExtendedData>
			<Data name="Email">
				<value>syugen.zhou@gmail.com</value>
			</Data>
			<Data name="Category">
				<value>Walking</value>
			</Data>
			<Data name="Distance">
				<value>792</value>
			</Data>
		</ExtendedData>
		<LineString>
			<extrude>1</extrude>
			<coordinates>
				-119.0852557,37.6302678,0 -119.0851798,37.6302385,0 -119.0851539,37.630235,0 -119.0851283,37.6302352,0 -119.0851024,37.6302382,0 -119.0850876,37.6302425,0 -119.0850651,37.6302547,0 -119.0850192,37.6302856,0 -119.0849989,37.6302957,0 -119.0849751,37.6303014,0 -119.0849461,37.6303048,0 -119.0848821,37.63029869999999,0 -119.0848098,37.63028279999999,0 -119.0846801,37.63025429999999,0 -119.0845995,37.6302234,0 -119.0845995,37.6302234,0 -119.084672,37.63018819999999,0 -119.0846982,37.6301601,0 -119.0847076,37.63014209999999,0 -119.0847136,37.63009869999999,0 -119.084706,37.63006139999999,0 -119.084697,37.63003359999999,0 -119.0846765,37.63000069999999,0 -119.0846663,37.62986069999999,0 -119.0846548,37.6298159,0 -119.0845881,37.62965029999999,0 -119.0845534,37.62956429999999,0 -119.084526,37.6295041,0 -119.0844789,37.62942589999999,0 -119.0844092,37.6293208,0 -119.0843325,37.62920519999999,0 -119.0843137,37.629185,0 -119.0842893999999,37.62917029999999,0 -119.0842835999999,37.62916679999999,0 -119.0840903,37.62908389999999,0 -119.0840699,37.6290752,0 -119.0840064,37.6290363,0 -119.0839775,37.6290071,0 -119.0839614,37.6289741,0 -119.0839549,37.6289492,0 -119.0839454,37.6289124,0 -119.0839401,37.62885070000001,0 -119.0839441,37.6287773,0 -119.0839603,37.6286921,0 -119.0839765,37.62862510000001,0 -119.0839931,37.62859540000001,0 -119.084037,37.62851660000001,0 -119.0840908,37.62843310000001,0 -119.084194,37.62827290000001,0 -119.0842399,37.62820170000001,0 -119.0843139,37.62804630000001,0 -119.0844295,37.62782000000001,0 -119.0844625,37.62777800000001,0 -119.0845558,37.62765900000001,0 -119.0847264,37.62748580000001,0 -119.0848525,37.62735780000001,0 -119.0849512,37.62727160000001,0 -119.0849512,37.62727160000001,0 -119.0849304,37.62718550000001,0 -119.0848902,37.62706230000001,0 -119.0848781,37.62698270000001,0 -119.084892,37.62692540000001,0 -119.0849036,37.62687750000001,0 -119.084917,37.62679780000001,0 -119.0849182,37.62674710000001,0 -119.0849197,37.62668100000001,0 -119.0849318,37.62659280000001,0 -119.0849391,37.62656840000002,0 -119.0849438,37.62655250000002,0 -119.0849762,37.62650150000002,0 -119.0849913,37.62647010000001,0 -119.0850013,37.62643600000002,0 -119.0849989,37.62640200000001,0 -119.0849981,37.62639830000001,0 -119.0849894,37.62635810000001,0 -119.0849881,37.62630180000001,0 -119.0850042,37.62623910000001,0 -119.0850377,37.62615420000001,0 -119.0850525,37.62608830000001,0 -119.0850653,37.62604680000001,0 -119.0850712,37.62602780000001,0 -119.085082,37.62598210000002,0 -119.0850896,37.62592740000001,0 -119.0850974,37.62586890000001,0 -119.0851014,37.62583840000001,0 -119.0851081,37.62579220000001,0 -119.0851088,37.62576540000001,0 -119.0850994,37.62569320000001,0 -119.0850997,37.62568990000001,0 -119.0851022,37.62565710000001,0 -119.0851115,37.62563370000001,0 -119.0851477,37.62558170000001,0 
			</coordinates>
			<tesselate>1</tesselate>
		</LineString>
	</Placemark>
	<Placemark>
		<name>Devils Postpile National Monument</name>
		<address>Devils Postpile Road, Mammoth Lakes, CA 93546</address>
		<description>National reserve from 2021-10-16T16:14:01.217Z to 2021-10-16T16:31:14.998Z. Distance 0m</description>
		<TimeSpan>
			<begin>2021-10-16T16:14:01.217Z</begin>
			<end>2021-10-16T16:31:14.998Z</end>
		</TimeSpan>
		<ExtendedData>
			<Data name="Email">
				<value>syugen.zhou@gmail.com</value>
			</Data>
			<Data name="Category">
				<value>National reserve</value>
			</Data>
			<Data name="Distance">
				<value>0</value>
			</Data>
		</ExtendedData>
		<Point>
			<coordinates>-119.0876861,37.6153722,0</coordinates>
		</Point>
	</Placemark>
	<Placemark>
		<name>Walking</name>
		<description>Walking from 2021-10-16T16:31:14.998Z to 2021-10-16T16:51:59.999Z. Distance 768m</description>
		<TimeSpan>
			<begin>2021-10-16T16:31:14.998Z</begin>
			<end>2021-10-16T16:51:59.999Z</end>
		</TimeSpan>
		<ExtendedData>
			<Data name="Email">
				<value>syugen.zhou@gmail.com</value>
			</Data>
			<Data name="Category">
				<value>Walking</value>
			</Data>
			<Data name="Distance">
				<value>768</value>
			</Data>
		</ExtendedData>
		<LineString>
			<extrude>1</extrude>
			<coordinates>
				-119.0851122,37.6256326,0 -119.0851115,37.6256337,0 -119.0851022,37.6256571,0 -119.0850997,37.6256899,0 -119.0850994,37.6256932,0 -119.0851088,37.6257654,0 -119.0851081,37.62579220000001,0 -119.0851014,37.62583840000001,0 -119.0850974,37.6258689,0 -119.0850896,37.62592740000001,0 -119.085082,37.62598210000001,0 -119.0850712,37.6260278,0 -119.0850653,37.6260468,0 -119.0850525,37.6260883,0 -119.0850377,37.6261542,0 -119.0850042,37.62623910000001,0 -119.0849881,37.62630180000001,0 -119.0849894,37.6263581,0 -119.0849981,37.62639830000001,0 -119.0849989,37.62640200000001,0 -119.0850013,37.62643600000001,0 -119.0849913,37.62647010000001,0 -119.0849762,37.62650150000001,0 -119.0849438,37.62655250000001,0 -119.0849391,37.62656840000001,0 -119.0849318,37.6265928,0 -119.0849197,37.626681,0 -119.0849182,37.6267471,0 -119.084917,37.62679780000001,0 -119.0849036,37.6268775,0 -119.084892,37.6269254,0 -119.0848781,37.62698270000001,0 -119.0848902,37.62706230000001,0 -119.0849304,37.6271855,0 -119.0849512,37.62727160000001,0 -119.0849512,37.62727160000001,0 -119.0848525,37.62735780000001,0 -119.0847264,37.6274858,0 -119.0845558,37.627659,0 -119.0844625,37.627778,0 -119.0844295,37.62782,0 -119.0843139,37.6280463,0 -119.0842399,37.62820170000001,0 -119.084194,37.62827290000001,0 -119.0840908,37.6284331,0 -119.084037,37.6285166,0 -119.0839931,37.6285954,0 -119.0839765,37.6286251,0 -119.0839603,37.62869209999999,0 -119.0839441,37.6287773,0 -119.0839401,37.6288507,0 -119.0839454,37.6289124,0 -119.0839549,37.62894919999999,0 -119.0839614,37.62897409999999,0 -119.0839775,37.62900709999999,0 -119.0840064,37.6290363,0 -119.0840699,37.62907519999999,0 -119.0840903,37.62908389999999,0 -119.0842835999999,37.62916679999999,0 -119.0842893999999,37.62917029999999,0 -119.0843137,37.62918499999999,0 -119.0843325,37.62920519999999,0 -119.0844092,37.62932079999999,0 -119.0844789,37.62942589999999,0 -119.084526,37.62950409999999,0 -119.0845534,37.62956429999998,0 -119.0845881,37.62965029999999,0 -119.0846548,37.62981589999999,0 -119.0846663,37.62986069999999,0 -119.0846765,37.63000069999998,0 -119.084697,37.63003359999998,0 -119.084706,37.63006139999999,0 -119.0847136,37.63009869999998,0 -119.0847076,37.63014209999999,0 -119.0846982,37.63016009999999,0 -119.084672,37.63018819999999,0 -119.0845995,37.63022339999999,0 -119.0845995,37.63022339999999,0 -119.0843991,37.63025679999999,0 -119.0843232,37.63029719999999,0 -119.0842733,37.63035459999999,0 -119.084206,37.63041479999998,0 -119.0840685,37.63052509999999,0 -119.0840241,37.63056689999998,0 -119.0839416,37.63064459999999,0 -119.0839053999999,37.63070599999999,0 
			</coordinates>
			<tesselate>1</tesselate>
		</LineString>
	</Placemark>
	<Placemark>
		<name>Driving</name>
		<description>Driving from 2021-10-16T16:51:59.999Z to 2021-10-16T18:32:02.999Z. Distance 98904m</description>
		<TimeSpan>
			<begin>2021-10-16T16:51:59.999Z</begin>
			<end>2021-10-16T18:32:02.999Z</end>
		</TimeSpan>
		<ExtendedData>
			<Data name="Email">
				<value>syugen.zhou@gmail.com</value>
			</Data>
			<Data name="Category">
				<value>Driving</value>
			</Data>
			<Data name="Distance">
				<value>98904</value>
			</Data>
		</ExtendedData>
		<LineString>
			<extrude>1</extrude>
			<coordinates>
				-119.0838963,37.6307454,0 -119.0838879,37.6309328,0 -119.0839813,37.6311216,0 -119.084359,37.6313215,0 -119.0843906,37.6314625,0 -119.0843215,37.63159989999999,0 -119.0834972,37.6320364,0 -119.0831139,37.63213499999999,0 -119.0824863,37.6319641,0 -119.0823318,37.63198969999999,0 -119.0821761,37.6321204,0 -119.0820553,37.63237479999999,0 -119.0819579,37.6324159,0 -119.0817852,37.63233069999999,0 -119.0816161,37.63195149999999,0 -119.081325,37.6318667,0 -119.0814123,37.6326937,0 -119.0818013,37.6337187,0 -119.0815725,37.63454849999999,0 -119.0817921,37.6353289,0 -119.0816909,37.6355282,0 -119.0780425000001,37.6371886,0 -119.0774798000001,37.6371862,0 -119.0772486000001,37.6373102,0 -119.0770697000001,37.6376772,0 -119.0772791000001,37.6383647,0 -119.0771286000001,37.6387666,0 -119.0767988000001,37.63873840000001,0 -119.0761637000001,37.63843080000001,0 -119.0754881000001,37.63854390000001,0 -119.0750719000001,37.63902300000001,0 -119.0746912,37.63925910000001,0 -119.0744054,37.63958910000002,0 -119.0743727,37.64037380000001,0 -119.0737859,37.64152320000001,0 -119.0744068,37.64304250000001,0 -119.0743552,37.64336600000001,0 -119.0747638,37.64409220000001,0 -119.074762,37.64432990000001,0 -119.0745446,37.64470980000001,0 -119.0742373,37.64583530000001,0 -119.0739765,37.64616830000001,0 -119.0732133,37.64667980000001,0 -119.0729329,37.64720510000001,0 -119.0729804,37.64753300000001,0 -119.0735001,37.64806900000001,0 -119.0739459,37.64954920000001,0 -119.0740742,37.65085500000001,0 -119.0742172,37.65126060000001,0 -119.073675,37.65250720000002,0 -119.0737988,37.65299570000001,0 -119.0736881,37.65383910000001,0 -119.0734722,37.65424260000001,0 -119.0734337,37.65450820000001,0 -119.0724409,37.65560920000001,0 -119.0723553,37.65616690000001,0 -119.0721519,37.65652630000001,0 -119.071417,37.65902780000001,0 -119.071673,37.65998100000001,0 -119.0719333,37.6603319,0 -119.0719533,37.6605296,0 -119.0717783,37.66087150000001,0 -119.0717732,37.66125650000001,0 -119.0720187,37.661967,0 -119.0730061,37.66317780000001,0 -119.0736222,37.6645643,0 -119.0739419,37.66590100000001,0 -119.0734643,37.66701270000001,0 -119.0732446,37.6699059,0 -119.0732957,37.6700451,0 -119.0740806999999,37.6706628,0 -119.0748103,37.6720977,0 -119.0752956,37.67242030000001,0 -119.0760457,37.67268170000001,0 -119.0773137,37.673764,0 -119.0775185,37.6741112,0 -119.0778426,37.675908,0 -119.0775611,37.6765772,0 -119.0771803,37.6769821,0 -119.0771611,37.6772889,0 -119.0772674999999,37.67745859999999,0 -119.0782949,37.677909,0 -119.0785274,37.6780931,0 -119.0795026,37.6795022,0 -119.0807096,37.6803082,0 -119.0807965,37.6806785,0 -119.0806302,37.6810948,0 -119.0804596,37.68116389999999,0 -119.0799487,37.6811483,0 -119.0793282,37.68084899999999,0 -119.0792029,37.68053399999999,0 -119.0777502,37.679137,0 -119.0775976999999,37.678434,0 -119.0773927999999,37.67819719999999,0 -119.0747221999999,37.67624929999999,0 -119.0744322999999,37.67620699999999,0 -119.0726460999999,37.67526649999999,0 -119.0711524999999,37.67423649999999,0 -119.0708167999999,37.67376169999999,0 -119.0699772999999,37.67348319999999,0 -119.0697516999999,37.67325759999999,0 -119.0696658999999,37.67283909999999,0 -119.0697362999999,37.67242809999999,0 -119.0696603999999,37.67220259999999,0 -119.0693846999999,37.67186339999999,0 -119.0694133999999,37.67135799999999,0 -119.0695456999999,37.67108819999999,0 -119.0694447999999,37.6706361,0 -119.0698485999999,37.6696238,0 -119.0698111999999,37.66941019999999,0 -119.0693170999999,37.66850849999999,0 -119.0691011999999,37.6683059,0 -119.0688409999999,37.6677877,0 -119.0681243999999,37.6671061,0 -119.0678043999999,37.666645,0 -119.0674081999999,37.66649409999999,0 -119.0669919999999,37.66574549999999,0 -119.0660057999999,37.66526989999999,0 -119.0652258999999,37.66457329999999,0 -119.0639237999999,37.66149249999999,0 -119.0640366999999,37.6609132,0 -119.0644948999999,37.6602992,0 -119.0648578999999,37.6595057,0 -119.0650376999999,37.65854169999999,0 -119.0649739999999,37.657732,0 -119.0648239999999,37.6575117,0 -119.0641997999999,37.6570343,0 -119.0640217999999,37.6565115,0 -119.0637052999999,37.6560416,0 -119.0627829999999,37.6537419,0 -119.0622957999999,37.6533416,0 -119.0620041999999,37.6532386,0 -119.0600992999999,37.6531819,0 -119.0588817999999,37.6535595,0 -119.0586160999999,37.65385190000001,0 -119.0582267999999,37.65401490000001,0 -119.0578179999999,37.6539824,0 -119.0567408999999,37.6534339,0 -119.0552506999999,37.65339030000001,0 -119.0544754999999,37.65313500000001,0 -119.0540607999999,37.65279510000001,0 -119.0535335999999,37.65206890000001,0 -119.0532626999999,37.65192620000001,0 -119.0517727999999,37.65169020000001,0 -119.0486635999999,37.65044360000001,0 -119.0481404999999,37.6503939,0 -119.0478598999999,37.65048700000001,0 -119.0468669999999,37.65122300000002,0 -119.0465730999999,37.65130880000002,0 -119.0428735999999,37.65069650000001,0 -119.0417494999999,37.65076680000001,0 -119.0402205999999,37.65032070000002,0 -119.0390935999999,37.65030390000001,0 -119.0386494999999,37.65038840000001,0 -119.0378785999999,37.65069560000001,0 -119.0364051999999,37.65159610000001,0 -119.0341675999999,37.65378760000001,0 -119.0312205,37.65471480000001,0 -119.0305279,37.65472360000001,0 -119.0291063999999,37.65434540000001,0 -119.0287712999999,37.65415110000001,0 -119.0274656999999,37.65262350000001,0 -119.0268344999999,37.65219220000001,0 -119.0250274,37.65151220000001,0 -119.0222250999999,37.64997930000001,0 -119.0213965,37.64983110000001,0 -119.0162918999999,37.64956730000001,0 -119.0156593999999,37.64941070000001,0 -119.0146887,37.64890660000001,0 -119.0137743,37.64866360000001,0 -119.0131650999999,37.64862370000001,0 -119.0126789999999,37.64868750000002,0 -119.0120278999999,37.64890460000001,0 -119.0114882999999,37.64925500000001,0 -119.0102493999999,37.65063470000001,0 -119.0098309999999,37.65079170000001,0 -119.0074139999999,37.6507835,0 -119.0056177,37.6512755,0 -119.0050403999999,37.65124990000001,0 -119.0038422999999,37.6504298,0 -119.0035247,37.6503488,0 -119.0030343,37.65044200000001,0 -119.0010583,37.6514875,0 -119.000748,37.6514814,0 -119.0004225,37.6513356,0 -118.9993608999999,37.6501436,0 -118.9990689999999,37.6500118,0 -118.9983171999999,37.6498902,0 -118.9977208999999,37.6500741,0 -118.9970969999999,37.65075349999999,0 -118.9970162999999,37.65165699999999,0 -118.9965681999999,37.65250039999999,0 -118.9963093999999,37.65275309999999,0 -118.9948052,37.65352219999999,0 -118.9947060999999,37.65369939999999,0 -118.9947007999999,37.6538905,0 -118.9948022999999,37.654137,0 -118.9950045,37.6543066,0 -118.9959441,37.654462,0 -118.9961465,37.65455679999999,0 -118.9963354,37.65483649999999,0 -118.9963022,37.6552659,0 -118.9960502,37.6556494,0 -118.9957794,37.6558063,0 -118.9944082,37.655851,0 -118.9931441999999,37.6562029,0 -118.9927502,37.656167,0 -118.9925353,37.6560448,0 -118.9918791999999,37.6549849,0 -118.9911381999999,37.6542011,0 -118.9908251,37.6540171,0 -118.9888249,37.6537769,0 -118.9866675,37.6539195,0 -118.985736,37.6536544,0 -118.9851901,37.6532714,0 -118.984979,37.6527898,0 -118.9849674,37.6514788,0 -118.9845438,37.6502725,0 -118.9833821,37.6494188,0 -118.9833019,37.6492908,0 -118.9831678,37.64839670000001,0 -118.976719,37.6487995,0 -118.9735933,37.6484956,0 -118.9657007,37.64683530000001,0 -118.9633935,37.6466003,0 -118.9568179,37.6465465,0 -118.9542680999999,37.64622490000001,0 -118.9501227999999,37.64494920000001,0 -118.9385875999999,37.64001260000001,0 -118.9367026999999,37.6396018,0 -118.9303473999999,37.6395867,0 -118.9301272999999,37.639651,0 -118.9244623999999,37.6397062,0 -118.9184382999999,37.6408942,0 -118.9176937999999,37.6408387,0 -118.9114242999999,37.6388322,0 -118.8889584999999,37.63582939999999,0 -118.8861935999999,37.63528149999999,0 -118.8140148999999,37.6157456,0 -118.8126958999999,37.6151671,0 -118.8113369999999,37.61425259999999,0 -118.8102483999999,37.61314349999999,0 -118.8045292999999,37.6038131,0 -118.7928698999999,37.5921718,0 -118.7898024999999,37.5900852,0 -118.7665548999999,37.5798265,0 -118.7551075999999,37.5756634,0 -118.7407788999999,37.57331419999999,0 -118.7386069999999,37.57324239999999,0 -118.7216964999999,37.57504849999999,0 -118.7202314999999,37.57496509999999,0 -118.7182785999999,37.57460149999999,0 -118.7167421999999,37.57405989999999,0 -118.7132918999999,37.57224849999999,0 -118.7117904999999,37.57172019999999,0 -118.7104139999999,37.57145329999999,0 -118.7089569999999,37.57137329999999,0 -118.7012079999999,37.57196809999999,0 -118.6997104999999,37.57190749999998,0 -118.6977522999999,37.57154919999999,0 -118.6962950999999,37.57105549999999,0 -118.6944746999999,37.57010849999999,0 -118.6883906999999,37.56575739999999,0 -118.6869235999999,37.56508179999999,0 -118.6765340999999,37.56156369999999,0 -118.6732559999999,37.56088179999998,0 -118.6666727999999,37.56030079999999,0 -118.6645498999999,37.55990869999998,0 -118.6633209999999,37.55949409999998,0 -118.6612760999999,37.55830039999998,0 -118.6602685999999,37.55786929999998,0 -118.6594589999999,37.55768759999998,0 -118.6582177999999,37.55762919999998,0 -118.6555736999999,37.55796919999999,0 -118.6543390999999,37.55791309999998,0 -118.6532874999999,37.55763909999998,0 -118.6411435999999,37.55112259999999,0 -118.6403650999999,37.55042679999998,0 -118.6397076999999,37.54946819999998,0 -118.6393608999999,37.54835099999998,0 -118.6400077999998,37.54099519999998,0 -118.6398796999999,37.53993509999998,0 -118.6390767999999,37.53782619999998,0 -118.6377060999999,37.53614429999998,0 -118.6208445999999,37.52365129999998,0 -118.6187293999999,37.52239109999999,0 -118.6156594999999,37.52106759999999,0 -118.6114126999998,37.51999889999998,0 -118.5971981999999,37.51839459999999,0 -118.5941838999998,37.51764289999998,0 -118.5922450999998,37.51689159999999,0 -118.5897536999998,37.51550659999999,0 -118.5875959999998,37.51379809999999,0 -118.5855102999998,37.51129729999998,0 -118.5841556999998,37.50850429999998,0 -118.5837310999998,37.50676219999998,0 -118.5809531999998,37.46898629999998,0 -118.5801286999998,37.46613539999998,0 -118.5732747999998,37.45081809999998,0 -118.5727412999998,37.44899269999998,0 -118.5723057999998,37.44352709999998,0 -118.5719536999998,37.44207029999998,0 -118.5709026999998,37.43965909999998,0 -118.5698247999998,37.43804359999998,0 -118.5602375999999,37.42665999999998,0 -118.5568835999998,37.42177569999998,0 -118.5513982999998,37.41159029999999,0 -118.5491206999998,37.40904189999998,0 -118.5475679999998,37.40781719999998,0 -118.5450250999998,37.40634709999998,0 -118.4778749999998,37.38094999999998,0 -118.4776410999998,37.38069099999998,0 -118.4775414999998,37.35728619999998,0 -118.4760003999998,37.35306479999997,0 -118.4741027999998,37.34604959999997,0 -118.4776862999998,37.34324839999997,0 -118.4794071999998,37.34238199999997,0 -118.4806643999998,37.34208579999997,0 -118.5060244999998,37.33964299999997,0 -118.5082210999998,37.33900999999997,0 -118.5233767999998,37.33175019999996,0 -118.5241868999998,37.33111679999996,0 -118.5245113999998,37.33065119999996,0 -118.5247475999998,37.32979589999996,0 -118.5246802999998,37.32917469999995,0 -118.5243065999998,37.32842469999996,0 -118.5237804999998,37.32789569999996,0 -118.5233380999998,37.32761759999995,0 -118.5224926999998,37.32731359999995,0 -118.5218537999998,37.32722999999996,0 -118.5210352999998,37.32727769999995,0 -118.5183977999998,37.32782389999996,0 -118.5176997999997,37.32782389999996,0 -118.5166146999998,37.32762589999995,0 -118.5160817999998,37.32743389999995,0 -118.5149140999998,37.32668439999996,0 -118.5143724999998,37.32603569999995,0 -118.5139483999998,37.32487169999995,0 -118.5139889999998,37.32397159999995,0 -118.5187520999998,37.31446779999995,0 -118.5194337999998,37.31366109999995,0 -118.5277561999998,37.30749619999995,0 -118.5291559999998,37.30541009999995,0 -118.5315787999998,37.30314149999995,0 -118.5322005999998,37.30272619999995,0 -118.5453207999998,37.29686829999995,0 -118.5533573999998,37.29245029999995,0 -118.5738522999998,37.27574489999995,0 -118.5745775999998,37.27499429999995,0 -118.5802174999997,37.26482999999995,0 -118.5805732999998,37.26356199999995,0 -118.5805459999998,37.26259949999994,0 -118.5796747999998,37.25825909999995,0 -118.5797816999997,37.25709449999994,0 -118.5802638999997,37.25564489999995,0 -118.5812704999997,37.25391979999995,0 -118.5815618999997,37.25309979999995,0 -118.5814411999997,37.25087109999996,0 -118.5815205999997,37.25047859999995,0 -118.5817688999997,37.25001019999996,0 -118.5822324999998,37.24956079999996,0 -118.5825740999998,37.24935579999995,0 -118.5832681999998,37.24912469999995,0 -118.5875205999998,37.24869089999995,0 -118.5888926999998,37.24822719999995,0 -118.5962949999998,37.24299249999995,0 -118.5967867999998,37.24236159999995,0 -118.5971603999998,37.24148019999995,0 -118.5972245999998,37.23247249999995,0 -118.5974022999998,37.23192729999995,0 -118.5992237999998,37.22912589999995,0 -118.6010510999998,37.22558649999995,0 -118.6047647999998,37.22145519999994,0 -118.6050644999997,37.22151279999995,0 -118.6055976999997,37.22129869999996,0 -118.6056684999997,37.22131289999995,0 -118.6057043999998,37.22135839999996,0 -118.6067191999997,37.22150609999996,0 -118.6087110999997,37.22132559999995,0 -118.6089506999997,37.22117679999995,0 -118.6091468999997,37.22117699999995,0 -118.6092469999997,37.22129899999995,0 -118.6092639999997,37.22151199999995,0 -118.6092299999997,37.22156419999995,0 -118.6086602999997,37.22174489999995,0 -118.6084777999997,37.22188479999995,0 -118.6083472999997,37.22233539999995,0 -118.6085302999998,37.22244329999995,0 -118.6089257999998,37.22237109999995,0 -118.6090118999998,37.22245729999995,0 -118.6082975999998,37.22371649999995,0 -118.6084233999998,37.22441699999995,0 -118.6082647999998,37.22569379999996,0 -118.6079883999998,37.22631509999996,0 -118.6080527999998,37.22666529999996,0 -118.6096146999998,37.22929649999995,0 -118.6097444999998,37.22932449999995,0 -118.6099509999998,37.22927959999996,0 -118.6108789999997,37.22967689999995,0 -118.6118549999997,37.23042609999995,0 
			</coordinates>
			<tesselate>1</tesselate>
		</LineString>
	</Placemark>
	<Placemark>
		<name>North Lake</name>
		<address>California 93514</address>
		<description>Lake from 2021-10-16T18:32:02.999Z to 2021-10-16T18:50:57.174Z. Distance 0m</description>
		<TimeSpan>
			<begin>2021-10-16T18:32:02.999Z</begin>
			<end>2021-10-16T18:50:57.174Z</end>
		</TimeSpan>
		<ExtendedData>
			<Data name="Email">
				<value>syugen.zhou@gmail.com</value>
			</Data>
			<Data name="Category">
				<value>Lake</value>
			</Data>
			<Data name="Distance">
				<value>0</value>
			</Data>
		</ExtendedData>
		<Point>
			<coordinates>-118.6144454,37.231593,0</coordinates>
		</Point>
	</Placemark>
	<Placemark>
		<name>Driving</name>
		<description>Driving from 2021-10-16T18:50:57.174Z to 2021-10-16T20:11:47.001Z. Distance 103670m</description>
		<TimeSpan>
			<begin>2021-10-16T18:50:57.174Z</begin>
			<end>2021-10-16T20:11:47.001Z</end>
		</TimeSpan>
		<ExtendedData>
			<Data name="Email">
				<value>syugen.zhou@gmail.com</value>
			</Data>
			<Data name="Category">
				<value>Driving</value>
			</Data>
			<Data name="Distance">
				<value>103670</value>
			</Data>
		</ExtendedData>
		<LineString>
			<extrude>1</extrude>
			<coordinates>
				-118.6121572,37.2306041,0 -118.612093,37.23054980000001,0 -118.6116727,37.2303232,0 -118.610879,37.2296769,0 -118.6107031,37.2296101,0 -118.6103121,37.2294081,0 -118.6100408,37.22929850000001,0 -118.609951,37.22927960000001,0 -118.6098904,37.2292821,0 -118.6098084,37.229299,0 -118.6097445,37.2293245,0 -118.6096636,37.2293194,0 -118.6096147,37.2292965,0 -118.6095881000001,37.2292668,0 -118.6092170000001,37.22851600000001,0 -118.6080997000001,37.22677,0 -118.6080528,37.2266653,0 -118.6079884,37.2263952,0 -118.6079884,37.22631509999999,0 -118.6080313000001,37.22616559999999,0 -118.6082006,37.2258553,0 -118.6082648,37.22569379999999,0 -118.6082817,37.2253104,0 -118.6084266,37.2248403,0 -118.6084419,37.2245832,0 -118.6084234,37.224417,0 -118.6083213,37.2241406,0 -118.6082914,37.22391749999999,0 -118.6082976,37.22371649999999,0 -118.6083588,37.22359699999999,0 -118.6085041,37.2234247,0 -118.608686,37.22315089999999,0 -118.6088178,37.22283029999999,0 -118.6090041,37.2225042,0 -118.6090119,37.22245729999999,0 -118.6089888,37.2224082,0 -118.6089258,37.2223711,0 -118.6088598,37.222369,0 -118.6086197,37.2224357,0 -118.6085303,37.22244329999999,0 -118.6084454,37.22241699999999,0 -118.6083473,37.22233539999999,0 -118.6083452,37.22222689999999,0 -118.6084778,37.22188479999999,0 -118.6085488,37.22180809999999,0 -118.6086603,37.22174489999999,0 -118.6089171,37.22166149999999,0 -118.6090827,37.22163859999999,0 -118.60923,37.22156419999999,0 -118.609264,37.22151199999999,0 -118.6092649,37.22138189999999,0 -118.609247,37.22129899999999,0 -118.6091909,37.22121219999999,0 -118.6091469,37.22117699999999,0 -118.6090486,37.22116089999999,0 -118.6089507,37.22117679999999,0 -118.6087111,37.2213256,0 -118.6085494,37.2213693,0 -118.6083136,37.2213708,0 -118.6067192,37.2215061,0 -118.6058658,37.2214051,0 -118.6057044,37.2213584,0 -118.6056685,37.22131289999999,0 -118.6055977,37.2212987,0 -118.605539,37.22131289999999,0 -118.6053808,37.2213791,0 -118.6052878,37.2214552,0 -118.6050645,37.2215128,0 -118.6049994,37.22151270000001,0 -118.6047648,37.22145520000001,0 -118.6044827,37.2217915,0 -118.6029395,37.2233215,0 -118.6010511,37.22558650000001,0 -118.6005164,37.22646460000001,0 -118.5995361,37.22856410000001,0 -118.5992238,37.22912590000001,0 -118.5975438999999,37.23165290000001,0 -118.5974022999999,37.2319273,0 -118.5972245999999,37.23247250000001,0 -118.5971855,37.2327775,0 -118.5972138,37.2410756,0 -118.5971604,37.2414802,0 -118.5970897999999,37.2417319,0 -118.5969885999999,37.2419838,0 -118.5967868,37.2423616,0 -118.5964666,37.2428007,0 -118.596295,37.24299249999999,0 -118.5958314,37.24339299999999,0 -118.5914157,37.24648139999999,0 -118.5912251,37.2465923,0 -118.589052,37.24813399999999,0 -118.5888927,37.2482272,0 -118.5881523,37.2485392,0 -118.5877796,37.2486419,0 -118.5875205999999,37.2486909,0 -118.5832681999999,37.2491247,0 -118.582871,37.2492323,0 -118.5825740999999,37.2493558,0 -118.5822324999999,37.2495608,0 -118.5820043999999,37.2497473,0 -118.5817688999999,37.2500102,0 -118.5816226999999,37.2502422,0 -118.5815205999999,37.25047860000001,0 -118.5814411999999,37.2508711,0 -118.5814389999999,37.25109430000001,0 -118.5815962999999,37.25257610000001,0 -118.5815619,37.2530998,0 -118.5814188999999,37.2535837,0 -118.5812704999999,37.2539198,0 -118.5805007,37.2551924,0 -118.5802638999999,37.2556449,0 -118.5800049999999,37.25626,0 -118.5797816999999,37.2570945,0 -118.5796919999999,37.257798,0 -118.5796747999999,37.2582591,0 -118.5797357999999,37.2590263,0 -118.5805459999999,37.2625995,0 -118.5805864999999,37.2630172,0 -118.5805732999999,37.26356200000001,0 -118.5805140999999,37.26393160000001,0 -118.5803590999999,37.26448120000001,0 -118.5802174999999,37.26483,0 -118.5749910999999,37.27441530000001,0 -118.5745775999999,37.2749943,0 -118.5742593999999,37.2753591,0 -118.5738522999999,37.2757449,0 -118.5533573999999,37.2924503,0 -118.5527762999999,37.2928207,0 -118.5453207999999,37.2968683,0 -118.5443838999999,37.2972984,0 -118.5436191999999,37.29758089999999,0 -118.5382685999999,37.29980389999999,0 -118.5325174999999,37.30255349999999,0 -118.5322005999999,37.30272619999999,0 -118.5315787999999,37.30314149999999,0 -118.5297556999999,37.30474429999999,0 -118.5294396999999,37.30506809999999,0 -118.5291559999999,37.30541009999999,0 -118.5281450999999,37.30698949999999,0 -118.5277561999999,37.30749619999999,0 -118.5275536999999,37.30770639999999,0 -118.5272002999999,37.30801299999999,0 -118.5198047999999,37.31334819999999,0 -118.5194337999999,37.31366109999998,0 -118.5190249999999,37.31409439999999,0 -118.5187521,37.31446779999998,0 -118.5185797999999,37.31475639999998,0 -118.5141268999999,37.32352319999998,0 -118.513989,37.32397159999999,0 -118.5139299,37.32447129999998,0 -118.5139484,37.32487169999998,0 -118.5140237,37.32526729999998,0 -118.5141173999999,37.32553749999998,0 -118.5143725,37.32603569999998,0 -118.5146046,37.32635619999999,0 -118.5149140999999,37.32668439999998,0 -118.5153186,37.32700949999998,0 -118.5156481,37.32721869999998,0 -118.5160817999999,37.32743389999998,0 -118.5166146999999,37.32762589999999,0 -118.5172662999999,37.32777419999999,0 -118.5176997999999,37.32782389999998,0 -118.5183977999999,37.32782389999998,0 -118.5190228999999,37.32773969999999,0 -118.5210353,37.32727769999999,0 -118.5213582,37.32723679999999,0 -118.5218538,37.32722999999999,0 -118.5221747,37.32725719999999,0 -118.5224927,37.32731359999999,0 -118.5228513,37.32741619999999,0 -118.5233381,37.32761759999999,0 -118.5237805,37.32789569999999,0 -118.5241628,37.32825509999999,0 -118.5243066,37.32842469999999,0 -118.5245465,37.32882899999999,0 -118.5246803,37.3291747,0 -118.5247412,37.32951549999999,0 -118.5247476,37.32979589999999,0 -118.5246782999999,37.33022189999999,0 -118.5245113999999,37.33065119999998,0 -118.5243587999999,37.33090289999998,0 -118.5241868999999,37.33111679999999,0 -118.5238127,37.33146589999998,0 -118.5233768,37.33175019999998,0 -118.5082210999999,37.33900999999999,0 -118.5078745999999,37.33914899999998,0 -118.507015,37.33942669999998,0 -118.5060244999999,37.33964299999999,0 -118.5054514999999,37.33972439999999,0 -118.4806643999999,37.34208579999999,0 -118.4798180999999,37.34226029999999,0 -118.4794071999999,37.34238199999999,0 -118.4785487999999,37.34273489999999,0 -118.4779583999999,37.34306669999999,0 -118.4776862999999,37.34324839999999,0 -118.4640082999999,37.35389899999999,0 -118.4636926999999,37.35420119999999,0 -118.4622472999999,37.35586289999999,0 -118.4616090999999,37.35651669999999,0 -118.4594002999999,37.35839499999999,0 -118.4587467999999,37.35887509999999,0 -118.4576753999999,37.35952789999999,0 -118.4568381999999,37.35994769999999,0 -118.4553536999999,37.36052259999999,0 -118.4539155999999,37.36091059999999,0 -118.4530812999999,37.36106099999999,0 -118.4520583999999,37.36118109999999,0 -118.4507919999999,37.36122999999999,0 -118.4399198999999,37.36131169999999,0 -118.4348309999998,37.36126929999999,0 -118.4312716999998,37.36139289999999,0 -118.4230001999999,37.36130319999999,0 -118.4047361999998,37.36134939999999,0 -118.4045006999999,37.3467448,0 -118.3951571999998,37.3468394,0 -118.3950471999998,37.3408209,0 -118.3950897999999,37.3334313,0 -118.3950600999999,37.3331574,0 -118.3949508999998,37.332641,0 -118.3948218999998,37.332226,0 -118.3916552999999,37.3258505,0 -118.3756083999998,37.2950206,0 -118.3751068999998,37.2938951,0 -118.3746865999998,37.2926234,0 -118.3743560999998,37.29105570000001,0 -118.3731898999998,37.2827382,0 -118.3729714999998,37.2818341,0 -118.3726277999998,37.28083560000001,0 -118.3722969999998,37.28008040000001,0 -118.3467157999999,37.23084130000001,0 -118.3461667999998,37.23000950000001,0 -118.3457051999999,37.22945110000001,0 -118.3420089999998,37.22571950000001,0 -118.3419300999998,37.22562170000001,0 -118.2907824999999,37.17400800000001,0 -118.2906244999999,37.17381890000001,0 -118.2902397999999,37.17325440000001,0 -118.2901095999999,37.17313090000001,0 -118.2898395999999,37.17252590000001,0 -118.2896874999999,37.17203480000001,0 -118.2895796999999,37.17127290000001,0 -118.2894239999998,37.15722780000002,0 -118.2893845999999,37.15681760000001,0 -118.2893184999999,37.15650180000002,0 -118.2891400999999,37.15599130000001,0 -118.2888162999999,37.15537520000002,0 -118.2885585999999,37.15502980000002,0 -118.2850197999998,37.15109720000001,0 -118.2849133999999,37.15090270000001,0 -118.2840375999998,37.14986710000001,0 -118.2792729999999,37.14309190000002,0 -118.2553201999998,37.11041350000001,0 -118.2546607999998,37.10932960000001,0 -118.2539263999998,37.10782850000002,0 -118.2533900999998,37.10634410000002,0 -118.2430588999998,37.07417600000002,0 -118.2413835999998,37.06959270000002,0 -118.2398665999998,37.06503070000002,0 -118.2378891999998,37.05959840000001,0 -118.2376209999998,37.05902020000002,0 -118.2370711999998,37.05819200000002,0 -118.2352649999998,37.05626110000002,0 -118.2349887999998,37.05591100000002,0 -118.2346710999998,37.05541840000002,0 -118.2344352999998,37.05495660000002,0 -118.2341410999999,37.05413650000002,0 -118.2340531999999,37.05360420000002,0 -118.2332541999999,37.04590060000002,0 -118.2330642999999,37.04309830000003,0 -118.2311732999999,37.02595420000002,0 -118.2311474999999,37.02490890000002,0 -118.2342133999999,36.98949790000002,0 -118.2343877999999,36.98825880000003,0 -118.2401403999999,36.96077390000003,0 -118.2402747999999,36.95959610000003,0 -118.2421905999999,36.89205040000002,0 -118.2421214999999,36.89056910000003,0 -118.2419450999999,36.88949510000003,0 -118.2341864999999,36.85782650000003,0 -118.2327066999999,36.85289810000003,0 -118.2286321999999,36.83635050000003,0 -118.2284097999999,36.83580640000003,0 -118.2281629999999,36.83537140000003,0 -118.2275602999999,36.83457510000003,0 -118.2213729999999,36.82723630000003,0 -118.2203831999999,36.82624600000003,0 -118.2078791999999,36.81471340000002,0 -118.2067151999999,36.81347370000003,0 -118.2066136999999,36.81343360000003,0 -118.2061478999999,36.81277800000003,0 -118.2023505999999,36.80672710000003,0 -118.2019962999999,36.80622260000003,0 -118.1963870999999,36.79724170000004,0 -118.1948775999999,36.79510840000004,0 -118.1935465999999,36.79344890000004,0 -118.1935412999999,36.79334700000004,0 -118.1935236999999,36.79328820000004,0 -118.1672021999999,36.75766450000005,0 -118.1668719999999,36.75716450000004,0 -118.1555144999999,36.74175910000005,0 -118.1546940999999,36.74077150000004,0 -118.1528225999999,36.73893190000004,0 -118.1520088999999,36.73802810000004,0 -118.1494471999999,36.73457130000005,0 -118.1500138999999,36.73431600000004,0 -118.1458548999999,36.72866470000005,0 -118.1463860999999,36.72841570000005,0 -118.1464199999999,36.72836240000004,0 -118.1464304999999,36.72830750000005,0 -118.1464222999999,36.72824540000005,0 -118.1463832999999,36.72817950000005,0 -118.1463787999999,36.72812480000005,0 -118.1464004999999,36.72808400000005,0 -118.1464513999999,36.72804970000004,0 -118.1473164999999,36.72763500000004,0 -118.1473781999999,36.72762650000004,0 -118.1474025999999,36.72762910000004,0 -118.1474339999999,36.72764300000004,0 -118.1474708999999,36.72767790000005,0 -118.1475344999999,36.72776910000005,0 
			</coordinates>
			<tesselate>1</tesselate>
		</LineString>
	</Placemark>
	<Placemark>
		<name>Manzanar National Historic Site Visitor Center</name>
		<address>5001 US-395, Independence, CA 93526</address>
		<description>Visitor center from 2021-10-16T20:11:47.001Z to 2021-10-16T20:43:22.000Z. Distance 0m</description>
		<TimeSpan>
			<begin>2021-10-16T20:11:47.001Z</begin>
			<end>2021-10-16T20:43:22Z</end>
		</TimeSpan>
		<ExtendedData>
			<Data name="Email">
				<value>syugen.zhou@gmail.com</value>
			</Data>
			<Data name="Category">
				<value>Visitor center</value>
			</Data>
			<Data name="Distance">
				<value>0</value>
			</Data>
		</ExtendedData>
		<Point>
			<coordinates>-118.1482222,36.7276139,0</coordinates>
		</Point>
	</Placemark>
	<Placemark>
		<name>Furnace Creek Visitor Center</name>
		<address>Furnace Creek, CA 92328</address>
		<description>Visitor center from 2021-10-16T22:46:53.000Z to 2021-10-16T22:58:24.000Z. Distance 0m</description>
		<TimeSpan>
			<begin>2021-10-16T22:46:53Z</begin>
			<end>2021-10-16T22:58:24Z</end>
		</TimeSpan>
		<ExtendedData>
			<Data name="Email">
				<value>syugen.zhou@gmail.com</value>
			</Data>
			<Data name="Category">
				<value>Visitor center</value>
			</Data>
			<Data name="Distance">
				<value>0</value>
			</Data>
		</ExtendedData>
		<Point>
			<coordinates>-116.8666117,36.4617545,0</coordinates>
		</Point>
	</Placemark>
	<Placemark>
		<name>Driving</name>
		<description>Driving from 2021-10-16T22:58:24.000Z to 2021-10-16T23:20:04.000Z. Distance 35180m</description>
		<TimeSpan>
			<begin>2021-10-16T22:58:24Z</begin>
			<end>2021-10-16T23:20:04Z</end>
		</TimeSpan>
		<ExtendedData>
			<Data name="Email">
				<value>syugen.zhou@gmail.com</value>
			</Data>
			<Data name="Category">
				<value>Driving</value>
			</Data>
			<Data name="Distance">
				<value>35180</value>
			</Data>
		</ExtendedData>
		<LineString>
			<extrude>1</extrude>
			<coordinates>
				-116.8666524,36.4613431,0 -116.867442,36.4617643,0 -116.8675632,36.4617195,0 -116.8675214,36.4615534,0 -116.8671491,36.4612447,0 -116.8665803,36.4610773,0 -116.8660302,36.4610941,0 -116.8660569,36.4608413,0 -116.8654609,36.4608459,0 -116.8656334,36.4647046,0 -116.8668692,36.4680603,0 -116.8670669,36.4707438,0 -116.8687264,36.4788884,0 -116.8690669000001,36.4795723,0 -116.8711404000001,36.4817898,0 -116.8713245,36.4822391,0 -116.8713377,36.4832619,0 -116.8710876,36.4837627,0 -116.8688064,36.4862277,0 -116.8684623,36.4870053,0 -116.8684561,36.4875704,0 -116.8689935,36.48909080000001,0 -116.8742216,36.4962668,0 -116.8749425,36.497669,0 -116.8752375,36.4987934,0 -116.8754507,36.5018706,0 -116.8757978,36.50287360000001,0 -116.8777053,36.50557270000001,0 -116.880986,36.51142660000001,0 -116.8818696,36.51400360000001,0 -116.8819173,36.51472020000001,0 -116.8813973,36.5178653,0 -116.8814391,36.51884110000001,0 -116.8824985,36.52297780000001,0 -116.8828973,36.5266207,0 -116.8825892,36.5318472,0 -116.8857613,36.5425341,0 -116.8865303,36.54366940000001,0 -116.88956,36.5466832,0 -116.8918807,36.55020340000001,0 -116.8928165,36.55403060000001,0 -116.8941636,36.55647270000001,0 -116.8948109,36.55708690000001,0 -116.8956767,36.55761880000001,0 -116.8997661,36.55918430000001,0 -116.9046476,36.5615817,0 -116.905718,36.56231040000001,0 -116.9077071,36.56435770000001,0 -116.9079869,36.56479050000001,0 -116.9089306,36.5672764,0 -116.9097621,36.56848650000001,0 -116.9116465,36.56996580000001,0 -116.9143509,36.5709732,0 -116.9168416,36.572392,0 -116.9225616,36.57403530000001,0 -116.9270996,36.57599320000001,0 -116.9290289,36.5773185,0 -116.9327546,36.5814352,0 -116.9351226,36.5834655,0 -116.9362911,36.5842003,0 -116.9392238,36.5855852,0 -116.942372,36.5876942,0 -116.9462643,36.5887151,0 -116.9505153,36.5902368,0 -116.9540568,36.5922191,0 -116.9657072,36.5949104,0 -116.9699717,36.596585,0 -116.9716338,36.5974854,0 -116.9751413,36.5998852,0 -116.9800399,36.6043218,0 -117.0060029,36.6249757,0 -117.0074118,36.625641,0 -117.0124848,36.62693230000001,0 -117.0162523,36.62851870000001,0 -117.0235299,36.6333989,0 -117.0252846,36.6349793,0 -117.0286835,36.6387125,0 -117.0295913,36.63933900000001,0 -117.0304083,36.63969350000001,0 -117.031523,36.63996480000001,0 -117.0332512,36.64001180000001,0 -117.0342894,36.63982070000001,0 -117.0355968,36.63932420000001,0 -117.0677628,36.61790140000002,0 -117.0750306,36.61499580000002,0 -117.0793742,36.61214900000001,0 -117.080904,36.61178820000001,0 -117.0824504,36.61108120000001,0 -117.0936812,36.60203700000001,0 -117.0951206,36.60137960000001,0 -117.0962876,36.60117420000001,0 -117.0973193,36.601195,0 -117.0982556,36.6013573,0 -117.1032771,36.60356120000001,0 -117.1057979,36.60440880000001,0 -117.1103879,36.6053034,0 -117.1137621,36.60551330000001,0 -117.1138072,36.60591650000001,0 -117.1140593,36.6061534,0 -117.1143115,36.6062007,0 
			</coordinates>
			<tesselate>1</tesselate>
		</LineString>
	</Placemark>
	<Placemark>
		<name>Mesquite Flat Sand Dunes</name>
		<address>DEATH VALLEY, CA 92328</address>
		<description>Scenic spot from 2021-10-16T23:20:04.000Z to 2021-10-17T00:17:57.000Z. Distance 0m</description>
		<TimeSpan>
			<begin>2021-10-16T23:20:04Z</begin>
			<end>2021-10-17T00:17:57Z</end>
		</TimeSpan>
		<ExtendedData>
			<Data name="Email">
				<value>syugen.zhou@gmail.com</value>
			</Data>
			<Data name="Category">
				<value>Scenic spot</value>
			</Data>
			<Data name="Distance">
				<value>0</value>
			</Data>
		</ExtendedData>
		<Point>
			<coordinates>-117.1131444,36.6151215,0</coordinates>
		</Point>
	</Placemark>
	<Placemark>
		<name>Homewood Suites by Hilton Bakersfield</name>
		<address>1505 Mill Rock Way, Bakersfield, CA 93311</address>
		<description>Extended stay hotel from 2021-10-17T03:36:01.000Z to 2021-10-17T16:50:00.073Z. Distance 0m</description>
		<TimeSpan>
			<begin>2021-10-17T03:36:01Z</begin>
			<end>2021-10-17T16:50:00.073Z</end>
		</TimeSpan>
		<ExtendedData>
			<Data name="Email">
				<value>syugen.zhou@gmail.com</value>
			</Data>
			<Data name="Category">
				<value>Extended stay hotel</value>
			</Data>
			<Data name="Distance">
				<value>0</value>
			</Data>
		</ExtendedData>
		<Point>
			<coordinates>-119.0985584,35.3417095,0</coordinates>
		</Point>
	</Placemark>
</Document>
</kml>
