<?xml version="1.0" encoding="UTF-8"?><kml xmlns="http://www.opengis.net/kml/2.2" xmlns:gx="http://www.google.com/kml/ext/2.2"><Document><name> Location history from 2021-10-15 to 2021-10-15 </name><open>1</open><description></description><StyleMap id="multiTrack"><Pair><key>normal</key><styleUrl>#multiTrack_n</styleUrl></Pair><Pair><key>highlight</key><styleUrl>#multiTrack_h</styleUrl></Pair></StyleMap><Style id="multiTrack_n"><IconStyle><Icon><href>https://earth.google.com/images/kml-icons/track-directional/track-0.png</href></Icon></IconStyle><LineStyle><color>99ffac59</color><width>6</width></LineStyle></Style><Style id="multiTrack_h"><IconStyle><scale>1.2</scale><Icon><href>https://earth.google.com/images/kml-icons/track-directional/track-0.png</href></Icon></IconStyle><LineStyle><color>99ffac59</color><width>8</width></LineStyle></Style><Placemark><name>430 Station Park Cir</name><address>430 Station Park Cir, San Mateo, CA 94402</address><ExtendedData><Data name="Email"><value>syugen.zhou@gmail.com</value></Data><Data name="Category"><value></value></Data><Data name="Distance"><value>0</value></Data></ExtendedData><description>  from 2021-10-15T00:04:55.340Z to 2021-10-15T20:19:34.417Z. Distance 0m </description><Point><coordinates>-122.3074042,37.5543082,0</coordinates></Point><TimeSpan><begin>2021-10-15T00:04:55.340Z</begin><end>2021-10-15T20:19:34.417Z</end></TimeSpan></Placemark><Placemark><name>Driving</name><address></address><ExtendedData><Data name="Email"><value>syugen.zhou@gmail.com</value></Data><Data name="Category"><value>Driving</value></Data><Data name="Distance"><value>3539</value></Data></ExtendedData><description> Driving from 2021-10-15T20:19:34.417Z to 2021-10-15T20:23:48.449Z. Distance 3539m </description><LineString><altitudeMode>clampToGround</altitudeMode><extrude>1</extrude><tesselate>1</tesselate><coordinates>-122.30755699999999,37.5541185,0 -122.30723769999997,37.5538138,0 -122.30722029999997,37.5536844,0 -122.30713649999996,37.5537342,0 -122.30676479999995,37.5539464,0 -122.30611569999996,37.5543276,0 -122.30580669999996,37.553987500000005,0 -122.30574949999998,37.553904200000005,0 -122.30562949999998,37.5536589,0 -122.305539,37.553442700000005,0 -122.3054711,37.55325640000001,0 -122.30544130000001,37.55315160000001,0 -122.30535830000001,37.552828100000006,0 -122.30532070000001,37.55264360000001,0 -122.305283,37.552389800000014,0 -122.305262,37.552143000000015,0 -122.3048939,37.55222250000001,0 -122.30480789999999,37.552239000000014,0 -122.30466669999998,37.552259800000016,0 -122.3045588,37.552273600000014,0 -122.3041396,37.55231720000001,0 -122.30351249999998,37.55236580000001,0 -122.30311249999998,37.55239070000001,0 -122.30266949999998,37.55243020000001,0 -122.30265809999997,37.55243230000001,0 -122.30251509999997,37.55248670000001,0 -122.30197629999996,37.55249640000001,0 -122.30086829999996,37.55252630000001,0 -122.29999689999997,37.552560600000014,0 -122.29959999999997,37.55258180000001,0 -122.29891569999997,37.55263930000002,0 -122.29833739999998,37.55269390000001,0 -122.29813859999997,37.552715600000006,0 -122.29776029999996,37.55275070000001,0 -122.29739139999995,37.55279320000002,0 -122.29645039999996,37.55291440000001,0 -122.29608399999996,37.55297300000001,0 -122.29596719999995,37.55298980000001,0 -122.29526019999996,37.553106100000015,0 -122.29489539999996,37.55317210000001,0 -122.29442079999995,37.55326740000002,0 -122.29417979999994,37.553311600000015,0 -122.29381669999994,37.55338740000001,0 -122.29300039999994,37.55357210000001,0 -122.29237489999996,37.55372660000001,0 -122.29186699999995,37.55385710000001,0 -122.29097669999996,37.55411060000001,0 -122.29096619999994,37.55411180000001,0 -122.29077769999995,37.55410550000001,0 -122.29036169999996,37.55423640000001,0 -122.28997679999996,37.55436280000001,0 -122.28898559999998,37.55470780000001,0 -122.28806379999996,37.55505280000001,0 -122.28730509999995,37.55535980000001,0 -122.28666729999995,37.555631900000016,0 -122.28590599999994,37.55597280000001,0 -122.28543319999996,37.55619080000001,0 -122.28500029999995,37.55640120000001,0 -122.28454189999995,37.55663690000001,0 -122.28423879999995,37.55680000000001,0 -122.28325489999995,37.55735210000001,0 -122.28270899999995,37.55767710000001,0 -122.28231499999994,37.55791930000001,0 -122.27946909999993,37.559710300000006,0 -122.27921379999992,37.55986750000001,0 -122.27613629999993,37.56180390000001,0 -122.27596229999993,37.561816400000005,0 -122.27595619999994,37.561818,0 -122.27507539999993,37.562275500000005,0 -122.27473329999994,37.562433000000006,0 -122.27466419999995,37.56246670000001,0 -122.27444099999992,37.56256830000001,0 -122.27430019999993,37.562622700000006,0 -122.27424239999992,37.56264210000001,0 -122.27414479999993,37.56266610000001,0 -122.27409289999993,37.56267630000001,0 -122.27404019999992,37.56268310000001,0 -122.27395969999992,37.56269030000001,0 -122.27388139999992,37.5626922,0 -122.27381649999991,37.56269090000001,0 -122.27378689999992,37.562687800000006,0 -122.27369429999992,37.56267480000001,0 -122.27364919999992,37.56266500000001,0 -122.27359329999993,37.56265110000001,0 -122.27353039999993,37.56263200000001,0 -122.27347409999992,37.56261150000001,0 -122.27342329999992,37.562589300000006,0 -122.27337619999992,37.56256610000001,0 -122.27332979999991,37.56254100000001,0 -122.2732959999999,37.56252050000001,0 -122.27291579999991,37.56220870000001,0 -122.27261249999991,37.56191050000002,0 -122.27250079999992,37.561804400000014,0 -122.27239099999991,37.56186860000002,0 -122.27222419999991,37.561983200000014,0 -122.2721605999999,37.562023500000016,0 -122.27210349999991,37.56207190000002,0 -122.27204979999992,37.56212930000002,0 -122.27198079999992,37.56219680000002,0 -122.27188869999992,37.56230540000002,0 </coordinates></LineString><TimeSpan><begin>2021-10-15T20:19:34.417Z</begin><end>2021-10-15T20:23:48.449Z</end></TimeSpan></Placemark><Placemark><name>McDonald's</name><address>1101 Triton Dr, Foster City, CA 94404</address><ExtendedData><Data name="Email"><value>syugen.zhou@gmail.com</value></Data><Data name="Category"><value>Fast Food</value></Data><Data name="Distance"><value>0</value></Data></ExtendedData><description> Fast Food from 2021-10-15T20:23:48.449Z to 2021-10-15T20:33:56.345Z. Distance 0m </description><Point><coordinates>-122.271678,37.563291,0</coordinates></Point><TimeSpan><begin>2021-10-15T20:23:48.449Z</begin><end>2021-10-15T20:33:56.345Z</end></TimeSpan></Placemark><Placemark><name>Driving</name><address></address><ExtendedData><Data name="Email"><value>syugen.zhou@gmail.com</value></Data><Data name="Category"><value>Driving</value></Data><Data name="Distance"><value>255727</value></Data></ExtendedData><description> Driving from 2021-10-15T20:33:56.345Z to 2021-10-16T01:24:38.000Z. Distance 255727m </description><LineString><altitudeMode>clampToGround</altitudeMode><extrude>1</extrude><tesselate>1</tesselate><coordinates>-122.27144879999999,37.5629975,0 -122.2725221,37.5619805,0 -122.2731804,37.562642999999994,0 -122.27327179999999,37.5628349,0 -122.27329699999999,37.563200699999996,0 -122.27313919999999,37.563581899999996,0 -122.2723826,37.5643265,0 -122.272368,37.5644677,0 -122.2449391,37.5894765,0 -122.24403819999999,37.5901275,0 -122.24250639999998,37.590870599999995,0 -122.15242059999997,37.617518399999994,0 -122.11242779999998,37.631000199999995,0 -122.10885159999998,37.63274479999999,0 -122.10423259999999,37.634621599999996,0 -122.10405529999998,37.63461399999999,0 -122.1003111,37.635929,0 -122.09903889999998,37.636612799999995,0 -122.09806459999997,37.637405199999996,0 -122.09731259999998,37.638306899999996,0 -122.09502329999997,37.64206459999999,0 -122.09360379999997,37.64316349999999,0 -122.09319349999996,37.6438035,0 -122.09308509999994,37.644377,0 -122.09323159999995,37.6450641,0 -122.09350099999996,37.6454935,0 -122.09541569999996,37.6473563,0 -122.09554239999996,37.6473997,0 -122.11065439999997,37.671340199999996,0 -122.11178249999998,37.6725588,0 -122.11744639999998,37.676815700000006,0 -122.13050829999997,37.6856397,0 -122.13052189999996,37.685789,0 -122.13351679999995,37.6881268,0 -122.13376919999995,37.6884511,0 -122.13392779999995,37.6890414,0 -122.13380689999995,37.6895605,0 -122.13365889999996,37.6898016,0 -122.13321149999994,37.6901972,0 -122.13275719999994,37.6904027,0 -122.13090829999993,37.6907298,0 -122.12963869999994,37.6907883,0 -122.12657739999993,37.6905785,0 -122.11328359999993,37.688490800000004,0 -122.11024059999993,37.688500999999995,0 -122.09510249999992,37.6901801,0 -122.08989659999992,37.690484000000005,0 -122.07299489999993,37.6905732,0 -122.06900059999991,37.6908863,0 -122.05925479999992,37.6934178,0 -122.05701929999992,37.6936046,0 -122.05236929999994,37.6932255,0 -122.05115079999995,37.6932559,0 -122.04934919999994,37.6935132,0 -122.04718979999993,37.69418099999999,0 -122.04484539999993,37.69549789999999,0 -122.04049799999993,37.699433799999994,0 -122.03912339999992,37.700401299999996,0 -122.03691709999994,37.7013825,0 -122.03495419999993,37.7018465,0 -122.03317629999992,37.701992000000004,0 -122.03124009999993,37.7018633,0 -122.02748979999991,37.700950600000006,0 -122.02519599999992,37.70067050000001,0 -122.02254329999994,37.700835700000006,0 -122.02059539999995,37.701312300000005,0 -122.01779399999995,37.7023093,0 -122.01618279999994,37.7026485,0 -122.00149059999994,37.7033598,0 -121.99763009999994,37.7030206,0 -121.99404479999994,37.70208840000001,0 -121.98893669999994,37.6999872,0 -121.98786999999994,37.6996957,0 -121.97334219999995,37.697427100000006,0 -121.96928959999994,37.697063500000006,0 -121.96607899999994,37.69710870000001,0 -121.95754579999993,37.69826040000001,0 -121.93563519999994,37.698136100000006,0 -121.93380399999992,37.698312900000005,0 -121.92015749999992,37.70138440000001,0 -121.91825029999991,37.70166310000001,0 -121.79516989999992,37.700660800000016,0 -121.79399789999991,37.70055460000001,0 -121.78951259999992,37.69959420000001,0 -121.78798599999993,37.6994333,0 -121.77574959999993,37.700449400000004,0 -121.76090439999993,37.70272520000001,0 -121.75830109999993,37.70280640000001,0 -121.74348969999993,37.70223330000001,0 -121.74073989999994,37.70243760000001,0 -121.73920969999995,37.70271660000001,0 -121.73659559999994,37.70351060000001,0 -121.70672939999994,37.71615490000001,0 -121.70408849999993,37.716964600000004,0 -121.68194569999993,37.721682200000004,0 -121.68035299999994,37.72174210000001,0 -121.67642489999993,37.7213311,0 -121.67471379999994,37.720876100000005,0 -121.67399899999992,37.7205639,0 -121.67134999999993,37.7189197,0 -121.67004189999993,37.7183679,0 -121.66897209999992,37.7180733,0 -121.66710199999993,37.7178413,0 -121.66577859999992,37.717879700000005,0 -121.66428429999992,37.7181237,0 -121.65774069999992,37.7199645,0 -121.63660019999993,37.726899100000004,0 -121.63555289999992,37.7274193,0 -121.63473779999993,37.7280076,0 -121.63240099999992,37.7306839,0 -121.63137779999992,37.7316092,0 -121.63021569999991,37.732403500000004,0 -121.6289063999999,37.733078199999994,0 -121.62764619999992,37.733470999999994,0 -121.62664139999991,37.733634099999996,0 -121.61217599999989,37.734652999999994,0 -121.60797479999991,37.735437,0 -121.6013206999999,37.7372715,0 -121.58346999999989,37.7407004,0 -121.57922619999991,37.7412989,0 -121.54927459999992,37.743515,0 -121.50027059999991,37.7404509,0 -121.49750539999992,37.7406177,0 -121.49410019999992,37.7413731,0 -121.44347069999992,37.7619253,0 -121.44163459999992,37.7623841,0 -121.43866049999991,37.762771,0 -121.42444679999991,37.7628299,0 -121.42234389999992,37.7630015,0 -121.4129352999999,37.7644217,0 -121.4097829999999,37.7647052,0 -121.3545039999999,37.7648619,0 -121.33118959999992,37.7671758,0 -121.3296259999999,37.7676018,0 -121.3281224999999,37.7682296,0 -121.3264691999999,37.7692655,0 -121.3253017999999,37.7703269,0 -121.32278789999992,37.7733373,0 -121.31976479999993,37.77569209999999,0 -121.31964649999992,37.775881399999996,0 -121.31102919999992,37.782113800000005,0 -121.30599749999992,37.7853047,0 -121.30579439999991,37.7853047,0 -121.2999232999999,37.788534,0 -121.2979593999999,37.789297600000005,0 -121.2947354999999,37.7899608,0 -121.2932256999999,37.790052200000005,0 -121.2905655999999,37.7899043,0 -121.2648263999999,37.7833291,0 -121.2615206999999,37.78302120000001,0 -121.1931571999999,37.7832203,0 -121.1919011999999,37.78347780000001,0 -121.1912271999999,37.78376790000001,0 -121.1894915999999,37.7849609,0 -121.18840619999989,37.7853061,0 -121.18778479999989,37.7853414,0 -121.18716479999988,37.7852728,0 -121.1864135999999,37.785036,0 -121.1856049999999,37.784503199999996,0 -121.1852588999999,37.7840908,0 -121.18499759999989,37.783531499999995,0 -121.18493489999989,37.7828199,0 -121.1851594999999,37.782372699999996,0 -121.18543719999991,37.7821596,0 -121.18566749999992,37.7820634,0 -121.18609439999993,37.7820032,0 -121.18651449999994,37.7820603,0 -121.18701119999996,37.7823378,0 -121.18721339999996,37.7825993,0 -121.18772529999995,37.7842937,0 -121.18783379999995,37.7844008,0 -121.19045049999995,37.7946668,0 -121.19039859999995,37.7948282,0 -121.19057969999996,37.797419,0 -121.18989329999995,37.7974663,0 -121.18977489999995,37.7975481,0 -121.00011639999995,37.7985166,0 -121.00001489999994,37.798564,0 -120.99871219999994,37.7984559,0 -120.99837589999994,37.7983299,0 -120.99756819999995,37.7977819,0 -120.99744339999997,37.797765500000004,0 -120.99530849999996,37.7967225,0 -120.99259209999997,37.7966075,0 -120.99222209999996,37.7964597,0 -120.98960509999996,37.7944671,0 -120.98910699999996,37.7942847,0 -120.90390109999997,37.7929471,0 -120.88974219999996,37.7915422,0 -120.87073479999995,37.791211000000004,0 -120.86850729999996,37.7908903,0 -120.86714249999994,37.790478,0 -120.86495119999994,37.7893761,0 -120.85601199999995,37.7819876,0 -120.85540719999995,37.78122630000001,0 -120.85141529999993,37.773728000000006,0 -120.85122189999994,37.772907700000005,0 -120.84702879999992,37.76663720000001,0 -120.84350099999992,37.76810210000001,0 -120.84013609999991,37.76911040000001,0 -120.82702349999991,37.77426500000001,0 -120.8163384999999,37.776238000000006,0 -120.81471239999992,37.776374600000004,0 -120.77623139999992,37.776594200000005,0 -120.77401999999991,37.776901900000006,0 -120.72972919999991,37.787612100000004,0 -120.72915369999991,37.787844400000004,0 -120.7286070999999,37.788217700000004,0 -120.7260377999999,37.791248200000005,0 -120.72544189999992,37.792256300000005,0 -120.72506199999991,37.7938041,0 -120.7241934999999,37.7958845,0 -120.71863179999991,37.8030793,0 -120.71494589999992,37.8061408,0 -120.7142677999999,37.8064957,0 -120.71333929999992,37.806746100000005,0 -120.71247209999993,37.8067718,0 -120.71070029999993,37.8065025,0 -120.70980809999992,37.8061857,0 -120.70822159999992,37.8052081,0 -120.70633389999993,37.804588,0 -120.70446359999993,37.804521900000005,0 -120.70112809999993,37.8052647,0 -120.69643779999994,37.8072876,0 -120.69523809999994,37.8076118,0 -120.69443449999994,37.8077168,0 -120.69327099999992,37.8077197,0 -120.69189839999994,37.8074967,0 -120.68991759999994,37.8068955,0 -120.68911989999994,37.806775800000004,0 -120.68695619999994,37.806800300000006,0 -120.68572699999994,37.80667910000001,0 -120.68465609999996,37.806339400000006,0 -120.67933289999996,37.80362530000001,0 -120.67838569999996,37.80336170000001,0 -120.67673589999997,37.80325180000001,0 -120.67558289999997,37.80342360000001,0 -120.67441469999996,37.803840400000006,0 -120.66707459999996,37.807881900000005,0 -120.66068529999998,37.81285070000001,0 -120.65647509999998,37.814799500000014,0 -120.65421779999997,37.816340200000006,0 -120.65075259999996,37.81973840000001,0 -120.65014689999995,37.82016060000001,0 -120.64845189999994,37.82086850000001,0 -120.64248849999993,37.82217950000001,0 -120.63992349999994,37.82332190000001,0 -120.63824709999994,37.82445570000001,0 -120.62934219999994,37.831904300000005,0 -120.62782689999993,37.833660900000005,0 -120.62546759999992,37.83849510000001,0 -120.62369629999993,37.840391700000005,0 -120.62232079999993,37.84124980000001,0 -120.61648849999992,37.844141900000004,0 -120.61362309999993,37.845172100000006,0 -120.60939279999992,37.8460161,0 -120.60570699999992,37.8461281,0 -120.60231089999994,37.8468171,0 -120.59683189999993,37.8492015,0 -120.59525509999992,37.849734999999995,0 -120.59458349999993,37.849866299999995,0 -120.59043249999992,37.850008499999994,0 -120.58916259999991,37.8499128,0 -120.58584689999992,37.849190199999995,0 -120.58257939999991,37.8490378,0 -120.57997079999993,37.848020999999996,0 -120.57769719999993,37.8474273,0 -120.57509519999992,37.847167199999994,0 -120.57171849999992,37.84723569999999,0 -120.56344109999992,37.846354999999996,0 -120.55474439999993,37.846102699999996,0 -120.55106369999992,37.8455675,0 -120.54321469999992,37.843315,0 -120.53987189999994,37.8430251,0 -120.53445349999994,37.8434508,0 -120.52851099999995,37.8429716,0 -120.51726549999995,37.8409712,0 -120.51531799999995,37.8410526,0 -120.50948589999994,37.8425789,0 -120.50874329999995,37.84289189999999,0 -120.50804439999995,37.84333289999999,0 -120.50749749999994,37.8438771,0 -120.50695829999997,37.8447341,0 -120.50678029999997,37.84532589999999,0 -120.50673229999995,37.84600729999999,0 -120.50686429999995,37.84673259999999,0 -120.51168769999995,37.85750869999999,0 -120.51197909999995,37.85874039999999,0 -120.51164729999995,37.86538449999998,0 -120.51127639999996,37.86698509999998,0 -120.50604039999996,37.880333599999986,0 -120.50555819999997,37.881056999999984,0 -120.50485109999998,37.88171029999999,0 -120.50160129999998,37.88349869999998,0 -120.49658169999996,37.887491699999984,0 -120.49549659999998,37.888151999999984,0 -120.49011499999999,37.89055769999998,0 -120.48826189999998,37.891200199999986,0 -120.48519909999999,37.88664319999999,0 -120.47938839999998,37.88209089999999,0 -120.47859919999996,37.88164599999998,0 -120.47787869999995,37.88138949999998,0 -120.46356379999996,37.87959159999998,0 -120.46304969999997,37.87944789999999,0 -120.46055509999997,37.878161699999986,0 -120.45998329999996,37.878002299999984,0 -120.45944109999996,37.87804479999999,0 -120.45905549999996,37.87820779999999,0 -120.45692509999996,37.87987179999999,0 -120.45641159999995,37.88006269999999,0 -120.45603749999995,37.88004559999999,0 -120.44925119999995,37.87780719999999,0 -120.44855339999995,37.877675999999994,0 -120.44533779999996,37.877569699999995,0 -120.43767589999996,37.87573809999999,0 -120.43418059999996,37.87445039999999,0 -120.43159119999997,37.8722596,0 -120.43129159999997,37.8717673,0 -120.43115839999996,37.8710194,0 -120.43153619999995,37.8694763,0 -120.43143689999995,37.8689452,0 -120.43082389999994,37.8680662,0 -120.42464299999995,37.8611087,0 -120.42350229999997,37.8600866,0 -120.41381389999997,37.852850499999995,0 -120.41261029999995,37.8521435,0 -120.41039469999996,37.851303099999996,0 -120.40931589999997,37.851060399999994,0 -120.40184109999997,37.8502045,0 -120.39996949999995,37.850134,0 -120.39426779999995,37.85050989999999,0 -120.39319219999996,37.8503056,0 -120.38910109999998,37.848867899999995,0 -120.38158509999997,37.8436494,0 -120.38106819999996,37.8431615,0 -120.37970409999997,37.8404701,0 -120.37913219999997,37.839925199999996,0 -120.37781359999995,37.839228399999996,0 -120.37678509999995,37.8390135,0 -120.37593679999996,37.838993099999996,0 -120.37179509999996,37.839970199999996,0 -120.37029909999995,37.8400198,0 -120.36876939999995,37.839793199999995,0 -120.36765069999994,37.839437499999995,0 -120.36302509999994,37.8371837,0 -120.36211049999996,37.8365551,0 -120.35994559999996,37.83458949999999,0 -120.35916319999997,37.834060799999996,0 -120.35478489999996,37.832045099999995,0 -120.35313139999995,37.831541599999994,0 -120.34980689999995,37.83117109999999,0 -120.34880589999996,37.83093759999999,0 -120.31539969999996,37.81551019999999,0 -120.31318849999995,37.81493019999999,0 -120.31014659999995,37.81466149999999,0 -120.30532819999995,37.81371289999999,0 -120.30425739999995,37.813647299999985,0 -120.30017359999995,37.81397749999999,0 -120.29956689999997,37.81417569999999,0 -120.29890539999995,37.81457809999999,0 -120.29773259999995,37.81578709999999,0 -120.29757369999996,37.81605769999999,0 -120.29758659999996,37.81630209999999,0 -120.29781969999996,37.81657609999999,0 -120.29796999999996,37.81664729999999,0 -120.29987819999997,37.81694949999999,0 -120.30021109999997,37.81710999999999,0 -120.30080349999996,37.81769029999999,0 -120.30132149999997,37.817946099999986,0 -120.30159309999996,37.81800549999999,0 -120.30318639999997,37.81801109999999,0 -120.30359619999996,37.81807669999999,0 -120.30416049999997,37.81833019999999,0 -120.30474349999996,37.81881059999999,0 -120.30517139999995,37.81901659999999,0 -120.30562979999995,37.81910879999999,0 -120.30686719999994,37.81901209999999,0 -120.30708459999995,37.819068999999985,0 -120.30734299999995,37.81925609999998,0 -120.30742319999996,37.819398499999984,0 -120.30743889999995,37.81960129999998,0 -120.30726129999995,37.81992129999998,0 -120.30702719999994,37.82006109999998,0 -120.30684329999995,37.82010279999998,0 -120.30518159999997,37.819901999999985,0 -120.30454049999997,37.81939259999998,0 -120.30393219999996,37.81917449999998,0 -120.30364269999995,37.81922809999998,0 -120.30268089999997,37.81996439999998,0 -120.30242929999996,37.81999939999998,0 -120.30093339999996,37.81988279999998,0 -120.30074659999995,37.81994979999998,0 -120.30047869999997,37.82015699999998,0 -120.30007199999997,37.82026949999998,0 -120.29977719999998,37.82050779999998,0 -120.29915689999997,37.820668599999976,0 -120.29898319999997,37.82064749999998,0 -120.29885579999996,37.820556099999976,0 -120.29868249999997,37.82015369999998,0 -120.29825289999997,37.81965389999998,0 -120.29803779999996,37.81956419999998,0 -120.29760579999996,37.81956299999998,0 -120.29713709999994,37.819675699999976,0 -120.29647969999995,37.82008249999998,0 -120.29631249999996,37.820078199999976,0 -120.29614359999995,37.81998429999997,0 -120.29587789999997,37.81930129999998,0 -120.29590039999997,37.818739399999984,0 -120.29572119999997,37.81850679999998,0 -120.29557309999997,37.81845689999998,0 -120.29540159999996,37.81847499999998,0 -120.29395239999997,37.81933679999998,0 -120.29377439999998,37.81952639999998,0 -120.29373059999998,37.81966389999999,0 -120.29388159999999,37.82017639999998,0 -120.2935414,37.820725399999986,0 -120.29283499999998,37.82088659999999,0 -120.2921684,37.82127279999999,0 -120.2919821,37.82132539999999,0 -120.29135509999999,37.82111709999999,0 -120.29125109999998,37.82099369999999,0 -120.29119859999999,37.820277799999985,0 -120.29139419999998,37.81990659999999,0 -120.29138149999997,37.819781099999986,0 -120.29130839999998,37.81967719999999,0 -120.29105509999997,37.81955699999999,0 -120.29006809999996,37.819482999999984,0 -120.28987869999996,37.81954899999999,0 -120.28977929999996,37.81967189999998,0 -120.28981019999995,37.820120299999985,0 -120.28898199999996,37.82103429999999,0 -120.28883469999998,37.821112499999984,0 -120.28828579999997,37.82118329999999,0 -120.28785219999997,37.82150249999998,0 -120.28765409999998,37.82152219999998,0 -120.28663389999997,37.821195399999986,0 -120.28645429999996,37.82121429999999,0 -120.28517799999996,37.82177929999999,0 -120.28499099999996,37.82180289999999,0 -120.28451439999995,37.82160539999999,0 -120.28408659999997,37.82128149999999,0 -120.28363339999996,37.82117119999999,0 -120.28286539999995,37.82137439999999,0 -120.28277229999993,37.821460899999984,0 -120.28274899999992,37.82160459999998,0 -120.28281469999992,37.821724199999984,0 -120.28344189999993,37.822233199999985,0 -120.28352119999992,37.82239219999998,0 -120.28346629999993,37.82292509999998,0 -120.28357609999993,37.82361859999998,0 -120.28368099999994,37.82373939999998,0 -120.28472349999994,37.82440239999998,0 -120.28477029999995,37.82450049999998,0 -120.28473049999994,37.824674999999985,0 -120.28461699999994,37.82477069999998,0 -120.28449979999994,37.82480829999998,0 -120.28428109999993,37.82479379999998,0 -120.28257989999992,37.82410969999998,0 -120.28220899999992,37.82349079999998,0 -120.28206629999991,37.82340009999998,0 -120.28007129999992,37.823075299999985,0 -120.27997209999991,37.82309749999998,0 -120.2798658999999,37.823175099999986,0 -120.2798031999999,37.82333639999998,0 -120.27987479999989,37.823903399999985,0 -120.2797894999999,37.82416439999999,0 -120.2792752999999,37.82477449999999,0 -120.2791224999999,37.824849499999985,0 -120.2789684999999,37.824856199999985,0 -120.27876209999991,37.82473989999998,0 -120.2785220999999,37.82414009999999,0 -120.27822819999992,37.82392679999999,0 -120.27732669999992,37.823811099999986,0 -120.27716139999991,37.82374019999998,0 -120.2770666999999,37.82361869999998,0 -120.2770906999999,37.822713499999985,0 -120.2768883999999,37.82255339999998,0 -120.27629849999991,37.822565799999985,0 -120.2761438999999,37.822524499999986,0 -120.2757048999999,37.82223659999998,0 -120.27497549999988,37.82208029999998,0 -120.27482999999988,37.821924299999985,0 -120.27480779999988,37.82170189999999,0 -120.27490739999988,37.82153829999998,0 -120.27605539999989,37.82105809999998,0 -120.2768292999999,37.82057959999998,0 -120.2769203999999,37.820444299999984,0 -120.2769180999999,37.82031319999998,0 -120.2768443999999,37.820205999999985,0 -120.2760916999999,37.819969499999985,0 -120.27584699999989,37.81979349999998,0 -120.2756535999999,37.81928019999998,0 -120.2754922999999,37.81912149999998,0 -120.2752115999999,37.819028199999984,0 -120.2743486999999,37.81904369999998,0 -120.27419379999989,37.81897909999998,0 -120.27409479999989,37.81883899999998,0 -120.27411219999989,37.81853419999998,0 -120.27404989999988,37.81840219999998,0 -120.27384069999988,37.81829779999998,0 -120.27237649999987,37.81805019999998,0 -120.27219759999987,37.81791789999998,0 -120.27215849999988,37.81777769999998,0 -120.27218519999988,37.81768289999998,0 -120.27299489999989,37.816877199999986,0 -120.2730562999999,37.816584699999986,0 -120.27218389999989,37.814699699999984,0 -120.2721951999999,37.81429169999999,0 -120.2721062999999,37.81406869999999,0 -120.27199169999989,37.81398459999999,0 -120.2717083999999,37.81394769999999,0 -120.27021879999991,37.81437599999999,0 -120.26936199999989,37.81504429999999,0 -120.26886039999988,37.81636179999999,0 -120.26859619999989,37.81677829999999,0 -120.2683830999999,37.81696539999999,0 -120.26800759999989,37.81712379999999,0 -120.26673529999988,37.81734439999999,0 -120.26438559999987,37.81880119999999,0 -120.26293009999988,37.82055259999999,0 -120.26246709999988,37.821346599999984,0 -120.26148129999987,37.822525599999985,0 -120.26134069999986,37.82260919999998,0 -120.25809309999987,37.823349999999984,0 -120.25633049999985,37.82481519999998,0 -120.25454459999986,37.825413099999984,0 -120.25329639999987,37.82600669999998,0 -120.25266279999987,37.82668239999998,0 -120.25210679999986,37.82708329999998,0 -120.24944249999987,37.82843589999998,0 -120.24724559999986,37.82990979999998,0 -120.24650409999987,37.83083609999998,0 -120.24473709999988,37.83215729999998,0 -120.24432449999989,37.83237029999998,0 -120.2435484999999,37.832550799999986,0 -120.2433706999999,37.83264209999998,0 -120.2413731999999,37.83463279999998,0 -120.2374438999999,37.83652959999998,0 -120.2360467999999,37.83660559999998,0 -120.2322576999999,37.83798309999998,0 -120.22940159999992,37.83946739999998,0 -120.2289403999999,37.83960469999998,0 -120.2253637999999,37.839975899999985,0 -120.22375869999989,37.839659099999984,0 -120.22222229999987,37.838722699999984,0 -120.22154219999989,37.83800809999998,0 -120.22101079999989,37.836897399999984,0 -120.22073829999988,37.836546099999985,0 -120.22001499999989,37.83598579999998,0 -120.21951699999987,37.83575969999998,0 -120.21893449999988,37.83562599999998,0 -120.21590579999987,37.83538599999998,0 -120.21511189999987,37.83541249999998,0 -120.21422329999984,37.83556979999998,0 -120.21368259999984,37.835764199999986,0 -120.20982319999983,37.838343299999984,0 -120.20896099999985,37.83871889999998,0 -120.20822469999983,37.83886549999998,0 -120.20752659999982,37.838836399999984,0 -120.20711239999982,37.83872489999998,0 -120.20620279999983,37.83829659999998,0 -120.20591589999984,37.838081199999976,0 -120.20307049999984,37.834092999999974,0 -120.19524099999984,37.828850699999975,0 -120.19396699999984,37.82834699999997,0 -120.19330819999985,37.82821309999997,0 -120.19035189999984,37.82799419999997,0 -120.18906609999985,37.828097399999976,0 -120.18532689999985,37.828877299999974,0 -120.18402819999984,37.82878399999998,0 -120.17899679999984,37.82734489999998,0 -120.17524669999985,37.82569459999998,0 -120.17268619999983,37.825103499999976,0 -120.16885169999982,37.82332089999998,0 -120.15760839999983,37.820747599999976,0 -120.15610859999983,37.82060929999998,0 -120.14947339999982,37.82109809999998,0 -120.13433199999983,37.82014389999998,0 -120.13346829999985,37.81986129999997,0 -120.13289139999985,37.81955709999997,0 -120.13081739999984,37.817780999999975,0 -120.12965669999986,37.817107199999974,0 -120.12607879999985,37.81610969999998,0 -120.12524219999985,37.81572609999998,0 -120.12284619999983,37.81425159999998,0 -120.12189659999983,37.81383399999998,0 -120.12021209999983,37.81349409999998,0 -120.11903959999984,37.81351419999998,0 -120.11811119999984,37.81367149999998,0 -120.11078429999985,37.816232399999976,0 -120.10954819999985,37.81686559999998,0 -120.09961519999986,37.823572999999975,0 -120.09777459999985,37.82450249999997,0 -120.09599539999984,37.825044399999975,0 -120.09266779999986,37.82552489999998,0 -120.09216989999985,37.82551769999998,0 -120.09122639999984,37.82529659999997,0 -120.09039999999983,37.82481439999997,0 -120.08995509999983,37.82433989999998,0 -120.08969829999982,37.823852699999975,0 -120.08935959999982,37.822335099999975,0 -120.08889749999983,37.821530099999976,0 -120.08836489999983,37.82108409999997,0 -120.08666659999984,37.82028259999997,0 -120.08580299999986,37.82009489999997,0 -120.08524009999987,37.82009009999997,0 -120.08276089999987,37.820411899999975,0 -120.08166349999986,37.82033239999997,0 -120.07975989999986,37.81973279999997,0 -120.07923159999986,37.819646699999964,0 -120.07699039999986,37.81965319999997,0 -120.07613199999986,37.819493599999966,0 -120.07535629999987,37.81912059999997,0 -120.07137959999986,37.81496599999997,0 -120.07048539999985,37.81455649999997,0 -120.06670919999986,37.813858499999974,0 -120.06613529999986,37.81383309999997,0 -120.06513879999986,37.81397309999997,0 -120.06440999999984,37.81425999999997,0 -120.06080639999983,37.81629219999997,0 -120.05026219999982,37.819815999999975,0 -120.04909749999982,37.819933399999975,0 -120.04644249999983,37.81967189999998,0 -120.04529149999983,37.81981879999998,0 -120.04258719999983,37.821092299999975,0 -120.03856879999984,37.821887499999974,0 -120.03758169999982,37.821861499999976,0 -120.03226149999983,37.82086759999998,0 -120.02961299999983,37.82109299999997,0 -120.02830699999983,37.82148099999997,0 -120.02687319999984,37.822414199999976,0 -120.02577329999983,37.82272279999998,0 -120.02342629999984,37.82270449999998,0 -120.02257059999984,37.82305179999997,0 -120.02219489999985,37.82337259999998,0 -120.02149529999984,37.824514799999974,0 -120.02086909999984,37.82497669999997,0 -120.02021589999983,37.82519119999998,0 -120.01986849999984,37.82520029999998,0 -120.01951409999985,37.825112599999976,0 -120.01890779999985,37.82480709999998,0 -120.01858019999985,37.82449999999998,0 -120.01752279999984,37.823058599999975,0 -120.01680159999985,37.822572899999976,0 -120.01662549999983,37.82251459999998,0 -120.01620249999985,37.82250129999997,0 -120.01442559999984,37.822808699999975,0 -120.01338229999985,37.82315249999997,0 -120.01285399999985,37.823715999999976,0 -120.01181029999984,37.82446539999997,0 -120.01109699999985,37.82472979999997,0 -120.01055089999986,37.824831099999976,0 -120.00600899999986,37.82437399999998,0 -120.00563559999986,37.82419539999998,0 -120.00513389999986,37.82379329999998,0 -120.00473169999985,37.82316599999998,0 -120.00424179999985,37.822736699999986,0 -120.00385959999984,37.822559599999984,0 -120.00337579999983,37.82245409999999,0 -120.00266419999983,37.82251709999999,0 -120.00168499999984,37.82292319999999,0 -120.00104049999985,37.82307979999999,0 -120.00048249999985,37.82308489999999,0 -119.99970869999984,37.822872199999985,0 -119.99715089999985,37.82123139999999,0 -119.99662639999984,37.821083499999986,0 -119.99566579999986,37.82111109999998,0 -119.99518349999987,37.82127889999998,0 -119.99465919999986,37.82167389999998,0 -119.99374959999987,37.823014399999984,0 -119.99306869999987,37.82349159999998,0 -119.99248209999988,37.82366989999998,0 -119.98892419999989,37.82365109999998,0 -119.98824219999987,37.82384019999998,0 -119.98763799999989,37.82431089999998,0 -119.98744269999989,37.82462409999997,0 -119.98725619999988,37.82528839999998,0 -119.98509859999989,37.827750099999975,0 -119.98463319999989,37.82856989999998,0 -119.98418219999988,37.829093399999984,0 -119.9837519999999,37.82933439999998,0 -119.9832521999999,37.82943779999998,0 -119.9828005999999,37.82940899999998,0 -119.9820962999999,37.829186799999974,0 -119.9801521999999,37.828037799999976,0 -119.9790799999999,37.82770049999997,0 -119.97491949999988,37.82716809999997,0 -119.9740431999999,37.82672089999997,0 -119.97238729999988,37.825317899999966,0 -119.97160259999988,37.824951199999965,0 -119.96971789999988,37.824500699999966,0 -119.96918279999987,37.82425949999997,0 -119.96758859999989,37.82314049999997,0 -119.96637769999988,37.82263699999997,0 -119.95915449999987,37.82161289999997,0 -119.95819929999986,37.82116119999997,0 -119.95596579999987,37.81867239999997,0 -119.95560079999989,37.81847429999997,0 -119.95508979999987,37.818359099999974,0 -119.95466939999987,37.81836209999997,0 -119.95424469999986,37.818447899999974,0 -119.95305319999987,37.81890889999997,0 -119.95232679999987,37.81892409999997,0 -119.95192839999987,37.81882119999997,0 -119.95132739999987,37.81843049999996,0 -119.94982289999986,37.816295399999966,0 -119.94953599999987,37.81602209999997,0 -119.94882359999986,37.81575809999997,0 -119.94827709999984,37.815738499999966,0 -119.94685629999985,37.81609509999997,0 -119.94481219999986,37.816131399999975,0 -119.94309589999985,37.816467099999976,0 -119.94260559999985,37.81648009999997,0 -119.94083199999984,37.81593259999997,0 -119.94018309999986,37.81595719999997,0 -119.93912229999985,37.816281499999974,0 -119.93872939999984,37.816318099999975,0 -119.93798449999984,37.81622979999998,0 -119.93663069999987,37.81571019999998,0 -119.93408079999985,37.81514589999998,0 -119.93363789999985,37.815139999999985,0 -119.93325469999985,37.81521309999998,0 -119.93268409999985,37.81547219999998,0 -119.93185819999984,37.81623919999998,0 -119.93131699999984,37.816493199999975,0 -119.93085289999983,37.81657139999998,0 -119.92922679999984,37.81631559999998,0 -119.92865479999985,37.81636569999998,0 -119.92164099999984,37.81860649999997,0 -119.92120129999985,37.81900169999997,0 -119.92065949999984,37.82005109999997,0 -119.92051779999983,37.82020169999997,0 -119.92006399999984,37.820476399999976,0 -119.91856519999983,37.82083499999997,0 -119.91792259999983,37.821154699999965,0 -119.91712899999985,37.82193619999997,0 -119.91676709999983,37.82213089999997,0 -119.91621509999983,37.82227049999997,0 -119.91574859999983,37.82227109999997,0 -119.91513589999985,37.82210339999997,0 -119.91462989999985,37.82176549999996,0 -119.91436509999986,37.821384499999965,0 -119.91412389999984,37.82006809999997,0 -119.91392619999984,37.81965459999997,0 -119.91323189999986,37.81890289999997,0 -119.91117259999986,37.81779449999996,0 -119.91055349999986,37.81708489999996,0 -119.91008689999985,37.81568079999996,0 -119.90981539999987,37.81531829999996,0 -119.90928099999988,37.81491769999997,0 -119.90875169999988,37.81471429999996,0 -119.90703199999989,37.814516899999965,0 -119.90622219999989,37.814250499999964,0 -119.9056687999999,37.81392199999996,0 -119.9051968999999,37.813452699999964,0 -119.9044092999999,37.81208279999996,0 -119.90375389999988,37.811505299999965,0 -119.90332199999987,37.81128629999996,0 -119.90187049999987,37.81085929999996,0 -119.90140509999988,37.810836999999964,0 -119.90093339999989,37.810916199999966,0 -119.90040739999989,37.81116949999997,0 -119.8999252999999,37.81165889999997,0 -119.8996718999999,37.81336249999996,0 -119.89948249999989,37.813617099999966,0 -119.8987940999999,37.814031699999965,0 -119.8983056999999,37.81413839999996,0 -119.89783969999989,37.814138599999964,0 -119.89541589999989,37.81338259999996,0 -119.89425609999988,37.813247999999966,0 -119.89070419999987,37.813504399999964,0 -119.88166119999987,37.813531899999965,0 -119.88081989999986,37.81371389999996,0 -119.88029559999985,37.813933199999965,0 -119.87810809999985,37.815672799999966,0 -119.87737779999983,37.81596229999996,0 -119.87678499999983,37.81600929999996,0 -119.87614019999982,37.815895199999964,0 -119.87579349999982,37.815745799999966,0 -119.87537279999982,37.81543709999997,0 -119.87514269999983,37.81510379999997,0 -119.87476009999983,37.812374299999966,0 -119.87461279999985,37.812077499999965,0 -119.87412799999986,37.81152929999997,0 -119.87219529999987,37.81009129999997,0 -119.87195259999987,37.80954709999997,0 -119.87194969999987,37.80912159999996,0 -119.87211829999987,37.80864169999996,0 -119.87320959999988,37.807459499999965,0 -119.87328039999989,37.80678009999996,0 -119.87280599999987,37.805758799999964,0 -119.87267139999986,37.804894999999966,0 -119.87354229999987,37.80339039999997,0 -119.87423109999988,37.80150279999997,0 -119.87513739999987,37.79976369999997,0 -119.87536069999987,37.79887039999997,0 -119.87520499999987,37.79796349999997,0 -119.87442319999988,37.796603599999976,0 -119.87429559999987,37.79597059999997,0 -119.87445239999985,37.79481499999997,0 -119.87425129999986,37.79396389999997,0 -119.87384979999986,37.79346759999997,0 -119.87284339999985,37.79265049999997,0 -119.87260879999987,37.79216899999997,0 -119.87260919999986,37.79168729999998,0 -119.87287169999986,37.791169699999976,0 -119.87338989999986,37.79076519999997,0 -119.87401129999988,37.79058959999997,0 -119.87500839999987,37.79055819999997,0 -119.87552179999987,37.790446599999974,0 -119.87613919999987,37.79009319999997,0 -119.87641959999988,37.78977929999998,0 -119.87655719999987,37.789236699999975,0 -119.87644349999987,37.78872029999997,0 -119.87460339999987,37.78661329999998,0 -119.87138739999988,37.783875799999976,0 -119.86976709999986,37.78303839999998,0 -119.86932769999987,37.78261369999998,0 -119.86883259999988,37.78157879999998,0 -119.86835009999986,37.78105409999998,0 -119.86770769999985,37.78064809999997,0 -119.86670329999986,37.78026449999997,0 -119.86628229999985,37.77999189999998,0 -119.86596019999985,37.77952319999998,0 -119.86555029999985,37.778016099999974,0 -119.86525199999986,37.77755579999997,0 -119.86463889999985,37.777167999999975,0 -119.86209199999985,37.77656209999998,0 -119.86161449999986,37.776282099999975,0 -119.86124809999987,37.775764199999976,0 -119.86116499999987,37.775370199999976,0 -119.86149619999988,37.773768499999974,0 -119.86145849999987,37.76950339999998,0 -119.86137899999989,37.76928169999998,0 -119.85926439999987,37.76661589999998,0 -119.85880449999989,37.766326399999976,0 -119.85802629999989,37.76610899999998,0 -119.8562169999999,37.76627809999998,0 -119.85541259999991,37.76609489999998,0 -119.85513829999991,37.765937799999975,0 -119.8547255999999,37.76551809999998,0 -119.85438099999989,37.76447649999998,0 -119.8541378999999,37.764123399999974,0 -119.85374199999991,37.76381969999998,0 -119.85345449999991,37.763688699999975,0 -119.85287989999992,37.76357829999997,0 -119.85250539999993,37.76358799999998,0 -119.85189399999993,37.76375719999998,0 -119.85091969999993,37.764275599999976,0 -119.85007789999993,37.764455499999976,0 -119.84177709999993,37.76317569999998,0 -119.83950949999993,37.76318009999998,0 -119.83788129999994,37.762626499999975,0 -119.83712089999995,37.762480599999975,0 -119.83435339999996,37.76236899999998,0 -119.83384399999996,37.76218979999998,0 -119.83352569999995,37.76196419999998,0 -119.83321629999996,37.76159399999998,0 -119.83229129999997,37.759656399999976,0 -119.83190699999996,37.75934659999998,0 -119.82814159999997,37.75832499999998,0 -119.82770949999997,37.75808639999998,0 -119.82740729999998,37.75779309999998,0 -119.82585269999997,37.75559199999998,0 -119.82555789999996,37.754920599999984,0 -119.82544399999998,37.75287439999998,0 -119.82525879999999,37.75248549999998,0 -119.82491319999998,37.75215029999998,0 -119.82421969999997,37.75185089999999,0 -119.82288539999998,37.75165779999999,0 -119.82241719999999,37.75169479999999,0 -119.82193989999999,37.75185569999999,0 -119.82137569999998,37.75228969999999,0 -119.82119629999997,37.752562699999984,0 -119.82102289999997,37.75355039999999,0 -119.82058349999998,37.754384299999984,0 -119.8187253,37.75573959999999,0 -119.81838489999998,37.75589989999999,0 -119.81791499999997,37.755992199999994,0 -119.81740639999997,37.75595089999999,0 -119.81688069999997,37.75580509999999,0 -119.81651889999995,37.755621599999984,0 -119.81611239999997,37.754970599999986,0 -119.81580169999998,37.75405339999999,0 -119.81552969999997,37.753713699999984,0 -119.81503209999997,37.75340859999998,0 -119.81420309999997,37.753272399999986,0 -119.81230079999997,37.75368859999998,0 -119.81172429999997,37.753628099999986,0 -119.81145339999996,37.753534899999984,0 -119.81098279999998,37.75324509999999,0 -119.80851889999998,37.750839599999985,0 -119.80754329999998,37.74864189999998,0 -119.80739579999997,37.74845849999998,0 -119.80668969999998,37.74796589999998,0 -119.80440109999998,37.74734389999998,0 -119.80369699999997,37.747298999999984,0 -119.80286969999996,37.747585299999976,0 -119.80240509999997,37.74797969999997,0 -119.80217599999999,37.74842139999998,0 -119.80224929999999,37.749055999999975,0 -119.8027769,37.749965599999975,0 -119.80280349999998,37.75062919999998,0 -119.8026336,37.75100369999998,0 -119.80218409999999,37.75141189999997,0 -119.80173199999999,37.75161179999997,0 -119.80134759999997,37.75168899999997,0 -119.79954719999996,37.751668799999976,0 -119.79808399999996,37.75239209999998,0 -119.79757739999995,37.752494899999974,0 -119.79672089999997,37.75246249999998,0 -119.79640089999997,37.75237689999998,0 -119.79319399999996,37.75056929999998,0 -119.79222159999996,37.75029449999998,0 -119.79170419999997,37.75027639999998,0 -119.79090299999996,37.75039899999998,0 -119.78636469999996,37.75188949999998,0 -119.78548319999994,37.751875799999986,0 -119.78481489999996,37.751690899999986,0 -119.78429049999995,37.75138949999999,0 -119.78313289999996,37.750331299999985,0 -119.78219759999995,37.749852199999985,0 -119.78188779999994,37.74936659999998,0 -119.78180119999995,37.748810599999985,0 -119.78162749999994,37.74850349999998,0 -119.78130349999994,37.74822159999998,0 -119.78092099999994,37.74806559999998,0 -119.78004719999993,37.74788319999998,0 -119.77968209999995,37.74771639999998,0 -119.77881329999994,37.74671819999998,0 -119.77838959999993,37.74651629999998,0 -119.77725639999993,37.74638319999998,0 -119.77699819999994,37.746293999999985,0 -119.77673419999994,37.746101899999985,0 -119.77650539999995,37.74576519999998,0 -119.77632019999996,37.744847999999976,0 -119.77615199999995,37.74452669999998,0 -119.77541699999995,37.74369059999998,0 -119.77481089999995,37.74239309999998,0 -119.77317949999994,37.73998699999998,0 -119.77279289999993,37.73963949999998,0 -119.77237119999994,37.739473899999986,0 -119.76891789999993,37.73937419999998,0 -119.76794929999993,37.739637899999984,0 -119.76586089999992,37.73956639999998,0 -119.76550409999993,37.739629399999984,0 -119.76491969999992,37.73987779999998,0 -119.76448209999991,37.74029919999998,0 -119.76403339999992,37.74139369999998,0 -119.76370839999993,37.74172389999999,0 -119.76197049999992,37.74269479999999,0 -119.75899449999991,37.743736699999985,0 -119.75842779999991,37.74378389999998,0 -119.7577517999999,37.74362939999998,0 -119.7573009999999,37.743365099999984,0 -119.75694709999989,37.742933399999984,0 -119.75683249999989,37.74256889999999,0 -119.75686529999989,37.74212839999999,0 -119.75720449999989,37.74156259999999,0 -119.75887819999988,37.74018319999999,0 -119.75910129999988,37.73979459999999,0 -119.75915719999988,37.739457299999984,0 -119.75910179999987,37.73911779999998,0 -119.75890149999988,37.73876929999999,0 -119.75852649999986,37.73838339999998,0 -119.75840489999986,37.73801909999998,0 -119.75848809999985,37.737679599999986,0 -119.75896909999985,37.73680289999998,0 -119.75893149999985,37.735804399999985,0 -119.75992809999984,37.733839199999984,0 -119.76047329999983,37.73343269999999,0 -119.76068349999984,37.73315419999999,0 -119.76071419999985,37.73265999999998,0 -119.76049949999985,37.732294999999986,0 -119.76022999999985,37.73211109999998,0 -119.75963829999984,37.731972599999985,0 -119.75933089999982,37.73201109999999,0 -119.75744259999983,37.732668799999985,0 -119.75674249999983,37.73270209999999,0 -119.75609849999984,37.73241739999999,0 -119.75583939999983,37.731924099999986,0 -119.75589399999983,37.731621799999985,0 -119.75625039999983,37.730922599999985,0 -119.75642309999984,37.72980179999998,0 -119.75612869999982,37.729204899999985,0 -119.75573369999981,37.72889939999998,0 -119.7551039999998,37.728706399999986,0 -119.75448299999982,37.728731199999984,0 -119.75400309999982,37.72890669999998,0 -119.75304359999984,37.72946709999999,0 -119.75277549999984,37.72952749999998,0 -119.75228079999984,37.72948499999998,0 -119.75192249999984,37.72929929999998,0 -119.75178499999984,37.72916799999998,0 -119.75038649999985,37.72660919999998,0 -119.74974529999983,37.72598539999998,0 -119.74843359999983,37.72513269999998,0 -119.74193949999983,37.719167499999976,0 -119.73974259999981,37.716631999999976,0 -119.7362846999998,37.71444039999998,0 </coordinates></LineString><TimeSpan><begin>2021-10-15T20:33:56.345Z</begin><end>2021-10-16T01:24:38.000Z</end></TimeSpan></Placemark><Placemark><name>Old Big Oak Flat Road Trailhead</name><address>California 95389</address><ExtendedData><Data name="Email"><value>syugen.zhou@gmail.com</value></Data><Data name="Category"><value>Hiking area</value></Data><Data name="Distance"><value>0</value></Data></ExtendedData><description> Hiking area from 2021-10-16T01:24:38.000Z to 2021-10-16T01:29:14.000Z. Distance 0m </description><Point><coordinates>-119.7363204,37.7142753,0</coordinates></Point><TimeSpan><begin>2021-10-16T01:24:38.000Z</begin><end>2021-10-16T01:29:14.000Z</end></TimeSpan></Placemark><Placemark><name>Driving</name><address></address><ExtendedData><Data name="Email"><value>syugen.zhou@gmail.com</value></Data><Data name="Category"><value>Driving</value></Data><Data name="Distance"><value>101191</value></Data></ExtendedData><description> Driving from 2021-10-16T01:29:14.000Z to 2021-10-16T03:23:59.922Z. Distance 101191m </description><LineString><altitudeMode>clampToGround</altitudeMode><extrude>1</extrude><tesselate>1</tesselate><coordinates>-119.73628470000001,37.7144404,0 -119.73974260000001,37.716632,0 -119.74193950000003,37.7191675,0 -119.75038650000002,37.7266092,0 -119.75178500000001,37.729168,0 -119.75228080000002,37.729485,0 -119.75277550000003,37.7295275,0 -119.75448300000002,37.728731200000006,0 -119.75510400000002,37.7287064,0 -119.75573370000001,37.7288994,0 -119.75612870000002,37.7292049,0 -119.75642310000003,37.729801800000004,0 -119.75583940000003,37.73192410000001,0 -119.75609850000004,37.73241740000001,0 -119.75674250000004,37.732702100000004,0 -119.75744260000003,37.732668800000006,0 -119.75963830000002,37.731972600000006,0 -119.76023000000002,37.732111100000004,0 -119.76071420000002,37.73266,0 -119.76068350000003,37.73315420000001,0 -119.75992810000002,37.733839200000006,0 -119.75893150000002,37.7358044,0 -119.75896910000003,37.7368029,0 -119.75840490000002,37.7380191,0 -119.75910180000002,37.7391178,0 -119.75910130000003,37.7397946,0 -119.75887820000004,37.740183200000004,0 -119.75720450000003,37.74156260000001,0 -119.75686530000004,37.742128400000006,0 -119.75694710000005,37.74293340000001,0 -119.75775180000005,37.74362940000001,0 -119.75899450000006,37.743736700000014,0 -119.76197050000007,37.74269480000001,0 -119.76403340000007,37.74139370000001,0 -119.76448210000007,37.74029920000001,0 -119.76491970000008,37.7398778,0 -119.76586090000008,37.73956640000001,0 -119.76794930000008,37.739637900000005,0 -119.76891790000008,37.73937420000001,0 -119.7723712000001,37.73947390000001,0 -119.77279290000008,37.7396395,0 -119.77632020000009,37.744848000000005,0 -119.77650540000008,37.74576520000001,0 -119.77699820000007,37.746294000000006,0 -119.77881330000007,37.746718200000004,0 -119.77968210000007,37.7477164,0 -119.78130350000006,37.74822160000001,0 -119.78219760000005,37.74985220000001,0 -119.78481490000006,37.75169090000001,0 -119.78636470000006,37.75188950000001,0 -119.79090300000006,37.75039900000001,0 -119.79222160000008,37.7502945,0 -119.79319400000006,37.7505693,0 -119.79640090000008,37.7523769,0 -119.79757740000008,37.75249490000001,0 -119.7977926000001,37.75321020000001,0 -119.8017668000001,37.75506800000001,0 -119.8026927000001,37.75582250000001,0 -119.80346870000008,37.756951400000005,0 -119.80476770000008,37.758059300000006,0 -119.80498820000008,37.758641600000004,0 -119.80454430000007,37.759286,0 -119.80142460000008,37.761115700000005,0 -119.80076100000008,37.761213600000005,0 -119.79954370000009,37.76091480000001,0 -119.7976114000001,37.759660700000005,0 -119.79471710000008,37.759446100000005,0 -119.79422400000009,37.75917150000001,0 -119.7934551000001,37.757765000000006,0 -119.79196240000009,37.7569322,0 -119.79147870000008,37.7568605,0 -119.79065640000007,37.757134,0 -119.78933620000006,37.75856590000001,0 -119.78883220000006,37.758681300000006,0 -119.78827950000006,37.758585200000006,0 -119.78638760000005,37.757206100000005,0 -119.78514050000007,37.7570928,0 -119.77954300000006,37.759418600000004,0 -119.77905710000006,37.759410100000004,0 -119.77850710000006,37.759134100000004,0 -119.77762460000007,37.75719790000001,0 -119.77677980000006,37.75648190000001,0 -119.77289560000004,37.75527320000001,0 -119.77198340000005,37.75550730000001,0 -119.76986210000004,37.75773740000001,0 -119.76982690000004,37.75839570000001,0 -119.77182350000002,37.76032820000001,0 -119.77390760000002,37.76093430000002,0 -119.77448590000002,37.76133050000002,0 -119.77490830000002,37.762227400000015,0 -119.77428790000002,37.76555280000002,0 -119.77377000000003,37.76641790000002,0 -119.77067530000002,37.76928640000002,0 -119.76959990000003,37.76976700000002,0 -119.76855100000003,37.76991570000002,0 -119.76392940000004,37.769641900000025,0 -119.76276830000003,37.770275500000025,0 -119.76185430000002,37.77161710000002,0 -119.75850370000002,37.77314930000002,0 -119.75652530000002,37.774688300000015,0 -119.75600700000003,37.77481920000002,0 -119.75452050000001,37.77467780000001,0 -119.7524382,37.77527030000002,0 -119.74910960000001,37.77791490000002,0 -119.74826990000001,37.78053040000002,0 -119.74669150000001,37.78198980000001,0 -119.74048900000001,37.78475870000001,0 -119.73844490000002,37.78682120000001,0 -119.73473080000002,37.78905930000001,0 -119.73130180000003,37.789442400000006,0 -119.7284405,37.788765600000005,0 -119.726853,37.78875670000001,0 -119.7245254,37.789559800000006,0 -119.7239228,37.790167200000006,0 -119.7201232,37.797341900000006,0 -119.7186425,37.7991825,0 -119.7179474,37.8022248,0 -119.71321769999999,37.8111559,0 -119.71333499999999,37.813270599999996,0 -119.7126289,37.8142532,0 -119.71258089999999,37.8165004,0 -119.71428219999999,37.8186558,0 -119.7141812,37.8194873,0 -119.71373039999999,37.819887800000004,0 -119.71309109999999,37.8200608,0 -119.7118592,37.8200339,0 -119.7063529,37.8210025,0 -119.70508219999999,37.8214687,0 -119.702835,37.823554699999995,0 -119.7017682,37.82616019999999,0 -119.70224929999999,37.83021859999999,0 -119.70205649999998,37.83084749999999,0 -119.70109009999999,37.83156799999999,0 -119.69874859999999,37.832187399999995,0 -119.69231889999998,37.83634529999999,0 -119.69032849999998,37.8382612,0 -119.68706389999998,37.8394141,0 -119.68506979999998,37.84115529999999,0 -119.67216959999998,37.84960429999999,0 -119.67117479999997,37.84997409999999,0 -119.66559669999998,37.85011619999999,0 -119.662061,37.85155329999999,0 -119.66022410000001,37.85140949999999,0 -119.6575504,37.849936699999986,0 -119.65631050000002,37.849735299999985,0 -119.65352800000002,37.85017239999999,0 -119.65260570000002,37.85057919999999,0 -119.65170340000002,37.85138719999999,0 -119.65095330000001,37.85273489999999,0 -119.64601069999999,37.857124599999985,0 -119.64504760000001,37.857542399999986,0 -119.6433655,37.85761619999998,0 -119.6404918,37.85675889999998,0 -119.6350294,37.853401599999984,0 -119.6274318,37.85017829999998,0 -119.62148149999999,37.84900729999998,0 -119.61950909999997,37.84909649999998,0 -119.61588989999997,37.850532399999985,0 -119.61526869999996,37.85047989999998,0 -119.61148589999996,37.84877659999999,0 -119.61090849999995,37.84871479999999,0 -119.60813779999997,37.84978059999999,0 -119.60551569999996,37.850188999999986,0 -119.60453369999996,37.849970699999986,0 -119.60221569999996,37.84847829999999,0 -119.60124469999995,37.84827149999998,0 -119.59989419999995,37.848331899999984,0 -119.59815379999995,37.84882219999998,0 -119.59725349999995,37.84874099999998,0 -119.59650509999996,37.84835609999998,0 -119.59486839999997,37.84592389999999,0 -119.59504739999997,37.843515299999986,0 -119.59392089999997,37.841696099999986,0 -119.59369279999997,37.83998909999998,0 -119.59334889999998,37.83944419999999,0 -119.59231949999999,37.839034199999986,0 -119.59030019999997,37.83941889999999,0 -119.58953509999998,37.839918399999995,0 -119.58883649999999,37.84167869999999,0 -119.58879729999998,37.84390809999999,0 -119.58789979999999,37.84563889999999,0 -119.5863851,37.84684029999999,0 -119.5851041,37.84729149999999,0 -119.58305749999998,37.84885579999999,0 -119.58044439999998,37.85021979999999,0 -119.5791509,37.85159289999999,0 -119.5780744,37.85218539999999,0 -119.57709750000001,37.852287399999994,0 -119.57408840000002,37.85174289999999,0 -119.57298590000002,37.85117409999999,0 -119.57195030000001,37.84990109999999,0 -119.57173190000002,37.849039899999994,0 -119.57386750000003,37.84294509999999,0 -119.57773130000002,37.837406599999994,0 -119.57802850000002,37.836284599999985,0 -119.57788530000002,37.83385599999999,0 -119.57833180000002,37.83221889999999,0 -119.58134370000002,37.82793629999999,0 -119.58141670000003,37.82678619999999,0 -119.58013540000003,37.82497859999998,0 -119.58001830000003,37.82440359999998,0 -119.58100070000003,37.82256899999998,0 -119.58093670000004,37.82197259999998,0 -119.58046250000002,37.82143889999998,0 -119.57899520000004,37.820704699999986,0 -119.57839430000003,37.82010739999998,0 -119.57802960000002,37.81908879999998,0 -119.57825850000002,37.818102199999984,0 -119.58043200000002,37.81611429999999,0 -119.58042730000003,37.81501539999998,0 -119.57987570000002,37.814339299999986,0 -119.57904940000002,37.81401589999998,0 -119.57827980000002,37.81402809999998,0 -119.5768418,37.81459709999998,0 -119.5758794,37.81465069999997,0 -119.5752899,37.814485499999975,0 -119.5746461,37.81400059999998,0 -119.57271869999998,37.81107179999998,0 -119.57113939999998,37.80965009999998,0 -119.5681044,37.808013799999976,0 -119.5660441,37.807409999999976,0 -119.55501679999999,37.805876999999974,0 -119.55088239999999,37.80654349999998,0 -119.54919579999998,37.80717649999998,0 -119.54829629999996,37.80725979999998,0 -119.54526339999995,37.80670539999998,0 -119.53775289999997,37.80814389999998,0 -119.53576519999996,37.80892609999999,0 -119.53203409999998,37.81159599999998,0 -119.53090949999996,37.81196959999998,0 -119.52905199999996,37.81215859999998,0 -119.51925139999994,37.816106099999985,0 -119.51705999999994,37.81775219999998,0 -119.51653289999996,37.81793289999998,0 -119.51545839999994,37.81786139999998,0 -119.51425679999994,37.817275099999975,0 -119.50909619999993,37.817174699999974,0 -119.50814109999992,37.816719999999975,0 -119.50751469999992,37.81571509999998,0 -119.50762119999992,37.81451809999998,0 -119.50941959999993,37.812597699999976,0 -119.50940749999992,37.81189939999998,0 -119.50868409999993,37.81122859999998,0 -119.50798899999994,37.81110979999998,0 -119.50734309999991,37.811239999999984,0 -119.50595659999992,37.81204039999998,0 -119.50252589999991,37.81327599999998,0 -119.49860089999991,37.81682109999998,0 -119.4978625999999,37.81715259999998,0 -119.49687909999989,37.81701819999998,0 -119.49624699999988,37.81634069999998,0 -119.4961426999999,37.81462529999998,0 -119.4956688999999,37.81410069999998,0 -119.49255069999988,37.812491999999985,0 -119.49166779999987,37.812336299999984,0 -119.48754029999988,37.81255779999998,0 -119.48679829999988,37.81214849999998,0 -119.48601929999987,37.81117669999998,0 -119.48494859999988,37.810913499999984,0 -119.48444569999988,37.81102099999998,0 -119.48378629999988,37.811537299999976,0 -119.48111059999987,37.81630299999998,0 -119.47873609999986,37.81875299999997,0 -119.47769249999988,37.82279939999997,0 -119.47709059999988,37.82368629999997,0 -119.47590629999988,37.82440199999997,0 -119.47017479999988,37.82597349999997,0 -119.46933589999986,37.82652999999997,0 -119.46644429999988,37.83250919999997,0 -119.46358089999988,37.834217499999966,0 -119.46300129999987,37.834313499999965,0 -119.46070019999986,37.833600399999966,0 -119.45957489999988,37.833630199999966,0 -119.45486499999987,37.83604129999997,0 -119.45072499999986,37.83940949999997,0 -119.44784519999988,37.84271069999997,0 -119.44501529999988,37.847794599999965,0 -119.44305689999987,37.849557999999966,0 -119.43991309999988,37.85367899999996,0 -119.43796169999989,37.85730379999996,0 -119.43293419999989,37.86334849999996,0 -119.43180139999988,37.86561249999996,0 -119.42669139999988,37.87265859999996,0 -119.42509439999988,37.87356949999996,0 -119.42012719999988,37.87427349999996,0 -119.4195019999999,37.874570599999956,0 -119.41768039999988,37.87633349999996,0 -119.41629899999987,37.87674079999996,0 -119.41190409999987,37.87600709999996,0 -119.40671439999987,37.87657729999995,0 -119.40545949999988,37.877312699999955,0 -119.40412819999989,37.87941809999995,0 -119.40182169999989,37.88117399999995,0 -119.40057029999988,37.88147779999995,0 -119.39767299999988,37.88080969999995,0 -119.39615729999989,37.87963479999995,0 -119.39539639999988,37.87763989999995,0 -119.39443269999988,37.876762099999944,0 -119.38643579999989,37.873632199999946,0 -119.38412479999988,37.873328599999944,0 -119.37767329999988,37.87374859999994,0 -119.37141519999987,37.87214279999994,0 -119.36936899999988,37.871942999999945,0 -119.36227849999987,37.872486099999946,0 -119.35828279999986,37.87378189999995,0 -119.35363739999985,37.87693079999995,0 -119.34317059999985,37.87796329999995,0 -119.33678589999984,37.88040219999995,0 -119.32810369999984,37.880188499999946,0 -119.32583329999983,37.88096949999995,0 -119.32483289999983,37.881874499999945,0 -119.32426599999982,37.88209299999995,0 -119.32346189999983,37.88212069999995,0 -119.32106039999984,37.88115669999995,0 -119.31543299999984,37.880234099999946,0 -119.30785079999984,37.880826199999944,0 -119.29992169999983,37.878769899999945,0 -119.29322849999984,37.87874779999994,0 -119.28971339999984,37.877822499999944,0 -119.28666169999984,37.87754049999994,0 -119.28109609999984,37.87844129999994,0 -119.27900879999984,37.87921329999994,0 -119.27637799999984,37.879417399999944,0 -119.27567839999983,37.87987569999994,0 -119.27402049999984,37.88227659999994,0 -119.27025849999985,37.88614289999994,0 -119.26077399999984,37.892350399999934,0 -119.25992869999983,37.89371279999994,0 -119.25998939999984,37.90422689999994,0 -119.25807219999984,37.90967159999993,0 -119.25773609999983,37.91298999999994,0 -119.25651749999984,37.916540599999934,0 -119.25519249999985,37.91866119999993,0 -119.25489619999985,37.92155779999993,0 -119.25617219999985,37.92441719999993,0 -119.25627439999985,37.92577399999993,0 -119.25521709999985,37.92817079999993,0 -119.25426459999986,37.92910139999993,0 -119.25134229999986,37.93008569999993,0 -119.25048779999986,37.930689299999926,0 -119.24835819999986,37.93450229999993,0 -119.24841379999985,37.93526909999993,0 -119.24943719999985,37.93672499999993,0 -119.24944769999985,37.93753359999993,0 -119.24910109999983,37.938014199999934,0 -119.24857969999985,37.93830269999994,0 -119.24541099999986,37.938227199999936,0 -119.24222739999985,37.94010079999994,0 -119.24068929999986,37.940268499999945,0 -119.23938889999987,37.939965599999944,0 -119.23526489999986,37.93676489999994,0 -119.23304049999986,37.93567649999995,0 -119.23194249999987,37.93575689999995,0 -119.23143049999987,37.93606479999995,0 -119.2310983999999,37.93662139999994,0 -119.2312096999999,37.93859429999994,0 -119.2302584999999,37.93979809999994,0 -119.23000709999991,37.941084399999944,0 -119.22625119999992,37.945524899999945,0 -119.22580069999994,37.94751099999995,0 -119.22475669999993,37.94885269999995,0 -119.22471659999992,37.949598199999954,0 -119.22611179999991,37.951192599999956,0 -119.2261142999999,37.95194839999995,0 -119.22530379999989,37.952616999999954,0 -119.22464609999992,37.952722299999955,0 -119.2237596999999,37.95247589999996,0 -119.22216439999991,37.95142709999996,0 -119.21315439999991,37.94945119999996,0 -119.21054319999992,37.95016959999996,0 -119.20766749999991,37.95043199999996,0 -119.20007799999992,37.94997099999996,0 -119.19147709999993,37.947755899999954,0 -119.18989029999993,37.94795009999996,0 -119.18929159999992,37.947800399999956,0 -119.18848509999992,37.94672089999995,0 -119.18668659999993,37.94530909999995,0 -119.18513839999991,37.94472209999996,0 -119.18468259999992,37.94428269999996,0 -119.1842212999999,37.94297119999995,0 -119.18209219999991,37.94133859999995,0 -119.17931779999992,37.93793469999995,0 -119.17703139999992,37.93294399999995,0 -119.17544959999992,37.931824299999946,0 -119.16990199999991,37.93043019999995,0 -119.16838249999992,37.930418399999944,0 -119.16442209999992,37.931133499999945,0 -119.16054189999993,37.931055699999945,0 -119.15092059999994,37.933939599999945,0 -119.14688309999993,37.935861599999946,0 -119.13479199999993,37.94006269999994,0 -119.13020739999993,37.940752999999944,0 -119.12223409999994,37.939634899999945,0 -119.12077629999995,37.939920199999946,0 -119.11916969999996,37.94098879999994,0 -119.11860149999995,37.94196029999994,0 -119.11807449999995,37.944359199999944,0 -119.11710019999995,37.94560889999994,0 -119.11436949999995,37.94753439999994,0 -119.11362829999996,37.94861259999994,0 -119.11319589999997,37.950097199999945,0 -119.11295959999995,37.95025039999995,0 -119.11030029999995,37.949854699999946,0 -119.10841119999994,37.94901309999995,0 -119.10744889999994,37.94826859999995,0 -119.10273469999993,37.94270859999995,0 -119.10166599999992,37.94032359999995,0 -119.08530409999993,37.856671899999945,0 -119.08309039999992,37.85199269999995,0 -119.08043819999992,37.84816049999995,0 -119.07715299999991,37.84114199999995,0 -119.07339959999992,37.83515249999995,0 -119.07260349999993,37.83232249999995,0 -119.07174709999993,37.83088999999995,0 -119.07072839999994,37.830067799999945,0 -119.06735749999994,37.828646299999946,0 -119.06544969999995,37.82728469999994,0 -119.05984299999996,37.817808199999945,0 -119.04683299999996,37.807456599999945,0 -119.04267869999997,37.805099899999945,0 -119.04139669999996,37.80365299999994,0 -119.04080809999996,37.80182119999994,0 -119.04094649999996,37.798628399999934,0 -119.04020449999996,37.796212799999935,0 -119.03812609999997,37.79409369999994,0 -119.02354469999997,37.78647619999994,0 -119.02188569999998,37.78456959999994,0 -119.02073369999998,37.78046179999994,0 -119.01957439999998,37.778663499999944,0 -119.0180185,37.77721939999994,0 -119.0041418,37.76832969999994,0 -118.99866989999998,37.76361909999994,0 -118.99550899999998,37.76227589999994,0 -118.99256319999998,37.75993059999995,0 -118.98822179999998,37.757875999999946,0 -118.98566409999998,37.75514599999995,0 -118.98273959999999,37.748919799999946,0 -118.97678159999998,37.74316929999994,0 -118.95431269999999,37.71280079999994,0 -118.94876829999998,37.69709489999994,0 -118.94380429999998,37.691485099999944,0 -118.94304169999998,37.690110399999945,0 -118.93931329999998,37.676276099999946,0 -118.93559289999999,37.668185599999944,0 -118.92581459999998,37.65753749999994,0 -118.92486839999998,37.65549179999994,0 -118.92445679999997,37.649277299999945,0 -118.92331379999999,37.64607419999995,0 -118.92148369999998,37.643916999999945,0 -118.9182676,37.64119489999995,0 -118.91843829999998,37.64089419999995,0 -118.92446239999998,37.63970619999995,0 -118.93720409999999,37.64021509999994,0 -118.9521301,37.64597359999995,0 -118.95510860000002,37.64653739999995,0 -118.96507270000002,37.64675099999995,0 </coordinates></LineString><TimeSpan><begin>2021-10-16T01:29:14.000Z</begin><end>2021-10-16T03:23:59.922Z</end></TimeSpan></Placemark><Placemark><name>Shilo Inns Suites</name><address>2963 Main St, Mammoth Lakes, CA 93546</address><ExtendedData><Data name="Email"><value>syugen.zhou@gmail.com</value></Data><Data name="Category"><value>Hotel</value></Data><Data name="Distance"><value>0</value></Data></ExtendedData><description> Hotel from 2021-10-16T03:23:59.922Z to 2021-10-16T15:24:11.999Z. Distance 0m </description><Point><coordinates>-118.964918,37.6461928,0</coordinates></Point><TimeSpan><begin>2021-10-16T03:23:59.922Z</begin><end>2021-10-16T15:24:11.999Z</end></TimeSpan></Placemark></Document></kml>
