<?xml version="1.0" encoding="UTF-8"?><kml xmlns="http://www.opengis.net/kml/2.2" xmlns:gx="http://www.google.com/kml/ext/2.2"><Document><name> Location history from 2022-07-04 to 2022-07-04 </name><open>1</open><description></description><StyleMap id="multiTrack"><Pair><key>normal</key><styleUrl>#multiTrack_n</styleUrl></Pair><Pair><key>highlight</key><styleUrl>#multiTrack_h</styleUrl></Pair></StyleMap><Style id="multiTrack_n"><IconStyle><Icon><href>https://earth.google.com/images/kml-icons/track-directional/track-0.png</href></Icon></IconStyle><LineStyle><color>99ffac59</color><width>6</width></LineStyle></Style><Style id="multiTrack_h"><IconStyle><scale>1.2</scale><Icon><href>https://earth.google.com/images/kml-icons/track-directional/track-0.png</href></Icon></IconStyle><LineStyle><color>99ffac59</color><width>8</width></LineStyle></Style><Placemark><name>Hyatt Place Tucson-Central</name><address>1375 W Grant Rd, Tucson, AZ 85745</address><ExtendedData><Data name="Email"><value>syugen.zhou@gmail.com</value></Data><Data name="Category"><value>Hotel</value></Data><Data name="Distance"><value>0</value></Data></ExtendedData><description> Hotel from 2022-07-04T02:37:29.999Z to 2022-07-04T15:12:54.999Z. Distance 0m </description><Point><coordinates>-110.9944586,32.2494757,0</coordinates></Point><TimeSpan><begin>2022-07-04T02:37:29.999Z</begin><end>2022-07-04T15:12:54.999Z</end></TimeSpan></Placemark><Placemark><name>Driving</name><address></address><ExtendedData><Data name="Email"><value>syugen.zhou@gmail.com</value></Data><Data name="Category"><value>Driving</value></Data><Data name="Distance"><value>235386</value></Data></ExtendedData><description> Driving from 2022-07-04T15:12:54.999Z to 2022-07-04T17:39:53.000Z. Distance 235386m </description><LineString><altitudeMode>clampToGround</altitudeMode><extrude>1</extrude><tesselate>1</tesselate><coordinates>-110.99537889999999,32.2502671,0 -110.9953745,32.2503433,0 -110.99219749999999,32.2502725,0 -110.99373539999999,32.2521701,0 -110.99390429999998,32.252243899999996,0 -110.99572899999998,32.254291,0 -110.99588689999999,32.254351199999995,0 -110.99742049999999,32.2562934,0 -110.9988662,32.257712600000005,0 -111.0003626,32.2588686,0 -111.00304689999999,32.2605742,0 -111.0046357,32.2619166,0 -111.00595899999999,32.263549899999994,0 -111.00661529999999,32.264710599999994,0 -111.00828379999999,32.26879629999999,0 -111.0090077,32.26994079999999,0 -111.02666889999999,32.291163499999996,0 -111.03358959999998,32.298347899999996,0 -111.03634899999997,32.301543699999996,0 -111.03857189999998,32.304460899999995,0 -111.05111839999998,32.322777099999996,0 -111.05361449999998,32.32574159999999,0 -111.07542289999998,32.346124999999994,0 -111.08428799999999,32.353658599999996,0 -111.10547619999998,32.374370299999995,0 -111.11892139999998,32.3907003,0 -111.12118979999998,32.393138199999996,0 -111.12451519999998,32.396243299999995,0 -111.12701529999998,32.39828959999999,0 -111.14005149999998,32.40764339999999,0 -111.14722139999998,32.41236839999999,0 -111.15755149999998,32.42020519999999,0 -111.21031579999999,32.4580096,0 -111.21742039999998,32.462677199999995,0 -111.22193289999998,32.4662459,0 -111.26014609999999,32.4934346,0 -111.2619984,32.4951614,0 -111.2635914,32.496971900000005,0 -111.26494509999999,32.4988639,0 -111.265753,32.50022980000001,0 -111.27051399999999,32.5099315,0 -111.2718369,32.512152900000004,0 -111.27376310000001,32.514774100000004,0 -111.3703601,32.6300307,0 -111.37235960000001,32.6320581,0 -111.3799367,32.6388148,0 -111.3829223,32.641107500000004,0 -111.40164990000001,32.653347800000006,0 -111.4104113,32.660344200000004,0 -111.41397010000001,32.6628538,0 -111.48846560000001,32.709303,0 -111.495996,32.713381,0 -111.50889020000001,32.7213874,0 -111.5088973,32.7214617,0 -111.5118039,32.7235357,0 -111.5140511,32.7249227,0 -111.51569920000001,32.7257068,0 -111.51656400000002,32.726016300000005,0 -111.51593570000001,32.729018,0 -111.51579630000002,32.730965100000006,0 -111.51584630000002,32.761068800000004,0 -111.51552110000002,32.765529,0 -111.51500850000002,32.9398229,0 -111.51510720000002,32.941025200000006,0 -111.51554660000002,32.9431351,0 -111.51596080000002,32.944329100000004,0 -111.51680960000003,32.9461158,0 -111.51856990000003,32.9486034,0 -111.52058120000002,32.95084,0 -111.52134820000003,32.951864799999996,0 -111.52263720000002,32.9540607,0 -111.52330030000002,32.9556452,0 -111.52394900000003,32.9580009,0 -111.52418570000003,32.9604732,0 -111.52397350000004,32.9913271,0 -111.52392050000003,32.991403299999995,0 -111.52391670000003,32.9949361,0 -111.52397920000004,32.9950249,0 -111.52395290000004,32.998908699999994,0 -111.52390290000005,32.998955499999994,0 -111.52392820000006,33.002539899999995,0 -111.52117760000006,33.00257609999999,0 -111.52111720000006,33.00259629999999,0 -111.48289070000007,33.002764199999994,0 -111.48137750000006,33.00262849999999,0 -111.47325030000006,33.00257469999999,0 -111.47337490000005,33.046261799999996,0 -111.46467080000005,33.049531699999996,0 -111.43082600000005,33.05688789999999,0 -111.42973340000005,33.05699039999999,0 -111.42829000000005,33.056873899999985,0 -111.40859310000005,33.052489999999985,0 -111.40784160000005,33.05245739999999,0 -111.40686110000006,33.05253049999999,0 -111.38347610000005,33.05650869999999,0 -111.37911400000006,33.056526799999986,0 -111.37899170000006,33.063213199999986,0 -111.37867200000007,33.06484349999998,0 -111.37464960000005,33.07934179999998,0 -111.37429670000006,33.08165029999998,0 -111.37294450000006,33.09735879999998,0 -111.37259130000005,33.09945669999998,0 -111.37188290000005,33.10214509999999,0 -111.37121590000005,33.10400379999999,0 -111.36967890000005,33.107238299999985,0 -111.36842640000005,33.10930829999998,0 -111.36384430000005,33.11583129999998,0 -111.36259860000006,33.11818559999998,0 -111.36102910000005,33.12249299999998,0 -111.36053550000005,33.12454579999998,0 -111.34129320000005,33.24923499999998,0 -111.34088320000005,33.25086789999998,0 -111.33979730000006,33.25337679999998,0 -111.33970540000006,33.25341609999998,0 -111.33869220000005,33.25521659999998,0 -111.33732400000005,33.25482329999998,0 -111.33613900000005,33.25463499999998,0 -111.33458130000005,33.25460699999998,0 -111.33285300000006,33.25486789999997,0 -111.32825130000006,33.256193599999975,0 -111.32818770000006,33.256252599999975,0 -111.32541100000007,33.256975499999974,0 -111.32324690000006,33.257249099999974,0 -111.29921620000006,33.25768639999997,0 -111.29531780000006,33.258004199999974,0 -111.28874390000006,33.25918889999997,0 -111.28415820000006,33.25934179999997,0 -111.28238120000006,33.25961959999997,0 -111.28021870000006,33.26035419999997,0 -111.27622520000006,33.262386399999976,0 -111.27420460000006,33.263051499999975,0 -111.27275640000006,33.26330119999998,0 -111.27078000000006,33.263342899999984,0 -111.26928080000006,33.26319859999998,0 -111.26700100000006,33.262727399999974,0 -111.26506970000007,33.26258289999998,0 -111.26357930000006,33.26269779999998,0 -111.25133810000005,33.26523479999998,0 -111.24989350000007,33.265889099999974,0 -111.24858480000006,33.266817599999975,0 -111.24684470000007,33.26862259999997,0 -111.24646010000006,33.26890969999997,0 -111.24540050000006,33.26949309999998,0 -111.23960600000007,33.27140799999997,0 -111.23855210000006,33.271872099999975,0 -111.23658930000006,33.27300499999997,0 -111.23320450000006,33.27560899999997,0 -111.23204030000005,33.27609749999997,0 -111.23108660000004,33.276277699999966,0 -111.22972140000005,33.27623769999997,0 -111.22859140000004,33.27592379999997,0 -111.22582700000004,33.27443839999997,0 -111.22501630000005,33.274165499999974,0 -111.22034930000004,33.27336469999997,0 -111.21782170000003,33.27265969999998,0 -111.21691780000003,33.272491699999975,0 -111.21613960000003,33.27244109999997,0 -111.21502280000003,33.27251339999997,0 -111.20234380000002,33.27462079999997,0 -111.20065080000002,33.27458549999997,0 -111.19924680000003,33.27436049999997,0 -111.19322140000003,33.272412099999976,0 -111.19175910000003,33.272148199999975,0 -111.18981280000003,33.27211009999997,0 -111.18738360000003,33.27247089999997,0 -111.18645520000003,33.27274629999997,0 -111.18492740000002,33.27337209999997,0 -111.18263950000002,33.27467559999997,0 -111.18108310000002,33.27539299999997,0 -111.17542120000003,33.27702559999997,0 -111.17448380000003,33.27749489999997,0 -111.17096960000003,33.280113799999974,0 -111.16971160000003,33.28077709999997,0 -111.16075500000002,33.283872099999975,0 -111.15814170000003,33.28440209999998,0 -111.15621210000003,33.28442389999998,0 -111.15225460000003,33.283918499999984,0 -111.15129910000005,33.28390469999998,0 -111.14590880000004,33.284484399999975,0 -111.14392250000004,33.28446959999998,0 -111.14189080000004,33.28429189999998,0 -111.13677380000004,33.28332279999998,0 -111.13520840000004,33.283194299999984,0 -111.13387610000004,33.28321759999998,0 -111.13211410000004,33.28340219999998,0 -111.12864430000005,33.28407679999999,0 -111.10680270000005,33.28699589999999,0 -111.10465930000004,33.28744649999998,0 -111.10348910000003,33.287793599999986,0 -111.10181300000004,33.28846619999998,0 -111.09310840000003,33.29264839999998,0 -111.09282460000004,33.29273879999998,0 -111.09183240000004,33.29287369999998,0 -111.09079350000005,33.292804099999984,0 -111.08989710000004,33.29294039999998,0 -111.08928020000005,33.293173699999976,0 -111.08881430000005,33.29345209999998,0 -111.08835340000005,33.29389719999998,0 -111.08809620000005,33.29426169999998,0 -111.08789710000005,33.29469169999998,0 -111.08779570000006,33.29564449999998,0 -111.08799650000006,33.29649799999998,0 -111.08817950000005,33.29681349999998,0 -111.09042810000005,33.29917469999998,0 -111.09060060000004,33.29944569999998,0 -111.09086630000004,33.30020829999998,0 -111.09090800000004,33.300609799999975,0 -111.09061690000003,33.30176589999998,0 -111.09025220000004,33.30246649999998,0 -111.08986880000003,33.30291189999998,0 -111.08931910000003,33.30332739999998,0 -111.08868900000003,33.30360709999998,0 -111.08788220000002,33.30378569999998,0 -111.08604280000003,33.30378119999998,0 -111.08465390000003,33.30401369999998,0 -111.07704310000004,33.30641839999998,0 -111.07592780000003,33.30648679999997,0 -111.07338700000004,33.307496199999974,0 -111.07272950000002,33.30793599999998,0 -111.07217270000002,33.30821289999997,0 -111.07082530000002,33.30862799999997,0 -111.06952690000003,33.309294199999975,0 -111.06873600000003,33.309547199999976,0 -111.06818140000003,33.30964039999998,0 -111.06734990000002,33.30989099999998,0 -111.06600090000002,33.31001669999998,0 -111.06519380000002,33.30991969999998,0 -111.06374290000002,33.30952119999998,0 -111.06279620000002,33.309479599999975,0 -111.06207020000002,33.30964889999998,0 -111.06156760000003,33.30989049999997,0 -111.06042830000001,33.31081579999998,0 -111.05995160000002,33.311114499999974,0 -111.05900290000001,33.31143339999997,0 -111.05831010000001,33.31149489999997,0 -111.05661530000002,33.31123099999997,0 -111.05531810000002,33.311309099999974,0 -111.05120690000001,33.312314199999975,0 -111.0468584,33.313776599999976,0 -111.04460990000001,33.31426979999998,0 -111.04255340000002,33.31449719999998,0 -111.0384226,33.31463939999997,0 -111.03781260000001,33.31478069999997,0 -111.03717900000002,33.315037499999974,0 -111.03674050000001,33.31533569999997,0 -111.03611830000001,33.31606669999997,0 -111.0355241,33.31756589999997,0 -111.03526860000001,33.320381599999976,0 -111.0350593,33.320901899999974,0 -111.0347938,33.321329399999975,0 -111.0335606,33.32278029999998,0 -111.03153850000001,33.328178799999975,0 -111.0311586,33.331154999999974,0 -111.0306964,33.33200099999998,0 -111.03008729999999,33.33256039999998,0 -111.0271516,33.33422879999998,0 -111.02452199999999,33.33546749999998,0 -111.0237554,33.336016299999976,0 -111.0218347,33.338101699999974,0 -111.0213641,33.33842629999998,0 -111.01922669999999,33.33946709999998,0 -111.01885019999999,33.33958619999997,0 -111.01745919999999,33.33981349999998,0 -111.01644069999999,33.340165399999975,0 -111.0144167,33.341361399999975,0 -111.013832,33.341598599999976,0 -111.01334269999998,33.34168869999997,0 -111.01273729999998,33.341700599999974,0 -111.01077069999998,33.34145279999997,0 -111.00935859999998,33.34148979999998,0 -111.00483529999998,33.342123199999975,0 -110.99993279999998,33.34247309999997,0 -110.9989208,33.342728199999975,0 -110.9981813,33.343093599999975,0 -110.99765389999999,33.343497899999974,0 -110.995599,33.34577529999997,0 -110.99086329999999,33.349833599999975,0 -110.98975119999999,33.35050379999997,0 -110.98169869999998,33.35430689999997,0 -110.9806838,33.355007799999974,0 -110.9800272,33.35579969999997,0 -110.9789919,33.35786339999997,0 -110.978608,33.35842719999997,0 -110.97531239999999,33.36160989999997,0 -110.9749035,33.362264499999974,0 -110.97417639999999,33.363807699999974,0 -110.9735592,33.36451469999998,0 -110.97231449999998,33.36542309999998,0 -110.97175689999999,33.36569499999998,0 -110.97068709999998,33.36593069999998,0 -110.96839329999997,33.365921299999975,0 -110.96641049999998,33.36616739999997,0 -110.96257979999999,33.36567099999997,0 -110.96192859999998,33.36541759999997,0 -110.96126179999999,33.36495499999997,0 -110.95958669999999,33.363222199999974,0 -110.95860139999999,33.36266629999997,0 -110.95765029999998,33.362420299999975,0 -110.95731319999999,33.36238169999998,0 -110.95391779999999,33.362572899999975,0 -110.95296059999998,33.36274039999998,0 -110.95128879999999,33.36320629999998,0 -110.95087609999999,33.363259999999975,0 -110.95010339999999,33.363239999999976,0 -110.94949639999999,33.363110899999974,0 -110.94903609999999,33.36292509999997,0 -110.94698239999998,33.36158149999997,0 -110.94655879999998,33.36141929999997,0 -110.94569769999997,33.36127849999997,0 -110.94501039999997,33.36132549999997,0 -110.94401329999998,33.36154669999997,0 -110.94286409999998,33.36218419999997,0 -110.94224489999998,33.362827599999974,0 -110.94196459999999,33.363438199999976,0 -110.9416234,33.365205099999976,0 -110.94114809999999,33.36615489999998,0 -110.94061549999999,33.36675169999997,0 -110.94021909999998,33.367060099999975,0 -110.93929339999998,33.36753119999997,0 -110.93307589999998,33.36900499999997,0 -110.93242619999998,33.36907039999998,0 -110.92822769999998,33.36910749999998,0 -110.92356439999999,33.370153199999976,0 -110.92284559999999,33.37038699999998,0 -110.9217075,33.37099779999998,0 -110.9205758,33.371818999999974,0 -110.91823639999998,33.373109299999975,0 -110.9166662,33.374153299999975,0 -110.9103215,33.37748259999998,0 -110.90877479999999,33.37808449999997,0 -110.9081425,33.37843579999998,0 -110.90751589999999,33.37898799999998,0 -110.9067088,33.38006569999998,0 -110.90621829999999,33.38045829999998,0 -110.905351,33.380871999999975,0 -110.9048361,33.380993099999976,0 -110.9043602,33.38103439999998,0 -110.9036314,33.38097459999998,0 -110.9030069,33.38080269999998,0 -110.9020796,33.38038329999998,0 -110.9016004,33.38023979999998,0 -110.90114150000001,33.380183099999975,0 -110.8985682,33.38036959999997,0 -110.89807330000001,33.380478699999976,0 -110.89740590000001,33.380775999999976,0 -110.89612980000001,33.381587599999975,0 -110.89253020000001,33.38342979999997,0 -110.88756910000001,33.38729469999998,0 -110.88612400000001,33.38895099999998,0 -110.88534100000001,33.38950369999998,0 -110.88487860000001,33.38973739999998,0 -110.88405560000001,33.38999659999998,0 -110.88241320000002,33.39017669999998,0 -110.88173320000001,33.39035789999998,0 -110.8802203,33.39097969999998,0 -110.87959230000001,33.39139469999998,0 -110.87919190000001,33.39181119999998,0 -110.87877950000001,33.392621399999975,0 -110.8786723,33.39271469999998,0 -110.87796730000001,33.393793099999975,0 -110.87673880000001,33.394646199999976,0 -110.87659470000001,33.39479489999997,0 -110.86835020000001,33.39987439999997,0 -110.86730880000002,33.400684499999976,0 -110.86583320000001,33.401574499999974,0 -110.8656823,33.401578899999976,0 -110.8653903,33.40165589999997,0 -110.86438410000001,33.40163189999998,0 -110.863971,33.40168069999998,0 -110.8635067,33.40185769999998,0 -110.86325900000001,33.40200949999998,0 -110.86193410000001,33.403227799999975,0 -110.86067230000002,33.40405319999998,0 -110.85982880000002,33.40477949999998,0 -110.85960440000001,33.404855799999986,0 -110.85406180000001,33.40779929999998,0 -110.85401990000001,33.407875299999986,0 -110.8531076,33.40836199999998,0 -110.85299710000001,33.408365099999976,0 -110.8524662,33.40864909999998,0 -110.8515356,33.40931169999998,0 -110.85101019999999,33.40958619999998,0 -110.8486683,33.41044979999998,0 -110.84806529999999,33.41055479999998,0 -110.84511239999999,33.41057679999998,0 -110.84411629999998,33.41074199999998,0 -110.83751589999999,33.41367639999998,0 -110.83271509999999,33.41492029999998,0 -110.83264699999998,33.41497619999998,0 -110.831802,33.41516499999998,0 -110.83161969999999,33.41514589999998,0 -110.83058009999999,33.41538699999998,0 -110.82837459999999,33.416181799999976,0 -110.82853869999998,33.416589299999984,0 -110.82853069999997,33.41674629999998,0 -110.82846269999997,33.416918699999975,0 -110.82827709999997,33.417146199999976,0 -110.82828449999998,33.41718889999998,0 -110.82675079999997,33.41791609999998,0 -110.82628329999997,33.41829039999998,0 -110.82604099999998,33.418590399999985,0 -110.82578939999998,33.41927699999999,0 -110.82587959999996,33.424602599999986,0 -110.82611429999996,33.42586199999999,0 -110.82796249999996,33.43248649999998,0 -110.82911339999995,33.43572789999999,0 -110.82924019999996,33.43642169999999,0 -110.82920989999995,33.43719769999999,0 -110.82895109999995,33.438407799999986,0 -110.82895689999997,33.43914069999999,0 -110.82908509999997,33.43954049999999,0 -110.82937339999997,33.44006439999999,0 -110.82960509999997,33.44032559999999,0 -110.83005919999997,33.44066309999999,0 -110.83076759999997,33.44098559999999,0 -110.83448359999997,33.44191319999999,0 -110.83572959999996,33.44243759999999,0 -110.83684089999997,33.44327809999999,0 -110.83741549999998,33.443896499999994,0 -110.83797379999997,33.44500389999999,0 -110.83820909999997,33.44622009999999,0 -110.83807559999995,33.44862179999999,0 -110.83812579999996,33.4490251,0 -110.83830209999996,33.449559,0 -110.83855459999997,33.4500155,0 -110.83909999999997,33.450652299999994,0 -110.83963859999997,33.45103159999999,0 -110.84225319999997,33.452496399999994,0 -110.84277069999997,33.452922699999995,0 -110.84347729999998,33.4539012,0 -110.84417649999997,33.45644589999999,0 -110.84479949999997,33.457595899999994,0 -110.84525319999996,33.458119399999994,0 -110.84841969999997,33.46083289999999,0 -110.84940539999997,33.46189749999999,0 -110.85303969999997,33.467326199999995,0 -110.85483709999997,33.470807699999995,0 -110.85546159999997,33.47265049999999,0 -110.85569449999996,33.47423559999999,0 -110.85565969999996,33.48161809999999,0 -110.85588379999996,33.48274389999999,0 -110.85620189999996,33.48359489999999,0 -110.85689879999995,33.48483139999999,0 -110.85743029999996,33.48550809999999,0 -110.86215549999996,33.490021599999984,0 -110.86253959999996,33.49061539999998,0 -110.86341939999996,33.49337579999999,0 -110.86387399999997,33.494178199999986,0 -110.86525599999996,33.495676799999984,0 -110.86558399999996,33.49626099999999,0 -110.86789859999996,33.50279499999999,0 -110.86798349999995,33.50376949999999,0 -110.86786329999995,33.505229499999984,0 -110.86791499999995,33.505763899999984,0 -110.86806279999995,33.506289999999986,0 -110.86882389999995,33.50794459999998,0 -110.86897349999997,33.50851819999998,0 -110.86876119999995,33.51394819999999,0 -110.86900669999996,33.516871299999984,0 -110.86915679999997,33.517441699999985,0 -110.86949579999997,33.51814199999998,0 -110.87030519999996,33.51910199999998,0 -110.87093439999997,33.51951539999998,0 -110.87261719999998,33.520268999999985,0 -110.87417809999998,33.52073509999999,0 -110.87464559999998,33.520785899999986,0 -110.87888069999998,33.52061279999999,0 -110.87970439999998,33.52050719999998,0 -110.88094549999997,33.52019379999999,0 -110.88278439999996,33.51942309999998,0 -110.88333269999997,33.51926499999998,0 -110.88427909999997,33.51913339999998,0 -110.88507169999997,33.519194599999985,0 -110.88859969999997,33.519894499999985,0 -110.88948139999998,33.52021879999999,0 -110.89026849999998,33.52076049999999,0 -110.89083099999998,33.521334999999986,0 -110.89190379999998,33.523554799999985,0 -110.89251139999998,33.52439549999998,0 -110.89314369999997,33.524948899999984,0 -110.89369879999997,33.52525639999999,0 -110.89449659999998,33.525530799999984,0 -110.89828029999997,33.52621079999999,0 -110.89909689999996,33.52627279999998,0 -110.90016359999997,33.52613839999998,0 -110.90079309999996,33.52592799999998,0 -110.90240619999996,33.52513609999998,0 -110.90371549999998,33.524627299999985,0 -110.90541149999997,33.524261899999985,0 -110.90715799999997,33.524178499999984,0 -110.90826439999996,33.524286299999986,0 -110.90964649999998,33.524611499999985,0 -110.91102219999998,33.52514559999998,0 -110.91256389999997,33.526140099999985,0 -110.91334949999997,33.52687369999998,0 -110.91390699999998,33.52753109999998,0 -110.91522059999997,33.52988759999998,0 -110.91621779999997,33.531105699999976,0 -110.91695399999998,33.53171269999998,0 -110.92032729999997,33.53399859999998,0 -110.92097649999998,33.53433729999998,0 -110.92258269999998,33.53491769999998,0 -110.93197169999998,33.53703709999998,0 -110.93364509999998,33.537736399999986,0 -110.93530359999998,33.53879229999998,0 -110.93643589999999,33.53980499999998,0 -110.93960729999999,33.54395639999998,0 -110.94057309999998,33.54492419999998,0 -110.94565929999999,33.54856599999998,0 -110.94692499999998,33.54975989999998,0 -110.94759819999999,33.55068319999997,0 -110.94808189999998,33.55170009999998,0 -110.94834279999999,33.55257879999998,0 -110.94888099999999,33.55640919999998,0 -110.94924309999999,33.55761589999998,0 -110.94969069999999,33.55846839999998,0 -110.95304679999998,33.56333819999998,0 -110.95355889999999,33.564794499999984,0 -110.9536754,33.56569089999998,0 -110.95372959999999,33.56852939999998,0 -110.95397829999999,33.56967639999998,0 -110.95444079999999,33.57099459999998,0 -110.9548959,33.57182879999998,0 -110.9586561,33.576601499999974,0 -110.9596304,33.57749699999997,0 -110.9603129,33.577970199999974,0 -110.9656315,33.58062039999997,0 -110.9670596,33.581116699999974,0 -110.97126049999999,33.58191909999997,0 -110.97245659999999,33.58227659999998,0 -110.97808109999998,33.58451109999998,0 -110.97986909999999,33.58544239999998,0 -110.98228139999998,33.58705379999997,0 -110.98914889999999,33.59335589999998,0 -110.98991379999998,33.593925999999975,0 -110.9907992,33.594407499999974,0 -110.99601879999999,33.596163599999976,0 -110.9976521,33.59694629999998,0 -111.00595549999998,33.601580999999975,0 -111.0070197,33.60235669999998,0 -111.0076292,33.602954599999975,0 -111.01038639999999,33.60687059999998,0 -111.01160229999999,33.60826419999998,0 -111.0126751,33.60926009999998,0 -111.0149203,33.61088419999998,0 -111.0161979,33.611625899999986,0 -111.0180579,33.612475299999986,0 -111.019728,33.61303429999999,0 -111.021711,33.613524199999986,0 -111.0516678,33.61782139999999,0 -111.0545343,33.61874939999999,0 -111.0567638,33.619933799999984,0 -111.05828609999999,33.621049099999986,0 -111.0597954,33.62254929999999,0 -111.0685034,33.634303899999985,0 -111.06931589999999,33.635051899999986,0 -111.07009959999999,33.63548389999998,0 -111.0711956,33.63580159999998,0 -111.07522119999999,33.63630769999998,0 -111.07629179999998,33.63670289999998,0 -111.10561819999998,33.65426789999998,0 -111.10605359999998,33.65376459999999,0 -111.10640439999997,33.65357869999998,0 -111.10702979999998,33.65341549999999,0 -111.10723489999997,33.65330089999999,0 -111.10748109999997,33.65298649999999,0 -111.10800479999997,33.65110709999999,0 -111.10809979999996,33.65093519999999,0 -111.10906939999997,33.64987309999999,0 -111.10941279999997,33.64935179999999,0 -111.11003369999997,33.64780889999999,0 -111.11037159999998,33.64735229999999,0 -111.11063319999998,33.647130099999984,0 -111.11093889999997,33.64696039999999,0 -111.11159469999997,33.64671809999999,0 -111.11187229999997,33.646523899999984,0 -111.11205879999997,33.646181099999986,0 -111.11213919999997,33.64585959999999,0 -111.11217809999998,33.644423799999984,0 -111.11227069999998,33.644314399999985,0 -111.11248509999997,33.64427959999998,0 -111.11257639999997,33.64436019999998,0 -111.11280039999997,33.644814599999975,0 -111.11276799999996,33.64494629999998,0 </coordinates></LineString><TimeSpan><begin>2022-07-04T15:12:54.999Z</begin><end>2022-07-04T17:39:53.000Z</end></TimeSpan></Placemark><Placemark><name>Tonto National Monument</name><address>26260 AZ-188, Roosevelt, AZ 85545</address><ExtendedData><Data name="Email"><value>syugen.zhou@gmail.com</value></Data><Data name="Category"><value>National park</value></Data><Data name="Distance"><value>0</value></Data></ExtendedData><description> National park from 2022-07-04T17:39:53.000Z to 2022-07-04T18:33:28.401Z. Distance 0m </description><Point><coordinates>-111.1135633,33.648428599999995,0</coordinates></Point><TimeSpan><begin>2022-07-04T17:39:53.000Z</begin><end>2022-07-04T18:33:28.401Z</end></TimeSpan></Placemark><Placemark><name>Driving</name><address></address><ExtendedData><Data name="Email"><value>syugen.zhou@gmail.com</value></Data><Data name="Category"><value>Driving</value></Data><Data name="Distance"><value>167532</value></Data></ExtendedData><description> Driving from 2022-07-04T18:33:28.401Z to 2022-07-04T20:39:56.000Z. Distance 167532m </description><LineString><altitudeMode>clampToGround</altitudeMode><extrude>1</extrude><tesselate>1</tesselate><coordinates>-111.1121656,33.6456526,0 -111.1118723,33.646523900000005,0 -111.1106332,33.647130100000005,0 -111.1100337,33.6478089,0 -111.1094128,33.649351800000005,0 -111.10809979999999,33.650935200000006,0 -111.1074811,33.652986500000004,0 -111.1072349,33.6533009,0 -111.1060536,33.6537646,0 -111.10561820000001,33.6542679,0 -111.1209352,33.6634167,0 -111.12211800000001,33.6638655,0 -111.12632040000001,33.664626299999995,0 -111.12989420000002,33.666664299999994,0 -111.13481650000001,33.66760269999999,0 -111.13845660000003,33.66738699999999,0 -111.13965290000003,33.66779969999999,0 -111.14100360000003,33.668869599999994,0 -111.14317480000004,33.66982709999999,0 -111.14367740000003,33.670458499999995,0 -111.14383850000003,33.671035399999994,0 -111.14374580000003,33.67261199999999,0 -111.14393830000003,33.67315269999999,0 -111.14461750000002,33.67393229999999,0 -111.14556420000002,33.67438849999999,0 -111.14619440000003,33.67449189999999,0 -111.15106030000003,33.67395709999999,0 -111.15148690000004,33.67379749999999,0 -111.15312110000004,33.67253309999999,0 -111.15368700000003,33.67239279999999,0 -111.15436460000004,33.67246119999999,0 -111.16010090000005,33.67552219999998,0 -111.16079210000004,33.67618189999999,0 -111.16133470000005,33.677395199999985,0 -111.16212360000006,33.67809229999998,0 -111.16377280000006,33.67884549999999,0 -111.16726350000006,33.68189109999999,0 -111.17122560000007,33.684019599999985,0 -111.17209250000006,33.68474509999999,0 -111.17365250000006,33.68719619999999,0 -111.17568070000006,33.68901549999998,0 -111.17609370000007,33.68994979999998,0 -111.17589440000006,33.69237379999998,0 -111.17617470000005,33.69314139999998,0 -111.17700710000005,33.69404259999998,0 -111.17750070000005,33.69431649999998,0 -111.18001780000006,33.69499499999998,0 -111.18332780000006,33.69773469999998,0 -111.18734420000006,33.69912979999998,0 -111.18844550000006,33.69992119999998,0 -111.18926370000005,33.701255099999976,0 -111.19007810000005,33.703464499999974,0 -111.19114380000005,33.70457489999997,0 -111.19528610000005,33.70624099999997,0 -111.19631680000005,33.70686809999997,0 -111.20480660000005,33.717078899999976,0 -111.20524100000006,33.71804779999997,0 -111.20491000000005,33.72236529999997,0 -111.20513420000006,33.72332199999997,0 -111.20618400000005,33.724872799999964,0 -111.20734060000005,33.72567999999997,0 -111.21002840000006,33.726591099999965,0 -111.21101470000005,33.72720739999997,0 -111.21164380000006,33.72791069999997,0 -111.21216020000006,33.72916589999997,0 -111.21155780000005,33.73192629999997,0 -111.21173370000005,33.73341809999997,0 -111.21267420000005,33.73492279999997,0 -111.21345470000004,33.73558899999997,0 -111.21467400000004,33.73620559999997,0 -111.21567860000005,33.73646979999997,0 -111.21887070000005,33.736691799999974,0 -111.22040300000005,33.737428199999975,0 -111.22256600000004,33.740397099999974,0 -111.22354910000006,33.74124749999997,0 -111.22837440000005,33.74394499999997,0 -111.23334550000006,33.74749809999997,0 -111.23571030000005,33.75016289999997,0 -111.23717140000005,33.75117889999997,0 -111.24024370000005,33.75217749999997,0 -111.24704430000006,33.75575019999997,0 -111.25002270000006,33.75683359999997,0 -111.25123360000005,33.757650999999974,0 -111.25882970000005,33.76733969999997,0 -111.26078590000004,33.77359439999997,0 -111.26361190000004,33.78009229999997,0 -111.26361320000005,33.78560099999998,0 -111.26397150000004,33.78657429999998,0 -111.26616540000005,33.789783899999975,0 -111.26976090000005,33.79930819999997,0 -111.27111400000005,33.80096319999997,0 -111.27408580000005,33.80346349999997,0 -111.27507310000006,33.80395039999997,0 -111.27833990000005,33.80430879999997,0 -111.27984000000005,33.80491119999997,0 -111.28316270000006,33.80824069999997,0 -111.28437320000006,33.808915099999965,0 -111.28728780000006,33.809725599999965,0 -111.28855080000005,33.81082049999996,0 -111.28901120000005,33.81193679999996,0 -111.28856540000005,33.81768329999996,0 -111.28926190000006,33.81913079999996,0 -111.29256410000006,33.82213259999996,0 -111.29419350000005,33.824080099999954,0 -111.31049360000006,33.85021519999996,0 -111.31079360000005,33.851438199999954,0 -111.30996030000004,33.85824789999996,0 -111.31042750000005,33.85975319999996,0 -111.31085160000003,33.86036319999996,0 -111.31273980000005,33.86199229999996,0 -111.31346250000006,33.86310709999996,0 -111.31494760000005,33.86690859999996,0 -111.31500950000006,33.870006999999966,0 -111.31564350000006,33.87175169999996,0 -111.31569300000007,33.877018499999956,0 -111.31527990000006,33.87810659999996,0 -111.31210140000006,33.88265879999996,0 -111.31180970000005,33.883985799999955,0 -111.31178750000005,33.88874749999996,0 -111.30981730000006,33.895181999999956,0 -111.31070220000007,33.899999199999954,0 -111.31015330000007,33.907842099999954,0 -111.31052790000007,33.90894109999996,0 -111.31575090000007,33.91782259999995,0 -111.31744360000006,33.919789999999956,0 -111.31794500000007,33.920703199999956,0 -111.31815220000007,33.92264789999995,0 -111.31426360000006,33.93186199999995,0 -111.31424160000006,33.933806599999954,0 -111.31644110000006,33.93881819999995,0 -111.31676090000005,33.944570399999954,0 -111.31753710000005,33.946049099999954,0 -111.31821750000005,33.94669219999996,0 -111.32120050000005,33.948165099999954,0 -111.32253530000006,33.94948859999995,0 -111.32575530000005,33.95959069999996,0 -111.32571040000005,33.96165029999995,0 -111.32539120000006,33.96280529999995,0 -111.31917220000005,33.97431459999995,0 -111.31253700000005,33.982588299999954,0 -111.31202710000005,33.98603189999995,0 -111.31273570000006,33.98794969999995,0 -111.31479890000006,33.99133819999995,0 -111.31513990000006,33.99264679999995,0 -111.31511160000005,33.994594499999955,0 -111.31354380000006,34.00288169999995,0 -111.31375980000006,34.00457169999996,0 -111.31445010000006,34.00627729999996,0 -111.31536110000006,34.007606099999954,0 -111.31678800000006,34.008910499999956,0 -111.34892620000005,34.02836119999996,0 -111.36637350000005,34.036509199999955,0 -111.36746640000005,34.03657639999995,0 -111.36768070000005,34.03667809999995,0 -111.37025550000006,34.042355899999954,0 -111.37032670000005,34.04370439999995,0 -111.36969620000005,34.045989599999956,0 -111.36233890000004,34.058580399999954,0 -111.36043970000004,34.06291039999996,0 -111.35343130000004,34.09118559999996,0 -111.35344040000004,34.11091339999996,0 -111.35286510000003,34.11269139999996,0 -111.35216240000004,34.11374809999996,0 -111.34344710000003,34.12270609999996,0 -111.33885370000004,34.12515079999996,0 -111.33557210000004,34.12761379999996,0 -111.33283600000004,34.13106869999996,0 -111.32936590000004,34.13804459999996,0 -111.32817110000003,34.139617899999955,0 -111.31728940000005,34.14759129999995,0 -111.31620130000005,34.149104199999954,0 -111.31577180000004,34.15027129999995,0 -111.31565140000005,34.15203339999995,0 -111.31613380000005,34.15377439999995,0 -111.31677600000005,34.154834899999955,0 -111.32359740000005,34.16206999999995,0 -111.32555530000005,34.163249999999955,0 -111.32696880000005,34.16377929999995,0 -111.33114040000005,34.164642299999954,0 -111.33252180000005,34.165318999999954,0 -111.33415640000004,34.16688709999996,0 -111.33765130000005,34.173127499999964,0 -111.33806970000005,34.17473079999996,0 -111.33762180000005,34.17697979999996,0 -111.32877190000005,34.193618499999964,0 -111.32856130000005,34.194925199999965,0 -111.32867400000005,34.19602119999997,0 -111.33104770000006,34.20259209999996,0 -111.33218230000006,34.223594899999966,0 -111.33157000000006,34.22523479999996,0 -111.32524880000005,34.23063829999996,0 -111.32360590000006,34.23326939999996,0 -111.32319020000006,34.235181999999966,0 -111.32292180000006,34.241460399999966,0 -111.32299320000007,34.241568499999964,0 -111.32244300000008,34.25725939999996,0 -111.32225050000008,34.25754239999996,0 -111.32208850000008,34.26590639999996,0 -111.32189720000008,34.266211199999965,0 -111.32184000000007,34.27566439999996,0 -111.32252560000006,34.277379399999965,0 -111.32320000000007,34.278181299999964,0 -111.32484490000007,34.27929239999997,0 -111.32871720000007,34.28065329999997,0 -111.33387300000007,34.28435609999997,0 -111.33902390000007,34.28619309999997,0 -111.34372920000007,34.28910089999997,0 -111.35063560000006,34.29432539999997,0 -111.35599800000006,34.29669939999997,0 -111.35691960000007,34.29780119999997,0 -111.35735970000006,34.29986889999997,0 -111.35922350000006,34.304378299999975,0 -111.36091440000006,34.30651719999997,0 -111.36175740000004,34.30845729999997,0 -111.36260420000005,34.30926369999997,0 -111.36550190000004,34.31054289999997,0 -111.36829500000005,34.31261419999997,0 -111.36901270000004,34.31381509999997,0 -111.37021460000004,34.31467849999997,0 -111.37313050000004,34.31563009999997,0 -111.37359150000005,34.315985999999974,0 -111.37468130000005,34.317532199999974,0 -111.37567510000005,34.318219999999975,0 -111.37630830000006,34.31842039999997,0 -111.38034850000005,34.318621999999976,0 -111.38192610000006,34.31806769999997,0 -111.38344350000006,34.31677209999997,0 -111.38434010000006,34.31632319999997,0 -111.38582430000007,34.31612729999997,0 -111.38859590000007,34.316262399999964,0 -111.39158290000007,34.31690989999997,0 -111.39995120000007,34.31617789999997,0 -111.40130960000008,34.31627329999996,0 -111.40293220000008,34.31667859999997,0 -111.40641630000007,34.318591899999966,0 -111.40849250000008,34.31925079999996,0 -111.40971530000007,34.319323399999966,0 -111.41224530000008,34.318938899999964,0 -111.41310330000007,34.318982699999964,0 -111.41437640000008,34.31939229999996,0 -111.41526040000008,34.32008309999997,0 -111.41671220000008,34.32237659999996,0 -111.41748580000008,34.32425969999996,0 -111.41830120000007,34.32823719999997,0 -111.42208560000007,34.33878019999997,0 -111.42309060000008,34.34022569999997,0 -111.42506490000008,34.34196689999996,0 -111.42567800000009,34.34289539999996,0 -111.42607150000009,34.344052799999965,0 -111.42610360000009,34.346882499999964,0 -111.42489960000009,34.35035789999996,0 -111.4252037000001,34.35536889999996,0 -111.42457520000009,34.357956899999955,0 -111.42462460000009,34.35955009999996,0 -111.42557460000009,34.361526499999954,0 -111.42704170000007,34.36281659999995,0 -111.43157260000008,34.36456489999995,0 -111.43428830000008,34.36670039999995,0 -111.44358640000007,34.37100039999995,0 -111.44515780000008,34.37211489999995,0 -111.45119250000008,34.37977479999995,0 -111.45275100000008,34.382512299999945,0 -111.45415210000009,34.38375529999994,0 -111.45471460000007,34.38465759999994,0 -111.45487950000009,34.390221899999936,0 -111.45538860000009,34.391095399999934,0 -111.45582460000008,34.391441599999936,0 -111.45874870000007,34.39233459999994,0 -111.46144580000008,34.39373689999994,0 -111.46227150000007,34.39393059999994,0 -111.46570590000007,34.39402139999994,0 -111.46702390000007,34.39450399999994,0 -111.46771880000007,34.395071499999936,0 -111.46926660000007,34.39808149999994,0 -111.46992580000008,34.39863959999993,0 -111.47178860000008,34.39948589999993,0 -111.47571770000009,34.40270659999993,0 -111.47833090000009,34.40390789999993,0 -111.48060000000008,34.40561019999993,0 -111.48281650000008,34.40624939999993,0 -111.49218130000008,34.406560299999924,0 -111.49269420000007,34.40681619999993,0 -111.49303440000008,34.40716009999993,0 -111.49325350000008,34.40799929999993,0 -111.49308980000008,34.40842169999993,0 -111.48977510000007,34.41244759999993,0 -111.48959830000007,34.41288489999992,0 -111.48971610000007,34.41344409999992,0 -111.49015430000007,34.41387349999992,0 -111.49064660000008,34.41404679999992,0 -111.49369340000008,34.41382699999992,0 -111.49475910000007,34.41393219999992,0 -111.49595870000007,34.41432349999992,0 -111.49703320000008,34.41501139999992,0 -111.49812820000007,34.41674849999992,0 -111.49847550000008,34.41703489999992,0 -111.50078380000008,34.418015499999925,0 -111.50127790000008,34.418800499999925,0 -111.50077330000008,34.42123449999992,0 -111.50092690000008,34.42163189999992,0 -111.50121240000007,34.42175999999993,0 -111.50150370000007,34.42172779999993,0 -111.50287090000006,34.420409999999926,0 -111.50383000000006,34.42000089999993,0 -111.50555800000006,34.41965579999992,0 -111.50622850000008,34.41975219999993,0 -111.50676920000006,34.419990899999924,0 -111.50844980000007,34.42141819999993,0 -111.50889970000007,34.421565899999926,0 -111.51088020000006,34.421289699999924,0 -111.51159840000005,34.42156179999992,0 -111.51189560000006,34.42182439999992,0 -111.51217700000005,34.422381099999924,0 -111.51204960000005,34.42332019999993,0 -111.50898050000006,34.43029619999993,0 -111.50788440000005,34.43154459999993,0 -111.50443470000006,34.434081399999926,0 -111.49153040000006,34.44121629999993,0 -111.48952240000006,34.44160739999993,0 -111.48792350000005,34.44155539999993,0 -111.48101590000006,34.44041709999993,0 -111.46826810000006,34.44141079999992,0 -111.46707150000006,34.442002099999925,0 -111.46527210000005,34.443351999999926,0 -111.46379710000005,34.44374619999993,0 -111.46248330000006,34.44360749999993,0 -111.45747490000005,34.44156519999993,0 -111.45639000000006,34.441381799999924,0 -111.45510150000004,34.44154209999993,0 -111.45423490000005,34.44191909999993,0 -111.45130340000004,34.444709599999925,0 -111.44735160000005,34.45072039999992,0 -111.44509770000005,34.45324469999993,0 -111.44338780000005,34.454154699999926,0 -111.44201760000006,34.45444639999992,0 -111.43874270000005,34.45417499999992,0 -111.43801870000006,34.45725849999992,0 -111.43811780000004,34.45815199999992,0 -111.43842990000005,34.458751899999925,0 -111.43915540000005,34.45938559999992,0 -111.44069730000005,34.460166099999924,0 -111.44173920000006,34.46102919999992,0 -111.44246900000006,34.462051599999924,0 -111.44314920000005,34.46415039999992,0 -111.44385260000006,34.46485319999992,0 -111.44578210000005,34.46575839999992,0 -111.44709800000005,34.46687889999993,0 -111.46035280000005,34.498114899999926,0 -111.46180990000005,34.49996649999992,0 -111.47521210000005,34.50804469999992,0 -111.47999770000006,34.51022479999992,0 -111.48185200000005,34.51204479999992,0 -111.48306990000005,34.512811199999916,0 -111.48414010000005,34.51315509999992,0 -111.48712080000004,34.51352399999992,0 -111.48786300000005,34.513835699999916,0 -111.48953260000005,34.514992599999914,0 -111.49045290000005,34.51525559999992,0 -111.49429620000005,34.514729999999915,0 -111.49547630000004,34.514968399999916,0 -111.49812130000004,34.51659969999991,0 -111.49959890000004,34.51704939999991,0 -111.50445620000005,34.517005099999906,0 -111.50539110000004,34.51740079999991,0 -111.50579790000003,34.51773189999991,0 -111.50742280000004,34.52007839999991,0 -111.50911140000004,34.52117619999991,0 -111.50996430000004,34.52142359999991,0 -111.51163970000003,34.52150269999991,0 -111.51955590000004,34.520031099999905,0 -111.53837710000003,34.513960499999904,0 -111.54202790000004,34.511623999999905,0 -111.54352640000003,34.5111359999999,0 -111.54857250000003,34.5109151999999,0 -111.55242260000004,34.5096293999999,0 -111.55823980000004,34.5090413999999,0 -111.57320200000004,34.505133099999895,0 -111.57524320000003,34.504346899999895,0 -111.59814920000004,34.4887015999999,0 -111.59949200000003,34.4881038999999,0 -111.60117820000002,34.4876942999999,0 -111.60661020000003,34.4876912999999,0 -111.61249860000004,34.4862507999999,0 -111.61895590000003,34.4858467999999,0 -111.62129690000003,34.4862115999999,0 -111.62311120000004,34.48708549999989,0 -111.62377810000004,34.487600799999896,0 -111.62770760000005,34.49226689999989,0 -111.63009250000005,34.49383149999989,0 -111.63294120000005,34.494669099999896,0 -111.63370290000006,34.4950700999999,0 -111.63446760000006,34.4961112999999,0 -111.63488290000006,34.4976964999999,0 -111.63524430000005,34.4983198999999,0 -111.63576400000007,34.4987930999999,0 -111.63949000000007,34.500517599999895,0 -111.64544330000005,34.50538889999989,0 -111.64884610000006,34.506493099999894,0 -111.65241550000005,34.506701099999894,0 -111.65601080000005,34.506242699999895,0 -111.66175520000004,34.5064686999999,0 -111.66894480000005,34.505950299999895,0 -111.66999580000004,34.5054769999999,0 -111.67521840000003,34.5009514999999,0 -111.67803350000004,34.4998475999999,0 -111.67941770000003,34.4984767999999,0 -111.68122550000004,34.4977740999999,0 -111.68177640000005,34.497365199999905,0 -111.68274610000005,34.4959597999999,0 -111.68971330000004,34.49193349999991,0 -111.69505830000004,34.48996949999991,0 -111.69585670000005,34.489505399999906,0 -111.69655000000004,34.48858059999991,0 -111.69684020000004,34.48760279999991,0 -111.69736270000004,34.486861799999915,0 -111.69788530000005,34.486473199999914,0 -111.69896440000005,34.48609779999992,0 -111.70025000000005,34.486141299999915,0 -111.70130020000006,34.48660369999992,0 -111.70320970000006,34.48812669999992,0 -111.70374500000005,34.488973399999914,0 -111.70413350000005,34.49048469999991,0 -111.70511570000005,34.49150019999991,0 -111.70777610000006,34.49260509999991,0 -111.71149800000006,34.49309439999991,0 -111.71443270000005,34.494529099999916,0 -111.71612190000005,34.496426599999914,0 -111.71849990000005,34.497837299999915,0 -111.71996000000004,34.50036889999992,0 -111.72194600000005,34.50169979999992,0 -111.72307460000005,34.503065799999916,0 -111.72443220000004,34.50388819999991,0 -111.72746040000003,34.50465399999992,0 -111.72986270000004,34.50657249999991,0 -111.74002030000003,34.50882069999991,0 -111.74078500000003,34.509224799999906,0 -111.74266290000003,34.51127879999991,0 -111.74387450000003,34.51207109999991,0 -111.74585890000003,34.51261349999991,0 -111.74720770000003,34.512610899999906,0 -111.74934540000002,34.511967399999904,0 -111.75837040000003,34.5063411999999,0 -111.76041310000004,34.5057760999999,0 -111.76218950000003,34.5059482999999,0 -111.77005550000004,34.508949199999904,0 -111.77164800000004,34.5099807999999,0 -111.77250930000004,34.5109986999999,0 -111.77475870000004,34.5155928999999,0 -111.77513760000004,34.5177747999999,0 -111.77501150000003,34.5202943999999,0 -111.77851140000004,34.526537899999894,0 -111.78522720000004,34.530184999999896,0 -111.78616140000004,34.5304373999999,0 -111.78746370000003,34.53045439999989,0 -111.80298020000004,34.527046299999895,0 -111.80461340000004,34.52727849999989,0 -111.80575440000004,34.527871799999886,0 -111.81234020000004,34.53340699999988,0 -111.81696420000004,34.53574179999989,0 -111.83214020000004,34.54740859999988,0 -111.83347400000004,34.54791839999989,0 -111.84617730000004,34.548090399999886,0 -111.84766190000003,34.548334199999886,0 -111.84937530000003,34.54915839999988,0 -111.85312720000003,34.55250929999988,0 -111.85360770000004,34.553227399999884,0 -111.85420410000003,34.55554059999989,0 -111.85525220000002,34.556920699999885,0 -111.85429030000003,34.557745099999885,0 -111.85320590000002,34.559797299999886,0 -111.85315430000003,34.56080609999989,0 -111.85509730000003,34.56522839999988,0 -111.85494220000002,34.56541489999988,0 -111.85457220000002,34.56690019999988,0 -111.85454280000002,34.56996019999988,0 -111.85509580000002,34.57087339999988,0 -111.85703620000002,34.57264849999988,0 -111.85748980000001,34.57368919999988,0 -111.85724120000002,34.57490029999988,0 -111.85496880000001,34.57680089999988,0 -111.85465690000001,34.57738679999988,0 -111.85462780000002,34.58423289999988,0 -111.85593080000001,34.58799189999988,0 -111.85610830000002,34.59495699999988,0 -111.85839680000002,34.60493109999988,0 -111.85387440000002,34.60664059999988,0 -111.85250540000001,34.60792279999988,0 -111.85122260000001,34.61047399999988,0 -111.85036810000001,34.611532099999884,0 -111.84452970000002,34.61519749999988,0 -111.84329780000002,34.61631099999988,0 -111.84292460000002,34.61640469999988,0 -111.84033710000003,34.61620209999989,0 -111.83881930000003,34.61571009999989,0 -111.83739560000002,34.614142299999884,0 -111.83558000000002,34.61320499999989,0 -111.83537890000001,34.61271439999989,0 -111.83593690000002,34.611281699999886,0 -111.83627230000003,34.61112149999989,0 -111.83664240000003,34.61113799999989,0 -111.83744450000002,34.61150219999989,0 -111.83818580000002,34.61139639999989,0 -111.83922650000002,34.61155269999989,0 -111.83931500000001,34.61150839999989,0 </coordinates></LineString><TimeSpan><begin>2022-07-04T18:33:28.401Z</begin><end>2022-07-04T20:39:56.000Z</end></TimeSpan></Placemark><Placemark><name>Montezuma Castle National Monument</name><address>Montezuma Castle Rd, Camp Verde, AZ</address><ExtendedData><Data name="Email"><value>syugen.zhou@gmail.com</value></Data><Data name="Category"><value>National park</value></Data><Data name="Distance"><value>0</value></Data></ExtendedData><description> National park from 2022-07-04T20:39:56.000Z to 2022-07-04T20:50:27.000Z. Distance 0m </description><Point><coordinates>-111.8349854,34.6115755,0</coordinates></Point><TimeSpan><begin>2022-07-04T20:39:56.000Z</begin><end>2022-07-04T20:50:27.000Z</end></TimeSpan></Placemark><Placemark><name>Driving</name><address></address><ExtendedData><Data name="Email"><value>syugen.zhou@gmail.com</value></Data><Data name="Category"><value>Driving</value></Data><Data name="Distance"><value>153260</value></Data></ExtendedData><description> Driving from 2022-07-04T20:50:27.000Z to 2022-07-04T22:15:54.000Z. Distance 153260m </description><LineString><altitudeMode>clampToGround</altitudeMode><extrude>1</extrude><tesselate>1</tesselate><coordinates>-111.84761259999999,34.613316399999995,0 -111.84950289999999,34.6122022,0 -111.8503681,34.6115321,0 -111.85122259999999,34.610473999999996,0 -111.85250539999998,34.6079228,0 -111.85299579999999,34.6073221,0 -111.85387439999998,34.6066406,0 -111.85791669999998,34.6050072,0 -111.85839679999998,34.6049311,0 -111.85940939999998,34.607705,0 -111.85979289999997,34.6081708,0 -111.86100659999997,34.6090163,0 -111.86110179999997,34.609337499999995,0 -111.86124129999997,34.6094115,0 -111.86151959999998,34.6100543,0 -111.86151219999996,34.6102105,0 -111.86146789999997,34.6102893,0 -111.86149519999996,34.6104063,0 -111.86165209999997,34.6105917,0 -111.86182339999996,34.611152,0 -111.86186599999996,34.611187599999994,0 -111.86204209999995,34.6118056,0 -111.86662639999996,34.609446999999996,0 -111.86674249999996,34.6092771,0 -111.86826389999996,34.6080402,0 -111.86901949999995,34.607185199999996,0 -111.86982839999995,34.6059686,0 -111.87189569999995,34.60130839999999,0 -111.88446679999994,34.5777082,0 -111.88570499999994,34.57589889999999,0 -111.88758249999995,34.5739144,0 -111.88890529999993,34.57284479999999,0 -111.90329449999993,34.56297339999999,0 -111.90495509999994,34.56155799999999,0 -111.90662409999993,34.559683099999994,0 -111.90807089999993,34.557368999999994,0 -111.90894559999994,34.555179499999994,0 -111.90937609999993,34.55323889999999,0 -111.90980569999994,34.548757499999994,0 -111.90976459999995,34.548138599999994,0 -111.90949449999995,34.547127999999994,0 -111.90865669999995,34.54528499999999,0 -111.90844789999994,34.544100199999995,0 -111.90852029999994,34.54333719999999,0 -111.90878719999995,34.54249569999999,0 -111.90905119999995,34.541997099999996,0 -111.90996619999994,34.540928699999995,0 -111.91192329999996,34.5394625,0 -111.91246899999994,34.5391645,0 -111.91355309999994,34.538750300000004,0 -111.91741459999994,34.5380461,0 -111.91847909999994,34.5380677,0 -111.91926679999996,34.5381948,0 -111.92128579999996,34.5387427,0 -111.92234009999996,34.5388988,0 -111.92300639999996,34.5389073,0 -111.92415899999996,34.5387562,0 -111.92513739999997,34.538456000000004,0 -111.92816749999996,34.53675870000001,0 -111.93067499999997,34.53582720000001,0 -111.93721779999997,34.534691800000004,0 -111.93807659999997,34.5344514,0 -111.93899049999997,34.5340383,0 -111.94154479999997,34.5321884,0 -111.94240599999998,34.531686900000004,0 -111.94299889999999,34.5314503,0 -111.94589789999999,34.530801800000006,0 -111.94849299999998,34.529895700000004,0 -111.94953979999998,34.5297424,0 -111.95024389999999,34.52973850000001,0 -111.95164469999997,34.5299546,0 -111.95270649999999,34.530346400000006,0 -111.95715119999998,34.53313990000001,0 -111.95812259999998,34.53355340000001,0 -111.95899419999998,34.53377120000001,0 -111.96038009999998,34.53386140000001,0 -111.96404169999998,34.53323850000002,0 -111.96544039999998,34.53318200000002,0 -111.97076799999998,34.53401920000001,0 -111.97216089999998,34.53413000000001,0 -111.97372719999998,34.53406750000001,0 -111.97477059999999,34.53391050000001,0 -111.97627829999999,34.53349520000001,0 -111.97798089999999,34.53271480000001,0 -111.97974609999999,34.53142500000001,0 -111.98054729999998,34.53056370000001,0 -111.99711479999999,34.50797750000002,0 -112.00168779999998,34.50277060000001,0 -112.00353089999999,34.500133900000016,0 -112.00460599999998,34.49802290000002,0 -112.00625959999998,34.49376010000002,0 -112.00712579999998,34.492172400000015,0 -112.00881279999999,34.48996050000002,0 -112.00972969999998,34.48902920000002,0 -112.01140819999998,34.487643100000014,0 -112.01843929999998,34.48322180000002,0 -112.02027009999999,34.48164540000001,0 -112.02167599999999,34.48005600000001,0 -112.02309409999998,34.47784400000001,0 -112.02394129999998,34.47589080000001,0 -112.02525839999998,34.471267700000006,0 -112.02680769999998,34.467492400000005,0 -112.02870089999999,34.46424280000001,0 -112.03207939999999,34.45981150000001,0 -112.03312769999998,34.458169600000005,0 -112.03405009999999,34.45612330000001,0 -112.03451859999998,34.45452980000001,0 -112.03512519999998,34.45008480000001,0 -112.03555559999998,34.44848440000001,0 -112.03648319999998,34.44632350000001,0 -112.03718409999999,34.445147100000014,0 -112.03852499999998,34.44339670000001,0 -112.04343259999999,34.43799880000002,0 -112.04609749999999,34.433857300000014,0 -112.04867769999998,34.42781040000001,0 -112.04923209999998,34.42693570000001,0 -112.05008519999998,34.42595280000001,0 -112.05139659999998,34.42488900000001,0 -112.05249789999998,34.4242545,0 -112.05403979999997,34.42364500000001,0 -112.05868649999998,34.422376500000006,0 -112.06044849999996,34.4216551,0 -112.06200009999996,34.420641800000006,0 -112.06298709999997,34.419701800000006,0 -112.06983119999997,34.4117538,0 -112.07031029999996,34.41085090000001,0 -112.07175469999996,34.40705700000001,0 -112.07269529999996,34.40531640000001,0 -112.07389419999996,34.40353140000001,0 -112.08346299999997,34.39135450000001,0 -112.08625399999997,34.388668500000016,0 -112.08808989999997,34.387194000000015,0 -112.09069189999997,34.385409400000015,0 -112.10360909999997,34.37760770000002,0 -112.10641079999998,34.37542640000002,0 -112.10816959999997,34.373791500000024,0 -112.11476649999997,34.36628340000003,0 -112.11570859999998,34.36495010000003,0 -112.11676489999996,34.36271480000003,0 -112.11731799999997,34.360108000000025,0 -112.11779989999997,34.34469780000003,0 -112.11821709999997,34.34197320000003,0 -112.12512199999998,34.31284160000003,0 -112.12766429999996,34.30618580000003,0 -112.12800739999997,34.30473210000003,0 -112.12821299999996,34.302089200000026,0 -112.12807559999997,34.30057250000003,0 -112.12762239999996,34.29850470000003,0 -112.12430619999996,34.28943410000003,0 -112.12340499999996,34.28769250000003,0 -112.11931129999996,34.28175700000003,0 -112.11478509999996,34.27253570000003,0 -112.11447149999995,34.27110160000003,0 -112.11454619999995,34.26932460000003,0 -112.11483139999996,34.26829070000003,0 -112.11533489999997,34.26713720000003,0 -112.11673069999996,34.26474330000003,0 -112.11701909999996,34.26403940000003,0 -112.11733649999996,34.26268630000003,0 -112.11736089999997,34.26135530000003,0 -112.11725349999996,34.26050990000003,0 -112.11697799999997,34.25957590000003,0 -112.11484289999997,34.25529310000003,0 -112.11419289999996,34.25347940000003,0 -112.11387459999996,34.25141820000003,0 -112.11382059999997,34.24459180000003,0 -112.11401299999996,34.24261870000003,0 -112.11468749999996,34.240165100000034,0 -112.11690359999996,34.23568530000003,0 -112.11716749999995,34.234741600000035,0 -112.11729069999996,34.233636100000034,0 -112.11724429999995,34.23262770000003,0 -112.11687039999995,34.23109420000003,0 -112.11506779999995,34.22652870000003,0 -112.11210649999995,34.22178460000003,0 -112.11152619999996,34.21994860000002,0 -112.11145389999996,34.21852690000003,0 -112.11165289999995,34.21719210000002,0 -112.11240529999996,34.21541360000002,0 -112.11340659999995,34.21409550000002,0 -112.12745709999996,34.20006290000002,0 -112.13004959999995,34.19679460000002,0 -112.13171549999994,34.19376120000002,0 -112.13301339999994,34.189881000000014,0 -112.13554919999994,34.17723630000002,0 -112.13622239999994,34.175419800000014,0 -112.13690469999995,34.174376500000015,0 -112.13802689999994,34.17318490000001,0 -112.13900249999995,34.17244700000001,0 -112.14091399999995,34.17129940000001,0 -112.14164359999994,34.17073270000001,0 -112.14223449999994,34.17010890000001,0 -112.14283339999994,34.16916890000001,0 -112.14367309999994,34.166907300000005,0 -112.14420709999993,34.16599210000001,0 -112.14524559999994,34.16472960000001,0 -112.14581649999992,34.16371320000001,0 -112.14598669999994,34.16304590000001,0 -112.14582459999994,34.16003330000001,0 -112.14647669999994,34.15775970000001,0 -112.14653249999994,34.15719080000001,0 -112.14632009999994,34.154670300000014,0 -112.14649909999993,34.15384390000001,0 -112.14695879999994,34.15295610000001,0 -112.14880299999993,34.15055380000001,0 -112.14911069999994,34.15000770000001,0 -112.14948009999993,34.14890500000001,0 -112.14965019999993,34.144160700000015,0 -112.14950269999993,34.14265360000002,0 -112.14833799999994,34.13763090000001,0 -112.14824589999994,34.136540900000014,0 -112.14833799999994,34.135277500000015,0 -112.14854819999994,34.134339300000015,0 -112.14902319999993,34.13310790000001,0 -112.15082409999994,34.13026360000002,0 -112.15114219999992,34.129104800000015,0 -112.15112189999994,34.12832460000001,0 -112.15082949999993,34.12735580000002,0 -112.15027029999993,34.12649800000001,0 -112.14976339999993,34.12600120000002,0 -112.14760779999993,34.12436700000002,0 -112.14711849999992,34.12373390000002,0 -112.14681669999992,34.12313200000002,0 -112.14666029999992,34.12259130000002,0 -112.14660169999992,34.12182940000002,0 -112.14693379999993,34.11953730000002,0 -112.14668809999992,34.115501000000016,0 -112.14628959999993,34.11456860000002,0 -112.14438819999992,34.11219380000002,0 -112.14419529999992,34.11179420000002,0 -112.14395299999993,34.110725600000016,0 -112.14399739999993,34.10995790000002,0 -112.14433949999993,34.10843120000001,0 -112.14437369999993,34.107173900000014,0 -112.14420589999993,34.106375200000016,0 -112.14313029999994,34.10353290000002,0 -112.14293179999994,34.10235140000002,0 -112.14312909999994,34.09402520000002,0 -112.14324759999994,34.09324810000002,0 -112.14450259999994,34.08896850000002,0 -112.14460679999993,34.08785160000002,0 -112.14448199999994,34.086503200000024,0 -112.14382339999993,34.08461340000002,0 -112.14098549999993,34.08005610000003,0 -112.14043549999992,34.07884450000003,0 -112.13994839999992,34.07688660000002,0 -112.13992009999993,34.07486130000003,0 -112.14023319999993,34.07328510000003,0 -112.14774339999991,34.05123940000003,0 -112.14847089999992,34.04775000000003,0 -112.14865599999992,34.04595680000003,0 -112.14866689999992,34.04240190000003,0 -112.14797839999991,34.03788130000003,0 -112.14634519999991,34.03256900000003,0 -112.14626159999992,34.03103860000004,0 -112.14641209999992,34.02995340000004,0 -112.14849219999992,34.021792200000036,0 -112.14857549999992,34.020336500000035,0 -112.14833269999993,34.018475400000035,0 -112.14793179999992,34.01722510000003,0 -112.14432179999993,34.00994900000003,0 -112.13824749999992,33.99959740000003,0 -112.13763899999992,33.99814930000003,0 -112.13721269999992,33.99643830000004,0 -112.13707989999993,33.995116900000035,0 -112.13739499999993,33.989872700000035,0 -112.13693509999992,33.985491900000035,0 -112.13613929999993,33.98339850000004,0 -112.13194279999992,33.97752240000004,0 -112.12922249999993,33.97432320000004,0 -112.12851819999992,33.97315010000004,0 -112.12795429999991,33.97146520000004,0 -112.12783979999992,33.97038010000004,0 -112.12797949999992,33.96885490000004,0 -112.12858039999992,33.96715140000004,0 -112.12937369999992,33.965910200000046,0 -112.13401629999991,33.96057940000004,0 -112.13550259999992,33.958604100000045,0 -112.13724429999992,33.95575650000004,0 -112.13840649999992,33.95332770000005,0 -112.13952289999992,33.95014440000005,0 -112.14536759999991,33.916678600000054,0 -112.14776189999992,33.88853660000005,0 -112.14754279999991,33.88126100000005,0 -112.14359549999992,33.84673500000005,0 -112.14378999999992,33.84335930000006,0 -112.14476539999993,33.83778470000006,0 -112.14505559999992,33.834630100000055,0 -112.14499239999992,33.83190960000005,0 -112.14435549999992,33.827815400000055,0 -112.14393319999992,33.82622640000006,0 -112.13865849999992,33.81146210000006,0 -112.13790039999992,33.808766000000055,0 -112.11330319999992,33.691971900000055,0 -112.11326259999991,33.691920800000055,0 -112.1125877999999,33.68493120000005,0 -112.1126102999999,33.68108860000005,0 -112.1166677999999,33.62761600000005,0 -112.11744369999991,33.56763190000005,0 -112.11723539999991,33.56602480000006,0 -112.11668869999991,33.56399420000005,0 -112.11573699999991,33.561888900000056,0 -112.1131780999999,33.55748560000006,0 -112.1127714999999,33.55624780000005,0 -112.1125420999999,33.55484710000005,0 -112.1124838999999,33.51006950000006,0 -112.11304949999989,33.499779800000056,0 -112.1132360999999,33.47525840000006,0 -112.1128405999999,33.472703200000055,0 -112.1123647999999,33.471144800000054,0 -112.10918429999988,33.46415150000005,0 -112.10853609999988,33.46214530000005,0 -112.10828329999988,33.46077270000005,0 -112.10828529999988,33.43329810000006,0 -112.10814399999987,33.43239890000005,0 -112.10757469999987,33.431168000000056,0 -112.10678129999987,33.43022990000006,0 -112.10616399999986,33.42973070000006,0 -112.10512569999987,33.42916420000006,0 -112.10429529999986,33.42887710000006,0 -112.10353749999986,33.42871890000006,0 -112.10248619999986,33.42863180000006,0 -112.08984149999986,33.42961500000006,0 -112.08646079999987,33.42958630000006,0 -112.07057459999987,33.42818430000006,0 -112.06813499999987,33.42833350000006,0 -112.06539129999986,33.42882850000006,0 -112.06280879999987,33.42897680000006,0 -112.05246049999987,33.42753880000006,0 -112.05238299999986,33.42747430000006,0 -112.04885819999987,33.42688650000006,0 -112.04771679999988,33.426904400000055,0 -112.04772239999987,33.42873540000005,0 -112.04778999999986,33.42885630000005,0 -112.04775609999987,33.435974300000055,0 -112.04823749999987,33.43607990000005,0 -112.04879399999986,33.43610550000005,0 -112.04888819999987,33.43653400000005,0 -112.04906199999986,33.43653810000006,0 -112.04906249999988,33.436329500000056,0 </coordinates></LineString><TimeSpan><begin>2022-07-04T20:50:27.000Z</begin><end>2022-07-04T22:15:54.000Z</end></TimeSpan></Placemark><Placemark><name>Shell</name><address>1515 E Buckeye Rd, Phoenix, AZ 85034</address><ExtendedData><Data name="Email"><value>syugen.zhou@gmail.com</value></Data><Data name="Category"><value>Gas station</value></Data><Data name="Distance"><value>0</value></Data></ExtendedData><description> Gas station from 2022-07-04T22:15:54.000Z to 2022-07-04T22:23:56.000Z. Distance 0m </description><Point><coordinates>-112.0491641,33.4363431,0</coordinates></Point><TimeSpan><begin>2022-07-04T22:15:54.000Z</begin><end>2022-07-04T22:23:56.000Z</end></TimeSpan></Placemark><Placemark><name>Driving</name><address></address><ExtendedData><Data name="Email"><value>syugen.zhou@gmail.com</value></Data><Data name="Category"><value>Driving</value></Data><Data name="Distance"><value>1772</value></Data></ExtendedData><description> Driving from 2022-07-04T22:23:56.000Z to 2022-07-04T22:32:30.000Z. Distance 1772m </description><LineString><altitudeMode>clampToGround</altitudeMode><extrude>1</extrude><tesselate>1</tesselate><coordinates>-112.04906249999999,33.43632950000001,0 -112.0490631,33.436112200000004,0 -112.0490631,33.436112200000004,0 -112.04895479999999,33.436112900000005,0 -112.04879399999999,33.436105500000004,0 -112.0482375,33.4360799,0 -112.04811849999999,33.4360554,0 -112.04798629999999,33.4360039,0 -112.047957,33.435997900000004,0 -112.0478908,33.4359843,0 -112.0477561,33.435974300000005,0 -112.0477561,33.435974300000005,0 -112.04776229999999,33.43628090000001,0 -112.04775869999999,33.4364468,0 -112.04776679999999,33.4367183,0 -112.04776679999999,33.4367183,0 -112.04756929999999,33.4367164,0 -112.04753379999998,33.436716000000004,0 -112.04735059999999,33.43671630000001,0 -112.04691319999999,33.43671710000001,0 -112.04561639999999,33.4367183,0 -112.04468359999998,33.4367217,0 -112.04363819999998,33.4367205,0 -112.04345719999998,33.436721600000006,0 -112.04345719999998,33.436721600000006,0 -112.04345719999998,33.4365694,0 -112.04345719999998,33.43630640000001,0 -112.04345849999997,33.436112800000004,0 -112.04345449999997,33.435893500000006,0 -112.04344909999998,33.43565280000001,0 -112.04344379999998,33.43545590000001,0 -112.04343569999997,33.43523090000001,0 -112.04343169999997,33.43499920000001,0 -112.04342899999996,33.4349119,0 -112.04342899999996,33.4347944,0 -112.04342769999997,33.43469820000001,0 -112.04342369999996,33.434499,0 -112.04342099999995,33.434321000000004,0 -112.04342099999995,33.43348720000001,0 -112.04341959999996,33.4333887,0 -112.04341299999996,33.43329680000001,0 -112.04341299999996,33.43329680000001,0 -112.04344789999996,33.43326030000001,0 -112.04346559999996,33.43320800000001,0 -112.04347729999996,33.433111200000006,0 -112.04348669999997,33.43306870000001,0 -112.04349609999997,33.43303280000001,0 -112.04351349999996,33.43299480000001,0 -112.04353359999996,33.43296120000001,0 -112.04356979999996,33.4329131,0 -112.04360739999997,33.4328762,0 -112.04365299999996,33.4328381,0 -112.04369719999997,33.432806799999994,0 -112.04374689999997,33.4327777,0 -112.04389439999997,33.432668,0 -112.04410229999996,33.4325438,0 -112.04410229999996,33.4325438,0 -112.04422299999997,33.432432999999996,0 -112.04432889999997,33.432371399999994,0 -112.04436509999996,33.43235129999999,0 -112.04440939999998,33.43233219999999,0 -112.04446839999997,33.43231209999999,0 -112.04458769999998,33.43227629999999,0 -112.04463739999998,33.43226059999999,0 -112.04469229999998,33.43224719999999,0 -112.04473929999997,33.432235999999996,0 -112.04479559999999,33.43222479999999,0 -112.04484759999998,33.43221799999999,0 -112.04486399999999,33.432215799999994,0 -112.04492699999999,33.432209099999994,0 -112.04497799999997,33.43220579999999,0 -112.04505039999998,33.432202399999994,0 -112.04506209999998,33.432202499999995,0 -112.04530569999997,33.43220349999999,0 -112.04549319999998,33.432204299999995,0 -112.04610449999998,33.4322069,0 -112.04613129999997,33.432202399999994,0 -112.04614739999998,33.4321979,0 -112.04616889999997,33.4321878,0 -112.04618629999996,33.43217549999999,0 -112.04620109999996,33.43216319999999,0 -112.04621049999997,33.43214869999999,0 -112.04621579999997,33.432131899999995,0 -112.04621719999996,33.43211169999999,0 -112.04621849999997,33.43204789999999,0 -112.04621849999997,33.43202779999999,0 -112.04621179999997,33.43200879999999,0 -112.04620239999996,33.43198749999999,0 -112.04618899999996,33.43196619999999,0 -112.04617289999996,33.431948299999995,0 -112.04614879999995,33.431933799999996,0 -112.04612729999997,33.43192149999999,0 -112.04610449999996,33.43191359999999,0 -112.04608039999995,33.431909199999986,0 -112.04605619999995,33.43190579999999,0 -112.04566049999995,33.431906199999986,0 </coordinates></LineString><TimeSpan><begin>2022-07-04T22:23:56.000Z</begin><end>2022-07-04T22:32:30.000Z</end></TimeSpan></Placemark><Placemark><name>Phoenix Airport Rental Car Center</name><address>1805 E Sky Harbor Cir S, Phoenix, AZ 85034</address><ExtendedData><Data name="Email"><value>syugen.zhou@gmail.com</value></Data><Data name="Category"><value>Car rental agency</value></Data><Data name="Distance"><value>0</value></Data></ExtendedData><description> Car rental agency from 2022-07-04T22:32:30.000Z to 2022-07-04T22:42:19.000Z. Distance 0m </description><Point><coordinates>-112.0448425,33.430420399999996,0</coordinates></Point><TimeSpan><begin>2022-07-04T22:32:30.000Z</begin><end>2022-07-04T22:42:19.000Z</end></TimeSpan></Placemark><Placemark><name>On a bus</name><address></address><ExtendedData><Data name="Email"><value>syugen.zhou@gmail.com</value></Data><Data name="Category"><value>On a bus</value></Data><Data name="Distance"><value>4381</value></Data></ExtendedData><description> On a bus from 2022-07-04T22:42:19.000Z to 2022-07-04T22:47:58.400Z. Distance 4381m </description><LineString><altitudeMode>clampToGround</altitudeMode><extrude>1</extrude><tesselate>1</tesselate><coordinates>-112.0448425,33.430420399999996,0 -112.0448425,33.430420399999996,0 -112.0428782,33.431814,0 -112.0452277,33.4309651,0 -112.0345935,33.4365657,0 -112.0087277,33.4349545,0 -112.0120799593714,33.43598039740011,0 -112.0120799593714,33.43598039740011,0 </coordinates></LineString><TimeSpan><begin>2022-07-04T22:42:19.000Z</begin><end>2022-07-04T22:47:58.400Z</end></TimeSpan></Placemark><Placemark><name>Phoenix Sky Harbor International Airport</name><address>3400 E Sky Harbor Blvd, Phoenix, AZ 85034</address><ExtendedData><Data name="Email"><value>syugen.zhou@gmail.com</value></Data><Data name="Category"><value>International airport</value></Data><Data name="Distance"><value>0</value></Data></ExtendedData><description> International airport from 2022-07-04T22:47:58.400Z to 2022-07-04T23:56:32.783Z. Distance 0m </description><Point><coordinates>-112.01012399999999,33.435249,0</coordinates></Point><TimeSpan><begin>2022-07-04T22:47:58.400Z</begin><end>2022-07-04T23:56:32.783Z</end></TimeSpan></Placemark><Placemark><name>Flying</name><address></address><ExtendedData><Data name="Email"><value>syugen.zhou@gmail.com</value></Data><Data name="Category"><value>Flying</value></Data><Data name="Distance"><value>1052092</value></Data></ExtendedData><description> Flying from 2022-07-04T23:56:32.783Z to 2022-07-05T01:50:44.953Z. Distance 1052092m </description><LineString><altitudeMode>clampToGround</altitudeMode><extrude>1</extrude><tesselate>1</tesselate><coordinates>-112.0120799593714,33.43598039740011,0 -112.0120799593714,33.43598039740011,0 -112.0087277,33.4349545,0 -112.01236,33.4297074,0 -111.9954417,33.4301009,0 -122.3502807,37.5902786,0 -122.3816391,37.61553,0 -122.3905852,37.611157,0 -122.3899976083013,37.613855224231195,0 -122.3899976083013,37.613855224231195,0 </coordinates></LineString><TimeSpan><begin>2022-07-04T23:56:32.783Z</begin><end>2022-07-05T01:50:44.953Z</end></TimeSpan></Placemark><Placemark><name>San Francisco International Airport</name><address>San Francisco, CA 94128</address><ExtendedData><Data name="Email"><value>syugen.zhou@gmail.com</value></Data><Data name="Category"><value>Airport</value></Data><Data name="Distance"><value>0</value></Data></ExtendedData><description> Airport from 2022-07-05T01:50:44.953Z to 2022-07-05T02:08:49.155Z. Distance 0m </description><Point><coordinates>-122.3789554,37.6213129,0</coordinates></Point><TimeSpan><begin>2022-07-05T01:50:44.953Z</begin><end>2022-07-05T02:08:49.155Z</end></TimeSpan></Placemark><Placemark><name>On the subway</name><address></address><ExtendedData><Data name="Email"><value>syugen.zhou@gmail.com</value></Data><Data name="Category"><value>On the subway</value></Data><Data name="Distance"><value>1959</value></Data></ExtendedData><description> On the subway from 2022-07-05T02:08:49.155Z to 2022-07-05T02:11:36.989Z. Distance 1959m </description><LineString><altitudeMode>clampToGround</altitudeMode><extrude>1</extrude><tesselate>1</tesselate><coordinates>-122.3899976083013,37.613855224231195,0 -122.3899976083013,37.613855224231195,0 -122.3898942,37.615549,0 -122.385899,37.6009981,0 -122.38679139999999,37.600244599999996,0 </coordinates></LineString><TimeSpan><begin>2022-07-05T02:08:49.155Z</begin><end>2022-07-05T02:11:36.989Z</end></TimeSpan></Placemark><Placemark><name>Millbrae</name><address>200 Rollins Rd, Millbrae, CA 94030</address><ExtendedData><Data name="Email"><value>syugen.zhou@gmail.com</value></Data><Data name="Category"><value>Subway station</value></Data><Data name="Distance"><value>0</value></Data></ExtendedData><description> Subway station from 2022-07-05T02:11:36.989Z to 2022-07-05T02:16:36.998Z. Distance 0m </description><Point><coordinates>-122.38679139999999,37.600244599999996,0</coordinates></Point><TimeSpan><begin>2022-07-05T02:11:36.989Z</begin><end>2022-07-05T02:16:36.998Z</end></TimeSpan></Placemark><Placemark><name>Driving</name><address></address><ExtendedData><Data name="Email"><value>syugen.zhou@gmail.com</value></Data><Data name="Category"><value>Driving</value></Data><Data name="Distance"><value>41661</value></Data></ExtendedData><description> Driving from 2022-07-05T02:16:36.998Z to 2022-07-05T02:42:55.382Z. Distance 41661m </description><LineString><altitudeMode>clampToGround</altitudeMode><extrude>1</extrude><tesselate>1</tesselate><coordinates>-122.3858489,37.6014251,0 -122.38530229999999,37.601805999999996,0 -122.38402589999998,37.600358899999996,0 -122.38294139999999,37.6010053,0 -122.37955999999998,37.601362699999996,0 -122.37913849999998,37.601313899999994,0 -122.37901579999998,37.6012734,0 -122.37849119999998,37.60099259999999,0 -122.3765098,37.59975109999999,0 -122.3764006,37.599720299999994,0 -122.3763258,37.59971469999999,0 -122.3599656,37.5891072,0 -122.35919070000001,37.588696,0 -122.35791040000002,37.588171100000004,0 -122.35612270000001,37.587593,0 -122.35433720000002,37.5872572,0 -122.35292680000002,37.587131400000004,0 -122.33409250000004,37.58662660000001,0 -122.33326690000004,37.5865542,0 -122.33238390000004,37.586393,0 -122.33167360000003,37.5861796,0 -122.33061050000003,37.585707,0 -122.32992760000003,37.5852837,0 -122.32954920000002,37.584990499999996,0 -122.30249850000001,37.5600142,0 -122.27531080000001,37.5307483,0 -122.23945100000002,37.4990263,0 -122.23879450000004,37.4985372,0 -122.23750560000002,37.4977584,0 -122.23681820000002,37.4974245,0 -122.23593860000001,37.4970721,0 -122.2262183,37.4942649,0 -122.22384790000001,37.493394499999994,0 -122.2162741,37.49005209999999,0 -122.2142177,37.4892812,0 -122.21187739999999,37.488559599999995,0 -122.21042159999998,37.488206899999994,0 -122.20769579999998,37.487695099999996,0 -122.20760399999998,37.487659099999995,0 -122.18937369999998,37.48540139999999,0 -122.18738339999999,37.485085999999995,0 -122.18563459999999,37.48473169999999,0 -122.18302249999999,37.48404649999999,0 -122.1809931,37.48337579999999,0 -122.17928039999998,37.48267849999999,0 -122.17749359999998,37.48177879999999,0 -122.12690569999997,37.45211729999998,0 -122.12564209999998,37.451184199999986,0 -122.09885099999997,37.42571419999999,0 -122.09724769999998,37.42435539999999,0 -122.08377209999996,37.41453949999999,0 -122.08242879999996,37.413698299999986,0 -122.08090309999994,37.412943599999984,0 -122.07530189999994,37.410626999999984,0 -122.07520489999993,37.41047859999999,0 -122.07135299999995,37.408666299999986,0 -122.07080759999994,37.408246699999985,0 -122.07059579999994,37.408019999999986,0 -122.07034529999993,37.407667799999984,0 -122.07011489999991,37.40713909999998,0 -122.07003069999992,37.406695599999985,0 -122.06999379999992,37.40505449999999,0 -122.06996889999992,37.40495709999999,0 -122.07000099999992,37.400770499999986,0 -122.06989429999992,37.39990419999999,0 -122.06863719999991,37.395086599999985,0 -122.0686978999999,37.39497189999998,0 -122.06866359999991,37.39401589999998,0 -122.06884659999992,37.392965899999986,0 -122.06904319999991,37.392306099999985,0 -122.06908989999991,37.391912099999985,0 -122.0618762999999,37.38909789999998,0 -122.05203289999989,37.38588999999998,0 -122.05161059999988,37.385787899999976,0 -122.05096029999989,37.38569709999998,0 -122.05042749999988,37.38566649999998,0 -122.0499379999999,37.38567819999998,0 -122.0492381999999,37.38575909999998,0 -122.0474704999999,37.38620239999998,0 -122.04732679999991,37.38619009999998,0 -122.04686019999991,37.38626679999998,0 -122.04615319999992,37.38615429999998,0 -122.0459296999999,37.386175099999974,0 -122.0457534999999,37.386214799999976,0 -122.0450527999999,37.386459199999976,0 -122.04497599999989,37.38650319999998,0 -122.0447249999999,37.38656189999998,0 -122.0444984999999,37.38656899999998,0 -122.04397349999991,37.386529099999976,0 -122.04388909999992,37.38650689999998,0 -122.04381259999991,37.38646609999998,0 -122.04379229999992,37.386442199999976,0 -122.04375399999992,37.38626419999998,0 -122.04396489999992,37.38555779999997,0 -122.04414689999993,37.38522639999997,0 -122.04442519999992,37.38416779999997,0 -122.04441869999994,37.38414419999997,0 -122.04527829999994,37.38155889999997,0 -122.04527939999994,37.38139929999998,0 -122.04618729999994,37.378776799999976,0 -122.04675319999994,37.37892159999997,0 -122.04716819999996,37.379169399999974,0 -122.04733199999995,37.37924169999997,0 -122.04746929999995,37.37927799999997,0 </coordinates></LineString><TimeSpan><begin>2022-07-05T02:16:36.998Z</begin><end>2022-07-05T02:42:55.382Z</end></TimeSpan></Placemark><Placemark><name>Home (1040 W Washington Ave)</name><address>1040 W Washington Ave, Sunnyvale, CA 94086</address><ExtendedData><Data name="Email"><value>syugen.zhou@gmail.com</value></Data><Data name="Category"><value>Building</value></Data><Data name="Distance"><value>0</value></Data></ExtendedData><description> Building from 2022-07-05T02:42:55.382Z to 2022-07-05T03:32:13.546Z. Distance 0m </description><Point><coordinates>-122.04754319999999,37.379098,0</coordinates></Point><TimeSpan><begin>2022-07-05T02:42:55.382Z</begin><end>2022-07-05T03:32:13.546Z</end></TimeSpan></Placemark></Document></kml>