<?xml version="1.0" encoding="UTF-8"?><kml xmlns="http://www.opengis.net/kml/2.2" xmlns:gx="http://www.google.com/kml/ext/2.2"><Document><name> Location history from 2022-08-29 to 2022-08-29 </name><open>1</open><description></description><StyleMap id="multiTrack"><Pair><key>normal</key><styleUrl>#multiTrack_n</styleUrl></Pair><Pair><key>highlight</key><styleUrl>#multiTrack_h</styleUrl></Pair></StyleMap><Style id="multiTrack_n"><IconStyle><Icon><href>https://earth.google.com/images/kml-icons/track-directional/track-0.png</href></Icon></IconStyle><LineStyle><color>99ffac59</color><width>6</width></LineStyle></Style><Style id="multiTrack_h"><IconStyle><scale>1.2</scale><Icon><href>https://earth.google.com/images/kml-icons/track-directional/track-0.png</href></Icon></IconStyle><LineStyle><color>99ffac59</color><width>8</width></LineStyle></Style><Placemark><name>Extended Stay America Premier Suites - Titusville - Space Center</name><address>4835 Helen Hauser Blvd, Titusville, FL 32780</address><ExtendedData><Data name="Email"><value>syugen.zhou@gmail.com</value></Data><Data name="Category"><value>Extended stay hotel</value></Data><Data name="Distance"><value>0</value></Data></ExtendedData><description> Extended stay hotel from 2022-08-28T23:40:17.145Z to 2022-08-29T09:30:30.592Z. Distance 0m </description><Point><coordinates>-80.8529052,28.547945,0</coordinates></Point><TimeSpan><begin>2022-08-28T23:40:17.145Z</begin><end>2022-08-29T09:30:30.592Z</end></TimeSpan></Placemark><Placemark><name>Driving</name><address></address><ExtendedData><Data name="Email"><value>syugen.zhou@gmail.com</value></Data><Data name="Category"><value>Driving</value></Data><Data name="Distance"><value>24667</value></Data></ExtendedData><description> Driving from 2022-08-29T09:30:30.592Z to 2022-08-29T12:05:55.195Z. Distance 24667m </description><LineString><altitudeMode>clampToGround</altitudeMode><extrude>1</extrude><tesselate>1</tesselate><coordinates>-80.85373469999999,28.549087500000002,0 -80.85373799999999,28.5495495,0 -80.85374159999999,28.5506068,0 -80.85374939999998,28.5506613,0 -80.85377619999998,28.550796700000003,0 -80.85327499999998,28.5509796,0 -80.85279359999998,28.551172700000002,0 -80.85225919999998,28.551398600000002,0 -80.85204419999998,28.551487100000003,0 -80.85165049999998,28.551620800000002,0 -80.85114849999998,28.5518094,0 -80.85039129999998,28.5521101,0 -80.85023969999999,28.5521688,0 -80.85006159999999,28.5522366,0 -80.84971149999998,28.552368,0 -80.84920499999998,28.552530800000003,0 -80.84891519999998,28.552667800000002,0 -80.84832409999999,28.552892800000002,0 -80.84791169999998,28.5531441,0 -80.84765829999998,28.553333900000002,0 -80.84760729999998,28.5533846,0 -80.84751239999999,28.5534694,0 -80.84716759999999,28.553799400000003,0 -80.8467269,28.554243500000002,0 -80.8465449,28.554102600000004,0 -80.84649970000001,28.5540702,0 -80.8463601,28.553979100000003,0 -80.8461982,28.553910100000003,0 -80.8461046,28.553871900000004,0 -80.84597280000001,28.553823200000004,0 -80.8458136,28.553785800000004,0 -80.8456948,28.553760500000003,0 -80.8455607,28.5537446,0 -80.8454793,28.553739000000004,0 -80.84540129999999,28.553736400000002,0 -80.845024,28.553765700000003,0 -80.8447717,28.553782400000003,0 -80.84446529999998,28.5537968,0 -80.84417369999998,28.553808200000002,0 -80.84405189999998,28.5537988,0 -80.84391439999997,28.5537994,0 -80.84384949999998,28.5537983,0 -80.84351009999997,28.553783600000003,0 -80.84344369999998,28.553777200000003,0 -80.84324049999998,28.5537598,0 -80.8431899,28.553755000000002,0 -80.8431148,28.553748900000002,0 -80.84287349999998,28.553719700000006,0 -80.84249839999998,28.553663200000003,0 -80.84227569999999,28.553628700000004,0 -80.84202689999998,28.553573300000004,0 -80.84179099999999,28.553516500000004,0 -80.8415742,28.553465900000003,0 -80.8414271,28.553420600000003,0 -80.8413028,28.553386100000004,0 -80.84107110000001,28.553313300000003,0 -80.840861,28.553238700000005,0 -80.8403567,28.553045400000006,0 -80.8400022,28.552883000000005,0 -80.8395612,28.552661400000005,0 -80.83934529999999,28.552539700000008,0 -80.8390513,28.552365700000006,0 -80.8388287,28.55222180000001,0 -80.8385437,28.552025000000008,0 -80.83836869999999,28.55189380000001,0 -80.8382176,28.551776300000007,0 -80.83790739999999,28.551515000000006,0 -80.8375491,28.551176400000006,0 -80.8373814,28.551008000000007,0 -80.8373438,28.550968300000008,0 -80.8371518,28.550756200000006,0 -80.8367243,28.550212800000004,0 -80.8357034,28.548878600000005,0 -80.8351722,28.548174500000005,0 -80.8349662,28.54789020000001,0 -80.8342066,28.54691710000001,0 -80.83381609999999,28.54639780000001,0 -80.8336149,28.546147400000006,0 -80.8330612,28.545422400000007,0 -80.8329967,28.545340200000005,0 -80.83289839999999,28.545208200000005,0 -80.8324684,28.54462090000001,0 -80.8319671,28.543954500000005,0 -80.8315897,28.543459900000006,0 -80.83133769999999,28.543136600000008,0 -80.83108979999999,28.542826200000007,0 -80.83082379999999,28.542480400000006,0 -80.83054669999999,28.542108100000007,0 -80.83025009999999,28.541722000000004,0 -80.8300635,28.541468500000004,0 -80.82991519999999,28.541270200000003,0 -80.82928689999999,28.540454200000003,0 -80.8286392,28.539603000000003,0 -80.8285206,28.539453900000005,0 -80.8283033,28.539176400000006,0 -80.8279759,28.538737500000003,0 -80.8278291,28.538543200000003,0 -80.8275711,28.538192300000002,0 -80.8273878,28.537962200000003,0 -80.82712099999999,28.537614,0 -80.82671809999998,28.537080900000003,0 -80.82647769999998,28.536756800000003,0 -80.82627089999998,28.536496900000003,0 -80.82598559999998,28.536130900000003,0 -80.8258451,28.535956700000003,0 -80.8256952,28.535782000000005,0 -80.82555159999998,28.535610300000005,0 -80.82519459999999,28.535233400000003,0 -80.82504449999999,28.5350952,0 -80.82479419999999,28.534871900000002,0 -80.82460559999997,28.534711100000003,0 -80.82443589999997,28.534570800000004,0 -80.82427419999998,28.5344468,0 -80.82392539999998,28.534204700000004,0 -80.82374589999998,28.534088800000003,0 -80.82343819999997,28.533901900000004,0 -80.82328699999998,28.533816,0 -80.82311939999998,28.533723600000005,0 -80.82290249999998,28.533612100000006,0 -80.82269219999999,28.533512500000004,0 -80.82244049999998,28.533401300000005,0 -80.82223549999999,28.533315400000006,0 -80.82201769999999,28.533231700000005,0 -80.8217888,28.533148400000005,0 -80.82154329999999,28.533065200000006,0 -80.82129779999998,28.532991200000005,0 -80.82093139999998,28.532893200000007,0 -80.82060819999998,28.532809900000007,0 -80.82030449999998,28.532733400000005,0 -80.81996779999997,28.532645700000003,0 -80.81930949999997,28.532480000000003,0 -80.81898559999998,28.5323923,0 -80.81882979999997,28.5323493,0 -80.81823969999998,28.5321967,0 -80.81695559999999,28.531867899999998,0 -80.81460439999998,28.5312503,0 -80.81392589999997,28.531078,0 -80.81428009999998,28.529979100000002,0 -80.81435229999997,28.5297683,0 -80.81439559999997,28.529594,0 -80.81442079999998,28.529474200000003,0 -80.81444149999997,28.529366600000003,0 -80.81446129999998,28.5292462,0 -80.81446729999998,28.5291739,0 -80.81446969999998,28.529125699999998,0 -80.81447769999998,28.528914999999998,0 -80.81447739999997,28.528275099999995,0 -80.81448079999997,28.527713299999995,0 -80.81448219999997,28.5267119,0 -80.81447909999997,28.525788099999996,0 -80.81448379999998,28.525035599999995,0 -80.81448969999997,28.523136299999997,0 -80.81448269999997,28.521978399999995,0 -80.81447949999998,28.521803099999996,0 -80.81446929999998,28.521471599999998,0 -80.81446569999999,28.521238399999994,0 -80.81446179999998,28.521149899999994,0 -80.81445259999997,28.520863499999997,0 -80.81444139999996,28.520715699999993,0 -80.81440879999997,28.520178899999994,0 -80.81437749999996,28.519877599999994,0 -80.81433809999996,28.519543399999996,0 -80.81423029999996,28.518471599999994,0 -80.81422279999995,28.518412299999994,0 -80.81419509999995,28.51814419999999,0 -80.81415489999995,28.517713899999993,0 -80.81411899999995,28.517289399999996,0 -80.81408699999994,28.516640399999996,0 -80.81406309999996,28.515806099999995,0 -80.81405419999996,28.515094699999995,0 -80.81405729999996,28.514476999999996,0 -80.81404539999996,28.513068399999995,0 -80.81404219999996,28.512227599999992,0 -80.81404359999995,28.512082099999994,0 -80.81383649999995,28.512090399999995,0 -80.81287359999995,28.512100699999994,0 -80.81246879999995,28.512112799999997,0 -80.81232359999994,28.512120999999993,0 -80.81201449999995,28.512134799999995,0 -80.81169669999994,28.512157999999996,0 -80.80907349999995,28.512402799999993,0 -80.80887659999995,28.512424999999993,0 -80.80859449999994,28.512454099999996,0 -80.80835279999994,28.512474499999996,0 -80.80820839999994,28.512488799999996,0 -80.80813819999993,28.512491499999996,0 -80.80805629999993,28.512490499999995,0 -80.80801099999994,28.512486299999996,0 -80.80797089999993,28.512480299999996,0 -80.80789889999993,28.512464399999995,0 -80.80783289999994,28.512443799999996,0 -80.80776719999993,28.512419099999995,0 -80.80771389999992,28.5123915,0 -80.80767689999992,28.5123705,0 -80.80762769999993,28.512338399999997,0 -80.80757209999993,28.512292999999996,0 -80.80753119999993,28.512253099999995,0 -80.80749619999993,28.512213799999994,0 -80.80747249999993,28.512183799999992,0 -80.80744769999993,28.512147499999994,0 -80.80743609999992,28.512128899999993,0 -80.80741909999992,28.51209859999999,0 -80.80738319999992,28.51203229999999,0 -80.80669939999991,28.51074059999999,0 -80.80666329999991,28.51067059999999,0 -80.80663469999992,28.51061289999999,0 -80.80658459999991,28.51050409999999,0 -80.8065623999999,28.510447899999992,0 -80.8065162999999,28.51031219999999,0 -80.8064892999999,28.51020599999999,0 -80.8064799999999,28.51016409999999,0 -80.8064600999999,28.51005769999999,0 -80.80641859999989,28.50966549999999,0 -80.8064082999999,28.50960219999999,0 -80.8063913999999,28.509523299999987,0 -80.80638359999989,28.50949309999999,0 -80.8063635999999,28.50942999999999,0 -80.80634489999989,28.50938239999999,0 -80.80630899999989,28.509298999999988,0 -80.80624809999988,28.509184399999988,0 -80.80620179999988,28.509114099999987,0 -80.80616449999988,28.50906259999999,0 -80.80612949999988,28.50901879999999,0 -80.80610519999989,28.508990699999988,0 -80.80603899999988,28.508920899999985,0 -80.80599309999988,28.508879099999987,0 -80.80594389999987,28.508837399999987,0 -80.80586679999988,28.508778399999986,0 -80.80568889999988,28.508648199999985,0 -80.80564969999988,28.508615199999984,0 -80.80562489999987,28.508591399999986,0 -80.80558889999988,28.508554299999982,0 -80.80554349999987,28.508495099999983,0 -80.80550379999987,28.508435899999984,0 -80.80548999999988,28.508408799999984,0 -80.80547469999988,28.508373999999986,0 -80.80546299999988,28.508344799999985,0 -80.80545019999987,28.508303699999985,0 -80.80543989999987,28.508264199999985,0 -80.80542759999987,28.508201099999987,0 -80.80542219999987,28.508153099999987,0 -80.80541919999987,28.508099299999984,0 -80.80542529999987,28.508055299999985,0 -80.80543479999987,28.508006399999985,0 -80.80544719999986,28.507958499999987,0 -80.80546769999987,28.507898799999985,0 -80.80550959999988,28.507816099999985,0 -80.80558339999988,28.507714499999988,0 -80.80575339999987,28.50755429999999,0 -80.80603139999988,28.50730369999999,0 -80.80605989999988,28.50727719999999,0 -80.80613939999988,28.50718789999999,0 -80.80617089999987,28.50714349999999,0 -80.80620589999987,28.50708239999999,0 -80.80622049999988,28.50705119999999,0 -80.80623489999986,28.50701719999999,0 -80.80625779999987,28.50694219999999,0 -80.80626599999988,28.506890599999988,0 -80.80626879999988,28.506834599999987,0 -80.80626899999987,28.50678559999999,0 -80.80626599999988,28.50672619999999,0 -80.80625999999988,28.50669369999999,0 -80.80624259999989,28.506622999999987,0 -80.80622279999989,28.506563199999988,0 -80.80618539999989,28.506496599999988,0 -80.80613269999989,28.506419699999988,0 -80.80609379999989,28.506372799999987,0 -80.80605069999989,28.506328399999987,0 -80.80573169999988,28.50604949999999,0 -80.80552689999989,28.50588019999999,0 -80.80541659999989,28.505802699999986,0 -80.8053689999999,28.505777299999984,0 -80.8053183999999,28.505754099999983,0 -80.8052789999999,28.505739099999985,0 -80.8051674999999,28.505705099999986,0 -80.8047104999999,28.505643599999985,0 -80.8043286999999,28.505594799999983,0 -80.8040149999999,28.505558999999984,0 -80.8037872999999,28.505534899999983,0 -80.8036168999999,28.50552029999998,0 -80.80338029999989,28.505508099999982,0 -80.80283829999988,28.505488299999982,0 -80.80228629999988,28.50547679999998,0 -80.80220169999988,28.505477899999978,0 -80.80196809999988,28.50548809999998,0 -80.80176959999989,28.50551109999998,0 -80.80158469999989,28.50554149999998,0 -80.80146389999989,28.505563599999977,0 -80.80127909999989,28.505594199999976,0 -80.80122169999989,28.50560109999998,0 -80.8011639999999,28.50560719999998,0 -80.8010655999999,28.505613899999975,0 -80.8009736999999,28.505619299999974,0 -80.8008789999999,28.505620699999973,0 -80.8004453999999,28.50561869999997,0 -80.7998911999999,28.505611799999972,0 -80.7990596999999,28.505610099999974,0 -80.7989875999999,28.505605299999974,0 -80.7989388999999,28.505597399999974,0 -80.7988779999999,28.505574399999976,0 -80.7988282999999,28.505546699999975,0 -80.7987992999999,28.50551839999998,0 -80.7987613999999,28.505469099999978,0 -80.7987420999999,28.505423199999978,0 -80.79872689999989,28.50536559999998,0 -80.7987239999999,28.505351999999977,0 -80.79872059999988,28.505311199999976,0 -80.79866749999988,28.50216179999998,0 -80.79866419999988,28.502076499999976,0 -80.79864249999987,28.50200069999998,0 -80.79861139999987,28.50194099999998,0 -80.79858119999987,28.501903899999977,0 -80.79856269999988,28.501890799999977,0 -80.79852379999987,28.501866399999976,0 -80.79847139999985,28.501840299999976,0 -80.79843159999986,28.501825499999978,0 -80.79839759999987,28.501817999999975,0 -80.79836339999987,28.501816699999978,0 -80.79819529999986,28.501812299999976,0 -80.79772889999987,28.501818599999975,0 -80.79508109999986,28.50182799999998,0 -80.79498109999986,28.50183259999998,0 -80.79490859999987,28.501839899999975,0 -80.79483479999986,28.501853399999977,0 -80.79475849999986,28.501875399999978,0 -80.79468359999986,28.501910799999976,0 -80.79462449999986,28.501952299999974,0 -80.79455579999986,28.502015599999975,0 -80.79455509999985,28.502016099999974,0 -80.79450469999986,28.502079999999975,0 -80.79446949999986,28.502143899999975,0 -80.79444169999987,28.502216699999977,0 -80.79442579999986,28.502310099999978,0 -80.79441779999985,28.502406399999977,0 -80.79442009999985,28.502573099999978,0 -80.79441839999986,28.502908399999978,0 -80.79441449999985,28.503295099999978,0 -80.79442009999984,28.50424579999998,0 -80.79441779999983,28.50469639999998,0 -80.79441439999984,28.504905199999982,0 -80.79441629999984,28.505056399999983,0 -80.79440259999984,28.505206199999982,0 -80.79438259999984,28.505290799999983,0 -80.79435819999983,28.505359599999984,0 -80.79432919999984,28.505422499999984,0 -80.79428839999983,28.505485299999982,0 -80.79425139999982,28.505534299999983,0 -80.79420769999983,28.505585599999982,0 -80.79407819999982,28.505717399999984,0 -80.79399649999982,28.505789199999985,0 -80.79390159999983,28.505856099999985,0 -80.79380059999983,28.505912999999982,0 -80.79369839999981,28.505959899999983,0 -80.79359419999982,28.505995399999982,0 -80.79321259999982,28.506097699999984,0 -80.79270049999981,28.506231599999982,0 -80.79215819999982,28.506368299999984,0 -80.7920027999998,28.506408599999983,0 -80.79189909999981,28.50645199999998,0 -80.79183399999981,28.506490299999985,0 -80.79177599999981,28.506539999999983,0 -80.79172089999982,28.506599699999985,0 -80.7916808999998,28.506668899999983,0 -80.7916600999998,28.506707899999984,0 -80.7916425999998,28.50674869999999,0 -80.79161039999981,28.506855599999987,0 -80.7915993999998,28.506915499999987,0 -80.79159299999979,28.50697819999999,0 -80.7915832999998,28.50728699999999,0 -80.7915729999998,28.50884509999999,0 -80.7915684999998,28.509283499999988,0 -80.7915570999998,28.510070899999988,0 -80.7896273999998,28.51009589999999,0 -80.78920449999981,28.51009959999999,0 -80.78819799999981,28.51011529999999,0 -80.7872214999998,28.51012669999999,0 -80.7871234999998,28.510129699999986,0 -80.7851389999998,28.510153999999986,0 -80.78473129999979,28.510162699999988,0 -80.78410729999979,28.51016159999999,0 -80.7839261999998,28.51015309999999,0 -80.7839232999998,28.51036679999999,0 -80.7839627999998,28.51069939999999,0 -80.7840172999998,28.51100009999999,0 -80.7840547999998,28.51114509999999,0 -80.78408579999979,28.51125769999999,0 -80.7841454999998,28.51145519999999,0 -80.78442389999978,28.512312699999992,0 -80.78465379999979,28.51304439999999,0 -80.78465569999977,28.513049399999993,0 -80.78500369999978,28.514144999999992,0 -80.78586749999978,28.516842799999992,0 -80.78664149999977,28.519221599999995,0 -80.78684289999977,28.519862599999993,0 -80.78695699999977,28.52020779999999,0 -80.78710239999978,28.52066109999999,0 -80.78668549999978,28.52074579999999,0 -80.78648379999977,28.520777699999993,0 -80.78624009999977,28.520802699999994,0 -80.78608899999978,28.52082529999999,0 -80.78591659999978,28.520866399999996,0 -80.78527689999977,28.521038599999997,0 -80.78536899999978,28.521169299999997,0 -80.78553009999978,28.521441099999997,0 -80.78571409999978,28.5218757,0 -80.78598129999978,28.522694299999998,0 -80.78603259999979,28.522794699999995,0 -80.78612799999978,28.523233199999996,0 -80.78609609999978,28.523379699999996,0 -80.78602629999978,28.523533099999995,0 -80.78598069999978,28.523665399999995,0 -80.78597039999978,28.523856699999996,0 -80.78605889999977,28.5242601,0 -80.78626209999977,28.5249806,0 -80.78628649999978,28.525162999999996,0 -80.78626829999976,28.525347599999996,0 -80.78620239999977,28.525496399999994,0 -80.78608989999977,28.525645299999994,0 -80.78597129999977,28.525737499999995,0 -80.78582939999977,28.525819399999992,0 -80.78565339999977,28.525863899999994,0 -80.78539969999977,28.525869899999996,0 -80.78494519999977,28.525861099999997,0 -80.78465919999977,28.525853499999997,0 -80.78446709999977,28.5258582,0 -80.78431459999977,28.525874499999997,0 -80.78416599999977,28.525920599999996,0 -80.78400519999977,28.525996499999998,0 -80.78386469999977,28.526066299999997,0 -80.78373119999976,28.526110999999997,0 -80.78354559999975,28.5261231,0 -80.78315649999976,28.526112599999998,0 -80.78300539999977,28.526115299999997,0 -80.78301429999976,28.5264885,0 -80.78301899999977,28.5268007,0 -80.78301149999976,28.526991,0 -80.78300959999976,28.5271129,0 -80.78301519999975,28.527221599999997,0 -80.78301329999975,28.5273196,0 -80.78300679999975,28.5274069,0 -80.78299649999977,28.527465399999997,0 -80.78295519999976,28.527561799999994,0 -80.78290479999976,28.527650899999994,0 -80.78203589999976,28.527644999999996,0 -80.78097359999977,28.527647599999995,0 -80.78006329999975,28.5276443,0 -80.78003699999977,28.527643599999998,0 -80.77950679999977,28.527640199999997,0 -80.77927009999976,28.527639799999996,0 -80.77827189999977,28.527633099999996,0 -80.77760679999977,28.527622199999996,0 -80.77604389999976,28.527587099999995,0 -80.76803659999976,28.527394799999996,0 -80.76536099999976,28.527324099999994,0 -80.76490369999976,28.527317699999998,0 -80.73562769999977,28.526607999999996,0 -80.73414219999978,28.5265739,0 -80.73284669999978,28.526540899999997,0 -80.73207019999977,28.526518399999997,0 -80.72851169999977,28.526438,0 -80.72435709999978,28.5264112,0 -80.72177629999977,28.526398099999998,0 -80.70250909999979,28.5262696,0 -80.69860099999978,28.5262512,0 -80.69468739999978,28.5262212,0 -80.69448049999978,28.526216499999997,0 -80.69442309999978,28.526217899999995,0 -80.69346919999978,28.526209599999998,0 -80.69310469999978,28.526196999999996,0 -80.69309699999978,28.5253387,0 -80.69308639999979,28.524558199999998,0 -80.69307089999978,28.524338899999996,0 -80.69301579999978,28.523891199999998,0 -80.69295389999978,28.523736899999996,0 -80.69294639999977,28.523617599999994,0 -80.69293059999977,28.523406499999997,0 -80.69292799999978,28.523300399999997,0 -80.69293189999978,28.521519999999995,0 -80.69293449999978,28.5211202,0 -80.69291479999978,28.520712,0 -80.69286619999978,28.520307999999996,0 -80.69280219999979,28.519999899999995,0 -80.69270009999978,28.519587199999997,0 -80.6925831999998,28.519194699999996,0 -80.69248859999979,28.518927099999996,0 -80.6923587999998,28.518630099999996,0 -80.69230189999979,28.518523499999997,0 -80.6922442999998,28.518418399999995,0 -80.6919634999998,28.518007699999995,0 -80.6913241999998,28.517275499999997,0 -80.69084399999981,28.5168288,0 -80.6903451999998,28.5164446,0 -80.6898559999998,28.516145299999998,0 -80.6892854999998,28.515839999999997,0 -80.6886460999998,28.5155765,0 -80.6879745999998,28.515366699999998,0 -80.68750579999981,28.5152656,0 -80.68700909999981,28.515193299999996,0 -80.68674669999982,28.5151666,0 -80.68663119999981,28.5151346,0 -80.68639309999982,28.5151194,0 -80.68575119999981,28.515105999999996,0 -80.68549079999981,28.5150974,0 -80.68465079999982,28.515087899999997,0 -80.68293969999982,28.515091499999997,0 -80.68208109999982,28.515101599999998,0 -80.68199769999983,28.515096299999996,0 -80.68193149999982,28.515089999999994,0 -80.68195709999982,28.515192799999994,0 -80.68197039999981,28.515797399999997,0 -80.68196309999982,28.515945499999997,0 -80.68191919999981,28.516606999999997,0 -80.68178899999981,28.5175079,0 -80.68173019999982,28.518345999999998,0 -80.68171829999982,28.5186118,0 -80.68170059999981,28.519091099999997,0 -80.68171789999981,28.519652899999997,0 -80.68172319999982,28.5196707,0 </coordinates></LineString><TimeSpan><begin>2022-08-29T09:30:30.592Z</begin><end>2022-08-29T12:05:55.195Z</end></TimeSpan></Placemark><Placemark><name>Kennedy Space Center Visitor Complex</name><address>Space Commerce Way, Merritt Island, FL 32953</address><ExtendedData><Data name="Email"><value>syugen.zhou@gmail.com</value></Data><Data name="Category"><value>Visitor center</value></Data><Data name="Distance"><value>0</value></Data></ExtendedData><description> Visitor center from 2022-08-29T12:05:55.195Z to 2022-08-29T12:51:22.475Z. Distance 0m </description><Point><coordinates>-80.6819268,28.5234056,0</coordinates></Point><TimeSpan><begin>2022-08-29T12:05:55.195Z</begin><end>2022-08-29T12:51:22.475Z</end></TimeSpan></Placemark><Placemark><name>Driving</name><address></address><ExtendedData><Data name="Email"><value>syugen.zhou@gmail.com</value></Data><Data name="Category"><value>Driving</value></Data><Data name="Distance"><value>208812</value></Data></ExtendedData><description> Driving from 2022-08-29T12:51:22.475Z to 2022-08-29T15:03:23.000Z. Distance 208812m </description><LineString><altitudeMode>clampToGround</altitudeMode><extrude>1</extrude><tesselate>1</tesselate><coordinates>-80.6819446,28.5211009,0 -80.6819415,28.521485900000002,0 -80.68194349999999,28.5214939,0 -80.6819488,28.521503,0 -80.6819541,28.5215086,0 -80.6819666,28.521516799999997,0 -80.68198559999999,28.521523,0 -80.68201169999999,28.5215253,0 -80.68332739999998,28.521533100000003,0 -80.68333779999999,28.5202911,0 -80.68332979999998,28.5202588,0 -80.68331579999997,28.5202254,0 -80.68329809999997,28.520203900000002,0 -80.68327609999999,28.5201834,0 -80.68322499999998,28.5201556,0 -80.68317139999998,28.5201424,0 -80.67921039999997,28.5201196,0 -80.67920039999997,28.5203538,0 -80.67918879999998,28.5228027,0 -80.67920699999998,28.5229345,0 -80.67924379999998,28.5230074,0 -80.67923369999997,28.523025600000004,0 -80.67917809999997,28.523763000000002,0 -80.67916899999997,28.5262185,0 -80.72901699999997,28.526555300000002,0 -80.75588479999998,28.5272083,0 -80.75797999999996,28.527318,0 -80.76939079999997,28.527598,0 -80.77090169999997,28.5275742,0 -80.77676089999996,28.5277206,0 -80.77834909999996,28.527805899999997,0 -80.78985699999996,28.5278566,0 -80.79003039999996,28.527935199999998,0 -80.79009929999995,28.527976699999996,0 -80.79012589999995,28.527998799999995,0 -80.79019039999996,28.528072999999996,0 -80.79022869999996,28.528134999999995,0 -80.79063129999996,28.528900599999997,0 -80.79066779999997,28.528988,0 -80.79067309999996,28.529018399999995,0 -80.79066569999995,28.529075299999995,0 -80.79063929999995,28.529141899999996,0 -80.79062009999996,28.529178699999996,0 -80.79059719999995,28.529208099999995,0 -80.79053989999994,28.529257499999996,0 -80.79049709999995,28.529278499999997,0 -80.79042939999995,28.529296799999997,0 -80.79039799999995,28.529300999999997,0 -80.79035169999996,28.529301699999998,0 -80.79030699999996,28.529295099999995,0 -80.79023759999995,28.529272499999994,0 -80.79018949999995,28.529244599999995,0 -80.79015759999996,28.529214199999995,0 -80.79009079999996,28.529127799999994,0 -80.79007489999995,28.529112799999996,0 -80.79002749999995,28.529078699999996,0 -80.78428669999997,28.5112261,0 -80.78418149999996,28.510784599999997,0 -80.78413539999995,28.510454199999998,0 -80.78410729999996,28.5101616,0 -80.78413469999995,28.5095111,0 -80.78417929999995,28.5092027,0 -80.78457219999996,28.5073159,0 -80.78460649999995,28.506985899999997,0 -80.78461479999996,28.506779199999997,0 -80.78460869999996,28.506442999999994,0 -80.78455029999996,28.505870999999996,0 -80.78450599999995,28.505653999999996,0 -80.78442019999996,28.505331799999997,0 -80.78435119999995,28.505121399999993,0 -80.78418519999995,28.504705399999995,0 -80.78291359999996,28.501927399999996,0 -80.78264289999996,28.501290999999995,0 -80.78029589999996,28.496144899999997,0 -80.78007859999995,28.495696799999994,0 -80.77991539999995,28.495405299999994,0 -80.77961159999995,28.494925999999992,0 -80.77934159999995,28.49455339999999,0 -80.77900379999994,28.494145599999992,0 -80.77881649999995,28.493939399999995,0 -80.77848909999996,28.493613499999995,0 -80.77611949999995,28.49147319999999,0 -80.77560299999996,28.490947699999992,0 -80.77585829999995,28.49085289999999,0 -80.77593269999996,28.49082979999999,0 -80.77598879999996,28.490821199999992,0 -80.77605389999997,28.49081739999999,0 -80.80344209999996,28.49076439999999,0 -80.80354509999995,28.49079669999999,0 -80.80365649999996,28.49080979999999,0 -80.80392969999994,28.49081119999999,0 -80.80399599999994,28.49081669999999,0 -80.80405599999995,28.490828699999987,0 -80.80407979999994,28.49084239999999,0 -80.80409979999995,28.49086079999999,0 -80.80411939999995,28.49088419999999,0 -80.80413549999994,28.490922899999987,0 -80.80413969999994,28.490950499999986,0 -80.80414249999994,28.491380799999984,0 -80.80414959999995,28.491485299999983,0 -80.80408529999994,28.492145899999986,0 -80.80406539999993,28.492469499999988,0 -80.80406419999993,28.492725899999986,0 -80.80407699999994,28.493012399999987,0 -80.80409869999994,28.49322899999999,0 -80.80413699999994,28.49346949999999,0 -80.80422469999995,28.493864599999988,0 -80.80432729999994,28.49419589999999,0 -80.80448929999994,28.49460899999999,0 -80.80468919999994,28.495010999999987,0 -80.80486409999995,28.49529789999999,0 -80.81260429999995,28.50672489999999,0 -80.81277879999995,28.50701359999999,0 -80.81304519999995,28.50750469999999,0 -80.81327859999995,28.508023099999992,0 -80.81343579999995,28.50844179999999,0 -80.81358979999995,28.508956399999988,0 -80.81365969999995,28.509238499999988,0 -80.81373079999995,28.50961249999999,0 -80.81380019999995,28.51014259999999,0 -80.81382789999995,28.51058379999999,0 -80.81383649999995,28.51209039999999,0 -80.81404359999995,28.51208209999999,0 -80.81502969999995,28.51212629999999,0 -80.81672519999995,28.51225699999999,0 -80.81710239999995,28.51229619999999,0 -80.81741069999995,28.512383299999993,0 -80.81760499999996,28.51246649999999,0 -80.81778209999996,28.512560199999992,0 -80.81802309999995,28.512735299999992,0 -80.81819319999995,28.51290729999999,0 -80.81837689999995,28.513168599999993,0 -80.81851499999993,28.513480399999995,0 -80.81865819999994,28.514078599999994,0 -80.81870979999994,28.514226199999992,0 -80.81881559999994,28.51445779999999,0 -80.81887499999993,28.514558999999995,0 -80.81893229999994,28.514640399999994,0 -80.81900469999994,28.514726999999993,0 -80.81909129999994,28.514816899999992,0 -80.81919639999994,28.514911599999994,0 -80.81938089999994,28.515047599999992,0 -80.81950329999995,28.515119699999993,0 -80.81965419999995,28.51519509999999,0 -80.81984839999996,28.51526669999999,0 -80.81998679999995,28.51530789999999,0 -80.82014269999995,28.51534199999999,0 -80.82028119999995,28.515360399999988,0 -80.82304689999995,28.515375799999987,0 -80.82314189999994,28.51536509999999,0 -80.82510449999994,28.515368599999988,0 -80.82573309999994,28.51538789999999,0 -80.82596689999994,28.515415599999987,0 -80.82628049999995,28.515480299999986,0 -80.82638439999995,28.515506899999988,0 -80.82659079999996,28.51558119999999,0 -80.82714419999996,28.515838899999988,0 -80.82841599999996,28.516531699999987,0 -80.82652859999996,28.519338799999986,0 -80.82642949999996,28.519555299999986,0 -80.82033159999996,28.528501999999985,0 -80.82004109999995,28.529009099999985,0 -80.81981889999996,28.529473199999988,0 -80.81968129999997,28.529851599999986,0 -80.81964229999997,28.52990409999999,0 -80.81956569999997,28.530105199999987,0 -80.81882979999997,28.53234929999999,0 -80.81876939999997,28.532508999999987,0 -80.81933279999997,28.532668699999988,0 -80.82136999999997,28.533201699999985,0 -80.82172019999997,28.533312699999986,0 -80.82229009999998,28.533535399999987,0 -80.82294069999998,28.533839599999986,0 -80.82317749999999,28.533966499999984,0 -80.82346199999999,28.534134499999983,0 -80.82399059999999,28.534476899999987,0 -80.82445259999999,28.534824999999984,0 -80.82459419999998,28.534941299999986,0 -80.82501729999998,28.535323699999985,0 -80.82538919999998,28.535709399999988,0 -80.82630889999999,28.536856099999987,0 -80.82740659999999,28.538292399999985,0 -80.82757549999998,28.538530299999984,0 -80.83093889999998,28.542951799999983,0 -80.83202119999997,28.544336899999983,0 -80.83210339999997,28.544460499999985,0 -80.83213429999996,28.544494199999985,0 -80.83683669999996,28.550667199999985,0 -80.83719659999997,28.551080499999987,0 -80.83745109999997,28.551341699999988,0 -80.83779239999997,28.551660399999985,0 -80.83828029999997,28.552058799999987,0 -80.83870439999997,28.552360599999986,0 -80.83923769999997,28.552694399999986,0 -80.83965979999996,28.552918099999985,0 -80.84006539999997,28.553110899999986,0 -80.84054639999997,28.553318099999988,0 -80.84088969999998,28.553445499999988,0 -80.84120889999997,28.553550199999986,0 -80.84159909999997,28.55366319999999,0 -80.84201189999996,28.553758299999988,0 -80.84236279999998,28.553825999999987,0 -80.84304659999997,28.553918399999986,0 -80.84333829999997,28.553945099999986,0 -80.84405439999998,28.553981199999985,0 -80.84460969999998,28.553962599999984,0 -80.84517049999997,28.553917199999983,0 -80.84546579999997,28.553909199999985,0 -80.84568849999997,28.553936099999984,0 -80.84587119999998,28.553974199999985,0 -80.84605039999998,28.554033499999985,0 -80.84618749999998,28.554094999999986,0 -80.84628579999999,28.554147199999985,0 -80.84661629999998,28.554369799999986,0 -80.84672229999998,28.554528199999986,0 -80.84686899999998,28.554381899999985,0 -80.84728699999998,28.553999299999983,0 -80.84751359999998,28.553752599999985,0 -80.84764629999998,28.553624199999984,0 -80.84786189999998,28.55343429999998,0 -80.84815379999998,28.553215699999985,0 -80.84827809999997,28.55313269999998,0 -80.84935039999998,28.552679199999982,0 -80.85047999999998,28.552252499999984,0 -80.85071359999998,28.552245999999982,0 -80.85082989999998,28.552256299999986,0 -80.85087669999997,28.552267099999984,0 -80.85093409999998,28.552290899999985,0 -80.85099639999997,28.552325199999988,0 -80.85104609999998,28.552370999999983,0 -80.85107129999997,28.552409499999985,0 -80.85108819999998,28.552443899999982,0 -80.85110299999998,28.55248569999998,0 -80.85111419999998,28.553104899999983,0 -80.85116409999998,28.55357049999998,0 -80.85133099999997,28.554461299999982,0 -80.85137849999998,28.55500329999998,0 -80.85139149999998,28.55532329999998,0 -80.85144769999998,28.55547119999998,0 -80.85146789999997,28.55551369999998,0 -80.85108019999997,28.619596399999978,0 -80.85111399999997,28.62024919999998,0 -80.85123859999997,28.621062399999982,0 -80.85128819999997,28.62128679999998,0 -80.85145729999998,28.62188159999998,0 -80.85160979999998,28.62231439999998,0 -80.85197799999997,28.62320219999998,0 -80.85200769999997,28.62326199999998,0 -80.85437569999998,28.629068199999978,0 -80.85439329999998,28.629131599999976,0 -80.85447249999999,28.629348999999976,0 -80.8679354,28.662099299999976,0 -80.86802079999998,28.662285599999976,0 -80.86949169999998,28.665864699999975,0 -80.86963159999999,28.666254799999976,0 -80.87015249999999,28.667517599999975,0 -80.87020079999999,28.667598299999977,0 -80.87084909999999,28.66916459999998,0 -80.8709638,28.66946919999998,0 -80.8899381,28.71570929999998,0 -80.89011809999998,28.716271199999976,0 -80.8902404,28.716782199999976,0 -80.89033339999999,28.717333199999977,0 -80.89037079999999,28.717702299999978,0 -80.8903878,28.71831609999998,0 -80.89037619999999,28.71870829999998,0 -80.8903014,28.71946459999998,0 -80.8902124,28.719926299999983,0 -80.8901353,28.72024369999998,0 -80.8850874,28.73595979999998,0 -80.88494510000001,28.73651079999998,0 -80.8848627,28.736993399999978,0 -80.8848156,28.737364699999976,0 -80.8847743,28.738106299999973,0 -80.8847926,28.738690799999976,0 -80.8848685,28.739320599999978,0 -80.8849519,28.739770599999975,0 -80.88502079999999,28.740065999999974,0 -80.90406079999998,28.807773599999976,0 -80.91450979999999,28.841718799999974,0 -80.9146896,28.842403999999977,0 -80.9150068,28.843772399999978,0 -80.9151092,28.844303399999976,0 -80.91918749999999,28.869856599999977,0 -80.9193053,28.870448399999972,0 -80.91943579999999,28.87099039999997,0 -80.9195843,28.871519699999972,0 -80.91972899999999,28.87197169999997,0 -80.91988889999999,28.87241729999997,0 -80.93133479999999,28.901586099999967,0 -80.93179249999999,28.90287119999997,0 -80.93840329999998,28.92452879999997,0 -80.93881939999999,28.92566129999997,0 -80.93912479999999,28.926394299999966,0 -80.95793499999998,28.967044099999967,0 -80.95839399999997,28.967950399999967,0 -80.95869229999998,28.968483899999967,0 -80.95909339999999,28.969151699999966,0 -80.96333499999999,28.975688999999967,0 -80.96446229999998,28.97734089999997,0 -80.97149369999997,28.988142199999967,0 -80.97151419999997,28.98817979999997,0 -80.99807029999998,29.028771999999968,0 -80.99901699999998,29.03017999999997,0 -80.99981289999998,29.031429499999966,0 -81.00312539999997,29.036447499999966,0 -81.00409129999997,29.037992099999965,0 -81.00447609999998,29.03867009999997,0 -81.00486549999998,29.039438499999967,0 -81.00528649999997,29.040371599999965,0 -81.00547039999998,29.040833699999965,0 -81.00575039999998,29.041606899999962,0 -81.00608319999998,29.042667099999964,0 -81.00616019999998,29.042953899999965,0 -81.00636089999998,29.043832799999965,0 -81.00655639999998,29.044920899999962,0 -81.00662939999997,29.045487399999963,0 -81.00823069999997,29.063514799999965,0 -81.00835949999997,29.064251699999968,0 -81.00850719999997,29.064918099999964,0 -81.00868589999997,29.065568499999962,0 -81.00885399999997,29.06609219999996,0 -81.00908489999998,29.06672629999996,0 -81.00925159999997,29.06713539999996,0 -81.00947779999997,29.06763679999996,0 -81.02045989999998,29.089918599999958,0 -81.02147779999997,29.09191559999996,0 -81.02465169999996,29.09838089999996,0 -81.02680769999996,29.10247949999996,0 -81.03082589999997,29.110657999999958,0 -81.03094829999998,29.110888399999954,0 -81.03134989999997,29.11152969999996,0 -81.03173389999998,29.112064299999957,0 -81.03217689999997,29.112590599999958,0 -81.03243809999996,29.112872399999958,0 -81.03282729999997,29.113259299999957,0 -81.03353409999997,29.11386389999996,0 -81.03384209999996,29.114092399999958,0 -81.03433929999996,29.11443129999996,0 -81.05677419999996,29.127991099999964,0 -81.05751279999997,29.128467599999965,0 -81.05814369999996,29.128908499999966,0 -81.05857269999997,29.129228799999964,0 -81.05950939999997,29.129984599999965,0 -81.06003349999996,29.13044229999996,0 -81.06063989999996,29.131014599999958,0 -81.06145259999997,29.13184299999996,0 -81.06229209999996,29.13280329999996,0 -81.06266309999997,29.13325679999996,0 -81.06344129999997,29.134365999999957,0 -81.06404419999997,29.13531429999996,0 -81.08191139999995,29.166533699999956,0 -81.08209169999996,29.166872699999956,0 -81.08240779999997,29.167518599999955,0 -81.08280919999997,29.16843639999996,0 -81.08352449999997,29.17029069999996,0 -81.08380859999997,29.17093689999996,0 -81.08418339999996,29.17169519999996,0 -81.08455989999996,29.17235909999996,0 -81.08502519999996,29.17309469999996,0 -81.08550929999997,29.173774399999957,0 -81.08696109999995,29.175627799999962,0 -81.08726889999996,29.17604269999996,0 -81.08762739999996,29.176579899999965,0 -81.08789619999996,29.177026499999965,0 -81.08819909999997,29.177588999999962,0 -81.08835749999997,29.177917499999964,0 -81.08856729999997,29.178395799999965,0 -81.08870459999997,29.178747999999963,0 -81.10100409999997,29.214168999999966,0 -81.10107039999997,29.21433289999997,0 -81.10281669999996,29.21934709999997,0 -81.10290279999997,29.21964709999997,0 -81.10359319999996,29.22163619999997,0 -81.10375239999996,29.222043399999972,0 -81.10491639999995,29.22541169999997,0 -81.10513319999995,29.225997899999967,0 -81.10541239999996,29.22682399999997,0 -81.10550269999996,29.227127199999966,0 -81.11400499999996,29.251620099999965,0 -81.11419139999997,29.252100099999968,0 -81.12256209999997,29.276229499999967,0 -81.12307629999998,29.27788649999997,0 -81.12342679999998,29.279108399999966,0 -81.12417609999997,29.28143759999997,0 -81.12454019999997,29.282464999999966,0 -81.12556219999998,29.28507419999997,0 -81.12656549999997,29.28774929999997,0 -81.13102039999997,29.30054449999997,0 -81.13128639999996,29.301496799999967,0 -81.13139099999997,29.30197149999997,0 -81.13148169999997,29.30246809999997,0 -81.13160849999997,29.30339669999997,0 -81.13165049999996,29.30400669999997,0 -81.13166849999996,29.304744199999973,0 -81.13108399999996,29.33148709999997,0 -81.13109119999996,29.331572399999967,0 -81.13101799999995,29.335009599999967,0 -81.13099799999996,29.33509269999997,0 -81.13096319999995,29.33670199999997,0 -81.13097589999995,29.33682629999997,0 -81.13090119999995,29.34052779999997,0 -81.13088039999995,29.34061749999997,0 -81.13082799999995,29.34307059999997,0 -81.13084329999995,29.34319729999997,0 -81.13078929999995,29.34591569999997,0 -81.13079939999994,29.346363399999973,0 -81.13082269999994,29.346695799999974,0 -81.13087429999995,29.347161599999975,0 -81.13096299999995,29.34769549999998,0 -81.13111759999994,29.34836379999998,0 -81.13123609999994,29.34876659999998,0 -81.13139219999995,29.349216099999982,0 -81.13156319999995,29.349642899999985,0 -81.15105509999995,29.394522399999982,0 -81.15107209999995,29.394571699999986,0 -81.15108899999996,29.394649799999986,0 -81.15181999999996,29.396330999999986,0 -81.15188159999995,29.396420399999986,0 -81.15434069999996,29.402087199999986,0 -81.15434099999997,29.402108199999986,0 -81.15432789999997,29.402150599999988,0 -81.15750119999997,29.409398999999986,0 -81.15754319999996,29.409511599999984,0 -81.15756469999997,29.40959489999998,0 -81.15894019999996,29.41270379999998,0 -81.15900999999997,29.412816599999978,0 -81.16372999999997,29.42365149999998,0 -81.16476749999997,29.426270699999982,0 -81.19151809999997,29.49654849999998,0 -81.19157789999997,29.496728699999984,0 -81.20567219999997,29.533664999999985,0 -81.20587569999996,29.534153899999986,0 -81.20613559999997,29.534706899999982,0 -81.20644639999998,29.53530909999998,0 -81.20664659999997,29.53566719999998,0 -81.20703439999997,29.53630929999998,0 -81.21464519999996,29.547911899999978,0 -81.21473399999996,29.548060599999975,0 -81.24408289999997,29.592792699999972,0 -81.24518389999996,29.594579499999977,0 -81.24562419999997,29.595345799999976,0 -81.27756799999997,29.654145399999976,0 -81.27803139999997,29.654926199999977,0 -81.27835729999998,29.655419999999975,0 -81.27886219999998,29.656111699999975,0 -81.27916989999999,29.65650139999998,0 -81.27967579999999,29.657087299999976,0 -81.28025209999998,29.657693499999976,0 -81.28067619999997,29.658103699999977,0 -81.28115139999998,29.65853069999998,0 -81.28156619999999,29.65887899999998,0 -81.28194299999998,29.659177099999983,0 -81.28276399999999,29.659770099999978,0 -81.28338549999998,29.66017089999998,0 -81.28411249999998,29.660603099999978,0 -81.31269989999998,29.676734399999976,0 -81.31363309999998,29.677297099999976,0 -81.31431979999998,29.677754999999976,0 -81.31483889999998,29.678119399999975,0 -81.31547829999998,29.678600099999976,0 -81.31593559999997,29.678966499999976,0 -81.31665529999998,29.679595199999977,0 -81.31731859999998,29.68021199999998,0 -81.31781989999998,29.68071509999998,0 -81.31842019999998,29.68136509999998,0 -81.31878159999997,29.68178299999998,0 -81.31924969999997,29.68235629999998,0 -81.31956499999998,29.682766499999982,0 -81.32017119999998,29.683624199999986,0 -81.32064269999996,29.684363599999987,0 -81.32108579999996,29.685125199999987,0 -81.32138739999996,29.685693599999983,0 -81.32173429999996,29.686407399999986,0 -81.32209829999996,29.68724409999999,0 -81.37092449999996,29.808951799999985,0 -81.37186669999996,29.810989399999986,0 -81.37775459999996,29.82290699999999,0 -81.37789489999996,29.82321509999999,0 -81.37893699999996,29.825321499999987,0 -81.37919669999997,29.825812999999986,0 -81.39122729999995,29.850183399999985,0 -81.39158699999996,29.851003999999982,0 -81.39201939999997,29.852090199999985,0 -81.39227049999995,29.852794699999983,0 -81.39255339999995,29.853668799999983,0 -81.41266939999996,29.920030899999983,0 -81.41304179999996,29.920992799999983,0 -81.41326959999996,29.921503499999982,0 -81.41350169999996,29.92196759999998,0 -81.41381619999996,29.92253919999998,0 -81.41428809999995,29.92330289999998,0 -81.41473569999995,29.92394669999998,0 -81.41517739999995,29.924524299999977,0 -81.41562819999994,29.925056899999976,0 -81.44056929999995,29.952164499999977,0 -81.44143269999995,29.953184299999975,0 -81.44211609999994,29.954052299999972,0 -81.44293929999995,29.95517989999997,0 -81.44347009999996,29.95597559999997,0 -81.49483949999994,30.040970999999967,0 -81.49520789999994,30.041617099999968,0 -81.49544939999994,30.042076599999966,0 -81.49568239999995,30.04257939999997,0 -81.49599579999995,30.043327099999967,0 -81.49625879999994,30.04407999999997,0 -81.49647729999994,30.044826399999973,0 -81.49656249999994,30.045180299999974,0 -81.49669309999994,30.045822899999976,0 -81.49681429999994,30.046621999999978,0 -81.49687799999995,30.04729449999998,0 -81.49778229999995,30.060998699999974,0 -81.49771439999995,30.06108079999997,0 -81.49770359999995,30.061105899999973,0 -81.49769999999995,30.061901199999976,0 -81.49768629999996,30.06223519999997,0 -81.49763439999995,30.062720199999976,0 -81.49727139999996,30.065013199999978,0 -81.49656639999996,30.065092899999975,0 -81.49628209999996,30.065150899999974,0 -81.49609499999995,30.065204699999978,0 -81.49585469999995,30.065312799999976,0 -81.49573689999995,30.065375199999977,0 -81.49558509999997,30.06547079999998,0 -81.49542349999996,30.065593999999976,0 -81.49522359999996,30.065784299999976,0 -81.49492249999996,30.066135399999975,0 -81.49469499999996,30.065998399999973,0 </coordinates></LineString><TimeSpan><begin>2022-08-29T12:51:22.475Z</begin><end>2022-08-29T15:03:23.000Z</end></TimeSpan></Placemark><Placemark><name>McDonald's</name><address>1625 County Rd 210, Jacksonville, FL 32259</address><ExtendedData><Data name="Email"><value>syugen.zhou@gmail.com</value></Data><Data name="Category"><value>Fast Food</value></Data><Data name="Distance"><value>0</value></Data></ExtendedData><description> Fast Food from 2022-08-29T15:03:23.000Z to 2022-08-29T15:31:20.000Z. Distance 0m </description><Point><coordinates>-81.4942854,30.0658128,0</coordinates></Point><TimeSpan><begin>2022-08-29T15:03:23.000Z</begin><end>2022-08-29T15:31:20.000Z</end></TimeSpan></Placemark><Placemark><name>Driving</name><address></address><ExtendedData><Data name="Email"><value>syugen.zhou@gmail.com</value></Data><Data name="Category"><value>Driving</value></Data><Data name="Distance"><value>51942</value></Data></ExtendedData><description> Driving from 2022-08-29T15:31:20.591Z to 2022-08-29T16:03:42.624Z. Distance 51942m </description><LineString><altitudeMode>clampToGround</altitudeMode><extrude>1</extrude><tesselate>1</tesselate><coordinates>-81.4947576,30.0659344,0 -81.49496520000001,30.065722299999997,0 -81.4952653,30.065923399999996,0 -81.4957667,30.065506899999995,0 -81.4960963,30.065345299999997,0 -81.49655480000001,30.065214799999996,0 -81.4970186,30.065179199999996,0 -81.49733980000002,30.0653771,0 -81.4981297,30.068335200000003,0 -81.49829220000001,30.069601700000003,0 -81.4983783,30.0697338,0 -81.4985995,30.0737884,0 -81.4975256,30.0907608,0 -81.4979229,30.093948700000002,0 -81.4985217,30.096128200000003,0 -81.4998405,30.099123499999997,0 -81.5016976,30.101956400000002,0 -81.5028931,30.103358800000002,0 -81.5094044,30.110006200000004,0 -81.50945109999999,30.110187200000002,0 -81.5121705,30.1133899,0 -81.51269500000001,30.114377500000003,0 -81.51288840000001,30.115078700000005,0 -81.51294620000002,30.1156536,0 -81.51285240000001,30.118295900000003,0 -81.51260210000001,30.119970900000006,0 -81.51262190000001,30.120064500000005,0 -81.5085462,30.1379455,0 -81.50794330000001,30.143027100000005,0 -81.5078086,30.147841100000004,0 -81.50803520000001,30.152039200000004,0 -81.5085538,30.156017700000007,0 -81.5097207,30.161382700000004,0 -81.51300090000001,30.172111200000003,0 -81.5134609,30.176271800000002,0 -81.5133611,30.178433100000003,0 -81.5130205,30.1807275,0 -81.5129869,30.181859600000003,0 -81.5134706,30.185881200000004,0 -81.51412839999999,30.241251200000008,0 -81.5143741,30.245225400000006,0 -81.5148677,30.248500600000003,0 -81.5201665,30.267561500000006,0 -81.5211046,30.27278990000001,0 -81.52136680000001,30.276003400000015,0 -81.5218435,30.295366600000015,0 -81.5220719,30.297154700000014,0 -81.5233266,30.302262900000017,0 -81.5235356,30.30405400000002,0 -81.5237309,30.310681400000018,0 -81.524118,30.314130900000016,0 -81.524606,30.31636880000002,0 -81.5252614,30.31850680000002,0 -81.5285775,30.327189700000016,0 -81.529224,30.328254400000016,0 -81.5382094,30.337692900000018,0 -81.5418535,30.341154300000017,0 -81.5476088,30.34575320000002,0 -81.55226870000001,30.348952400000016,0 -81.5534616,30.35010790000002,0 -81.55402000000001,30.35085550000002,0 -81.5546577,30.352067100000017,0 -81.55508730000001,30.353587400000016,0 -81.55513910000002,30.355451300000016,0 -81.55496440000002,30.356452100000016,0 -81.55200120000002,30.365823800000012,0 -81.55165250000002,30.367654300000012,0 -81.55158600000003,30.370232400000013,0 -81.55179170000002,30.371854200000012,0 -81.55231690000002,30.373833900000008,0 -81.56392580000002,30.40123330000001,0 -81.56441900000002,30.40315980000001,0 -81.56461760000002,30.40491190000001,0 -81.56463080000002,30.41364410000001,0 -81.56498050000002,30.416146500000007,0 -81.5655313,30.417949200000006,0 -81.56677550000002,30.420466000000008,0 -81.56799860000001,30.422181100000007,0 -81.57575110000002,30.430154100000006,0 -81.57848470000002,30.432462700000002,0 -81.59080480000002,30.441774400000003,0 -81.59266450000001,30.442677000000003,0 -81.59429990000002,30.443198800000005,0 -81.60864000000002,30.4460836,0 -81.60989090000001,30.446471400000004,0 -81.61088410000002,30.446923400000003,0 -81.62275760000003,30.4545848,0 -81.62394650000002,30.455143099999997,0 -81.62569630000002,30.455651,0 -81.64136380000002,30.458514599999997,0 -81.64313570000003,30.458959299999993,0 -81.64446710000003,30.459490899999995,0 -81.64533840000003,30.459983499999993,0 -81.64580810000002,30.460413199999994,0 -81.64615260000002,30.460912899999993,0 -81.64751200000002,30.463956399999994,0 -81.64763060000001,30.46442059999999,0 -81.64765320000001,30.465328799999988,0 -81.6447289,30.47593699999999,0 -81.64343430000001,30.48202629999999,0 -81.64299500000001,30.482567899999992,0 -81.64262950000001,30.482699799999992,0 -81.64241440000002,30.482692099999994,0 -81.64221760000002,30.482628799999993,0 -81.64202900000002,30.482494899999995,0 -81.64188800000002,30.482288899999993,0 -81.64187130000002,30.481924699999997,0 -81.64197920000002,30.481734499999995,0 -81.64225670000002,30.48155049999999,0 -81.64247040000002,30.481507499999992,0 -81.64280940000003,30.481538199999996,0 -81.64289750000003,30.481516599999996,0 -81.64482660000003,30.481827,0 -81.64496940000004,30.481784199999996,0 -81.64714880000002,30.482086499999994,0 -81.64727570000002,30.482053299999993,0 -81.64784390000003,30.481235499999993,0 -81.64792480000003,30.48120219999999,0 -81.64795340000002,30.48116479999999,0 -81.64795040000003,30.481067099999994,0 -81.64805100000002,30.480806199999996,0 -81.64923420000002,30.478987299999996,0 -81.64956370000003,30.479150299999997,0 -81.64934100000004,30.479493099999996,0 -81.64934740000004,30.479515599999996,0 -81.65017170000003,30.479929799999994,0 -81.65028110000004,30.479918099999992,0 -81.65035200000004,30.479837199999995,0 </coordinates></LineString><TimeSpan><begin>2022-08-29T15:31:20.591Z</begin><end>2022-08-29T16:03:42.624Z</end></TimeSpan></Placemark><Placemark><name>Hyatt Place Jacksonville Airport</name><address>14565 Duval Rd, Jacksonville, FL 32218</address><ExtendedData><Data name="Email"><value>syugen.zhou@gmail.com</value></Data><Data name="Category"><value>Hotel</value></Data><Data name="Distance"><value>0</value></Data></ExtendedData><description> Hotel from 2022-08-29T16:03:42.624Z to 2022-08-29T16:11:33.606Z. Distance 0m </description><Point><coordinates>-81.6498469,30.4795436,0</coordinates></Point><TimeSpan><begin>2022-08-29T16:03:42.624Z</begin><end>2022-08-29T16:11:33.606Z</end></TimeSpan></Placemark><Placemark><name>Driving</name><address></address><ExtendedData><Data name="Email"><value>syugen.zhou@gmail.com</value></Data><Data name="Category"><value>Driving</value></Data><Data name="Distance"><value>44241</value></Data></ExtendedData><description> Driving from 2022-08-29T16:11:33.606Z to 2022-08-29T16:42:32.587Z. Distance 44241m </description><LineString><altitudeMode>clampToGround</altitudeMode><extrude>1</extrude><tesselate>1</tesselate><coordinates>-81.64818729999999,30.480599200000004,0 -81.64805099999998,30.480806200000004,0 -81.64798839999999,30.480841300000005,0 -81.64781509999999,30.481011600000002,0 -81.64774609999998,30.4810401,0 -81.64771249999997,30.481080499999997,0 -81.64770709999998,30.4811545,0 -81.64757029999997,30.4814288,0 -81.64724429999997,30.481893599999996,0 -81.64707919999996,30.482029999999998,0 -81.64238549999996,30.4812769,0 -81.64214219999997,30.4813097,0 -81.64205459999997,30.4813835,0 -81.64180239999996,30.4818289,0 -81.64170749999997,30.482095500000003,0 -81.64169849999998,30.482204400000004,0 -81.64174429999997,30.4824641,0 -81.64249229999997,30.483831000000002,0 -81.64267499999998,30.4843581,0 -81.64273139999997,30.484762100000005,0 -81.64272639999999,30.485217100000003,0 -81.64275679999997,30.485315300000003,0 -81.64173189999998,30.489759700000004,0 -81.64109039999997,30.491657200000006,0 -81.63523909999998,30.504593300000003,0 -81.63480729999998,30.505823300000003,0 -81.63443069999998,30.507404500000003,0 -81.63428189999999,30.5084853,0 -81.63421899999999,30.5096642,0 -81.6342517,30.5107441,0 -81.63773939999999,30.5424366,0 -81.63845689999998,30.546155899999995,0 -81.64643979999998,30.578401599999992,0 -81.64674349999999,30.580067099999994,0 -81.64687549999998,30.5814499,0 -81.64688899999999,30.583320099999995,0 -81.64681629999998,30.584308699999998,0 -81.64459089999998,30.598958499999995,0 -81.64447389999998,30.600535899999997,0 -81.64449149999999,30.601986299999997,0 -81.64468519999998,30.603859599999996,0 -81.64511929999998,30.6058839,0 -81.67587389999998,30.693424099999998,0 -81.67628219999999,30.6955219,0 -81.67641919999998,30.697430499999996,0 -81.67630839999998,30.699516199999994,0 -81.67596869999998,30.701438999999997,0 -81.67559979999999,30.702750299999995,0 -81.67478379999999,30.704805799999992,0 -81.65191999999998,30.748487199999996,0 -81.65135019999998,30.7499783,0 -81.65102339999997,30.751638899999996,0 -81.65098699999999,30.752530699999998,0 -81.65110509999998,30.754008399999996,0 -81.65104949999997,30.754143499999994,0 -81.65103019999997,30.754837899999995,0 -81.65094239999998,30.75521419999999,0 -81.64953929999997,30.758583999999995,0 -81.64947659999997,30.758959299999994,0 -81.64951029999997,30.759411499999995,0 -81.64946029999999,30.7595319,0 -81.64941559999997,30.7595884,0 -81.64934249999997,30.7596363,0 -81.64917589999999,30.759695299999997,0 -81.63346339999998,30.762254199999997,0 -81.63239209999998,30.762311399999994,0 -81.63153679999998,30.762235399999994,0 -81.63055149999998,30.76201469999999,0 -81.62988359999999,30.761773899999987,0 -81.61957769999998,30.756023999999986,0 -81.61869529999997,30.755587099999985,0 -81.61750259999997,30.755212099999984,0 -81.61709679999997,30.755135999999986,0 -81.61624579999997,30.755057899999986,0 -81.61573269999997,30.755060099999984,0 -81.61488629999997,30.755142599999985,0 -81.61408339999997,30.755326699999983,0 -81.60947829999996,30.756765199999986,0 -81.60861149999997,30.757182899999986,0 -81.60827119999996,30.757389799999984,0 -81.60770369999996,30.757827399999982,0 -81.60702459999996,30.75851269999998,0 -81.60505529999996,30.76116399999998,0 -81.60489579999997,30.761262299999977,0 -81.60404829999996,30.76222839999998,0 -81.60392299999995,30.762331799999977,0 -81.60376389999995,30.762414699999976,0 -81.60348389999994,30.76247909999998,0 -81.60319009999995,30.762447599999984,0 -81.60295929999995,30.762351099999982,0 -81.60278099999995,30.762202699999985,0 -81.60265409999995,30.762001899999987,0 -81.60262119999996,30.76189049999999,0 -81.60261449999996,30.761648499999986,0 -81.60263559999996,30.76157859999999,0 -81.60324879999996,30.760528799999985,0 -81.58911059999997,30.754168099999987,0 -81.58832629999996,30.753876199999986,0 -81.58705669999996,30.753626699999987,0 -81.58617649999997,30.753591599999982,0 -81.58206379999996,30.753814099999985,0 -81.58097589999996,30.75368849999999,0 -81.57993089999997,30.753389599999988,0 -81.57462259999996,30.751159399999985,0 -81.57449469999996,30.75115539999998,0 -81.56687589999996,30.747923599999982,0 -81.55605879999996,30.74403279999998,0 -81.55539499999996,30.74370129999998,0 -81.54686189999997,30.738352799999983,0 -81.54647979999997,30.738042599999982,0 -81.54608519999996,30.737633199999983,0 -81.54577159999997,30.737200099999985,0 -81.54549799999997,30.736663899999982,0 -81.54535569999997,30.736279299999985,0 -81.54522979999996,30.735491999999983,0 -81.54524659999996,30.73483699999998,0 -81.54655679999996,30.72911959999998,0 -81.54664169999995,30.728992199999983,0 -81.54862779999995,30.72034349999998,0 -81.54946879999996,30.72049899999998,0 </coordinates></LineString><TimeSpan><begin>2022-08-29T16:11:33.606Z</begin><end>2022-08-29T16:42:32.587Z</end></TimeSpan></Placemark><Placemark><name>Cumberland Island National Seashore Visitor Center</name><address>113 St Marys St W, St Marys, GA 31558</address><ExtendedData><Data name="Email"><value>syugen.zhou@gmail.com</value></Data><Data name="Category"><value>Visitor center</value></Data><Data name="Distance"><value>0</value></Data></ExtendedData><description> Visitor center from 2022-08-29T16:42:32.587Z to 2022-08-29T17:16:03.571Z. Distance 0m </description><Point><coordinates>-81.549751,30.720318,0</coordinates></Point><TimeSpan><begin>2022-08-29T16:42:32.587Z</begin><end>2022-08-29T17:16:03.571Z</end></TimeSpan></Placemark><Placemark><name>Driving</name><address></address><ExtendedData><Data name="Email"><value>syugen.zhou@gmail.com</value></Data><Data name="Category"><value>Driving</value></Data><Data name="Distance"><value>87716</value></Data></ExtendedData><description> Driving from 2022-08-29T17:16:03.571Z to 2022-08-29T18:21:18.061Z. Distance 87716m </description><LineString><altitudeMode>clampToGround</altitudeMode><extrude>1</extrude><tesselate>1</tesselate><coordinates>-81.5506288,30.720719499999998,0 -81.5485135,30.7203296,0 -81.5465453,30.7289763,0 -81.54655679999999,30.7291196,0 -81.5452466,30.734837000000002,0 -81.5452298,30.735492,0 -81.54527300000001,30.735892800000002,0 -81.5453557,30.736279300000003,0 -81.545498,30.7366639,0 -81.5457716,30.737200100000003,0 -81.54608520000001,30.7376332,0 -81.54647980000001,30.738042600000004,0 -81.5468619,30.7383528,0 -81.555395,30.743701299999998,0 -81.5560588,30.7440328,0 -81.5668759,30.7479236,0 -81.5744947,30.7511554,0 -81.5745736,30.751242199999997,0 -81.57981469999999,30.7534775,0 -81.5803189,30.7536482,0 -81.58093269999999,30.753802600000004,0 -81.5818188,30.753920200000003,0 -81.5824191,30.753937900000004,0 -81.58608559999999,30.753712600000004,0 -81.58666109999999,30.753716500000003,0 -81.5875571,30.7538211,0 -81.5881518,30.7539549,0 -81.5889829,30.7542459,0 -81.6075679,30.7626112,0 -81.6079935,30.762852399999996,0 -81.6160631,30.7684588,0 -81.6164236,30.7687572,0 -81.6167592,30.769082899999997,0 -81.61726390000001,30.769712299999995,0 -81.62215160000001,30.77802339999999,0 -81.6226654,30.778644899999993,0 -81.6231975,30.779132199999992,0 -81.62367950000001,30.779488599999993,0 -81.6240006,30.779686499999993,0 -81.6246544,30.78001039999999,0 -81.6261171,30.780501999999995,0 -81.6264654,30.78055509999999,0 -81.65331239999999,30.788938499999993,0 -81.65344929999999,30.789037999999994,0 -81.65685909999999,30.790123599999998,0 -81.657052,30.790321099999993,0 -81.6571009,30.790396499999996,0 -81.6571756,30.790689599999993,0 -81.6571343,30.790957199999994,0 -81.65712509999999,30.791290999999998,0 -81.6572238,30.791848599999998,0 -81.65735109999999,30.792207399999995,0 -81.6575068,30.792495099999996,0 -81.65769049999999,30.792745499999995,0 -81.65868069999999,30.793727699999994,0 -81.6591049,30.794289399999997,0 -81.65929820000001,30.794686699999996,0 -81.6597524,30.796452799999997,0 -81.6598712,30.796527199999996,0 -81.6605899,30.800037499999995,0 -81.6645073,30.816639399999993,0 -81.6697463,30.84073009999999,0 -81.6702621,30.84253549999999,0 -81.67079580000001,30.84388829999999,0 -81.68324720000001,30.870036199999987,0 -81.6838225,30.871366399999985,0 -81.68452750000002,30.87332759999999,0 -81.68494890000001,30.874862499999992,0 -81.6854375,30.87731309999999,0 -81.68565840000001,30.879281099999993,0 -81.6857231,30.88067919999999,0 -81.6859009,30.93341439999999,0 -81.6863282,30.94374609999999,0 -81.6863039,30.945234499999987,0 -81.68618880000001,30.946405299999984,0 -81.6859946,30.947473899999984,0 -81.6858125,30.948172399999986,0 -81.68541040000001,30.949371199999984,0 -81.66777300000001,30.986163199999982,0 -81.66658410000001,30.988944399999983,0 -81.66581370000002,30.99110169999998,0 -81.65218070000002,31.04051999999998,0 -81.65164780000002,31.042010999999977,0 -81.65111670000002,31.043198899999975,0 -81.65027660000003,31.044734399999978,0 -81.64927000000003,31.046243799999978,0 -81.64796650000002,31.047858099999978,0 -81.63666700000003,31.05912479999998,0 -81.63103780000003,31.06426459999998,0 -81.60869780000002,31.08642349999998,0 -81.60648010000003,31.088909999999977,0 -81.60510200000002,31.09064329999998,0 -81.60373170000001,31.092563399999978,0 -81.57755530000003,31.133445799999976,0 -81.57740160000002,31.133517199999975,0 -81.57605940000002,31.135262299999976,0 -81.57391700000002,31.137127899999978,0 -81.56008750000002,31.131489399999978,0 -81.55844160000002,31.13067899999998,0 -81.54604710000002,31.123050399999975,0 -81.54544330000002,31.122639199999977,0 -81.54435730000003,31.121790499999978,0 -81.54129600000003,31.11905179999998,0 -81.54105960000003,31.118927699999983,0 -81.53823550000004,31.116394999999986,0 -81.53808970000004,31.116210999999986,0 -81.53765040000005,31.115829799999982,0 -81.53706090000004,31.11539149999998,0 -81.53610190000003,31.114825999999983,0 -81.53496070000004,31.114324999999983,0 -81.53434210000003,31.114124199999985,0 -81.50343600000004,31.106521099999988,0 -81.50053370000002,31.105711799999987,0 -81.49893940000003,31.105336999999988,0 -81.49769970000003,31.105171399999993,0 -81.49674150000003,31.105149999999995,0 -81.49544250000002,31.105256199999996,0 -81.49439290000002,31.105470399999998,0 -81.49377630000002,31.105650799999996,0 -81.49286890000002,31.10600639999999,0 -81.49177830000002,31.106580199999996,0 -81.49055810000003,31.107427299999998,0 -81.49001810000003,31.1078682,0 -81.48939880000003,31.108443,0 -81.48862840000004,31.109304,0 -81.48789110000004,31.1103136,0 -81.48454520000004,31.116781700000004,0 -81.48138460000004,31.123426900000002,0 -81.48091790000004,31.1245734,0 -81.48043590000005,31.1260439,0 -81.47934130000004,31.130354299999997,0 -81.47897750000004,31.132103699999995,0 -81.47865590000004,31.134169499999995,0 -81.47861130000004,31.135470599999998,0 -81.47866120000003,31.136065,0 -81.47878380000004,31.136763199999997,0 -81.47926450000004,31.1386996,0 -81.47935470000003,31.139464599999997,0 -81.47935200000003,31.140403199999994,0 -81.47928310000003,31.140997899999995,0 -81.47911270000003,31.141762299999993,0 -81.47894890000003,31.14227139999999,0 -81.47705650000002,31.14706609999999,0 -81.47684570000003,31.14781399999999,0 -81.47676750000002,31.148444399999992,0 -81.47676480000003,31.148914799999993,0 -81.47685830000002,31.14964569999999,0 -81.47696900000003,31.15007749999999,0 -81.47723750000003,31.150754299999996,0 -81.47803450000002,31.152093999999995,0 -81.47849270000002,31.153046199999995,0 -81.47872230000003,31.153799999999997,0 -81.47885100000002,31.154389699999996,0 -81.47893690000002,31.155201499999997,0 -81.47893690000002,31.155861299999998,0 -81.47888110000002,31.156516099999997,0 -81.47874610000002,31.157187399999998,0 -81.47839500000002,31.158234299999997,0 -81.47748510000002,31.160010899999996,0 -81.47717170000003,31.1603334,0 -81.47673580000003,31.1606729,0 -81.47640050000004,31.1608621,0 -81.47602900000003,31.1609576,0 -81.47557080000003,31.161035400000003,0 -81.47298320000003,31.1612661,0 -81.47280130000003,31.161301,0 -81.47267450000004,31.161343600000002,0 -81.45118810000004,31.162980100000002,0 -81.45007020000004,31.163168900000002,0 -81.44930290000005,31.1633629,0 -81.44418810000005,31.165210599999998,0 -81.44277200000005,31.1658102,0 -81.43057410000004,31.1715836,0 -81.43010880000004,31.171751600000004,0 -81.42955650000003,31.171892600000003,0 -81.42921010000003,31.171953600000002,0 -81.42859680000004,31.171997400000002,0 -81.42818210000003,31.1719849,0 -81.42759070000004,31.1719069,0 -81.42202560000003,31.170670400000002,0 -81.41699950000003,31.169674300000004,0 -81.41645730000003,31.169534200000005,0 -81.41598470000004,31.169344000000002,0 -81.41551110000003,31.169090000000004,0 -81.41120920000003,31.166356800000003,0 -81.41084170000003,31.166070200000004,0 -81.41058080000002,31.165818500000007,0 -81.41031280000001,31.165478800000006,0 -81.40990780000003,31.164720200000005,0 -81.40940440000003,31.163523800000004,0 -81.40927350000003,31.163381900000005,0 -81.40908800000003,31.163254400000003,0 -81.40891410000003,31.1631861,0 -81.40868410000002,31.163152900000004,0 -81.40845280000002,31.163175700000004,0 -81.40830910000001,31.1632214,0 -81.40815630000002,31.1632943,0 -81.40801910000002,31.163398700000002,0 -81.40435340000002,31.1684967,0 -81.402313,31.170813499999998,0 -81.40194180000002,31.171482299999997,0 -81.40179300000001,31.171852699999995,0 -81.39876830000001,31.185036099999994,0 -81.39868730000002,31.185250399999994,0 -81.39846530000001,31.18563859999999,0 -81.39818910000001,31.18597349999999,0 -81.3978641,31.18625849999999,0 -81.39746230000002,31.18651839999999,0 -81.39703610000001,31.18671219999999,0 -81.39677360000002,31.18679629999999,0 -81.39617430000001,31.18690669999999,0 -81.39571940000002,31.186917799999993,0 -81.39546430000003,31.186900599999994,0 -81.37723280000002,31.183685799999992,0 -81.37671290000002,31.18916069999999,0 -81.37671070000002,31.189767399999994,0 -81.37624430000001,31.19541839999999,0 -81.3752991,31.215540799999992,0 -81.3753956,31.216236899999995,0 -81.37538310000001,31.216366899999993,0 -81.37532380000002,31.216435599999993,0 -81.37531050000003,31.21647599999999,0 -81.37530960000001,31.21654579999999,0 -81.37532620000002,31.21659369999999,0 -81.37535670000003,31.21663379999999,0 -81.37541920000002,31.21666869999999,0 -81.37546960000003,31.21668309999999,0 -81.37555360000003,31.216683899999992,0 -81.37563420000002,31.216657799999993,0 -81.37569380000002,31.216609699999992,0 -81.37571660000003,31.216573699999987,0 -81.37606830000003,31.216509299999984,0 -81.37841700000003,31.216679099999986,0 -81.37925820000002,31.216803799999987,0 -81.37951260000003,31.216887099999983,0 -81.38048560000004,31.217428499999983,0 -81.38068700000004,31.21751079999998,0 -81.38408440000003,31.21856319999998,0 -81.38448310000003,31.21871329999998,0 -81.38546380000004,31.21897619999998,0 -81.38560600000002,31.21903589999998,0 -81.38579110000003,31.21914479999998,0 -81.38596540000003,31.21929959999998,0 -81.38628330000003,31.219726299999984,0 -81.38669900000002,31.220469499999986,0 -81.38688680000003,31.220720599999982,0 -81.38699850000003,31.220927599999982,0 -81.38701080000003,31.22118989999998,0 -81.38696880000003,31.22139679999998,0 -81.38681720000002,31.22163029999998,0 -81.38676860000004,31.22174749999998,0 -81.38675150000003,31.22194409999998,0 -81.38679220000003,31.22220609999998,0 -81.38711800000003,31.22244429999998,0 -81.38738380000002,31.22257109999998,0 -81.38826860000003,31.222758599999974,0 -81.38852780000003,31.222932899999975,0 -81.38881690000004,31.22291859999998,0 -81.38908710000003,31.22305259999998,0 -81.38912950000004,31.223061599999976,0 </coordinates></LineString><TimeSpan><begin>2022-08-29T17:16:03.571Z</begin><end>2022-08-29T18:21:18.061Z</end></TimeSpan></Placemark><Placemark><name>Fort Frederica National Monument</name><address>6515 Frederica Rd, St Simons Island, GA 31522</address><ExtendedData><Data name="Email"><value>syugen.zhou@gmail.com</value></Data><Data name="Category"><value>Monument</value></Data><Data name="Distance"><value>0</value></Data></ExtendedData><description> Monument from 2022-08-29T18:21:18.061Z to 2022-08-29T18:50:02.621Z. Distance 0m </description><Point><coordinates>-81.3920302,31.224202599999998,0</coordinates></Point><TimeSpan><begin>2022-08-29T18:21:18.061Z</begin><end>2022-08-29T18:50:02.621Z</end></TimeSpan></Placemark><Placemark><name>Driving</name><address></address><ExtendedData><Data name="Email"><value>syugen.zhou@gmail.com</value></Data><Data name="Category"><value>Driving</value></Data><Data name="Distance"><value>109282</value></Data></ExtendedData><description> Driving from 2022-08-29T18:50:02.621Z to 2022-08-29T19:56:46.569Z. Distance 109282m </description><LineString><altitudeMode>clampToGround</altitudeMode><extrude>1</extrude><tesselate>1</tesselate><coordinates>-81.3890531,31.223037899999998,0 -81.3891266,31.223061499999996,0 -81.38920279999999,31.223063699999994,0 -81.3892365,31.223056899999996,0 -81.3892899,31.223013699999996,0 -81.38931679999999,31.2229668,0 -81.389348,31.222763199999996,0 -81.3893188,31.2226814,0 -81.38927629999999,31.2226273,0 -81.3892039,31.2225707,0 -81.38917509999999,31.2225595,0 -81.3891322,31.222555399999997,0 -81.38906680000001,31.2225704,0 -81.38879550000001,31.2227146,0 -81.38868120000001,31.2227527,0 -81.3882686,31.2227586,0 -81.38738380000001,31.222571100000003,0 -81.387118,31.222444300000006,0 -81.3867922,31.222206100000005,0 -81.3867515,31.221944100000005,0 -81.38676860000001,31.221747500000006,0 -81.38681720000001,31.221630300000005,0 -81.3869688,31.221396800000004,0 -81.3870108,31.221189900000006,0 -81.3869985,31.220927600000007,0 -81.3868868,31.220720600000007,0 -81.38669900000001,31.22046950000001,0 -81.3862833,31.21972630000001,0 -81.3859654,31.219299600000006,0 -81.3857911,31.219144800000006,0 -81.38560600000001,31.219035900000005,0 -81.38546380000001,31.218976200000004,0 -81.3844831,31.218713300000005,0 -81.3840844,31.218563200000006,0 -81.38068700000001,31.217510800000007,0 -81.38048560000001,31.217428500000008,0 -81.37951260000001,31.216887100000008,0 -81.3792582,31.21680380000001,0 -81.378417,31.216679100000015,0 -81.37606830000001,31.216509300000013,0 -81.3757168,31.21643810000001,0 -81.37568590000001,31.21639390000001,0 -81.3756234,31.216349700000013,0 -81.37557799999999,31.216334300000014,0 -81.3754943,31.216236200000015,0 -81.375385,31.216050400000015,0 -81.37529909999999,31.21554080000001,0 -81.37624430000001,31.19541840000001,0 -81.3767107,31.18976740000001,0 -81.37671290000002,31.18916070000001,0 -81.3772328,31.183685800000013,0 -81.39546430000001,31.186900600000012,0 -81.3957194,31.186917800000014,0 -81.3961743,31.18690670000001,0 -81.3967736,31.186796300000008,0 -81.3970361,31.18671220000001,0 -81.3974623,31.186518400000008,0 -81.3978641,31.186258500000008,0 -81.3981891,31.185973500000006,0 -81.39846530000001,31.18563860000001,0 -81.3986873,31.18525040000001,0 -81.39876830000001,31.185036100000012,0 -81.401793,31.171852700000013,0 -81.4019418,31.171482300000015,0 -81.40231299999999,31.17081350000002,0 -81.4043534,31.16849670000002,0 -81.405794,31.166512400000016,0 -81.406036,31.166359000000018,0 -81.4062194,31.16629760000002,0 -81.4062631,31.16626930000002,0 -81.40711040000001,31.16627900000002,0 -81.4075795,31.16624230000002,0 -81.40882289999999,31.166046500000025,0 -81.40988109999999,31.16607830000002,0 -81.410365,31.16616950000002,0 -81.4107236,31.166281500000018,0 -81.411429,31.166598200000017,0 -81.4159347,31.169437400000017,0 -81.4162702,31.16958470000002,0 -81.417082,31.169808400000022,0 -81.4220025,31.17075100000002,0 -81.4275642,31.17198800000002,0 -81.4280889,31.17206010000002,0 -81.4286093,31.17207690000002,0 -81.42921679999999,31.172038600000025,0 -81.42985689999999,31.171925000000023,0 -81.430437,31.17174960000002,0 -81.44425739999998,31.165278700000023,0 -81.44932789999999,31.163458600000023,0 -81.45039209999999,31.16320180000002,0 -81.45125399999999,31.163072600000024,0 -81.4732435,31.161395400000025,0 -81.4748749,31.161410900000025,0 -81.4754041,31.161496600000028,0 -81.47564,31.16155600000003,0 -81.4764722,31.161839100000027,0 -81.47666790000001,31.161981900000022,0 -81.4791275,31.157223500000022,0 -81.4793034,31.15666410000002,0 -81.4794195,31.154721800000022,0 -81.4794065,31.15444800000002,0 -81.4793103,31.15399630000002,0 -81.47905999999999,31.153408000000017,0 -81.47755129999999,31.15097400000002,0 -81.47733709999999,31.15055980000002,0 -81.47718489999998,31.15018210000002,0 -81.47701479999999,31.149542900000025,0 -81.47696309999999,31.149216100000025,0 -81.4769299,31.148656600000024,0 -81.476967,31.14811070000003,0 -81.4771296,31.14736970000003,0 -81.4792345,31.14194880000003,0 -81.4794851,31.140776200000026,0 -81.4795277,31.140220700000025,0 -81.4795158,31.13949860000002,0 -81.47942830000001,31.138794900000025,0 -81.4789768,31.136438700000024,0 -81.4788928,31.135660500000025,0 -81.47888449999999,31.13441510000003,0 -81.4789968,31.13311630000003,0 -81.4792352,31.13153870000003,0 -81.4804512,31.12636110000003,0 -81.48096100000001,31.124744300000028,0 -81.4813237,31.123818000000032,0 -81.48473360000001,31.116630300000033,0 -81.48789900000001,31.110483700000028,0 -81.48814,31.11010390000003,0 -81.48899730000001,31.10901130000003,0 -81.4899838,31.10801530000003,0 -81.49110209999999,31.107140000000033,0 -81.4921373,31.106509200000033,0 -81.49276040000001,31.106215800000033,0 -81.4936125,31.105886400000035,0 -81.49414560000001,31.10572400000003,0 -81.49541,31.105447800000032,0 -81.4963117,31.105349100000034,0 -81.49704860000001,31.10532460000003,0 -81.49818860000002,31.10538690000003,0 -81.49918110000003,31.105537200000033,0 -81.53415270000002,31.114146700000028,0 -81.53495750000002,31.11440560000003,0 -81.53553390000002,31.11464150000003,0 -81.53622200000001,31.11497660000003,0 -81.53695250000001,31.11541470000003,0 -81.53737350000002,31.11571420000003,0 -81.53806030000001,31.116289400000028,0 -81.5382352,31.11639560000003,0 -81.54105960000001,31.11892770000003,0 -81.5412223,31.119130500000026,0 -81.5453379,31.122747700000023,0 -81.54602220000001,31.123242400000024,0 -81.5586274,31.130996700000022,0 -81.559565,31.131466100000022,0 -81.57595120000002,31.138234700000023,0 -81.57619640000001,31.13854790000002,0 -81.57628090000001,31.13876400000002,0 -81.57629150000002,31.13888550000002,0 -81.57627360000002,31.139017000000017,0 -81.57617340000003,31.139212800000013,0 -81.57599140000004,31.139381400000016,0 -81.57586650000003,31.139450000000018,0 -81.57570380000003,31.139499500000014,0 -81.57556590000003,31.139518300000017,0 -81.57545730000004,31.139513700000016,0 -81.57522990000004,31.139459800000015,0 -81.57503220000004,31.13934490000002,0 -81.57489940000004,31.13920180000002,0 -81.57482890000004,31.139065700000018,0 -81.57480440000005,31.138942000000018,0 -81.57480980000004,31.13878500000002,0 -81.57495810000005,31.138375200000024,0 -81.57610990000005,31.136430400000027,0 -81.57607960000006,31.136253800000024,0 -81.58154460000006,31.127710700000023,0 -81.58160480000006,31.127588200000023,0 -81.58168700000007,31.127491600000024,0 -81.60297230000006,31.094223300000024,0 -81.60405430000007,31.092671900000028,0 -81.60591850000007,31.090266900000028,0 -81.60816540000006,31.08773690000003,0 -81.64789920000007,31.048317900000026,0 -81.64890740000007,31.047154700000025,0 -81.65026090000006,31.045266300000023,0 -81.65104670000007,31.043933200000023,0 -81.65179930000005,31.04236410000002,0 -81.65245920000007,31.04056310000002,0 -81.66603110000007,30.991356100000022,0 -81.66644700000008,30.99011560000002,0 -81.66737380000008,30.98772940000002,0 -81.68552420000007,30.94981960000002,0 -81.68616790000007,30.947921800000014,0 -81.68642350000007,30.946759400000015,0 -81.68657780000008,30.945543800000014,0 -81.68662020000009,30.944428900000013,0 -81.68626730000008,30.88034200000001,0 -81.68594860000009,30.877643000000013,0 -81.68562260000009,30.87605470000001,0 -81.68519960000008,30.87446060000001,0 -81.68411390000009,30.87131680000001,0 -81.67098120000009,30.843635600000013,0 -81.67058250000008,30.84262280000001,0 -81.67026460000008,30.84164710000001,0 -81.65136030000009,30.75406980000001,0 -81.65122970000009,30.752775300000014,0 -81.65124160000008,30.751894600000018,0 -81.65141170000008,30.750673900000017,0 -81.65166040000008,30.749741900000014,0 -81.65194070000007,30.748994200000016,0 -81.67565960000007,30.703619900000014,0 -81.67630360000007,30.701907000000013,0 -81.67664140000008,30.700576400000017,0 -81.67681180000008,30.699523200000016,0 -81.67690870000008,30.698179500000013,0 -81.67684220000008,30.696454200000012,0 -81.67665660000009,30.695209700000014,0 -81.67650630000009,30.694525900000016,0 -81.67620710000008,30.693505300000016,0 -81.64546560000008,30.606210700000016,0 -81.64517430000008,30.605118400000016,0 -81.64483530000008,30.603154500000016,0 -81.64473110000007,30.601954500000016,0 -81.64471740000008,30.600549400000016,0 -81.64486850000007,30.598688300000013,0 -81.64699310000007,30.584837800000013,0 -81.64712690000007,30.58332540000001,0 -81.64713420000007,30.581646000000006,0 -81.64694590000008,30.57980450000001,0 -81.64670910000008,30.57850210000001,0 -81.63860410000008,30.545711900000008,0 -81.63780650000008,30.541243900000005,0 -81.63448660000007,30.510748200000005,0 -81.63445970000008,30.509625600000003,0 -81.63450850000008,30.5086222,0 -81.63464560000008,30.507572600000003,0 -81.63480850000008,30.506743400000005,0 -81.63529030000008,30.505116200000007,0 -81.64088620000008,30.49279170000001,0 -81.64150580000009,30.49121900000001,0 -81.6421647000001,30.48915440000001,0 -81.6429040000001,30.48581710000001,0 -81.6430003000001,30.48570580000001,0 -81.6432337000001,30.48480800000001,0 -81.6436935000001,30.483417900000013,0 -81.6442867000001,30.482161700000013,0 -81.64449650000009,30.481874200000014,0 -81.6446067000001,30.48180120000001,0 -81.64482660000009,30.48182700000001,0 -81.64488530000008,30.481802300000012,0 -81.64496940000008,30.481784200000014,0 -81.64502970000008,30.481783200000017,0 -81.6471488000001,30.48208650000002,0 -81.64721000000009,30.482077100000016,0 -81.64727570000008,30.48205330000002,0 -81.64736530000008,30.48194670000002,0 -81.64765340000008,30.481458800000024,0 -81.64784390000008,30.481235500000025,0 -81.64787650000008,30.481229200000026,0 -81.6479248000001,30.481202200000027,0 -81.64795340000009,30.48116480000003,0 -81.64796370000008,30.48110840000003,0 -81.64795040000008,30.481067100000026,0 -81.64799330000008,30.480992000000022,0 -81.64805100000008,30.48080620000002,0 -81.64896590000006,30.479397700000025,0 </coordinates></LineString><TimeSpan><begin>2022-08-29T18:50:02.621Z</begin><end>2022-08-29T19:56:46.569Z</end></TimeSpan></Placemark><Placemark><name>Hyatt Place Jacksonville Airport</name><address>14565 Duval Rd, Jacksonville, FL 32218</address><ExtendedData><Data name="Email"><value>syugen.zhou@gmail.com</value></Data><Data name="Category"><value>Hotel</value></Data><Data name="Distance"><value>0</value></Data></ExtendedData><description> Hotel from 2022-08-29T19:56:46.569Z to 2022-08-30T11:59:07.633Z. Distance 0m </description><Point><coordinates>-81.6498469,30.4795436,0</coordinates></Point><TimeSpan><begin>2022-08-29T19:56:46.569Z</begin><end>2022-08-30T11:59:07.633Z</end></TimeSpan></Placemark></Document></kml>
