<?xml version="1.0" encoding="UTF-8"?><kml xmlns="http://www.opengis.net/kml/2.2" xmlns:gx="http://www.google.com/kml/ext/2.2"><Document><name> Location history from 2022-08-31 to 2022-08-31 </name><open>1</open><description></description><StyleMap id="multiTrack"><Pair><key>normal</key><styleUrl>#multiTrack_n</styleUrl></Pair><Pair><key>highlight</key><styleUrl>#multiTrack_h</styleUrl></Pair></StyleMap><Style id="multiTrack_n"><IconStyle><Icon><href>https://earth.google.com/images/kml-icons/track-directional/track-0.png</href></Icon></IconStyle><LineStyle><color>99ffac59</color><width>6</width></LineStyle></Style><Style id="multiTrack_h"><IconStyle><scale>1.2</scale><Icon><href>https://earth.google.com/images/kml-icons/track-directional/track-0.png</href></Icon></IconStyle><LineStyle><color>99ffac59</color><width>8</width></LineStyle></Style><Placemark><name>Hyatt Place Jacksonville Airport</name><address>14565 Duval Rd, Jacksonville, FL 32218</address><ExtendedData><Data name="Email"><value>syugen.zhou@gmail.com</value></Data><Data name="Category"><value>Hotel</value></Data><Data name="Distance"><value>0</value></Data></ExtendedData><description> Hotel from 2022-08-30T23:29:39.100Z to 2022-08-31T12:44:33.000Z. Distance 0m </description><Point><coordinates>-81.6498469,30.4795436,0</coordinates></Point><TimeSpan><begin>2022-08-30T23:29:39.100Z</begin><end>2022-08-31T12:44:33.000Z</end></TimeSpan></Placemark><Placemark><name>Driving</name><address></address><ExtendedData><Data name="Email"><value>syugen.zhou@gmail.com</value></Data><Data name="Category"><value>Driving</value></Data><Data name="Distance"><value>108660</value></Data></ExtendedData><description> Driving from 2022-08-31T12:44:33.000Z to 2022-08-31T13:45:38.635Z. Distance 108660m </description><LineString><altitudeMode>clampToGround</altitudeMode><extrude>1</extrude><tesselate>1</tesselate><coordinates>-81.6488352,30.479597599999995,0 -81.64805099999998,30.480806199999996,0 -81.64798839999999,30.480841299999998,0 -81.64781509999999,30.481011599999995,0 -81.64774609999998,30.481040099999994,0 -81.64771249999997,30.48108049999999,0 -81.64770369999997,30.481106999999994,0 -81.64770709999998,30.48115449999999,0 -81.64757029999997,30.481428799999993,0 -81.64724429999997,30.481893599999992,0 -81.64707919999996,30.48202999999999,0 -81.64514619999997,30.481714699999994,0 -81.64465389999997,30.481543999999992,0 -81.64457939999997,30.481503599999996,0 -81.64448179999997,30.481382499999995,0 -81.64451239999997,30.479475999999995,0 -81.64470089999996,30.477632499999995,0 -81.64466529999997,30.47739139999999,0 -81.64520099999997,30.475014699999996,0 -81.65521609999998,30.439745399999996,0 -81.65552209999997,30.438411,0 -81.65594739999997,30.435603699999998,0 -81.65752569999997,30.408430099999997,0 -81.65759919999996,30.407926399999994,0 -81.65786629999997,30.407007499999995,0 -81.65820859999995,30.406265199999996,0 -81.65881249999995,30.405360599999998,0 -81.65946999999996,30.404659499999994,0 -81.66045329999996,30.403893699999994,0 -81.66597319999995,30.400357999999994,0 -81.66635699999995,30.400074399999998,0 -81.66698819999995,30.399476299999993,0 -81.66731219999996,30.39907059999999,0 -81.66777179999994,30.398276999999993,0 -81.66801149999995,30.397622799999994,0 -81.66812519999995,30.397081299999996,0 -81.66816719999994,30.396574599999994,0 -81.66799739999995,30.390257199999994,0 -81.66809019999995,30.389234999999996,0 -81.66839339999994,30.388052699999996,0 -81.66879729999994,30.387122199999997,0 -81.66925619999994,30.3863581,0 -81.66992379999994,30.385510399999998,0 -81.67028399999994,30.385128399999996,0 -81.67263959999994,30.382943899999994,0 -81.67303089999993,30.3824175,0 -81.67339149999994,30.381735799999998,0 -81.67357169999993,30.381220499999998,0 -81.67369589999993,30.3805254,0 -81.67371029999993,30.3800276,0 -81.67365739999993,30.3795321,0 -81.67349949999993,30.3789004,0 -81.67330119999993,30.378424199999998,0 -81.67301889999993,30.3779342,0 -81.66985019999991,30.3735736,0 -81.66949949999993,30.3728733,0 -81.66930369999993,30.372348899999995,0 -81.66914309999993,30.3717047,0 -81.66905939999994,30.3710897,0 -81.66819429999994,30.341299399999997,0 -81.66830329999993,30.339963999999995,0 -81.66850719999992,30.339043099999994,0 -81.66881189999994,30.3381375,0 -81.66928079999992,30.337065399999997,0 -81.67005259999993,30.335842399999997,0 -81.67087159999993,30.334858499999996,0 -81.67129759999993,30.334429999999994,0 -81.67284399999993,30.333138899999994,0 -81.67325009999993,30.332729499999996,0 -81.67360589999993,30.332157899999995,0 -81.67361809999994,30.332084699999996,0 -81.67388309999994,30.331520499999996,0 -81.67418019999994,30.3310737,0 -81.67449369999994,30.330725500000003,0 -81.67812509999995,30.327839800000003,0 -81.67874369999994,30.327252200000004,0 -81.67907299999995,30.3268841,0 -81.67944389999995,30.326338,0 -81.68155199999995,30.321413,0 -81.68172289999995,30.320903699999995,0 -81.68176379999996,30.3206875,0 -81.68177029999995,30.320488899999997,0 -81.68172969999995,30.3200978,0 -81.68164969999995,30.3197961,0 -81.68141609999995,30.3193768,0 -81.68115809999995,30.3190437,0 -81.68075489999994,30.3186512,0 -81.68046639999994,30.318466,0 -81.67938539999994,30.318056300000002,0 -81.67768419999994,30.317220199999998,0 -81.67506029999994,30.316149699999997,0 -81.67354559999994,30.315676399999997,0 -81.66687109999994,30.314089399999993,0 -81.66594179999993,30.313940199999994,0 -81.66510809999994,30.313880599999997,0 -81.65982449999994,30.3138956,0 -81.65426819999993,30.314097399999998,0 -81.65390589999994,30.3140822,0 -81.65342649999994,30.314012800000004,0 -81.65290819999993,30.313872200000006,0 -81.65259359999993,30.313753400000007,0 -81.65218659999992,30.313548600000008,0 -81.65162059999993,30.313151400000006,0 -81.65038459999992,30.31195840000001,0 -81.64977919999993,30.311440500000007,0 -81.64811089999992,30.31024160000001,0 -81.64775149999993,30.309898900000007,0 -81.64741129999992,30.30949740000001,0 -81.64660259999992,30.30816480000001,0 -81.64658569999992,30.30808590000001,0 -81.64603889999991,30.307397500000008,0 -81.64519939999991,30.306579100000004,0 -81.64382129999991,30.305550000000004,0 -81.64309439999991,30.3048948,0 -81.64235259999991,30.303988299999997,0 -81.6400587999999,30.3003093,0 -81.63943399999991,30.299520299999998,0 -81.62420709999992,30.285388899999994,0 -81.62292539999991,30.284072199999997,0 -81.62199729999992,30.283012299999996,0 -81.62056069999991,30.28115979999999,0 -81.6063955999999,30.26120389999999,0 -81.60538149999991,30.25997109999999,0 -81.6034770999999,30.25795579999999,0 -81.6034292999999,30.257883999999986,0 -81.5859799999999,30.241197199999984,0 -81.58461079999991,30.239789999999985,0 -81.5830794999999,30.23807079999999,0 -81.5815649999999,30.23621509999999,0 -81.57998899999991,30.23403739999999,0 -81.55724929999991,30.19921929999999,0 -81.5569419999999,30.19859289999999,0 -81.5566894999999,30.19791689999999,0 -81.5564941999999,30.197138499999987,0 -81.55639479999991,30.19636949999999,0 -81.55641969999989,30.195154199999987,0 -81.5590907999999,30.179857399999985,0 -81.5591896999999,30.178401499999982,0 -81.5591592999999,30.177332599999986,0 -81.55902419999991,30.176021299999984,0 -81.55863209999991,30.174348299999984,0 -81.55804729999991,30.17269119999999,0 -81.5565855999999,30.16974029999999,0 -81.55639179999991,30.169235399999987,0 -81.55579069999992,30.16708899999999,0 -81.55543839999991,30.16628509999999,0 -81.55508279999992,30.16565669999999,0 -81.55369349999991,30.163820199999993,0 -81.5527671999999,30.16235959999999,0 -81.5444443999999,30.146343099999992,0 -81.54272269999991,30.143771099999995,0 -81.54146579999991,30.14217579999999,0 -81.54020769999991,30.140787699999986,0 -81.50289329999991,30.103024999999988,0 -81.5018284999999,30.101746899999988,0 -81.5005095999999,30.099824499999986,0 -81.4999513999999,30.098844499999984,0 -81.4991500999999,30.097133899999985,0 -81.4987184999999,30.095986399999983,0 -81.49839509999991,30.094921299999985,0 -81.4980730999999,30.093528999999982,0 -81.4978161999999,30.09166909999998,0 -81.4977536999999,30.09048549999998,0 -81.4977866999999,30.088966799999977,0 -81.4988097999999,30.075072199999976,0 -81.4988171999999,30.072872299999975,0 -81.4969792999999,30.045820899999974,0 -81.4967957999999,30.044714699999975,0 -81.4964616999999,30.043595999999976,0 -81.49610389999991,30.04274589999998,0 -81.4957463999999,30.04207479999998,0 -81.44363289999991,29.95579789999998,0 -81.44212819999991,29.953687799999976,0 -81.4409496999999,29.952252899999973,0 -81.41564229999992,29.92472319999997,0 -81.41477609999991,29.923605699999975,0 -81.41411459999992,29.922585599999977,0 -81.41339879999992,29.921218799999973,0 -81.41292269999992,29.920032899999978,0 -81.39258519999993,29.852985099999977,0 -81.39196899999992,29.851307099999975,0 -81.39143479999993,29.850068299999975,0 -81.37199119999993,29.81072429999998,0 -81.37094719999993,29.80842429999998,0 -81.34824419999993,29.75186839999998,0 -81.34827299999993,29.751680599999982,0 -81.34803289999992,29.75094569999998,0 -81.34753699999992,29.748420699999986,0 -81.34748349999992,29.747956199999987,0 -81.34739379999992,29.747810999999984,0 -81.34736989999992,29.747790499999986,0 -81.34724539999993,29.747734899999983,0 -81.34723729999992,29.747669999999985,0 -81.34132249999993,29.750128799999988,0 -81.34126669999993,29.750172099999986,0 -81.33585979999994,29.75240319999999,0 -81.33576169999994,29.752423499999992,0 -81.32725939999993,29.755925299999994,0 -81.32635209999992,29.756153199999993,0 -81.32551149999993,29.756246499999992,0 -81.31587779999994,29.756429899999997,0 -81.31583449999994,29.756418599999996,0 -81.30523319999993,29.756568799999993,0 -81.30518589999993,29.756592399999995,0 -81.29196259999993,29.756787899999992,0 -81.29187959999993,29.75676729999999,0 -81.28972099999993,29.756800099999992,0 -81.28964659999993,29.756840599999993,0 -81.27535069999993,29.757038199999993,0 -81.27477059999993,29.757088599999992,0 -81.27407949999993,29.757204299999994,0 -81.27343719999993,29.75736569999999,0 -81.27282489999993,29.75758009999999,0 -81.27205799999994,29.757929699999988,0 -81.26564589999994,29.76190549999999,0 -81.26470279999995,29.762558899999988,0 -81.26340059999994,29.763635999999988,0 -81.25738709999995,29.769306699999987,0 -81.25674219999995,29.769784199999986,0 -81.25619339999994,29.770093899999985,0 -81.25559679999995,29.77035809999999,0 -81.25504649999993,29.770542899999985,0 -81.25434759999993,29.770723199999985,0 -81.25400029999993,29.770008699999984,0 -81.25351899999993,29.768741299999984,0 -81.25340729999992,29.76854309999998,0 -81.24706349999992,29.752126399999984,0 -81.24225959999993,29.73782009999998,0 -81.23604769999993,29.72217289999998,0 -81.23287189999992,29.716867099999977,0 -81.23325639999992,29.71671079999998,0 -81.23346979999991,29.71658609999998,0 -81.23388819999991,29.71622349999998,0 -81.2339799999999,29.716109599999978,0 -81.2341831999999,29.715753999999983,0 -81.23448999999991,29.715341099999982,0 -81.2346552999999,29.71539529999998,0 -81.2348089999999,29.715409399999984,0 -81.2348920999999,29.71539589999998,0 -81.2349642999999,29.71536719999998,0 -81.2350120999999,29.71533019999998,0 -81.2350299999999,29.71528269999998,0 -81.2350026999999,29.715203899999985,0 -81.2347239999999,29.714971799999987,0 </coordinates></LineString><TimeSpan><begin>2022-08-31T12:44:33.000Z</begin><end>2022-08-31T13:45:38.635Z</end></TimeSpan></Placemark><Placemark><name>Fort Matanzas National Monument</name><address>8635 A1A S, St. Augustine, FL 32080</address><ExtendedData><Data name="Email"><value>syugen.zhou@gmail.com</value></Data><Data name="Category"><value>National reserve</value></Data><Data name="Distance"><value>0</value></Data></ExtendedData><description> National reserve from 2022-08-31T13:45:38.635Z to 2022-08-31T15:09:36.551Z. Distance 0m </description><Point><coordinates>-81.23214349999999,29.713645699999997,0</coordinates></Point><TimeSpan><begin>2022-08-31T13:45:38.635Z</begin><end>2022-08-31T15:09:36.551Z</end></TimeSpan></Placemark><Placemark><name>Driving</name><address></address><ExtendedData><Data name="Email"><value>syugen.zhou@gmail.com</value></Data><Data name="Category"><value>Driving</value></Data><Data name="Distance"><value>23486</value></Data></ExtendedData><description> Driving from 2022-08-31T15:09:36.551Z to 2022-08-31T15:43:22.076Z. Distance 23486m </description><LineString><altitudeMode>clampToGround</altitudeMode><extrude>1</extrude><tesselate>1</tesselate><coordinates>-81.23503000000001,29.7152825,0 -81.2350246,29.715308500000003,0 -81.2350121,29.7153302,0 -81.2349909,29.715350800000003,0 -81.2349643,29.7153672,0 -81.2348921,29.7153959,0 -81.23480900000001,29.715409400000002,0 -81.2346553,29.7153953,0 -81.23449000000001,29.7153411,0 -81.2341832,29.715754,0 -81.23398000000002,29.7161096,0 -81.23388820000001,29.716223499999998,0 -81.23366370000001,29.716434,0 -81.23346980000001,29.7165861,0 -81.23325640000002,29.716710799999998,0 -81.23287190000002,29.716867099999998,0 -81.23575560000002,29.7216405,0 -81.23604770000001,29.722172900000004,0 -81.24225960000001,29.737820100000004,0 -81.24706350000001,29.75212640000001,0 -81.25120610000002,29.762845100000007,0 -81.25134640000002,29.763267700000007,0 -81.25150920000002,29.76364890000001,0 -81.25161190000001,29.76395690000001,0 -81.25340730000002,29.768543100000013,0 -81.25343450000001,29.76876750000001,0 -81.25395070000002,29.77010580000001,0 -81.25427140000002,29.77076310000001,0 -81.25497950000002,29.77203060000001,0 -81.25508470000003,29.772139800000012,0 -81.25522310000002,29.77241310000001,0 -81.25568830000003,29.773499800000007,0 -81.25662990000004,29.77627740000001,0 -81.25681940000003,29.776980800000004,0 -81.25715450000003,29.779232000000004,0 -81.25725180000002,29.7796802,0 -81.25740680000003,29.780209300000003,0 -81.25758980000002,29.780700700000004,0 -81.25973290000002,29.787246300000007,0 -81.25985260000002,29.787546100000007,0 -81.26180010000003,29.793422200000006,0 -81.26181900000003,29.793545100000006,0 -81.26228850000003,29.794940700000005,0 -81.26276090000003,29.79601810000001,0 -81.26281070000002,29.796049800000006,0 -81.26304570000002,29.796543000000003,0 -81.26303960000003,29.796623900000004,0 -81.26357900000002,29.7977221,0 -81.26397900000003,29.7986738,0 -81.26430030000003,29.7996526,0 -81.26453030000003,29.800559100000005,0 -81.26456520000004,29.8005959,0 -81.26504440000004,29.802529900000003,0 -81.26503610000003,29.802613300000004,0 -81.26519230000004,29.803362800000006,0 -81.26577750000004,29.805717500000004,0 -81.26584440000005,29.805761000000004,0 -81.26617030000004,29.807218700000007,0 -81.26614010000004,29.807309000000004,0 -81.26652450000005,29.808737800000003,0 -81.26661440000005,29.808776500000008,0 -81.26697570000005,29.810036500000006,0 -81.26694070000005,29.81011750000001,0 -81.27157970000005,29.825401800000012,0 -81.27171150000005,29.82576540000001,0 -81.27350880000004,29.831577800000012,0 -81.27410460000004,29.83314870000001,0 -81.27430550000004,29.83379720000001,0 -81.27493390000004,29.836300100000013,0 -81.27640190000004,29.841215400000014,0 -81.27659560000004,29.842070000000014,0 -81.27679140000004,29.843823500000013,0 -81.27742670000003,29.84760160000001,0 -81.27759170000003,29.848386900000012,0 -81.27835600000003,29.85132710000001,0 -81.27851700000004,29.851835300000012,0 -81.27871290000003,29.852329800000014,0 -81.28012000000004,29.85545830000001,0 -81.28054660000004,29.856335000000012,0 -81.28069600000003,29.85671990000001,0 -81.28100150000003,29.85737820000001,0 -81.28118500000004,29.85789620000001,0 -81.28131720000003,29.858465300000013,0 -81.28136570000004,29.85888540000001,0 -81.28147140000004,29.86163140000001,0 -81.28155350000004,29.862484300000006,0 -81.28161560000005,29.862751700000004,0 -81.28220690000005,29.864695100000006,0 -81.28231480000004,29.864873600000006,0 -81.28524560000005,29.875265100000007,0 -81.28651510000005,29.88030210000001,0 -81.28650610000004,29.880410600000012,0 -81.28651020000005,29.88047910000001,0 -81.28660250000004,29.88066880000001,0 -81.28678700000005,29.88089900000001,0 -81.28699170000006,29.88108320000001,0 -81.28775520000006,29.88162510000001,0 -81.28828430000006,29.882061500000006,0 -81.28877550000006,29.88253060000001,0 -81.28944620000006,29.88329310000001,0 -81.28985000000006,29.88385980000001,0 -81.29025630000005,29.88453950000001,0 -81.29053990000006,29.88510430000001,0 -81.29090140000007,29.88605940000001,0 -81.29132800000006,29.887729700000012,0 -81.29140710000007,29.88796710000001,0 -81.29160630000007,29.888355000000008,0 -81.29184540000007,29.888679200000006,0 -81.29208040000007,29.888936800000003,0 -81.29227400000006,29.889107800000005,0 -81.29249030000007,29.889268600000005,0 -81.29272640000006,29.889418600000006,0 -81.29309090000007,29.88959460000001,0 -81.29690120000006,29.89092290000001,0 -81.30178220000006,29.89215170000001,0 -81.30252270000007,29.89236090000001,0 -81.30357620000007,29.892619700000008,0 -81.30448780000008,29.89296380000001,0 -81.30466740000007,29.893000700000012,0 -81.30479530000007,29.893010700000016,0 -81.30488290000007,29.89299930000001,0 -81.30521180000007,29.89300350000001,0 -81.30972010000006,29.89278830000001,0 -81.31037040000007,29.89277830000001,0 -81.31050740000005,29.89285070000001,0 -81.31062520000006,29.892888800000012,0 -81.31074010000006,29.892940800000016,0 -81.31079940000005,29.892985200000016,0 -81.31090510000006,29.893128500000014,0 -81.31101520000006,29.895563800000012,0 -81.31103460000006,29.89566500000001,0 -81.31104420000005,29.89568850000001,0 </coordinates></LineString><TimeSpan><begin>2022-08-31T15:09:36.551Z</begin><end>2022-08-31T15:43:22.076Z</end></TimeSpan></Placemark><Placemark><name>Castillo de San Marcos National Monument</name><address>1 S Castillo Dr, St. Augustine, FL 32084</address><ExtendedData><Data name="Email"><value>syugen.zhou@gmail.com</value></Data><Data name="Category"><value>Fortress</value></Data><Data name="Distance"><value>0</value></Data></ExtendedData><description> Fortress from 2022-08-31T15:43:22.076Z to 2022-08-31T16:08:51.187Z. Distance 0m </description><Point><coordinates>-81.3115187,29.897861799999998,0</coordinates></Point><TimeSpan><begin>2022-08-31T15:43:22.076Z</begin><end>2022-08-31T16:08:51.187Z</end></TimeSpan></Placemark><Placemark><name>Driving</name><address></address><ExtendedData><Data name="Email"><value>syugen.zhou@gmail.com</value></Data><Data name="Category"><value>Driving</value></Data><Data name="Distance"><value>76894</value></Data></ExtendedData><description> Driving from 2022-08-31T16:08:51.187Z to 2022-08-31T17:02:50.000Z. Distance 76894m </description><LineString><altitudeMode>clampToGround</altitudeMode><extrude>1</extrude><tesselate>1</tesselate><coordinates>-81.31261959999999,29.8967431,0 -81.3126918,29.896855099999996,0 -81.3130157,29.897538599999994,0 -81.31313349999999,29.897700399999998,0 -81.31327739999999,29.8978595,0 -81.3137132,29.898257200000003,0 -81.31388739999998,29.8984503,0 -81.31454449999998,29.899442899999997,0 -81.32018219999998,29.9089681,0 -81.32012519999999,29.9091379,0 -81.3201208,29.9093273,0 -81.3201543,29.9094276,0 -81.32041269999999,29.909921200000003,0 -81.32050339999999,29.909998500000004,0 -81.32055449999999,29.91011470000001,0 -81.32470499999998,29.923412200000005,0 -81.3249889,29.924092300000005,0 -81.32508569999999,29.92427420000001,0 -81.32522349999999,29.924417300000005,0 -81.3253845,29.924722800000005,0 -81.3263406,29.926180400000003,0 -81.3468941,29.96001,0 -81.34726839999999,29.960544200000005,0 -81.351122,29.9668159,0 -81.3516369,29.967551900000004,0 -81.3523468,29.9684424,0 -81.4432989,30.0694991,0 -81.44453240000001,30.070800500000004,0 -81.4614945,30.087622300000003,0 -81.46162439999999,30.087781500000006,0 -81.4727796,30.098832800000007,0 -81.47904429999998,30.104855500000006,0 -81.50635789999998,30.131944100000002,0 -81.50655759999998,30.1321777,0 -81.50755159999999,30.1331512,0 -81.50765439999998,30.133418700000004,0 -81.50767719999999,30.1335467,0 -81.50767079999999,30.1336589,0 -81.50762219999999,30.133871499999998,0 -81.5071153,30.134269500000002,0 -81.50701229999999,30.134380800000002,0 -81.50689689999999,30.1345592,0 -81.50684779999999,30.134668600000005,0 -81.5067886,30.13491060000001,0 -81.50679749999999,30.135143900000006,0 -81.50682499999998,30.135277200000004,0 -81.50782579999999,30.137700400000007,0 -81.50803889999999,30.138463200000007,0 -81.5081331,30.13910570000001,0 -81.5081525,30.139640400000008,0 -81.5081096,30.140447400000006,0 -81.5081763,30.140556600000007,0 -81.5079433,30.143027100000005,0 -81.507819,30.145572600000005,0 -81.50780859999999,30.147841100000004,0 -81.50787679999999,30.149818400000004,0 -81.5080352,30.152039200000004,0 -81.50829379999999,30.154286500000005,0 -81.50855379999999,30.156017700000007,0 -81.5091121,30.158886100000007,0 -81.50972069999999,30.16138270000001,0 -81.51142979999999,30.16712570000001,0 -81.51203619999998,30.168906900000014,0 -81.51292429999998,30.17193650000001,0 -81.51300089999998,30.17211120000001,0 -81.51320209999999,30.17321930000001,0 -81.51341829999998,30.175280500000014,0 -81.51346089999998,30.176271800000013,0 -81.51343479999998,30.177534800000014,0 -81.51336109999998,30.178433100000017,0 -81.5130205,30.180727500000014,0 -81.51304019999999,30.180848200000014,0 -81.51299279999999,30.181243900000016,0 -81.51298689999999,30.181859600000017,0 -81.51336219999999,30.184647600000016,0 -81.51347059999999,30.18588120000002,0 -81.51369089999999,30.206814400000017,0 -81.51379879999998,30.210042000000016,0 -81.51412839999999,30.241251200000015,0 -81.51437409999998,30.24522540000001,0 -81.51486769999998,30.24850060000001,0 -81.51553569999999,30.25108060000001,0 -81.51591759999998,30.25219210000001,0 -81.51706379999997,30.25611910000001,0 -81.52016649999997,30.267561500000006,0 -81.52072379999997,30.270286500000008,0 -81.52110459999997,30.27278990000001,0 -81.52126909999997,30.27441190000001,0 -81.52136679999997,30.276003400000015,0 -81.52184349999996,30.295366600000015,0 -81.52207189999997,30.297154700000014,0 -81.52242259999997,30.298742500000014,0 -81.52287789999997,30.300268900000013,0 -81.52315389999995,30.301364500000012,0 -81.52332659999996,30.30226290000001,0 -81.52353559999996,30.30405400000001,0 -81.52373089999996,30.31068140000001,0 -81.52390379999996,30.31270290000001,0 -81.52411799999996,30.314130900000006,0 -81.52460599999996,30.316368800000006,0 -81.52526139999996,30.31850680000001,0 -81.52839689999996,30.32678870000001,0 -81.52857749999997,30.327189700000012,0 -81.52889419999997,30.327758800000012,0 -81.52922399999997,30.328254400000013,0 -81.52975409999996,30.328912000000013,0 -81.53820939999996,30.33769290000001,0 -81.54009639999997,30.33954280000001,0 -81.54185349999997,30.34115430000001,0 -81.54462279999997,30.34348000000001,0 -81.54760879999996,30.34575320000001,0 -81.54931649999997,30.34695470000001,0 -81.55181059999997,30.348611300000012,0 -81.55226869999997,30.34895240000001,0 -81.55279159999998,30.34940100000001,0 -81.55346159999998,30.350107900000012,0 -81.55401999999997,30.350855500000012,0 -81.55432919999997,30.35137300000001,0 -81.55465769999996,30.35206710000001,0 -81.55489379999997,30.352733100000012,0 -81.55508729999997,30.35358740000001,0 -81.55517479999997,30.35456300000001,0 -81.55513909999998,30.35545130000001,0 -81.55506149999998,30.356000600000012,0 -81.55496439999997,30.35645210000001,0 -81.55401299999998,30.35945880000001,0 -81.55395939999997,30.35955850000001,0 -81.55200119999998,30.365823800000012,0 -81.55184049999998,30.36650930000001,0 -81.55165249999997,30.367654300000012,0 -81.55155779999997,30.369123300000012,0 -81.55158599999997,30.370232400000013,0 -81.55179169999997,30.371854200000012,0 -81.55198179999996,30.37269610000001,0 -81.55231689999997,30.373833900000008,0 -81.55264569999996,30.374702500000005,0 -81.56159319999996,30.395512900000007,0 -81.56273399999996,30.39834280000001,0 -81.56281309999997,30.39846000000001,0 -81.56392579999998,30.40123330000001,0 -81.56420339999997,30.402172900000004,0 -81.56441899999997,30.403159800000005,0 -81.56455889999997,30.404143100000002,0 -81.56461759999996,30.404911900000002,0 -81.56462859999996,30.406997100000005,0 -81.56461029999997,30.407082400000004,0 -81.56461049999996,30.408370200000004,0 -81.56462539999997,30.408512900000005,0 -81.56463079999996,30.413644100000003,0 -81.56479389999997,30.4151975,0 -81.56498049999996,30.4161465,0 -81.56522229999996,30.4170399,0 -81.56553129999996,30.4179492,0 -81.56600549999996,30.4190574,0 -81.56677549999996,30.420466,0 -81.56728259999997,30.4212378,0 -81.56799859999997,30.4221811,0 -81.56864879999996,30.4229251,0 -81.57403609999996,30.428521700000005,0 -81.57575109999995,30.430154100000006,0 -81.57848469999996,30.432462700000002,0 -81.58985959999997,30.441156100000004,0 -81.59080479999997,30.441774400000003,0 -81.59160029999997,30.4422046,0 -81.59266449999998,30.442677000000003,0 -81.59328889999998,30.442903000000005,0 -81.59429989999998,30.443198800000005,0 -81.60863999999998,30.4460836,0 -81.60921119999998,30.4462406,0 -81.60989089999998,30.446471400000004,0 -81.61030419999997,30.4466432,0 -81.61088409999998,30.446923400000003,0 -81.61155189999998,30.4473121,0 -81.62157339999997,30.453866799999997,0 -81.62275759999997,30.4545848,0 -81.62319399999997,30.4548121,0 -81.62394649999997,30.455143099999997,0 -81.62459729999996,30.455371,0 -81.62569629999996,30.455651,0 -81.63325949999997,30.456978099999997,0 -81.63429199999996,30.457234699999997,0 -81.64136379999997,30.458514599999997,0 -81.64146479999997,30.4585592,0 -81.64313569999996,30.4589593,0 -81.64355409999996,30.4591079,0 -81.64422749999997,30.4594059,0 -81.64446709999997,30.459490900000002,0 -81.64533839999997,30.4599835,0 -81.64580809999997,30.4604132,0 -81.64615259999998,30.4609129,0 -81.64628359999998,30.4611908,0 -81.64651869999997,30.4618477,0 -81.64682139999996,30.462425899999996,0 -81.64751199999996,30.463956399999997,0 -81.64763059999997,30.464420599999997,0 -81.64765319999997,30.465328799999995,0 -81.64541069999996,30.473217399999996,0 -81.64472889999996,30.475936999999995,0 -81.64455419999996,30.476825899999994,0 -81.64443979999996,30.476962699999994,0 -81.64406929999996,30.478262899999997,0 -81.64380059999996,30.478859999999997,0 -81.64347359999996,30.479875299999996,0 -81.64330219999997,30.480230099999996,0 -81.64314409999996,30.4804591,0 -81.64291009999997,30.480692500000004,0 -81.64263239999997,30.480897200000005,0 -81.64223589999996,30.481016300000004,0 -81.64202729999997,30.481057500000002,0 -81.64175349999996,30.481084900000006,0 -81.64068609999995,30.48110370000001,0 -81.63975389999996,30.481207400000006,0 </coordinates></LineString><TimeSpan><begin>2022-08-31T16:08:51.187Z</begin><end>2022-08-31T17:02:50.000Z</end></TimeSpan></Placemark><Placemark><name>Green Papaya Thai Cuisine（Northside Location）</name><address>13141 City Station Dr #149, Jacksonville, FL 32218</address><ExtendedData><Data name="Email"><value>syugen.zhou@gmail.com</value></Data><Data name="Category"><value>Traditional restaurant</value></Data><Data name="Distance"><value>0</value></Data></ExtendedData><description> Traditional restaurant from 2022-08-31T17:02:50.000Z to 2022-08-31T17:29:00.000Z. Distance 0m </description><Point><coordinates>-81.64232559999999,30.475369699999998,0</coordinates></Point><TimeSpan><begin>2022-08-31T17:02:50.000Z</begin><end>2022-08-31T17:29:00.000Z</end></TimeSpan></Placemark><Placemark><name>Driving</name><address></address><ExtendedData><Data name="Email"><value>syugen.zhou@gmail.com</value></Data><Data name="Category"><value>Driving</value></Data><Data name="Distance"><value>1776</value></Data></ExtendedData><description> Driving from 2022-08-31T17:29:00.731Z to 2022-08-31T17:33:20.595Z. Distance 1776m </description><LineString><altitudeMode>clampToGround</altitudeMode><extrude>1</extrude><tesselate>1</tesselate><coordinates>-81.64152779999999,30.475804099999998,0 -81.6410957,30.4768524,0 -81.64094839999998,30.4772197,0 -81.64092609999999,30.4772655,0 -81.64043169999998,30.478485600000003,0 -81.64026429999998,30.478892800000004,0 -81.64023849999998,30.4789465,0 -81.64020869999997,30.4789623,0 -81.64017839999998,30.4789959,0 -81.64014539999998,30.4790626,0 -81.64008239999998,30.4792006,0 -81.63997519999998,30.479419800000002,0 -81.63993339999998,30.4794847,0 -81.63991909999999,30.4795022,0 -81.63987369999998,30.479565700000002,0 -81.63978809999998,30.479660000000003,0 -81.63971029999998,30.479726500000005,0 -81.63961919999997,30.479798700000007,0 -81.63958809999997,30.47982490000001,0 -81.63955359999997,30.47985540000001,0 -81.63951909999997,30.479883900000008,0 -81.63949229999999,30.479908300000005,0 -81.63943369999998,30.479978000000003,0 -81.63907329999998,30.4807482,0 -81.63894789999998,30.4810702,0 -81.63893369999998,30.481114200000004,0 -81.63890869999997,30.481180800000004,0 -81.63883069999997,30.481379000000008,0 -81.63902869999997,30.481409600000006,0 -81.63933329999998,30.481425300000005,0 -81.63949299999997,30.481422400000003,0 -81.63974589999998,30.481407500000007,0 -81.63993069999998,30.481387700000006,0 -81.64034669999998,30.481337600000007,0 -81.64094309999997,30.481323400000004,0 -81.64138259999997,30.48132120000001,0 -81.64172759999997,30.48133950000001,0 -81.64181549999996,30.481350300000006,0 -81.64218149999996,30.481401200000008,0 -81.64218589999996,30.481402100000007,0 -81.64335339999995,30.481590700000005,0 -81.64443539999995,30.48177410000001,0 -81.64460669999995,30.48180120000001,0 -81.64482659999994,30.48182700000001,0 -81.64488529999994,30.481802300000012,0 -81.64496939999994,30.481784200000014,0 -81.64502969999994,30.481783200000017,0 -81.64515869999994,30.481796200000016,0 -81.64540759999994,30.48182630000002,0 -81.64574279999994,30.48187520000002,0 -81.64616799999993,30.48193990000002,0 -81.64676469999993,30.482035900000017,0 -81.64709059999994,30.48208500000002,0 -81.64714879999994,30.48208650000002,0 -81.64720999999993,30.482077100000016,0 -81.64727569999994,30.48205330000002,0 -81.64736529999993,30.48194670000002,0 -81.64738909999993,30.481891800000025,0 -81.64741029999993,30.481851900000024,0 -81.64749279999992,30.481710400000022,0 -81.64755509999992,30.481610600000025,0 -81.64765339999992,30.481458800000024,0 -81.64773559999992,30.481350800000023,0 -81.64784389999993,30.481235500000018,0 -81.64785159999992,30.481234700000016,0 -81.64786419999992,30.48123250000002,0 -81.64787649999992,30.48122920000002,0 -81.64788249999992,30.48122710000002,0 -81.64788839999991,30.48122480000002,0 -81.64789409999993,30.481222300000024,0 -81.64789969999993,30.481219500000027,0 -81.64790509999992,30.481216500000027,0 -81.64791529999991,30.481209800000023,0 -81.64792019999992,30.48120610000002,0 -81.64792479999991,30.481202200000023,0 -81.6479368999999,30.48118980000002,0 -81.64794079999992,30.48118510000002,0 -81.64794759999991,30.481175200000024,0 -81.6479505999999,30.481170100000025,0 -81.6479533999999,30.481164800000023,0 -81.64795789999991,30.481153900000024,0 -81.64795969999992,30.481148300000022,0 -81.64796249999992,30.481137100000023,0 -81.64796339999992,30.481131400000024,0 -81.64796389999992,30.48112560000002,0 -81.64796409999992,30.481114200000018,0 -81.64796369999992,30.481108400000014,0 -81.64796189999991,30.481097200000015,0 -81.64795889999992,30.48108610000001,0 -81.64795699999992,30.48108070000001,0 -81.64795209999993,30.481070200000016,0 -81.64795039999993,30.48106710000002,0 -81.64799329999991,30.480992000000015,0 -81.64803269999992,30.480886100000014,0 -81.64805099999992,30.480806200000014,0 -81.64825919999993,30.480490400000015,0 -81.64832459999992,30.480407700000015,0 -81.64840829999991,30.48026760000002,0 -81.64850239999991,30.480106700000015,0 -81.6490259999999,30.479305700000015,0 </coordinates></LineString><TimeSpan><begin>2022-08-31T17:29:00.731Z</begin><end>2022-08-31T17:33:20.595Z</end></TimeSpan></Placemark><Placemark><name>Hyatt Place Jacksonville Airport</name><address>14565 Duval Rd, Jacksonville, FL 32218</address><ExtendedData><Data name="Email"><value>syugen.zhou@gmail.com</value></Data><Data name="Category"><value>Hotel</value></Data><Data name="Distance"><value>0</value></Data></ExtendedData><description> Hotel from 2022-08-31T17:33:20.595Z to 2022-09-01T00:09:16.574Z. Distance 0m </description><Point><coordinates>-81.6498469,30.4795436,0</coordinates></Point><TimeSpan><begin>2022-08-31T17:33:20.595Z</begin><end>2022-09-01T00:09:16.574Z</end></TimeSpan></Placemark><Placemark><name>Driving</name><address></address><ExtendedData><Data name="Email"><value>syugen.zhou@gmail.com</value></Data><Data name="Category"><value>Driving</value></Data><Data name="Distance"><value>1398</value></Data></ExtendedData><description> Driving from 2022-09-01T00:09:16.574Z to 2022-09-01T00:13:32.000Z. Distance 1398m </description><LineString><altitudeMode>clampToGround</altitudeMode><extrude>1</extrude><tesselate>1</tesselate><coordinates>-81.64883329999999,30.479600499999997,0 -81.6485024,30.480106699999997,0 -81.6484083,30.480267599999998,0 -81.6483246,30.480407699999997,0 -81.6482592,30.480490399999994,0 -81.648051,30.480806199999996,0 -81.6479884,30.480841299999998,0 -81.64792829999999,30.4808977,0 -81.64787179999999,30.480954100000005,0 -81.64781509999999,30.481011600000002,0 -81.64781339999999,30.481011800000005,0 -81.64780699999999,30.481013100000002,0 -81.64780049999999,30.4810146,0 -81.64779419999998,30.4810162,0 -81.64778789999998,30.481018099999996,0 -81.64778169999998,30.4810204,0 -81.64777559999999,30.481022899999996,0 -81.64776979999999,30.481025699999993,0 -81.64776409999999,30.481028699999992,0 -81.6477585,30.48103189999999,0 -81.64775509999998,30.48103399999999,0 -81.64774609999999,30.481040099999994,0 -81.64773689999998,30.481048099999995,0 -81.64773259999998,30.48105229999999,0 -81.64772859999998,30.481056599999995,0 -81.64772129999999,30.4810657,0 -81.64771809999999,30.4810706,0 -81.6477152,30.481075500000003,0 -81.64771249999998,30.481080500000004,0 -81.64771009999998,30.481085700000005,0 -81.64770809999999,30.481091000000006,0 -81.6477063,30.481096300000008,0 -81.64770479999999,30.481101700000007,0 -81.64770369999998,30.481107000000005,0 -81.64770369999998,30.481107200000007,0 -81.64770289999998,30.48111270000001,0 -81.64770239999999,30.481118200000015,0 -81.64770219999998,30.481123800000013,0 -81.64770229999999,30.481129300000017,0 -81.64770279999999,30.48113490000002,0 -81.64770349999999,30.48114040000002,0 -81.64770459999998,30.481145800000018,0 -81.64770599999999,30.481151300000022,0 -81.64770709999999,30.481154500000024,0 -81.64764559999999,30.48129250000002,0 -81.64763179999998,30.48132100000002,0 -81.64757029999998,30.481428800000018,0 -81.6473652,30.481727300000017,0 -81.6472443,30.481893600000017,0 -81.6470792,30.482030000000016,0 -81.6451462,30.48171470000002,0 -81.64447369999999,30.481609200000022,0 -81.6443014,30.48157660000002,0 -81.64429679999999,30.481575100000022,0 -81.64429279999999,30.481574700000024,0 -81.64421529999998,30.481559900000025,0 -81.64420829999999,30.481558700000026,0 -81.64420239999998,30.48155740000003,0 -81.64412929999999,30.48154340000003,0 -81.64411989999999,30.481541900000032,0 -81.64407449999999,30.48153300000003,0 -81.64403139999999,30.48152500000003,0 -81.64402179999999,30.48152300000003,0 -81.64399999999999,30.48151890000003,0 -81.64272269999998,30.48133170000003,0 -81.64238549999997,30.481276900000033,0 -81.64213319999998,30.48121860000003,0 -81.64188849999998,30.481186500000035,0 -81.64101949999998,30.481101000000034,0 -81.64068609999998,30.481103700000034,0 -81.64029019999998,30.481142100000035,0 -81.63991309999999,30.481184700000036,0 -81.63975389999999,30.481207400000038,0 -81.63966759999998,30.48120820000004,0 -81.63953889999999,30.481215400000035,0 -81.63910459999998,30.481211000000037,0 -81.63890869999997,30.481180800000036,0 -81.63878709999999,30.481173000000037,0 -81.63859829999998,30.481150800000037,0 -81.63848199999998,30.481130200000035,0 -81.63830589999999,30.481094100000035,0 -81.63815519999999,30.481052300000037,0 -81.63802419999999,30.48101490000004,0 -81.63790589999999,30.48097290000004,0 -81.63780109999999,30.48093490000004,0 -81.63770109999999,30.480892500000042,0 -81.63761769999999,30.48085650000004,0 -81.63753019999999,30.48081510000004,0 -81.63735279999999,30.48072360000004,0 -81.63714249999998,30.480592000000037,0 -81.63705459999998,30.480532000000036,0 -81.6368598,30.480382300000034,0 -81.6366826,30.480221900000032,0 -81.6365778,30.480117100000033,0 -81.6364759,30.480000600000032,0 -81.63639570000001,30.47990180000003,0 -81.6363218,30.479807000000033,0 -81.63620440000001,30.47964300000003,0 -81.63599160000001,30.47972890000003,0 -81.63561940000001,30.47991070000003,0 </coordinates></LineString><TimeSpan><begin>2022-09-01T00:09:16.574Z</begin><end>2022-09-01T00:13:32.000Z</end></TimeSpan></Placemark><Placemark><name>McDonald's</name><address>14030 Hubble Dr, Jacksonville, FL 32218</address><ExtendedData><Data name="Email"><value>syugen.zhou@gmail.com</value></Data><Data name="Category"><value>Fast Food</value></Data><Data name="Distance"><value>0</value></Data></ExtendedData><description> Fast Food from 2022-09-01T00:13:32.000Z to 2022-09-01T00:18:36.000Z. Distance 0m </description><Point><coordinates>-81.6357396,30.4802167,0</coordinates></Point><TimeSpan><begin>2022-09-01T00:13:32.000Z</begin><end>2022-09-01T00:18:36.000Z</end></TimeSpan></Placemark><Placemark><name>Driving</name><address></address><ExtendedData><Data name="Email"><value>syugen.zhou@gmail.com</value></Data><Data name="Category"><value>Driving</value></Data><Data name="Distance"><value>1525</value></Data></ExtendedData><description> Driving from 2022-09-01T00:18:36.644Z to 2022-09-01T00:21:06.545Z. Distance 1525m </description><LineString><altitudeMode>clampToGround</altitudeMode><extrude>1</extrude><tesselate>1</tesselate><coordinates>-81.636347,30.480192600000002,0 -81.63642970000001,30.480281700000003,0 -81.63643400000001,30.4802861,0 -81.63646750000001,30.4803229,0 -81.63688120000002,30.480645,0 -81.63706140000001,30.480775899999998,0 -81.6371551,30.480839299999996,0 -81.6372632,30.480915799999995,0 -81.63746160000001,30.481013499999992,0 -81.63762510000001,30.48108669999999,0 -81.6378811,30.481185999999987,0 -81.637978,30.481216199999988,0 -81.6381113,30.481256599999984,0 -81.6382708,30.481295099999986,0 -81.6383459,30.481311499999983,0 -81.6384386,30.48132929999998,0 -81.6385939,30.481354699999983,0 -81.6387004,30.48136749999998,0 -81.6388307,30.481378999999983,0 -81.6390287,30.481409599999978,0 -81.6393333,30.48142529999998,0 -81.639493,30.48142239999998,0 -81.6397459,30.48140749999998,0 -81.6399307,30.481387699999978,0 -81.64034670000001,30.481337599999982,0 -81.6409431,30.48132339999998,0 -81.64138259999999,30.481321199999982,0 -81.6417276,30.481339499999983,0 -81.64181549999999,30.48135029999998,0 -81.64218149999998,30.481401199999983,0 -81.64218589999997,30.481402099999983,0 -81.64271539999997,30.481486699999984,0 -81.64335339999998,30.48159069999998,0 -81.64443539999998,30.48177409999998,0 -81.64460669999998,30.481801199999985,0 -81.64482659999997,30.481826999999985,0 -81.64488529999997,30.481802299999988,0 -81.64496939999997,30.48178419999999,0 -81.64502969999997,30.48178319999999,0 -81.64515869999997,30.48179619999999,0 -81.64540759999997,30.481826299999994,0 -81.64574279999997,30.48187519999999,0 -81.64616799999996,30.481939899999993,0 -81.64676469999996,30.482035899999993,0 -81.64709059999997,30.482084999999994,0 -81.64714879999997,30.482086499999994,0 -81.64720999999996,30.48207709999999,0 -81.64727569999995,30.482053299999993,0 -81.64736529999995,30.481946699999995,0 -81.64738909999996,30.4818918,0 -81.64741029999995,30.481851899999995,0 -81.64749279999995,30.481710399999997,0 -81.64755509999995,30.4816106,0 -81.64765339999994,30.4814588,0 -81.64770389999994,30.4813918,0 -81.64773559999995,30.481350799999998,0 -81.64784389999994,30.481235499999993,0 -81.64785159999995,30.48123469999999,0 -81.64785789999995,30.481233699999994,0 -81.64786419999996,30.481232499999994,0 -81.64787649999995,30.481229199999994,0 -81.64788249999995,30.481227099999995,0 -81.64788839999996,30.481224799999993,0 -81.64789409999996,30.481222299999995,0 -81.64789969999995,30.481219499999998,0 -81.64790509999996,30.481216500000002,0 -81.64790579999995,30.481216,0 -81.64791029999996,30.481213200000003,0 -81.64791529999995,30.481209800000006,0 -81.64792019999994,30.4812061,0 -81.64792479999996,30.481202200000002,0 -81.64793689999995,30.481189800000003,0 -81.64794079999996,30.4811851,0 -81.64794749999994,30.4811753,0 -81.64794759999995,30.481175200000003,0 -81.64795059999994,30.481170100000007,0 -81.64795339999995,30.481164800000005,0 -81.64795579999995,30.4811593,0 -81.64795789999995,30.481153900000002,0 -81.64795969999996,30.481148300000005,0 -81.64796249999996,30.4811371,0 -81.64796339999997,30.481131400000002,0 -81.64796389999997,30.481125600000002,0 -81.64796409999995,30.48112,0 -81.64796409999995,30.481114199999997,0 -81.64796369999996,30.481108399999997,0 -81.64796189999996,30.481097199999994,0 -81.64795889999996,30.48108609999999,0 -81.64795699999996,30.481080699999993,0 -81.64795209999997,30.481070199999998,0 -81.64795039999996,30.4810671,0 -81.64799329999995,30.480991999999997,0 -81.64803269999996,30.480886099999996,0 -81.64805099999997,30.480806199999996,0 -81.64825919999997,30.480490399999994,0 -81.64832459999997,30.480407699999997,0 -81.64840829999996,30.480267599999998,0 -81.64850239999996,30.480106699999997,0 -81.64923419999995,30.478987299999996,0 -81.65014639999995,30.479438499999993,0 </coordinates></LineString><TimeSpan><begin>2022-09-01T00:18:36.644Z</begin><end>2022-09-01T00:21:06.545Z</end></TimeSpan></Placemark><Placemark><name>Hyatt Place Jacksonville Airport</name><address>14565 Duval Rd, Jacksonville, FL 32218</address><ExtendedData><Data name="Email"><value>syugen.zhou@gmail.com</value></Data><Data name="Category"><value>Hotel</value></Data><Data name="Distance"><value>0</value></Data></ExtendedData><description> Hotel from 2022-09-01T00:21:06.545Z to 2022-09-01T14:03:05.496Z. Distance 0m </description><Point><coordinates>-81.6498469,30.4795436,0</coordinates></Point><TimeSpan><begin>2022-09-01T00:21:06.545Z</begin><end>2022-09-01T14:03:05.496Z</end></TimeSpan></Placemark></Document></kml>
