<?xml version="1.0" encoding="UTF-8"?><kml xmlns="http://www.opengis.net/kml/2.2" xmlns:gx="http://www.google.com/kml/ext/2.2"><Document><name> Location history from 2021-12-31 to 2021-12-31 </name><open>1</open><description></description><StyleMap id="multiTrack"><Pair><key>normal</key><styleUrl>#multiTrack_n</styleUrl></Pair><Pair><key>highlight</key><styleUrl>#multiTrack_h</styleUrl></Pair></StyleMap><Style id="multiTrack_n"><IconStyle><Icon><href>https://earth.google.com/images/kml-icons/track-directional/track-0.png</href></Icon></IconStyle><LineStyle><color>99ffac59</color><width>6</width></LineStyle></Style><Style id="multiTrack_h"><IconStyle><scale>1.2</scale><Icon><href>https://earth.google.com/images/kml-icons/track-directional/track-0.png</href></Icon></IconStyle><LineStyle><color>99ffac59</color><width>8</width></LineStyle></Style><Placemark><name>Pacific Rim Cabins</name><address>Grant Ave, Ucluelet, BC V0R 3A0, Canada</address><ExtendedData><Data name="Email"><value>syugen.zhou@gmail.com</value></Data><Data name="Category"><value>Group accommodation</value></Data><Data name="Distance"><value>0</value></Data></ExtendedData><description> Group accommodation from 2021-12-31T02:13:20.539Z to 2022-01-01T00:14:37.340Z. Distance 0m </description><Point><coordinates>-125.5879755,48.974676599999995,0</coordinates></Point><TimeSpan><begin>2021-12-31T02:13:20.539Z</begin><end>2022-01-01T00:14:37.340Z</end></TimeSpan></Placemark><Placemark><name>Driving</name><address></address><ExtendedData><Data name="Email"><value>syugen.zhou@gmail.com</value></Data><Data name="Category"><value>Driving</value></Data><Data name="Distance"><value>7086</value></Data></ExtendedData><description> Driving from 2022-01-01T00:14:37.340Z to 2022-01-01T00:25:04.442Z. Distance 7086m </description><LineString><altitudeMode>clampToGround</altitudeMode><extrude>1</extrude><tesselate>1</tesselate><coordinates>-125.5900808,48.9741244,0 -125.59085289999999,48.974511,0 -125.59101529999998,48.9742515,0 -125.59105299999999,48.9741539,0 -125.59233409999999,48.965370899999996,0 -125.5923383,48.9650195,0 -125.59214990000001,48.96449599999999,0 -125.59182109999999,48.96390039999999,0 -125.5915094,48.96279319999999,0 -125.5913012,48.96240189999999,0 -125.59101410000001,48.962177399999995,0 -125.59073790000002,48.96206589999999,0 -125.58948550000001,48.96172519999999,0 -125.58845120000001,48.96137529999999,0 -125.5876591,48.961197799999994,0 -125.5871694,48.961045899999995,0 -125.58649949999999,48.960725999999994,0 -125.58359739999999,48.959030399999996,0 -125.5824442,48.95818599999999,0 -125.57896009999999,48.95487719999999,0 -125.57837289999998,48.9541282,0 -125.57807339999998,48.95365089999999,0 -125.57789679999999,48.95317209999999,0 -125.57746559999998,48.95143579999999,0 -125.57720669999998,48.951021999999995,0 -125.57693429999998,48.95077989999999,0 -125.57675559999998,48.95066929999999,0 -125.57579769999998,48.95019939999999,0 -125.57509849999997,48.94967479999999,0 -125.57478229999997,48.94936999999999,0 -125.57455319999998,48.94907509999999,0 -125.57424049999999,48.94831519999999,0 -125.57390829999997,48.94782169999999,0 -125.57364289999998,48.94753949999999,0 -125.57304309999996,48.94705859999999,0 -125.57282259999998,48.946923899999994,0 -125.57253579999998,48.946803599999996,0 -125.57221109999999,48.9467363,0 -125.5719209,48.946730499999994,0 -125.57152719999998,48.946776699999994,0 -125.57080469999998,48.94696259999999,0 -125.5705237,48.947009099999995,0 -125.57012999999998,48.94702039999999,0 -125.56674119999998,48.94692489999999,0 -125.56623409999999,48.94686619999999,0 -125.5653648,48.94669149999999,0 -125.5645355,48.94646449999999,0 -125.5618587,48.94558059999999,0 -125.5604396,48.94519669999999,0 -125.56007309999998,48.94512129999999,0 -125.55977549999999,48.945091899999994,0 -125.5587496,48.945077,0 -125.5582903,48.94503149999999,0 -125.55518180000001,48.9444063,0 -125.55487260000001,48.9443649,0 -125.55250380000001,48.9442938,0 -125.55233190000001,48.94426519999999,0 -125.55178210000003,48.94409269999999,0 -125.55126080000004,48.94385139999999,0 -125.55044080000002,48.94340179999999,0 -125.54678940000002,48.941920599999996,0 -125.54637940000002,48.941679699999995,0 -125.54503970000002,48.940555399999994,0 -125.54230450000001,48.93767939999999,0 -125.5410274,48.9360862,0 -125.54030950000002,48.935360499999994,0 -125.53968260000003,48.9342949,0 -125.53964170000002,48.933594899999996,0 -125.53954840000002,48.933356399999994,0 -125.53940620000002,48.93320309999999,0 -125.53875180000001,48.932722,0 -125.5385882,48.9325458,0 -125.53854530000002,48.93245769999999,0 -125.5384192,48.9318604,0 -125.5383629,48.9317529,0 -125.53815149999998,48.9314944,0 -125.53793639999998,48.9310692,0 -125.53710759999997,48.930221599999996,0 -125.53703779999998,48.9300648,0 -125.53702179999996,48.9298674,0 -125.53708609999995,48.9296806,0 -125.53773789999997,48.9285211,0 -125.53778079999996,48.9283449,0 -125.53771909999996,48.9281017,0 -125.53761449999998,48.9279519,0 -125.53752599999997,48.9278744,0 -125.53740529999996,48.927798599999996,0 -125.53715449999996,48.9276929,0 -125.53694799999997,48.9276391,0 -125.53568739999996,48.9274109,0 -125.53451249999998,48.9270523,0 -125.53694099999997,48.9248371,0 -125.53728499999998,48.9246158,0 -125.53846669999997,48.92432,0 -125.54001149999999,48.9235986,0 -125.54050079999998,48.923322600000006,0 -125.54076079999999,48.923100000000005,0 -125.5407949,48.922994800000005,0 -125.5407949,48.922842900000006,0 -125.5404798,48.922296,0 </coordinates></LineString><TimeSpan><begin>2022-01-01T00:14:37.340Z</begin><end>2022-01-01T00:25:04.442Z</end></TimeSpan></Placemark><Placemark><name>Amphitrite Point Light</name><address>Ucluelet, BC V0R 3A0, Canada</address><ExtendedData><Data name="Email"><value>syugen.zhou@gmail.com</value></Data><Data name="Category"><value>Historical landmark</value></Data><Data name="Distance"><value>0</value></Data></ExtendedData><description> Historical landmark from 2022-01-01T00:25:04.442Z to 2022-01-01T01:05:30.999Z. Distance 0m </description><Point><coordinates>-125.54114039999999,48.9212014,0</coordinates></Point><TimeSpan><begin>2022-01-01T00:25:04.442Z</begin><end>2022-01-01T01:05:30.999Z</end></TimeSpan></Placemark><Placemark><name>Driving</name><address></address><ExtendedData><Data name="Email"><value>syugen.zhou@gmail.com</value></Data><Data name="Category"><value>Driving</value></Data><Data name="Distance"><value>7547</value></Data></ExtendedData><description> Driving from 2022-01-01T01:05:30.999Z to 2022-01-01T01:23:50.282Z. Distance 7547m </description><LineString><altitudeMode>clampToGround</altitudeMode><extrude>1</extrude><tesselate>1</tesselate><coordinates>-125.5404798,48.922295999999996,0 -125.5407949,48.9228429,0 -125.5407949,48.9229948,0 -125.54076079999999,48.9231,0 -125.54050079999998,48.9233226,0 -125.54001149999999,48.92359859999999,0 -125.53846669999997,48.924319999999994,0 -125.53728499999998,48.92461579999999,0 -125.53694099999997,48.92483709999999,0 -125.53451249999998,48.92705229999999,0 -125.53568739999996,48.92741089999999,0 -125.53694799999997,48.92763909999999,0 -125.53715449999996,48.92769289999999,0 -125.53740529999996,48.927798599999996,0 -125.53752599999997,48.92787439999999,0 -125.53761449999998,48.92795189999999,0 -125.53771909999996,48.92810169999999,0 -125.53778079999996,48.92834489999999,0 -125.53773789999997,48.92852109999999,0 -125.53708609999995,48.92968059999999,0 -125.53702179999996,48.92986739999999,0 -125.53703779999998,48.93006479999999,0 -125.53710759999997,48.930221599999996,0 -125.53793639999998,48.931069199999996,0 -125.53815149999998,48.93149439999999,0 -125.5383629,48.93175289999999,0 -125.5384192,48.93186039999999,0 -125.53854530000002,48.93245769999999,0 -125.5385882,48.93254579999999,0 -125.53875180000001,48.93272199999999,0 -125.53940620000002,48.933203099999986,0 -125.53954840000002,48.93335639999999,0 -125.53964170000002,48.93359489999999,0 -125.53968260000003,48.93429489999999,0 -125.54030950000002,48.93536049999999,0 -125.5410274,48.93608619999999,0 -125.54230450000001,48.937679399999986,0 -125.54503970000002,48.94055539999999,0 -125.54637940000002,48.94167969999999,0 -125.54678940000002,48.94192059999999,0 -125.55044080000002,48.94340179999998,0 -125.55126080000004,48.943851399999986,0 -125.55178210000003,48.944092699999985,0 -125.55233190000001,48.94426519999999,0 -125.55250380000001,48.94429379999999,0 -125.55487260000001,48.94436489999999,0 -125.55518180000001,48.94440629999999,0 -125.5582903,48.945031499999985,0 -125.5587496,48.94507699999999,0 -125.55977549999999,48.94509189999999,0 -125.56007309999998,48.94512129999998,0 -125.5604396,48.94519669999999,0 -125.5618587,48.945580599999985,0 -125.5645355,48.94646449999998,0 -125.5653648,48.946691499999986,0 -125.56623409999999,48.94686619999999,0 -125.56674119999998,48.946924899999985,0 -125.57012999999998,48.947020399999985,0 -125.5705237,48.94700909999999,0 -125.57080469999998,48.946962599999985,0 -125.57152719999998,48.94677669999999,0 -125.5719209,48.94673049999999,0 -125.57221109999999,48.94673629999999,0 -125.57253579999998,48.94680359999999,0 -125.57282259999998,48.94692389999999,0 -125.57304309999996,48.947058599999984,0 -125.57364289999998,48.94753949999998,0 -125.57390829999997,48.947821699999984,0 -125.57424049999999,48.94831519999998,0 -125.57455319999998,48.94907509999998,0 -125.57478229999997,48.94936999999998,0 -125.57509849999997,48.94967479999998,0 -125.57579769999998,48.95019939999998,0 -125.57675559999998,48.95066929999998,0 -125.57693429999998,48.950779899999986,0 -125.57720669999998,48.95102199999999,0 -125.57746559999998,48.951435799999985,0 -125.57789679999999,48.95317209999998,0 -125.57807339999998,48.953650899999985,0 -125.57837289999998,48.95412819999999,0 -125.57896009999999,48.95487719999999,0 -125.5824442,48.95818599999998,0 -125.58359739999999,48.95903039999999,0 -125.58649949999999,48.96072599999999,0 -125.5871694,48.96104589999999,0 -125.5876591,48.96119779999999,0 -125.58845120000001,48.961375299999986,0 -125.58948550000001,48.96172519999999,0 -125.59073790000002,48.962065899999985,0 -125.59101410000001,48.96217739999999,0 -125.5913012,48.96240189999998,0 -125.5915094,48.962793199999986,0 -125.59182109999999,48.963900399999986,0 -125.59214990000001,48.96449599999999,0 -125.5923383,48.96501949999999,0 -125.59233409999999,48.96537089999999,0 -125.59105299999999,48.97415389999999,0 -125.59101529999998,48.974251499999994,0 -125.59085289999999,48.97451099999999,0 -125.59011879999998,48.97414349999999,0 </coordinates></LineString><TimeSpan><begin>2022-01-01T01:05:30.999Z</begin><end>2022-01-01T01:23:50.282Z</end></TimeSpan></Placemark><Placemark><name>Pacific Rim Cabins</name><address>Grant Ave, Ucluelet, BC V0R 3A0, Canada</address><ExtendedData><Data name="Email"><value>syugen.zhou@gmail.com</value></Data><Data name="Category"><value>Group accommodation</value></Data><Data name="Distance"><value>0</value></Data></ExtendedData><description> Group accommodation from 2022-01-01T01:23:50.282Z to 2022-01-01T19:00:09.999Z. Distance 0m </description><Point><coordinates>-125.5879755,48.974676599999995,0</coordinates></Point><TimeSpan><begin>2022-01-01T01:23:50.282Z</begin><end>2022-01-01T19:00:09.999Z</end></TimeSpan></Placemark></Document></kml>
