<?xml version="1.0" encoding="UTF-8"?><kml xmlns="http://www.opengis.net/kml/2.2" xmlns:gx="http://www.google.com/kml/ext/2.2"><Document><name> Location history from 2021-12-29 to 2021-12-29 </name><open>1</open><description></description><StyleMap id="multiTrack"><Pair><key>normal</key><styleUrl>#multiTrack_n</styleUrl></Pair><Pair><key>highlight</key><styleUrl>#multiTrack_h</styleUrl></Pair></StyleMap><Style id="multiTrack_n"><IconStyle><Icon><href>https://earth.google.com/images/kml-icons/track-directional/track-0.png</href></Icon></IconStyle><LineStyle><color>99ffac59</color><width>6</width></LineStyle></Style><Style id="multiTrack_h"><IconStyle><scale>1.2</scale><Icon><href>https://earth.google.com/images/kml-icons/track-directional/track-0.png</href></Icon></IconStyle><LineStyle><color>99ffac59</color><width>8</width></LineStyle></Style><Placemark><name>4880 Bennett St</name><address>4880 Bennett St, Burnaby, BC V5H 0C1, Canada</address><ExtendedData><Data name="Email"><value>syugen.zhou@gmail.com</value></Data><Data name="Category"><value></value></Data><Data name="Distance"><value>0</value></Data></ExtendedData><description>  from 2021-12-29T03:42:34.333Z to 2021-12-29T16:38:03.466Z. Distance 0m </description><Point><coordinates>-122.9950939,49.224852,0</coordinates></Point><TimeSpan><begin>2021-12-29T03:42:34.333Z</begin><end>2021-12-29T16:38:03.466Z</end></TimeSpan></Placemark><Placemark><name>Driving</name><address></address><ExtendedData><Data name="Email"><value>syugen.zhou@gmail.com</value></Data><Data name="Category"><value>Driving</value></Data><Data name="Distance"><value>32185</value></Data></ExtendedData><description> Driving from 2021-12-29T16:38:03.466Z to 2021-12-29T17:20:41.841Z. Distance 32185m </description><LineString><altitudeMode>clampToGround</altitudeMode><extrude>1</extrude><tesselate>1</tesselate><coordinates>-122.99515530000001,49.225219599999996,0 -122.9942784,49.225206899999996,0 -122.9942995,49.223458199999996,0 -122.99421380000001,49.22331919999999,0 -122.9939418,49.21064909999999,0 -122.9943681,49.20985199999999,0 -122.9947578,49.209406699999995,0 -122.995312,49.2090361,0 -122.997802,49.208130499999996,0 -122.99835069999999,49.207763299999996,0 -122.99950549999997,49.2060678,0 -122.99963389999996,49.205672299999996,0 -122.99957129999996,49.203784999999996,0 -122.98551989999996,49.203762,0 -122.98419009999996,49.203457199999995,0 -122.98357549999996,49.20315749999999,0 -122.97752019999997,49.19845019999999,0 -122.97671899999996,49.19799739999999,0 -122.97525009999995,49.19752979999999,0 -122.95956589999994,49.195375599999984,0 -122.95874219999995,49.195377599999986,0 -122.95810819999996,49.19546509999999,0 -122.95502899999995,49.19655089999999,0 -122.95294439999994,49.19690359999999,0 -122.95246449999995,49.19710799999999,0 -122.95199029999993,49.197488299999996,0 -122.95134189999993,49.1986108,0 -122.95119849999993,49.1987406,0 -122.95080939999991,49.1989086,0 -122.9504274999999,49.198949600000006,0 -122.9499565999999,49.198859600000006,0 -122.9495127999999,49.198551200000004,0 -122.9428821999999,49.1921945,0 -122.94259889999991,49.1914206,0 -122.9427779999999,49.1907073,0 -122.94342889999992,49.189973699999996,0 -122.9441230999999,49.1895953,0 -122.9477376999999,49.1883919,0 -122.9483045999999,49.1881258,0 -122.9491347999999,49.187569999999994,0 -122.9514811999999,49.185512599999996,0 -122.9524060999999,49.184911199999995,0 -122.95456779999991,49.18398799999999,0 -122.95905149999992,49.182940499999994,0 -122.9603152999999,49.18241999999999,0 -122.96099419999989,49.1819706,0 -122.96151209999988,49.1814701,0 -122.96210909999988,49.18037029999999,0 -122.96227119999988,49.17859589999999,0 -122.96210409999988,49.17774429999999,0 -122.9615742999999,49.17672549999999,0 -122.96058099999989,49.17583859999999,0 -122.95308499999989,49.17184459999999,0 -122.95287819999989,49.171787699999996,0 -122.94708029999988,49.1680206,0 -122.9461598999999,49.1671249,0 -122.94548659999988,49.166057099999996,0 -122.93812389999988,49.148288,0 -122.93818909999987,49.1481354,0 -122.93778369999988,49.147008899999996,0 -122.93772479999987,49.14626489999999,0 -122.93781059999986,49.14602399999999,0 -122.93800449999986,49.14578669999999,0 -122.93858209999988,49.145406799999996,0 -122.93920799999988,49.14517959999999,0 -122.94064659999988,49.14505989999999,0 -122.9410924999999,49.1451243,0 -122.9427390999999,49.145719299999996,0 -122.9451400999999,49.146826299999994,0 -122.94738679999992,49.147631399999995,0 -122.9502981999999,49.148376,0 -122.95279039999991,49.1496366,0 -122.95404659999991,49.149926300000004,0 -122.95499489999992,49.1499582,0 -122.95571139999991,49.1498028,0 -122.9559248999999,49.1497064,0 -122.9566337999999,49.14893550000001,0 -122.9572179999999,49.148624600000005,0 -122.9578110999999,49.14855790000001,0 -122.95795139999989,49.148498800000006,0 -122.9673137999999,49.14854960000001,0 -122.9690435999999,49.14831860000001,0 -122.9717114999999,49.147612400000014,0 -122.9732443999999,49.147455700000016,0 -122.98173539999992,49.14744610000002,0 -122.9836504999999,49.14727550000002,0 -122.9852065999999,49.14696900000002,0 -122.98972599999989,49.14560870000002,0 -122.9911428999999,49.14497230000002,0 -122.9919549999999,49.14439870000002,0 -122.9925873999999,49.143791100000016,0 -122.99383219999989,49.14217630000002,0 -122.9946888999999,49.14141050000002,0 -122.9959022999999,49.14061540000002,0 -122.99771059999989,49.13984230000002,0 -123.00061779999989,49.13899990000002,0 -123.00176299999988,49.138505800000026,0 -123.00459939999989,49.136898100000025,0 -123.00629789999991,49.136206300000026,0 -123.00841879999989,49.135687600000026,0 -123.00976679999991,49.13518380000003,0 -123.01117289999992,49.13429910000003,0 -123.01227599999993,49.13305950000003,0 -123.01270089999993,49.13204060000003,0 -123.01282629999993,49.13001800000003,0 -123.01303599999993,49.12945180000003,0 -123.01356839999994,49.12874650000003,0 -123.01440939999992,49.128118800000024,0 -123.01533349999991,49.127706700000026,0 -123.0207211999999,49.12613760000003,0 -123.0215952999999,49.12570520000003,0 -123.02290549999991,49.124711000000026,0 -123.02351829999992,49.12394630000003,0 -123.02647659999992,49.11890090000003,0 -123.02837789999992,49.11717170000003,0 -123.02876019999994,49.11663360000003,0 -123.02907229999994,49.115738300000025,0 -123.02907029999993,49.10749170000003,0 -123.02969599999993,49.10366450000003,0 -123.02949889999994,49.10172440000003,0 -123.02508709999994,49.09175240000003,0 -123.02473859999995,49.09025210000003,0 -123.02467969999995,49.08600700000002,0 -123.02480609999995,49.08534580000003,0 -123.02521629999994,49.08466380000002,0 -123.02580559999994,49.084122300000026,0 -123.02638159999994,49.08376990000002,0 -123.02712709999994,49.083468600000025,0 -123.02789219999994,49.083274100000025,0 -123.02998689999993,49.08299340000003,0 -123.03198469999992,49.082415600000026,0 -123.03374049999992,49.08148550000003,0 -123.03475909999992,49.08062730000003,0 -123.03541889999991,49.079788400000034,0 -123.03586029999991,49.07884800000003,0 -123.0360286999999,49.07803740000003,0 -123.03614799999991,49.06397180000003,0 -123.03661539999992,49.062745500000034,0 -123.03759249999992,49.06159690000003,0 -123.03857509999992,49.06088660000003,0 -123.03968089999992,49.06034120000003,0 -123.0406271999999,49.06001630000003,0 -123.0423099999999,49.05968320000003,0 -123.04384529999992,49.059567200000025,0 -123.04757979999991,49.05957470000003,0 -123.0512194999999,49.05991290000003,0 -123.05200959999989,49.05991180000003,0 -123.0528096999999,49.05980600000003,0 -123.05392349999991,49.05944750000003,0 -123.0550107999999,49.05882130000003,0 -123.0559710999999,49.05795620000003,0 -123.05660239999989,49.057170400000025,0 -123.0570485999999,49.056328300000025,0 -123.0573469999999,49.05520480000002,0 -123.05746699999989,49.052450400000026,0 -123.05768279999988,49.05139330000003,0 -123.05885639999987,49.04910030000003,0 -123.06010249999986,49.04768990000002,0 -123.06153059999986,49.04657900000002,0 -123.06309679999987,49.04564560000003,0 -123.09821099999988,49.028687400000024,0 -123.10124199999987,49.02691160000003,0 -123.12369219999987,49.01113550000003,0 -123.12663489999986,49.01047200000003,0 -123.12697039999985,49.010797100000026,0 -123.12706179999984,49.01081850000002,0 -123.12711529999983,49.01080620000002,0 -123.12911219999984,49.009387900000014,0 </coordinates></LineString><TimeSpan><begin>2021-12-29T16:38:03.466Z</begin><end>2021-12-29T17:20:41.841Z</end></TimeSpan></Placemark><Placemark><name>Tsawwassen</name><address>Delta, BC, Canada</address><ExtendedData><Data name="Email"><value>syugen.zhou@gmail.com</value></Data><Data name="Category"><value></value></Data><Data name="Distance"><value>0</value></Data></ExtendedData><description>  from 2021-12-29T17:20:41.841Z to 2021-12-29T17:49:04.999Z. Distance 0m </description><Point><coordinates>-123.08182529999999,49.018038,0</coordinates></Point><TimeSpan><begin>2021-12-29T17:20:41.841Z</begin><end>2021-12-29T17:49:04.999Z</end></TimeSpan></Placemark><Placemark><name>On a ferry</name><address></address><ExtendedData><Data name="Email"><value>syugen.zhou@gmail.com</value></Data><Data name="Category"><value>On a ferry</value></Data><Data name="Distance"><value>46350</value></Data></ExtendedData><description> On a ferry from 2021-12-29T17:49:04.999Z to 2021-12-29T19:32:18.000Z. Distance 46350m </description><LineString><altitudeMode>clampToGround</altitudeMode><extrude>1</extrude><tesselate>1</tesselate><coordinates>-123.12908752294042,49.0094127750241,0 -123.12908752294042,49.0094127750241,0 -123.1292716,49.0092361,0 -123.133874,49.0061901,0 -123.1377492,49.0032204,0 -123.1873699,48.9713945,0 -123.2608036,48.9250605,0 -123.27537,48.9134696,0 -123.3018081,48.8803114,0 -123.3078875,48.8673162,0 -123.322669,48.8594071,0 -123.3482607,48.8581573,0 -123.3545889,48.8477224,0 -123.3518149,48.8377963,0 -123.3457977,48.8084103,0 -123.3463171,48.7933638,0 -123.3486341,48.7780106,0 -123.370053,48.7572082,0 -123.3839245,48.7475411,0 -123.3973694,48.7389233,0 -123.4382412,48.7027017,0 -123.4116107,48.6899289,0 -123.41143839999998,48.688557,0 </coordinates></LineString><TimeSpan><begin>2021-12-29T17:49:04.999Z</begin><end>2021-12-29T19:32:18.000Z</end></TimeSpan></Placemark><Placemark><name>Swartz Bay Terminal</name><address>11300 Patricia Bay Hwy, Sidney, BC V8L 3S8, Canada</address><ExtendedData><Data name="Email"><value>syugen.zhou@gmail.com</value></Data><Data name="Category"><value>Ferry terminal</value></Data><Data name="Distance"><value>0</value></Data></ExtendedData><description> Ferry terminal from 2021-12-29T19:32:18.000Z to 2021-12-29T19:44:08.999Z. Distance 0m </description><Point><coordinates>-123.4114384,48.688556999999996,0</coordinates></Point><TimeSpan><begin>2021-12-29T19:32:18.000Z</begin><end>2021-12-29T19:44:08.999Z</end></TimeSpan></Placemark><Placemark><name>Driving</name><address></address><ExtendedData><Data name="Email"><value>syugen.zhou@gmail.com</value></Data><Data name="Category"><value>Driving</value></Data><Data name="Distance"><value>27882</value></Data></ExtendedData><description> Driving from 2021-12-29T19:44:08.999Z to 2021-12-29T20:13:54.000Z. Distance 27882m </description><LineString><altitudeMode>clampToGround</altitudeMode><extrude>1</extrude><tesselate>1</tesselate><coordinates>-123.41150130000001,48.6899455,0 -123.4116712,48.6895195,0 -123.41096729999998,48.688894499999996,0 -123.41048579999998,48.6860283,0 -123.41051289999997,48.6853573,0 -123.41074819999999,48.6849395,0 -123.41093789999998,48.6847525,0 -123.41672479999998,48.6810938,0 -123.4183657,48.6802089,0 -123.4271492,48.6760818,0 -123.4278573,48.675692999999995,0 -123.42832,48.675316699999996,0 -123.4286325,48.6749562,0 -123.42893910000001,48.6743251,0 -123.42902060000002,48.6738801,0 -123.4289087,48.6731054,0 -123.42878129999998,48.6728096,0 -123.42850639999999,48.6723969,0 -123.42794049999999,48.6718336,0 -123.41731089999999,48.662795900000006,0 -123.4166832,48.662078400000006,0 -123.40596,48.6472153,0 -123.40553849999999,48.6464772,0 -123.405344,48.64593119999999,0 -123.40528509999999,48.6452503,0 -123.4053773,48.644666699999995,0 -123.4064937,48.6421813,0 -123.40671079999998,48.64184449999999,0 -123.41192649999998,48.63109689999999,0 -123.41216619999997,48.63024389999999,0 -123.41220379999997,48.62950639999999,0 -123.41197569999997,48.628432799999985,0 -123.40861719999995,48.62185309999999,0 -123.40805569999996,48.620943299999986,0 -123.39707079999995,48.60687859999999,0 -123.39669769999996,48.606233999999986,0 -123.39652139999995,48.60573019999999,0 -123.39647449999995,48.605390499999984,0 -123.39680249999995,48.59811639999998,0 -123.39696389999995,48.59719819999999,0 -123.39727349999993,48.59632039999998,0 -123.40111969999994,48.58828089999998,0 -123.40141209999994,48.587189699999975,0 -123.40146029999995,48.58600629999997,0 -123.40133969999995,48.58521319999998,0 -123.40111429999996,48.58445379999998,0 -123.39776289999995,48.57611909999998,0 -123.39772399999994,48.575410999999974,0 -123.39897929999994,48.568910099999975,0 -123.39901949999994,48.56801729999998,0 -123.39886399999995,48.56694879999998,0 -123.39864129999995,48.56621139999998,0 -123.39803579999996,48.56513479999998,0 -123.39756099999995,48.56447699999998,0 -123.39737359999997,48.56407149999998,0 -123.39508209999997,48.56039089999998,0 -123.39408829999998,48.558254499999975,0 -123.39290299999999,48.554336899999974,0 -123.39111499999999,48.545355199999975,0 -123.39003569999998,48.54208239999998,0 -123.38933679999998,48.537378599999975,0 -123.3881655,48.53225179999998,0 -123.38799499999999,48.53098219999998,0 -123.38683780000001,48.52735149999998,0 -123.3867257,48.52656109999998,0 -123.3867633,48.52497609999998,0 -123.386705,48.52440259999998,0 -123.38604570000001,48.52200439999998,0 -123.38389190000001,48.51181319999998,0 -123.3839013,48.51089809999998,0 -123.38541670000001,48.50320449999998,0 -123.38552530000001,48.50217899999998,0 -123.38525310000001,48.49906259999998,0 -123.38552130000002,48.49765849999998,0 -123.38668670000003,48.49463599999998,0 -123.38680210000001,48.49417379999998,0 -123.3868061,48.493591699999975,0 -123.38670819999999,48.49316149999998,0 -123.3848494,48.48880019999998,0 -123.38470459999999,48.48816649999998,0 -123.3847153,48.487496299999975,0 -123.38497949999999,48.48666069999998,0 -123.38690530000001,48.48321799999997,0 -123.3870555,48.482749499999976,0 -123.3870902,48.48187839999997,0 -123.3870224,48.481594799999975,0 -123.38254810000001,48.470958099999976,0 -123.38114930000002,48.46610749999998,0 -123.37837990000001,48.45862849999998,0 -123.37819470000002,48.458340299999975,0 -123.37802050000003,48.45815529999997,0 -123.37763160000004,48.457876999999975,0 -123.37233020000004,48.45541509999998,0 -123.37202850000003,48.45519979999998,0 -123.37176830000003,48.45494189999999,0 -123.37152690000002,48.454558599999984,0 -123.37141960000001,48.45418319999999,0 -123.37132840000001,48.453134599999984,0 -123.37118220000002,48.45262309999998,0 -123.37104410000002,48.452383799999986,0 -123.36874010000001,48.44976159999999,0 -123.3684611,48.449273199999986,0 -123.36811380000002,48.44824939999999,0 -123.3666024,48.44551569999998,0 -123.35977,48.44638749999998,0 -123.3596219,48.44645379999998,0 -123.3512884,48.447504099999975,0 -123.35121050000001,48.447498099999976,0 -123.3472422,48.44805899999998,0 -123.34633559999999,48.44828939999998,0 -123.3458059,48.448357899999976,0 -123.33361949999998,48.448163699999974,0 -123.33327049999998,48.44792999999997,0 -123.33337919999998,48.445700799999976,0 -123.33472429999998,48.445160799999975,0 -123.33491019999998,48.445360899999976,0 </coordinates></LineString><TimeSpan><begin>2021-12-29T19:44:08.999Z</begin><end>2021-12-29T20:13:54.000Z</end></TimeSpan></Placemark><Placemark><name>Hillside Shopping Centre</name><address>1644 Hillside Ave #21, Victoria, BC V8T 2C5, Canada</address><ExtendedData><Data name="Email"><value>syugen.zhou@gmail.com</value></Data><Data name="Category"><value>Shopping mall</value></Data><Data name="Distance"><value>0</value></Data></ExtendedData><description> Shopping mall from 2021-12-29T20:13:54.000Z to 2021-12-29T21:39:18.000Z. Distance 0m </description><Point><coordinates>-123.3346516,48.4459672,0</coordinates></Point><TimeSpan><begin>2021-12-29T20:13:54.000Z</begin><end>2021-12-29T21:39:18.000Z</end></TimeSpan></Placemark><Placemark><name>Driving</name><address></address><ExtendedData><Data name="Email"><value>syugen.zhou@gmail.com</value></Data><Data name="Category"><value>Driving</value></Data><Data name="Distance"><value>259722</value></Data></ExtendedData><description> Driving from 2021-12-29T21:39:18.000Z to 2021-12-30T01:55:59.000Z. Distance 259722m </description><LineString><altitudeMode>clampToGround</altitudeMode><extrude>1</extrude><tesselate>1</tesselate><coordinates>-123.3351696,48.4456456,0 -123.3347243,48.445160800000004,0 -123.34477720000001,48.441144,0 -123.34780810000002,48.441103600000005,0 -123.35383770000003,48.440152100000006,0 -123.35405570000003,48.44006170000001,0 -123.36286650000004,48.438996800000005,0 -123.36322950000005,48.4391396,0 -123.36394830000005,48.4414759,0 -123.36781740000005,48.4481151,0 -123.36846110000006,48.4497198,0 -123.36956220000006,48.4510114,0 -123.37336020000006,48.449270600000006,0 -123.37510190000006,48.4522059,0 -123.37506710000007,48.452273700000006,0 -123.37596050000008,48.453886100000005,0 -123.37672610000008,48.4546573,0 -123.37786860000008,48.455253400000004,0 -123.39087740000008,48.4582667,0 -123.39779650000008,48.458378599999996,0 -123.40803380000007,48.4605485,0 -123.41083530000007,48.4615626,0 -123.41547180000008,48.4637799,0 -123.41734630000006,48.4641904,0 -123.43252330000008,48.4639691,0 -123.43773680000007,48.463106399999994,0 -123.45503460000008,48.46154009999999,0 -123.45724570000009,48.46151859999999,0 -123.46106880000009,48.46190579999999,0 -123.4682268000001,48.46142269999999,0 -123.46960780000009,48.46160439999999,0 -123.47123790000009,48.462121399999994,0 -123.47564740000008,48.464510399999995,0 -123.47655550000009,48.464841199999995,0 -123.47818690000008,48.465159899999996,0 -123.48005060000008,48.465160499999996,0 -123.48122310000008,48.464974500000004,0 -123.48260240000008,48.4645402,0 -123.49348460000007,48.45769730000001,0 -123.49446420000007,48.4574015,0 -123.49968290000007,48.456587500000005,0 -123.50163930000006,48.45597850000001,0 -123.50457770000007,48.454586500000005,0 -123.51091780000007,48.4530237,0 -123.51167220000006,48.453011700000005,0 -123.52109810000006,48.4553214,0 -123.52221240000006,48.4553691,0 -123.52385520000007,48.4551892,0 -123.52763950000006,48.4539738,0 -123.52895460000008,48.4537634,0 -123.52991780000009,48.4537977,0 -123.5314412000001,48.454232700000006,0 -123.5397298000001,48.45901440000001,0 -123.54204990000012,48.460047100000004,0 -123.55025060000011,48.46247700000001,0 -123.55110450000011,48.46288390000001,0 -123.5514765000001,48.46320440000001,0 -123.55192080000009,48.464011600000006,0 -123.55216160000009,48.470628200000014,0 -123.55191890000009,48.471466700000015,0 -123.5515420000001,48.47202150000001,0 -123.5500628000001,48.473279600000005,0 -123.5496135000001,48.47385750000001,0 -123.54942310000011,48.4745999,0 -123.5497905000001,48.4761291,0 -123.5487190000001,48.4781703,0 -123.5487536000001,48.4787301,0 -123.55079600000009,48.4828037,0 -123.55314650000008,48.4857515,0 -123.55473420000008,48.4898626,0 -123.55460530000009,48.4914754,0 -123.55517910000009,48.493326800000006,0 -123.55483590000009,48.4944322,0 -123.5548678000001,48.494815599999995,0 -123.55557990000008,48.4964347,0 -123.55617060000009,48.5015327,0 -123.55607740000008,48.501990899999996,0 -123.55508350000008,48.5037206,0 -123.55519160000009,48.5044777,0 -123.55695450000007,48.5064865,0 -123.55715680000009,48.507803300000006,0 -123.55696060000008,48.51208300000001,0 -123.55494330000008,48.52175970000001,0 -123.55549550000006,48.52444110000001,0 -123.55583380000007,48.52510680000001,0 -123.56025160000006,48.52883650000001,0 -123.56067650000007,48.5295837,0 -123.56080200000007,48.5303516,0 -123.55961180000007,48.5336663,0 -123.55964300000007,48.534323300000004,0 -123.56118370000006,48.5381737,0 -123.56504140000006,48.5419188,0 -123.56522870000005,48.5427227,0 -123.56457190000003,48.545383900000004,0 -123.56475530000004,48.5467055,0 -123.56525870000003,48.5474776,0 -123.56797630000003,48.549728,0 -123.57182680000003,48.5546857,0 -123.57215920000003,48.5558386,0 -123.57199360000003,48.5566367,0 -123.56980240000001,48.5607664,0 -123.56936660000002,48.5612453,0 -123.56072950000002,48.5667871,0 -123.55961060000003,48.56729959999999,0 -123.55749120000002,48.567799099999995,0 -123.55121930000003,48.56817099999999,0 -123.54657810000003,48.5675691,0 -123.54359310000004,48.5676529,0 -123.53015400000002,48.571063,0 -123.52825630000002,48.5721477,0 -123.52762970000002,48.5727648,0 -123.52691030000001,48.5741398,0 -123.52680950000001,48.5750642,0 -123.52706110000003,48.576192500000005,0 -123.53074330000003,48.5808048,0 -123.53084040000003,48.5817499,0 -123.52989880000004,48.5844205,0 -123.52996040000004,48.5849007,0 -123.53178040000003,48.588595299999994,0 -123.53185980000003,48.591764299999994,0 -123.53209750000003,48.59234339999999,0 -123.53387990000003,48.594218399999995,0 -123.53413360000002,48.59488009999999,0 -123.53392500000002,48.59814299999999,0 -123.53797850000004,48.60932589999999,0 -123.54573420000003,48.62162509999999,0 -123.54843130000002,48.62861549999999,0 -123.54895180000003,48.63214679999999,0 -123.55117620000004,48.63849299999998,0 -123.55901870000004,48.648711599999984,0 -123.55956840000003,48.65010419999999,0 -123.56084920000005,48.65749119999999,0 -123.55952760000005,48.661777499999985,0 -123.55947160000005,48.66647659999998,0 -123.56029430000007,48.66956049999999,0 -123.56308090000007,48.67444349999999,0 -123.56500820000008,48.67657889999999,0 -123.60752530000008,48.70770179999999,0 -123.60830980000009,48.708672499999984,0 -123.60990600000008,48.71199549999998,0 -123.60964410000008,48.714289399999984,0 -123.60988690000009,48.715103099999986,0 -123.61032570000009,48.715729299999985,0 -123.6113316000001,48.716494199999985,0 -123.61530720000012,48.71816059999998,0 -123.61673570000012,48.71845779999999,0 -123.61955370000013,48.718657499999985,0 -123.63123130000012,48.72042579999999,0 -123.63282480000012,48.72109919999999,0 -123.63363770000014,48.72180659999999,0 -123.63555340000013,48.724470099999984,0 -123.64057410000012,48.729836699999986,0 -123.64999150000013,48.73694079999999,0 -123.67137800000012,48.750417699999986,0 -123.67190110000013,48.75091429999999,0 -123.67234390000013,48.751676999999994,0 -123.67266120000012,48.753511499999995,0 -123.67311050000012,48.75425859999999,0 -123.67420350000012,48.75515169999999,0 -123.6881644000001,48.76117599999999,0 -123.6970653000001,48.7659063,0 -123.6980483000001,48.7669132,0 -123.69866120000012,48.7682152,0 -123.6988568000001,48.7750962,0 -123.69878310000011,48.7751653,0 -123.69883510000011,48.7809461,0 -123.69877830000011,48.7810072,0 -123.6992204000001,48.782412699999995,0 -123.69970190000011,48.782965,0 -123.7090641000001,48.788290599999996,0 -123.7105541000001,48.78946659999999,0 -123.71327390000009,48.792981299999994,0 -123.71397930000009,48.79525269999999,0 -123.71622560000009,48.799029299999994,0 -123.71652070000007,48.799932999999996,0 -123.71638660000009,48.8049706,0 -123.7180093000001,48.81359249999999,0 -123.71804310000012,48.842574799999994,0 -123.71844170000011,48.84420079999999,0 -123.71946540000013,48.84587949999999,0 -123.72233060000013,48.84881069999999,0 -123.72272130000013,48.84943729999999,0 -123.72289930000012,48.85022769999999,0 -123.72266330000014,48.85121929999999,0 -123.72224020000014,48.851829999999985,0 -123.71877610000013,48.85491949999999,0 -123.71804630000014,48.85583259999999,0 -123.71582390000015,48.86035209999999,0 -123.71165750000014,48.86568659999999,0 -123.71114480000014,48.86686449999999,0 -123.71091230000016,48.87015869999999,0 -123.71054930000014,48.87090159999999,0 -123.70799880000014,48.87344929999999,0 -123.70227590000013,48.88107979999999,0 -123.70186650000014,48.88215389999999,0 -123.70178570000014,48.883202699999984,0 -123.70213350000014,48.884545999999986,0 -123.70332010000014,48.88667899999999,0 -123.70452620000015,48.88805319999999,0 -123.71089580000016,48.89268819999999,0 -123.72156630000015,48.90311649999999,0 -123.72611210000014,48.906431199999986,0 -123.72849190000014,48.90765099999999,0 -123.73719510000014,48.91005099999998,0 -123.73900110000014,48.91085239999998,0 -123.74169400000012,48.912637199999985,0 -123.74850380000014,48.91900719999998,0 -123.74994560000013,48.92181519999998,0 -123.75058770000012,48.92590859999998,0 -123.75194570000014,48.92786609999998,0 -123.77671860000012,48.94923659999998,0 -123.77778190000012,48.95090189999998,0 -123.78043560000012,48.96080359999998,0 -123.78150250000012,48.96238199999998,0 -123.78264260000012,48.96351689999997,0 -123.8003296000001,48.97585119999997,0 -123.80469890000009,48.98031729999997,0 -123.80516850000011,48.981279099999966,0 -123.80530890000011,48.983084799999965,0 -123.80557080000011,48.98369999999996,0 -123.80614720000011,48.98438989999996,0 -123.8086957000001,48.986499499999965,0 -123.8092615000001,48.98723159999996,0 -123.8105366000001,48.990220399999956,0 -123.81192370000012,48.99152599999996,0 -123.82083040000012,48.997529599999964,0 -123.82229270000012,48.99813939999996,0 -123.82673980000013,48.999264799999956,0 -123.82845150000013,48.99999049999996,0 -123.83296390000012,49.003531999999964,0 -123.83372370000014,49.004373599999965,0 -123.83486450000015,49.007665899999964,0 -123.83579760000015,49.00865689999996,0 -123.83648700000013,49.009121499999964,0 -123.84109200000013,49.011312899999965,0 -123.85354190000012,49.01516479999996,0 -123.85549330000012,49.01604239999996,0 -123.8569868000001,49.01705969999996,0 -123.8602029000001,49.02062749999996,0 -123.8606441000001,49.02184469999996,0 -123.8606195000001,49.02377389999996,0 -123.8609684000001,49.02500839999996,0 -123.86390450000012,49.02893619999997,0 -123.86408280000012,49.03007619999996,0 -123.86299910000014,49.03330419999997,0 -123.86289900000013,49.03474829999997,0 -123.86329480000012,49.036101999999964,0 -123.8645656000001,49.03785049999996,0 -123.87657460000011,49.04838569999996,0 -123.87706300000012,49.04899919999996,0 -123.87736600000012,49.04979099999996,0 -123.87758940000013,49.06036849999997,0 -123.87698720000012,49.065276899999965,0 -123.87777590000012,49.066911299999965,0 -123.87954310000013,49.06884029999997,0 -123.88086970000012,49.07151509999997,0 -123.88341340000011,49.08861669999997,0 -123.8847468000001,49.09206599999997,0 -123.8927070000001,49.10287019999997,0 -123.89508220000009,49.105323199999965,0 -123.9127564000001,49.119192199999965,0 -123.91367260000011,49.12047439999997,0 -123.9141313000001,49.12266109999997,0 -123.91486000000009,49.12374309999997,0 -123.9158209000001,49.12434989999997,0 -123.9173306000001,49.12475729999996,0 -123.9234328000001,49.12478569999997,0 -123.92618130000008,49.12551109999997,0 -123.92725920000008,49.126105499999966,0 -123.92794440000009,49.12669309999997,0 -123.93126590000007,49.13200299999997,0 -123.93281600000007,49.133429799999966,0 -123.93508250000006,49.13466849999997,0 -123.93725140000006,49.13529739999996,0 -123.94033250000005,49.13556889999997,0 -123.94701600000006,49.13489899999997,0 -123.94849730000006,49.134931499999965,0 -123.95038230000006,49.13520929999997,0 -123.95269090000006,49.13596689999997,0 -123.95741630000005,49.13910539999997,0 -123.96913750000006,49.14404539999997,0 -123.97091060000007,49.145267799999964,0 -123.97183850000008,49.14636459999996,0 -123.97249970000007,49.148238799999966,0 -123.97183250000006,49.15411359999996,0 -123.97043450000005,49.15818149999996,0 -123.97048030000006,49.15950739999996,0 -123.97122400000005,49.16111499999996,0 -123.97212930000006,49.16207969999996,0 -123.97321310000005,49.16284099999996,0 -123.97834770000006,49.16506949999996,0 -123.98011910000005,49.16619809999996,0 -123.98111660000005,49.16721689999996,0 -123.98185300000004,49.16841479999996,0 -123.98255490000005,49.17275549999996,0 -123.98343740000004,49.17551739999996,0 -123.98768890000005,49.182718499999964,0 -123.98893710000004,49.18398569999996,0 -123.99093050000005,49.18517809999996,0 -123.99188130000005,49.18555739999996,0 -124.00194010000006,49.18825529999996,0 -124.00929630000006,49.19133369999996,0 -124.02221390000005,49.19543499999996,0 -124.02427560000004,49.196395799999955,0 -124.02633700000004,49.19793159999996,0 -124.02752910000004,49.199404299999955,0 -124.02925850000005,49.20286439999996,0 -124.03061210000004,49.20423349999996,0 -124.03221410000005,49.20515759999996,0 -124.03888520000004,49.20719049999996,0 -124.04051190000004,49.20804449999996,0 -124.04201390000004,49.20931989999996,0 -124.04301760000006,49.21092549999996,0 -124.04423780000006,49.21855679999996,0 -124.04505850000005,49.22026419999995,0 -124.04591150000005,49.221212899999955,0 -124.04994980000005,49.22394869999996,0 -124.05097100000006,49.22500909999995,0 -124.05143170000007,49.22601659999996,0 -124.05154300000007,49.23253789999996,0 -124.05238920000008,49.234380899999955,0 -124.05320700000009,49.23549029999996,0 -124.05447910000007,49.236682799999954,0 -124.06174900000006,49.241759199999954,0 -124.06381780000005,49.242603799999955,0 -124.06692520000007,49.243347899999954,0 -124.07756430000008,49.24404209999995,0 -124.08093940000008,49.244706899999954,0 -124.0964327000001,49.249980899999954,0 -124.09880940000008,49.250420499999954,0 -124.1044683000001,49.250758599999955,0 -124.11170830000009,49.25206509999995,0 -124.1138606000001,49.252228199999955,0 -124.1301324000001,49.251742899999954,0 -124.13162900000009,49.25154039999995,0 -124.13780850000009,49.249490799999954,0 -124.13904080000009,49.24935319999995,0 -124.14070570000008,49.249501199999955,0 -124.1451878000001,49.25100549999995,0 -124.1510711000001,49.25185079999995,0 -124.1549696000001,49.252763899999955,0 -124.15979140000012,49.252575999999955,0 -124.16997700000013,49.253183399999955,0 -124.18161850000011,49.25636719999995,0 -124.19024100000013,49.260342899999955,0 -124.19526150000011,49.261172799999954,0 -124.19649770000011,49.26168399999995,0 -124.19854550000012,49.26324089999996,0 -124.20001220000013,49.263648199999956,0 -124.20311110000011,49.26370989999995,0 -124.20970890000014,49.264838599999955,0 -124.21381670000012,49.26510339999996,0 -124.21867300000012,49.265908099999955,0 -124.22919830000014,49.269209799999956,0 -124.23302810000014,49.27101089999996,0 -124.24875320000014,49.28277499999996,0 -124.24923360000014,49.28339949999996,0 -124.25014340000013,49.28609429999996,0 -124.25104910000013,49.287444299999954,0 -124.25395060000014,49.28982519999996,0 -124.25514920000013,49.29171929999996,0 -124.25558240000014,49.29762829999996,0 -124.25658550000013,49.29982999999996,0 -124.25751040000013,49.300740499999954,0 -124.25860290000013,49.30142589999996,0 -124.26083430000014,49.30228599999996,0 -124.26297150000013,49.30270009999996,0 -124.26611610000015,49.302724299999966,0 -124.26787420000015,49.30243769999996,0 -124.27820040000016,49.29898559999996,0 -124.28075600000014,49.29870349999996,0 -124.28264570000015,49.29878739999996,0 -124.31649340000014,49.30463099999996,0 -124.33350910000016,49.30669299999996,0 -124.33626920000016,49.307486599999955,0 -124.34548960000016,49.31198019999996,0 -124.34727940000018,49.31256699999995,0 -124.36644160000016,49.31606309999995,0 -124.40214320000017,49.31919639999995,0 -124.40453650000016,49.319695199999956,0 -124.40792210000015,49.32080309999995,0 -124.41680500000017,49.32485749999995,0 -124.41941270000015,49.32553259999995,0 -124.42335860000016,49.326011199999954,0 -124.42642910000015,49.32601159999995,0 -124.44294680000014,49.32473599999995,0 -124.44353760000016,49.32484309999995,0 -124.44388620000014,49.325037199999954,0 -124.44412840000015,49.325330999999956,0 -124.44415060000016,49.32568949999996,0 -124.44389900000014,49.32605379999996,0 -124.44356870000014,49.32623849999996,0 -124.44305000000014,49.326355599999964,0 -124.44242960000015,49.32628619999996,0 -124.44201370000015,49.32608909999996,0 -124.44176430000014,49.32583569999996,0 -124.44145500000015,49.32513749999996,0 -124.44164260000014,49.32233449999996,0 -124.44245180000013,49.32044979999996,0 -124.44886560000012,49.31271999999996,0 -124.44985770000012,49.310668799999966,0 -124.44998740000014,49.30588189999997,0 -124.45024240000012,49.305206299999966,0 -124.45069250000013,49.30470329999997,0 -124.45178060000012,49.30408019999997,0 -124.45561260000014,49.30340999999997,0 -124.45815550000015,49.30341059999997,0 -124.46539140000013,49.30453899999997,0 -124.47117060000012,49.30591319999997,0 -124.47794080000013,49.30656329999997,0 -124.48645860000012,49.306422999999974,0 -124.48824720000013,49.30657249999997,0 -124.48912220000012,49.306790199999966,0 -124.49609460000013,49.309882599999966,0 -124.50428160000014,49.311578299999965,0 -124.51106510000012,49.31247609999996,0 -124.52450370000012,49.31079679999997,0 -124.52540510000011,49.31078679999997,0 -124.52931290000012,49.311232299999965,0 -124.5382940000001,49.30957709999996,0 -124.5413374000001,49.30840699999997,0 -124.54386590000011,49.30796809999996,0 -124.54850540000012,49.30542959999997,0 -124.54997910000013,49.305000699999965,0 -124.55448590000012,49.30277309999996,0 -124.55584130000013,49.301428599999966,0 -124.55766900000013,49.300406999999964,0 -124.55829180000013,49.29985839999997,0 -124.55949220000014,49.297688099999974,0 -124.56231780000014,49.295518099999974,0 -124.56580940000015,49.29396989999997,0 -124.56714780000014,49.29364589999997,0 -124.57164060000015,49.29325579999997,0 -124.57371390000014,49.29262099999997,0 -124.57494230000016,49.291812199999974,0 -124.57770980000015,49.28918819999997,0 -124.57830310000014,49.28888399999997,0 -124.57943860000015,49.28861729999997,0 -124.58214100000014,49.288829999999976,0 -124.58393390000012,49.28865829999997,0 -124.58497420000013,49.28835419999998,0 -124.58779860000013,49.286203799999974,0 -124.59072370000013,49.285470599999975,0 -124.59121330000015,49.285460899999975,0 -124.59288310000014,49.28577009999998,0 -124.59595390000014,49.28738069999998,0 -124.59664320000014,49.28752769999998,0 -124.59848840000014,49.28743359999998,0 -124.60001910000014,49.286996099999975,0 -124.60072220000013,49.28691969999998,0 -124.60204140000013,49.28703499999998,0 -124.60390540000013,49.287780799999986,0 -124.60643310000013,49.28811369999998,0 -124.60864330000014,49.288781499999985,0 -124.61092820000013,49.288966999999985,0 -124.61207000000013,49.28866689999999,0 -124.61353840000012,49.28853209999999,0 -124.61609260000012,49.287995899999984,0 -124.61655910000012,49.28806679999999,0 -124.6170379000001,49.288284099999984,0 -124.6183217000001,49.28932419999999,0 -124.6189540000001,49.28954799999999,0 -124.6215929000001,49.289713699999986,0 -124.6225222000001,49.28963879999999,0 -124.62949890000012,49.28797139999999,0 -124.63163060000011,49.28796129999999,0 -124.6333486000001,49.28842069999999,0 -124.63965950000009,49.2890993,0 -124.6414000000001,49.289110199999996,0 -124.64428350000009,49.28984349999999,0 -124.64637670000009,49.28986259999999,0 -124.65160380000009,49.290462,0 -124.65295170000009,49.290346199999995,0 -124.65522030000008,49.290959599999994,0 -124.66069300000008,49.29154389999999,0 -124.66405240000006,49.2909527,0 -124.66801000000008,49.2893778,0 -124.67240660000007,49.28486279999999,0 -124.67509070000007,49.282934899999994,0 -124.67543010000007,49.28230409999999,0 -124.67551290000007,49.28144449999999,0 -124.67490590000007,49.27837999999999,0 -124.67484530000007,49.273993499999996,0 -124.67565400000007,49.271001399999996,0 -124.67495240000007,49.2694523,0 -124.67371310000006,49.2681299,0 -124.67350740000005,49.267340999999995,0 -124.67389260000004,49.2652965,0 -124.67091860000004,49.260004,0 -124.66902930000003,49.258813599999996,0 -124.66632400000003,49.25630569999999,0 -124.66517580000001,49.2546694,0 -124.66254810000002,49.25293049999999,0 -124.66218130000003,49.2520774,0 -124.66096190000002,49.251294599999994,0 -124.66055510000001,49.25081729999999,0 -124.6609119,49.24847459999999,0 -124.66139600000001,49.24790609999999,0 -124.66199160000001,49.24767639999998,0 -124.6627511,49.247685899999986,0 -124.66812110000001,49.24887959999999,0 -124.67077050000002,49.248895699999984,0 -124.67329360000001,49.248463999999984,0 -124.67679210000001,49.247529499999985,0 -124.67904050000001,49.24749269999999,0 -124.6842349,49.24595989999999,0 -124.68554520000002,49.24574589999999,0 -124.68676220000002,49.24585839999999,0 -124.69426990000002,49.24898389999999,0 -124.69660260000002,49.24963059999999,0 -124.7057104,49.251059899999994,0 -124.70700070000001,49.251540199999994,0 -124.7083185,49.25251499999999,0 -124.7116532,49.25737299999999,0 -124.7120093,49.26005209999999,0 -124.7148711,49.26454279999999,0 -124.7154828,49.26482219999999,0 -124.72253380000001,49.26511219999999,0 -124.7232741,49.26504149999999,0 -124.72549339999999,49.26414109999999,0 -124.72702209999999,49.263797199999985,0 -124.72814039999999,49.26377979999999,0 -124.7288992,49.263901699999984,0 -124.73035030000001,49.26449659999999,0 -124.7308393,49.26485699999999,0 -124.73188820000001,49.26612619999999,0 -124.73258200000001,49.26648579999999,0 -124.7332844,49.266665999999994,0 -124.7356299,49.26654559999999,0 -124.73763190000001,49.26588689999999,0 -124.74357090000001,49.264811099999996,0 -124.74449249999999,49.26481449999999,0 -124.7466896,49.2657056,0 -124.74742320000001,49.2658086,0 -124.74865300000002,49.265768599999994,0 -124.75675260000001,49.2644128,0 -124.75789790000002,49.264385,0 -124.75872260000003,49.2645027,0 -124.76535900000002,49.2663667,0 -124.77777090000002,49.2665111,0 -124.78080260000003,49.2660807,0 -124.78546430000002,49.2661867,0 -124.78883170000002,49.265750499999996,0 -124.80079360000002,49.2624281,0 -124.81359380000002,49.2574503,0 -124.81533100000001,49.2590606,0 -124.81629830000001,49.2595367,0 -124.8265082,49.2608579,0 -124.83489229999999,49.2626558,0 -124.83776629999998,49.2636867,0 -124.84203209999998,49.2658173,0 -124.84434569999999,49.2675119,0 -124.84542129999997,49.2678696,0 -124.84860519999997,49.268131399999994,0 -124.85011639999996,49.267130099999996,0 -124.85171229999996,49.26660029999999,0 -124.85306409999997,49.266574999999996,0 -124.85364199999997,49.2666688,0 -124.85433639999995,49.2670855,0 -124.85612579999994,49.268995499999996,0 -124.86058679999995,49.2692273,0 -124.86424939999995,49.2688575,0 -124.87080599999994,49.2696971,0 -124.87140459999996,49.2699031,0 -124.87245799999997,49.2706224,0 -124.87458839999996,49.273155200000005,0 -124.87499849999995,49.273421400000004,0 -124.88691739999996,49.2783312,0 -124.88981649999997,49.2803363,0 -124.89344089999996,49.282038299999996,0 -124.89376009999997,49.2823313,0 -124.89623689999998,49.2865764,0 -124.89682439999997,49.2872431,0 -124.89775719999997,49.2878458,0 -124.89953939999997,49.2885284,0 -124.90266409999997,49.2891803,0 -124.90388909999997,49.289729699999995,0 -124.90817539999996,49.29287269999999,0 -124.90896399999997,49.293274999999994,0 -124.90973029999996,49.29345699999999,0 -124.91689579999996,49.29338129999999,0 -124.91880809999995,49.293027999999985,0 -124.92012999999994,49.29297249999998,0 -124.92281249999995,49.29342759999999,0 -124.92418789999996,49.294121799999985,0 -124.92599589999996,49.29596449999998,0 -124.92663229999998,49.296258999999985,0 -124.92775009999997,49.29633459999998,0 -124.93316179999998,49.29517499999998,0 -124.93530969999998,49.29510599999998,0 -124.94429839999998,49.29576569999998,0 -124.94651119999997,49.29563469999998,0 -124.94815959999997,49.29529759999998,0 -124.94981209999997,49.294722799999974,0 -124.95680709999998,49.29103739999998,0 -124.96925689999998,49.28674089999998,0 -124.97021569999998,49.28660589999998,0 -124.97445969999997,49.28655809999998,0 -124.97565109999996,49.28640839999998,0 -124.97638899999995,49.286192999999976,0 -124.97708049999996,49.28582779999998,0 -124.97989849999995,49.28364069999998,0 -124.98751999999995,49.28011099999998,0 -124.98874939999995,49.27982919999997,0 -124.99066039999994,49.27985149999997,0 -124.99811159999993,49.28143359999997,0 -125.00100229999993,49.28251679999997,0 -125.00934859999991,49.283865199999966,0 -125.01744059999993,49.28357319999997,0 -125.01897609999993,49.28300339999997,0 -125.02131159999993,49.280964999999966,0 -125.02246309999995,49.28033109999996,0 -125.02463379999995,49.27970899999996,0 -125.02620659999992,49.27957579999996,0 -125.03207719999992,49.27964559999997,0 -125.03353319999992,49.27921699999997,0 -125.03975759999993,49.274556899999965,0 -125.04057649999993,49.27427379999997,0 -125.04197769999992,49.27408309999997,0 -125.04565259999993,49.274507699999965,0 -125.04874609999993,49.27457359999997,0 -125.05134959999994,49.27490559999997,0 -125.05309909999994,49.27536419999997,0 -125.05664909999993,49.276865599999965,0 -125.06213149999992,49.27860409999996,0 -125.07068449999993,49.28000809999996,0 -125.07248449999992,49.27998309999996,0 -125.07718649999991,49.27936409999997,0 -125.0862812999999,49.28041559999996,0 -125.0976547999999,49.28348249999996,0 -125.09917559999988,49.28360089999996,0 -125.10514679999987,49.283427899999964,0 -125.11063159999986,49.28190819999996,0 -125.11182949999987,49.281320599999965,0 -125.11368659999988,49.279661199999964,0 -125.11459719999988,49.279199299999966,0 -125.11618249999988,49.27883299999996,0 -125.11744039999988,49.278836199999965,0 -125.11967649999988,49.27915999999997,0 -125.12082439999989,49.279176599999964,0 -125.1234694999999,49.27886329999997,0 -125.1269441999999,49.27916379999997,0 -125.12823179999991,49.27898339999997,0 -125.1306191999999,49.27827749999997,0 -125.1313755999999,49.27816849999997,0 -125.13276999999991,49.278212599999975,0 -125.13583679999991,49.278834499999974,0 -125.1396159999999,49.27902429999997,0 -125.14495809999991,49.28020159999997,0 -125.1468208999999,49.28024329999997,0 -125.1478012999999,49.28013449999997,0 -125.15166509999989,49.27920819999997,0 -125.1651339999999,49.27838279999997,0 -125.16926429999988,49.27856999999997,0 -125.17040689999988,49.278771199999966,0 -125.17410329999989,49.280027199999964,0 -125.17752739999987,49.28066619999996,0 -125.1790400999999,49.28133669999996,0 -125.17991669999988,49.28197639999996,0 -125.18258289999989,49.284800999999966,0 -125.18371339999989,49.285431399999965,0 -125.19214479999988,49.28888109999997,0 -125.19342909999989,49.28901539999997,0 -125.2039366999999,49.28879449999997,0 -125.2102036999999,49.29002079999997,0 -125.2117057999999,49.290102499999975,0 -125.21548009999991,49.289892699999974,0 -125.2170470999999,49.29004199999997,0 -125.22014809999989,49.29068479999997,0 -125.2214182999999,49.29080179999997,0 -125.2233767999999,49.29064759999997,0 -125.2322469999999,49.28883139999997,0 -125.23352409999991,49.288784199999974,0 -125.2602846999999,49.29353999999997,0 -125.26393189999989,49.29378789999998,0 -125.2663468999999,49.29466739999997,0 -125.27252779999989,49.29519739999998,0 -125.28218799999989,49.29706709999998,0 -125.2847152999999,49.297279099999976,0 -125.29192149999989,49.29902259999997,0 -125.2927748999999,49.299015499999975,0 -125.2941258999999,49.29857509999997,0 -125.29483549999989,49.298129599999974,0 -125.29615619999987,49.29554829999997,0 -125.29685149999987,49.29486679999997,0 -125.30095959999989,49.292699299999974,0 -125.30196109999989,49.29245939999998,0 -125.31252639999987,49.29128239999998,0 -125.32366959999987,49.29193199999998,0 -125.32805489999988,49.292452499999975,0 -125.3307042999999,49.292214199999975,0 -125.33495549999991,49.29123479999998,0 -125.3422714999999,49.29069609999998,0 -125.3429808999999,49.29045479999998,0 -125.3435631999999,49.290042299999975,0 -125.3448774999999,49.28858049999997,0 -125.34576109999989,49.286730499999976,0 -125.3460281999999,49.28649179999998,0 -125.3478978999999,49.28560539999997,0 -125.34819399999989,49.28526769999997,0 -125.3482161999999,49.28482159999997,0 -125.34769709999992,49.28381439999997,0 -125.34771589999991,49.28353189999997,0 -125.34788959999993,49.28326919999997,0 -125.35127329999993,49.28150569999997,0 -125.35251179999993,49.28111189999997,0 -125.35820679999992,49.27837729999997,0 -125.35873709999993,49.27750809999997,0 -125.36041259999992,49.275761499999966,0 -125.36093639999991,49.275555399999966,0 -125.36291599999991,49.275318099999964,0 -125.36412339999993,49.274704099999965,0 -125.3644494999999,49.27437059999996,0 -125.36461489999992,49.27238299999996,0 -125.36445899999991,49.27154879999997,0 -125.3657993999999,49.269278099999966,0 -125.36719599999992,49.26558599999997,0 -125.36816099999992,49.26478299999997,0 -125.36969349999991,49.26421049999997,0 -125.3705710999999,49.26353109999997,0 -125.3708844999999,49.262721999999975,0 -125.3708577999999,49.26215139999997,0 -125.37021289999988,49.260511799999975,0 -125.3701519999999,49.259865999999974,0 -125.3707700999999,49.25830129999998,0 -125.37079329999992,49.25680149999997,0 -125.3712006999999,49.25617559999997,0 -125.3712681999999,49.255809399999976,0 -125.37100509999992,49.254671199999976,0 -125.37106149999993,49.25370959999997,0 -125.37049749999993,49.25215229999998,0 -125.36976819999992,49.251083799999975,0 -125.36962729999993,49.250460599999975,0 -125.36996969999993,49.24951849999997,0 -125.37066689999993,49.24886799999997,0 -125.37085619999993,49.24853069999997,0 -125.37074389999992,49.246605099999975,0 -125.37029539999992,49.24591279999997,0 -125.36914629999991,49.245010899999976,0 -125.36569979999992,49.24320169999997,0 -125.3646876999999,49.242874799999974,0 -125.36263299999992,49.242576999999976,0 -125.36039949999993,49.242543499999975,0 -125.35992409999992,49.242457199999976,0 -125.35935759999992,49.242184199999976,0 -125.35607859999993,49.23869099999998,0 -125.35583509999994,49.23818899999998,0 -125.35601459999994,49.23748649999998,0 -125.35882669999994,49.233670199999985,0 -125.35892129999993,49.23205699999998,0 -125.35930979999993,49.23073729999999,0 -125.35970429999993,49.23020109999998,0 -125.36303199999995,49.227845999999985,0 -125.36363739999993,49.22715389999998,0 -125.36510379999994,49.22249369999999,0 -125.36573429999996,49.22199029999999,0 -125.36858269999996,49.22069279999999,0 -125.37020629999995,49.21843009999999,0 -125.37029169999995,49.21790269999999,0 -125.37012019999995,49.217333399999994,0 -125.36965599999995,49.216783899999996,0 -125.36750859999994,49.215579899999994,0 -125.36724529999995,49.21514319999999,0 -125.36721139999995,49.21472229999999,0 -125.36735379999993,49.2144061,0 -125.37243439999993,49.21036259999999,0 -125.37396239999994,49.208738299999986,0 -125.37562729999995,49.207919899999986,0 -125.37586219999993,49.20759979999999,0 -125.37586889999994,49.2072575,0 -125.37508289999994,49.205374299999995,0 -125.37512569999993,49.2050045,0 -125.37534979999992,49.204681,0 -125.37770369999993,49.203004199999995,0 -125.37862469999993,49.201375299999995,0 -125.37927499999992,49.200751999999994,0 -125.3811746999999,49.199551199999995,0 -125.38387499999992,49.1987257,0 -125.38991639999992,49.1945073,0 -125.39216979999992,49.193499,0 -125.39337489999993,49.193277800000004,0 -125.39680809999993,49.1933197,0 -125.39840289999994,49.19301620000001,0 -125.40129229999992,49.19191150000001,0 -125.40235199999992,49.19108310000001,0 -125.40284399999993,49.190124700000005,0 -125.40248579999992,49.187426200000004,0 -125.40218889999991,49.1869122,0 -125.40013319999993,49.185125299999996,0 -125.39761599999993,49.183516499999996,0 -125.39731019999994,49.183186,0 -125.39714389999995,49.182744899999996,0 -125.39720059999995,49.180003799999994,0 -125.39565219999994,49.17820209999999,0 -125.39566189999994,49.17791999999999,0 -125.39968709999994,49.16987039999999,0 -125.40098669999995,49.168393099999996,0 -125.40373739999994,49.166421199999995,0 -125.40671619999995,49.1654863,0 -125.41201409999995,49.1618025,0 -125.41249299999994,49.16159629999999,0 -125.41418869999994,49.1612857,0 -125.41802569999994,49.1596715,0 -125.41932379999993,49.1592978,0 -125.41990089999993,49.1589847,0 -125.42060249999993,49.156891699999996,0 -125.42134299999992,49.155847099999995,0 -125.42108009999993,49.1531851,0 -125.42154329999993,49.1514696,0 -125.42174929999992,49.151162199999995,0 -125.42233909999992,49.150816999999996,0 -125.4224898999999,49.15055369999999,0 -125.4224709999999,49.15022079999999,0 -125.42153659999991,49.148725299999995,0 -125.41830529999991,49.14576449999999,0 -125.41799539999991,49.14528329999999,0 -125.4178310999999,49.14448439999999,0 -125.4186128999999,49.13872109999999,0 -125.41652619999991,49.135292599999985,0 -125.4161902999999,49.13415819999999,0 -125.41662869999989,49.13124319999999,0 -125.41703999999989,49.13078699999999,0 -125.41838879999987,49.12994439999999,0 -125.41915549999989,49.12964369999999,0 -125.42016629999989,49.129481799999986,0 -125.42313719999989,49.12942499999999,0 -125.42724259999989,49.12893419999999,0 -125.42781419999989,49.12840829999999,0 -125.42772789999988,49.128134999999986,0 -125.42567499999988,49.126172399999994,0 -125.42502689999989,49.12481479999999,0 -125.4249623999999,49.12406749999999,0 -125.4254950999999,49.122300999999986,0 -125.42596519999991,49.12193239999999,0 -125.4279957999999,49.12104209999999,0 -125.4287405999999,49.12086329999999,0 -125.4314650999999,49.12106439999999,0 -125.43234049999988,49.12095559999998,0 -125.43561659999989,49.119575699999984,0 -125.43581979999989,49.11925309999998,0 -125.43559499999989,49.118647799999984,0 -125.43611879999989,49.11732329999998,0 -125.43651739999989,49.11702189999998,0 -125.4372443999999,49.11676019999998,0 -125.4386433999999,49.11656989999998,0 -125.4399755999999,49.11616519999998,0 -125.4401987999999,49.115985399999985,0 -125.44029429999992,49.11551609999999,0 -125.43998049999992,49.11511299999999,0 -125.43941379999991,49.11479379999999,0 -125.43775639999991,49.11452299999999,0 -125.4371684999999,49.11407159999999,0 -125.43690799999989,49.11364299999999,0 -125.4369470999999,49.11335479999999,0 -125.43730159999988,49.11305159999999,0 -125.43762179999987,49.11295769999999,0 -125.43818749999988,49.11302139999999,0 -125.44451609999987,49.11500449999999,0 -125.44514039999987,49.11503259999999,0 -125.44886339999985,49.11429109999999,0 -125.44959369999987,49.11426029999999,0 -125.44994169999987,49.11405939999999,0 -125.44999619999986,49.11378039999999,0 -125.44951559999986,49.11314939999998,0 -125.44948509999985,49.112879499999984,0 -125.44956819999985,49.11275959999998,0 -125.45019269999983,49.11245189999998,0 -125.45075079999982,49.11236749999998,0 -125.45226569999981,49.11250429999998,0 -125.45259339999981,49.11243599999998,0 -125.45296409999982,49.11220849999998,0 -125.45311319999982,49.111938099999975,0 -125.45288539999983,49.111019999999975,0 -125.45305099999983,49.11052119999997,0 -125.45413459999983,49.10958609999997,0 -125.45439959999983,49.10852319999997,0 -125.45697689999984,49.10673439999998,0 -125.45709419999983,49.106518699999974,0 -125.45704579999983,49.106245799999975,0 -125.45380689999982,49.10392519999998,0 -125.45346259999981,49.10340069999997,0 -125.45261959999982,49.100662399999976,0 -125.45171959999982,49.09930919999997,0 -125.45094829999984,49.09670869999997,0 -125.45112999999982,49.09612609999997,0 -125.45229579999983,49.09488759999997,0 -125.45235509999982,49.09458599999997,0 -125.45208139999983,49.09380219999997,0 -125.45216639999984,49.092990199999974,0 -125.45275189999985,49.091807699999976,0 -125.45287939999986,49.09052349999997,0 -125.45301869999986,49.09037139999997,0 -125.45404929999985,49.09003469999997,0 -125.45446389999985,49.09006269999997,0 -125.45599739999984,49.09056819999997,0 -125.45628449999984,49.09049539999997,0 -125.45653449999983,49.09027999999997,0 -125.45797269999984,49.08575979999997,0 -125.45693309999984,49.08335989999997,0 -125.45705809999984,49.08287179999997,0 -125.45752669999986,49.08244929999997,0 -125.45810149999984,49.08231869999997,0 -125.45912639999985,49.08233289999997,0 -125.46048849999984,49.081664099999976,0 -125.46117269999985,49.081606299999976,0 -125.46146309999983,49.081656599999974,0 -125.46399509999985,49.082943999999976,0 -125.46435729999985,49.08295649999997,0 -125.46458279999983,49.08288079999997,0 -125.46485209999983,49.08259459999997,0 -125.46505409999983,49.07962639999997,0 -125.46537469999984,49.07911999999997,0 -125.46560789999984,49.07895289999997,0 -125.46669859999984,49.07853689999997,0 -125.46690379999983,49.07836629999997,0 -125.46734469999983,49.07749919999997,0 -125.46892049999983,49.076864799999974,0 -125.46937989999982,49.076449599999975,0 -125.46937189999981,49.07623419999997,0 -125.46874569999981,49.07560919999997,0 -125.46856989999982,49.075136599999965,0 -125.46873879999984,49.07424449999996,0 -125.46864569999983,49.073593399999965,0 -125.46800219999982,49.07279949999997,0 -125.4677359999998,49.07198239999997,0 -125.4679980999998,49.07141189999997,0 -125.4676420999998,49.07013629999997,0 -125.46726899999979,49.06973209999997,0 -125.4671694999998,49.068917999999975,0 -125.46735329999979,49.068349599999976,0 -125.46716199999977,49.067646599999975,0 -125.46752529999978,49.06575779999997,0 -125.46824669999977,49.06482989999997,0 -125.46875849999977,49.06448809999997,0 -125.47411959999977,49.06257649999997,0 -125.47472129999976,49.062160499999976,0 -125.47604089999977,49.060743799999976,0 -125.47685979999979,49.05809739999997,0 -125.47904439999978,49.054722499999976,0 -125.47943589999979,49.05440049999997,0 -125.48098399999981,49.05385259999997,0 -125.48167529999981,49.05310429999997,0 -125.48194839999981,49.05238679999997,0 -125.4824362999998,49.051933999999974,0 -125.48801899999981,49.04988479999997,0 -125.48863679999981,49.04900839999997,0 -125.48907579999981,49.048725999999974,0 -125.49149569999982,49.04787149999997,0 -125.49203669999983,49.04778199999997,0 -125.49506629999983,49.04774299999997,0 -125.49688659999981,49.04738399999997,0 -125.49867939999982,49.04731819999997,0 -125.5026318999998,49.04644379999997,0 -125.5068090999998,49.04448849999997,0 -125.51439109999981,49.04293439999997,0 -125.51954609999981,49.04149879999997,0 -125.52909389999981,49.040417399999974,0 -125.53066589999982,49.039221499999975,0 -125.53121749999981,49.03896569999998,0 -125.53402499999982,49.03839959999998,0 -125.5370076999998,49.03690469999998,0 -125.54059589999981,49.035504799999984,0 -125.54094269999982,49.03525969999998,0 -125.54104589999982,49.03483079999998,0 -125.53874299999981,49.03174799999998,0 -125.53863619999981,49.03137689999998,0 -125.53937519999981,49.02861889999998,0 -125.54224999999981,49.024267199999976,0 -125.54626349999982,49.021489599999974,0 -125.54689729999981,49.02122909999998,0 -125.54793479999981,49.02105209999998,0 -125.55007389999982,49.020983899999976,0 -125.55109879999982,49.020704199999976,0 -125.55451489999982,49.01846619999998,0 -125.55505809999983,49.018254299999974,0 -125.56372389999981,49.01633569999998,0 -125.57008639999982,49.015314499999974,0 -125.57049659999981,49.01515039999998,0 -125.5718606999998,49.01380419999998,0 -125.5718870999998,49.01339589999998,0 -125.5715743999998,49.01307419999998,0 -125.5707535999998,49.01267309999998,0 -125.57047529999981,49.01241369999998,0 -125.57010449999981,49.01157079999998,0 -125.56847949999982,49.00952869999998,0 -125.56844729999983,49.00922799999998,0 -125.57126549999983,49.00581239999998,0 -125.57151969999984,49.00487519999999,0 -125.57243449999984,49.00410619999998,0 -125.57414009999985,49.003187899999986,0 -125.58173519999986,48.99660249999999,0 -125.58242149999987,48.99527339999999,0 -125.58275459999986,48.99503529999999,0 -125.58465209999987,48.99443699999999,0 -125.58663459999985,48.9928039,0 -125.58815989999985,48.99199589999999,0 -125.58770139999986,48.9916072,0 -125.58712399999985,48.979867199999994,0 -125.58733039999984,48.97928319999999,0 -125.59055279999986,48.97494869999999,0 </coordinates></LineString><TimeSpan><begin>2021-12-29T21:39:18.000Z</begin><end>2021-12-30T01:55:59.000Z</end></TimeSpan></Placemark><Placemark><name>Pacific Rim Cabins</name><address>Grant Ave, Ucluelet, BC V0R 3A0, Canada</address><ExtendedData><Data name="Email"><value>syugen.zhou@gmail.com</value></Data><Data name="Category"><value>Group accommodation</value></Data><Data name="Distance"><value>0</value></Data></ExtendedData><description> Group accommodation from 2021-12-30T01:55:59.000Z to 2021-12-30T19:38:20.000Z. Distance 0m </description><Point><coordinates>-125.5879755,48.974676599999995,0</coordinates></Point><TimeSpan><begin>2021-12-30T01:55:59.000Z</begin><end>2021-12-30T19:38:20.000Z</end></TimeSpan></Placemark></Document></kml>
