<?xml version="1.0" encoding="UTF-8"?><kml xmlns="http://www.opengis.net/kml/2.2" xmlns:gx="http://www.google.com/kml/ext/2.2"><Document><name> Location history from 2021-12-30 to 2021-12-30 </name><open>1</open><description></description><StyleMap id="multiTrack"><Pair><key>normal</key><styleUrl>#multiTrack_n</styleUrl></Pair><Pair><key>highlight</key><styleUrl>#multiTrack_h</styleUrl></Pair></StyleMap><Style id="multiTrack_n"><IconStyle><Icon><href>https://earth.google.com/images/kml-icons/track-directional/track-0.png</href></Icon></IconStyle><LineStyle><color>99ffac59</color><width>6</width></LineStyle></Style><Style id="multiTrack_h"><IconStyle><scale>1.2</scale><Icon><href>https://earth.google.com/images/kml-icons/track-directional/track-0.png</href></Icon></IconStyle><LineStyle><color>99ffac59</color><width>8</width></LineStyle></Style><Placemark><name>Pacific Rim Cabins</name><address>Grant Ave, Ucluelet, BC V0R 3A0, Canada</address><ExtendedData><Data name="Email"><value>syugen.zhou@gmail.com</value></Data><Data name="Category"><value>Group accommodation</value></Data><Data name="Distance"><value>0</value></Data></ExtendedData><description> Group accommodation from 2021-12-30T01:55:59.000Z to 2021-12-30T19:38:20.000Z. Distance 0m </description><Point><coordinates>-125.5879755,48.974676599999995,0</coordinates></Point><TimeSpan><begin>2021-12-30T01:55:59.000Z</begin><end>2021-12-30T19:38:20.000Z</end></TimeSpan></Placemark><Placemark><name>Driving</name><address></address><ExtendedData><Data name="Email"><value>syugen.zhou@gmail.com</value></Data><Data name="Category"><value>Driving</value></Data><Data name="Distance"><value>29013</value></Data></ExtendedData><description> Driving from 2021-12-30T19:38:20.936Z to 2021-12-30T20:10:37.000Z. Distance 29013m </description><LineString><altitudeMode>clampToGround</altitudeMode><extrude>1</extrude><tesselate>1</tesselate><coordinates>-125.5901112,48.9741396,0 -125.59085289999999,48.974511,0 -125.5873304,48.9792832,0 -125.587124,48.9798672,0 -125.58770140000001,48.991607200000004,0 -125.5878612,48.9917863,0 -125.60564820000002,49.0020426,0 -125.6091353,49.0042927,0 -125.61029640000001,49.0052128,0 -125.61105540000001,49.0056327,0 -125.61301550000003,49.006462000000006,0 -125.62320790000004,49.012244,0 -125.62632290000003,49.0137465,0 -125.63941420000005,49.021911700000004,0 -125.64727060000006,49.0266347,0 -125.66189430000004,49.0347927,0 -125.67416810000003,49.0421248,0 -125.67498400000004,49.042476300000004,0 -125.67605880000004,49.042656,0 -125.69295740000005,49.0425704,0 -125.69454530000004,49.0427703,0 -125.69580360000005,49.0431744,0 -125.69686700000004,49.0436503,0 -125.69868820000005,49.0449166,0 -125.71239620000004,49.0527658,0 -125.71833730000004,49.0569654,0 -125.72831320000006,49.06311470000001,0 -125.72966100000005,49.06367230000001,0 -125.73020000000004,49.063798500000004,0 -125.73602260000006,49.0641583,0 -125.73760080000005,49.064379800000005,0 -125.73940370000005,49.064796,0 -125.74054420000004,49.0652411,0 -125.74829140000004,49.06892860000001,0 -125.75126190000005,49.069879500000006,0 -125.75486260000004,49.07146470000001,0 -125.75611640000004,49.071835500000006,0 -125.75773480000005,49.07211190000001,0 -125.75908790000005,49.07254090000001,0 -125.76010170000004,49.0727325,0 -125.76793480000005,49.0728226,0 -125.76886920000004,49.072968100000004,0 -125.77376870000003,49.0731029,0 -125.78014320000004,49.072382000000005,0 -125.78061480000004,49.07240770000001,0 -125.78110400000003,49.072523800000006,0 -125.78150970000003,49.072726700000004,0 -125.78788700000003,49.077778200000004,0 -125.78838450000002,49.0783501,0 -125.78856020000002,49.078789300000004,0 -125.7886112,49.080679700000005,0 -125.78893570000001,49.081320000000005,0 -125.7894026,49.081780200000004,0 -125.7902896,49.0822219,0 -125.79131029999999,49.082439,0 -125.7936879,49.0823725,0 -125.79548569999999,49.0825179,0 -125.79800829999999,49.082311999999995,0 -125.80029479999999,49.0819043,0 -125.80083069999999,49.0818958,0 -125.8016838,49.082027499999995,0 -125.80221740000002,49.0822167,0 -125.8045941,49.083397,0 -125.80700010000001,49.085650799999996,0 -125.80746160000001,49.085970499999995,0 -125.80802770000001,49.086196599999994,0 -125.80852000000002,49.086306099999995,0 -125.81079860000003,49.086460699999996,0 -125.81164630000002,49.0865951,0 -125.81479510000001,49.08774189999999,0 -125.81708360000002,49.08835109999999,0 -125.82216640000001,49.08891889999999,0 -125.82445290000001,49.08949789999999,0 -125.82584510000001,49.089618399999985,0 -125.82654960000002,49.089567899999984,0 -125.82793080000003,49.08910929999999,0 -125.82852210000001,49.089055399999985,0 -125.82911600000003,49.08915189999999,0 -125.83637060000002,49.09276809999999,0 -125.83683650000003,49.09290649999999,0 -125.83790320000003,49.09297849999999,0 -125.83878290000004,49.09282219999999,0 -125.84002930000004,49.09233649999999,0 -125.84184050000005,49.09189559999999,0 -125.84369750000003,49.091695299999984,0 -125.84421270000003,49.091734999999986,0 -125.84633430000004,49.09268509999998,0 -125.84686300000004,49.09283019999998,0 -125.84765220000006,49.09295069999998,0 -125.84828520000006,49.09311899999999,0 -125.85140140000007,49.09429749999998,0 -125.85300880000008,49.095100899999984,0 -125.85502410000008,49.095909399999975,0 -125.85615330000009,49.096547699999974,0 -125.85880260000009,49.09862589999997,0 -125.8591219000001,49.09876259999998,0 -125.85968650000011,49.09883659999998,0 -125.8614831000001,49.09881779999997,0 -125.86194870000008,49.098916099999975,0 -125.8630331000001,49.09933639999997,0 -125.86373450000008,49.09977119999997,0 -125.86407010000006,49.10012149999997,0 -125.86424770000006,49.100491399999974,0 -125.86398570000007,49.101443499999974,0 -125.86405090000008,49.101935599999976,0 -125.86444250000008,49.10259069999998,0 -125.86591180000008,49.10406009999998,0 -125.86777580000008,49.10648509999998,0 -125.86978380000008,49.10826169999998,0 -125.87014030000007,49.10846249999997,0 -125.87131510000006,49.108872499999976,0 -125.87461290000006,49.10948609999998,0 -125.87760280000005,49.11041389999997,0 -125.87814310000005,49.11081049999997,0 -125.87900970000004,49.111668199999976,0 -125.88046200000005,49.11268739999997,0 -125.88067540000004,49.11289779999997,0 -125.88111480000005,49.113916599999975,0 -125.88139030000005,49.11424279999997,0 -125.88551580000004,49.117709499999975,0 -125.88664100000003,49.118264099999976,0 -125.88696060000004,49.118513899999975,0 -125.88828040000004,49.12039989999998,0 -125.89408500000005,49.125806599999976,0 -125.89418610000004,49.125968999999984,0 -125.89432210000004,49.126783099999976,0 -125.89246950000003,49.126778799999975,0 -125.89244150000003,49.126658899999974,0 </coordinates></LineString><TimeSpan><begin>2021-12-30T19:38:20.936Z</begin><end>2021-12-30T20:10:37.000Z</end></TimeSpan></Placemark><Placemark><name>Tacofino</name><address>1184 Pacific Rim Hwy, Tofino, BC V0R 2Z0, Canada</address><ExtendedData><Data name="Email"><value>syugen.zhou@gmail.com</value></Data><Data name="Category"><value>Tacos</value></Data><Data name="Distance"><value>0</value></Data></ExtendedData><description> Tacos from 2021-12-30T20:10:37.000Z to 2021-12-30T21:36:23.000Z. Distance 0m </description><Point><coordinates>-125.8924108,49.126623099999996,0</coordinates></Point><TimeSpan><begin>2021-12-30T20:10:37.000Z</begin><end>2021-12-30T21:36:23.000Z</end></TimeSpan></Placemark><Placemark><name>Driving</name><address></address><ExtendedData><Data name="Email"><value>syugen.zhou@gmail.com</value></Data><Data name="Category"><value>Driving</value></Data><Data name="Distance"><value>17399</value></Data></ExtendedData><description> Driving from 2021-12-30T21:36:23.445Z to 2021-12-30T22:21:56.000Z. Distance 17399m </description><LineString><altitudeMode>clampToGround</altitudeMode><extrude>1</extrude><tesselate>1</tesselate><coordinates>-125.89311989999997,49.1267883,0 -125.89351279999998,49.1267996,0 -125.89355259999999,49.1266803,0 -125.8936095,49.1266303,0 -125.8936517,49.1266134,0 -125.8937052,49.1266077,0 -125.89384899999999,49.1266163,0 -125.8939315,49.1266453,0 -125.89395679999998,49.126666,0 -125.89402099999998,49.1267907,0 -125.89432209999997,49.1267831,0 -125.89429289999995,49.1263369,0 -125.89418609999997,49.125969,0 -125.89408499999998,49.1258066,0 -125.89111129999996,49.122929799999994,0 -125.88828039999997,49.120399899999995,0 -125.88816319999997,49.1202519,0 -125.88768789999997,49.119454499999996,0 -125.88696059999998,49.118513899999996,0 -125.88681969999999,49.11838219999999,0 -125.88664099999998,49.1182641,0 -125.88581689999998,49.11789629999999,0 -125.8855158,49.1177095,0 -125.8813903,49.11424279999999,0 -125.88111479999999,49.113916599999996,0 -125.88104139999999,49.113785799999995,0 -125.88081559999999,49.11312109999999,0 -125.8806754,49.11289779999999,0 -125.88046200000001,49.11268739999999,0 -125.8790097,49.11166819999999,0 -125.87814309999999,49.11081049999999,0 -125.8776028,49.11041389999999,0 -125.8773484,49.11031479999999,0 -125.8746129,49.109486099999984,0 -125.87131510000002,49.10887249999999,0 -125.8704926,49.10861009999999,0 -125.87014029999999,49.10846249999999,0 -125.8697838,49.10826169999999,0 -125.8692274,49.10782959999999,0 -125.86777579999999,49.10648509999999,0 -125.8662611,49.10457939999999,0 -125.8659118,49.1040601,0 -125.86562310000001,49.10374399999999,0 -125.8649695,49.103150899999996,0 -125.86444250000001,49.10259069999999,0 -125.8642713,49.10235089999999,0 -125.8640509,49.10193559999999,0 -125.8639857,49.10144349999999,0 -125.86404769999999,49.101139999999994,0 -125.86422019999999,49.10072339999999,0 -125.86424769999999,49.10049139999999,0 -125.86421719999998,49.10037129999999,0 -125.86407009999999,49.10012149999999,0 -125.8639164,49.099934899999994,0 -125.86373449999998,49.09977119999999,0 -125.86332769999997,49.099488599999994,0 -125.86303309999997,49.09933639999999,0 -125.86194869999996,49.09891609999999,0 -125.86148309999997,49.09881779999999,0 -125.86097879999997,49.098796099999994,0 -125.85968649999998,49.0988366,0 -125.85935169999998,49.098805199999994,0 -125.85912189999998,49.09876259999999,0 -125.85880259999996,49.098625899999995,0 -125.85642529999996,49.09672689999999,0 -125.85615329999996,49.096547699999995,0 -125.85524469999997,49.096064999999996,0 -125.85502409999998,49.09590939999999,0 -125.85428779999997,49.095573599999994,0 -125.85354379999998,49.095324299999994,0 -125.85300879999998,49.09510089999999,0 -125.85140139999997,49.094297499999996,0 -125.84828519999996,49.093119,0 -125.84765219999996,49.092950699999996,0 -125.84686299999994,49.092830199999995,0 -125.84633429999994,49.0926851,0 -125.84479069999993,49.09199579999999,0 -125.84457719999993,49.0918767,0 -125.84421269999993,49.091735,0 -125.84401429999993,49.091702999999995,0 -125.8436974999999,49.0916953,0 -125.8423313999999,49.0918148,0 -125.84184049999989,49.0918956,0 -125.84002929999988,49.0923365,0 -125.83878289999988,49.0928222,0 -125.8383537999999,49.0929276,0 -125.83790319999989,49.0929785,0 -125.83734789999988,49.0929715,0 -125.83683649999988,49.0929065,0 -125.83637059999987,49.092768099999994,0 -125.83592199999987,49.09257199999999,0 -125.82946829999986,49.089287899999995,0 -125.82911599999984,49.0891519,0 -125.82890859999985,49.0891047,0 -125.82852209999986,49.08905539999999,0 -125.82830729999988,49.0890621,0 -125.82793079999988,49.0891093,0 -125.82654959999986,49.08956789999999,0 -125.82628929999986,49.08960379999999,0 -125.82584509999987,49.089618399999985,0 -125.82445289999986,49.08949789999999,0 -125.82377499999984,49.08936459999999,0 -125.82216639999984,49.08891889999999,0 -125.81708359999983,49.08835109999999,0 -125.81680189999983,49.08829509999999,0 -125.81479509999984,49.08774189999999,0 -125.81275669999982,49.087035699999994,0 -125.81187409999984,49.08666689999999,0 -125.81164629999985,49.08659509999999,0 -125.81079859999984,49.08646069999999,0 -125.80851999999983,49.08630609999999,0 -125.80802769999983,49.08619659999999,0 -125.80746159999983,49.08597049999999,0 -125.80700009999983,49.08565079999999,0 -125.80496159999981,49.08367379999999,0 -125.80459409999983,49.08339699999999,0 -125.80221739999983,49.08221669999999,0 -125.80168379999984,49.08202749999999,0 -125.80122959999981,49.081934699999984,0 -125.80083069999982,49.08189579999999,0 -125.8002947999998,49.08190429999999,0 -125.79990479999982,49.08195339999999,0 -125.79800829999981,49.08231199999999,0 -125.79589219999983,49.08251059999999,0 -125.79548569999983,49.08251789999999,0 -125.79368789999984,49.08237249999999,0 -125.79188219999985,49.08245249999999,0 -125.79131029999984,49.08243899999999,0 -125.79072519999984,49.08233899999999,0 -125.79028959999984,49.082221899999986,0 -125.78984459999984,49.082026099999986,0 -125.78940259999985,49.08178019999998,0 -125.78893569999985,49.081319999999984,0 -125.78874929999986,49.08102749999998,0 -125.78861119999986,49.08067969999998,0 -125.78856019999986,49.07878929999998,0 -125.78838449999986,49.07835009999998,0 -125.78824099999987,49.07814359999998,0 -125.78788699999987,49.07777819999998,0 -125.78150969999989,49.07272669999998,0 -125.78110399999987,49.072523799999985,0 -125.78061479999988,49.072407699999985,0 -125.78014319999988,49.07238199999998,0 -125.77426159999987,49.07307369999999,0 -125.77376869999989,49.07310289999999,0 -125.76886919999988,49.07296809999999,0 -125.76793479999989,49.07282259999999,0 -125.7674975999999,49.07280869999999,0 -125.76628889999989,49.07287269999999,0 -125.7601016999999,49.07273249999999,0 -125.7598444999999,49.072703699999984,0 -125.7590878999999,49.072540899999986,0 -125.7581862999999,49.07222929999998,0 -125.75773479999992,49.07211189999998,0 -125.75611639999991,49.071835499999985,0 -125.75554359999991,49.07168719999998,0 -125.75486259999991,49.07146469999998,0 -125.75371529999991,49.070911199999976,0 -125.75126189999992,49.06987949999998,0 -125.74829139999991,49.06892859999997,0 -125.74784029999992,49.06874819999997,0 -125.74054419999992,49.06524109999998,0 -125.73985479999993,49.06495099999998,0 -125.73940369999993,49.06479599999998,0 -125.73760079999992,49.064379799999976,0 -125.73602259999993,49.06415829999998,0 -125.7310988999999,49.06390149999998,0 -125.73019999999991,49.063798499999976,0 -125.72966099999992,49.06367229999998,0 -125.72910339999991,49.06347639999998,0 -125.72831319999993,49.06311469999998,0 -125.71833729999992,49.056965399999974,0 -125.71320489999992,49.05328789999998,0 -125.71239619999992,49.052765799999975,0 -125.70038649999994,49.04592529999998,0 -125.70059129999993,49.045730499999976,0 -125.70084109999993,49.04533299999998,0 -125.70127799999993,49.04497129999998,0 -125.70145569999993,49.044875499999975,0 -125.70216609999993,49.04473829999997,0 </coordinates></LineString><TimeSpan><begin>2021-12-30T21:36:23.445Z</begin><end>2021-12-30T22:21:56.000Z</end></TimeSpan></Placemark><Placemark><name>Combers Beach</name><address>British Columbia, Canada</address><ExtendedData><Data name="Email"><value>syugen.zhou@gmail.com</value></Data><Data name="Category"><value>Beach</value></Data><Data name="Distance"><value>0</value></Data></ExtendedData><description> Beach from 2021-12-30T22:21:56.000Z to 2021-12-30T23:30:50.000Z. Distance 0m </description><Point><coordinates>-125.71125789999999,49.0449871,0</coordinates></Point><TimeSpan><begin>2021-12-30T22:21:56.000Z</begin><end>2021-12-30T23:30:50.000Z</end></TimeSpan></Placemark><Placemark><name>Pacific Rim National Park Reserve - Long Beach Unit</name><address>Ucluelet, BC V0R 3A0, Canada</address><ExtendedData><Data name="Email"><value>syugen.zhou@gmail.com</value></Data><Data name="Category"><value>Park</value></Data><Data name="Distance"><value>0</value></Data></ExtendedData><description> Park from 2021-12-30T23:30:50.449Z to 2021-12-31T00:14:22.080Z. Distance 0m </description><Point><coordinates>-125.7532646,49.0683049,0</coordinates></Point><TimeSpan><begin>2021-12-30T23:30:50.449Z</begin><end>2021-12-31T00:14:22.080Z</end></TimeSpan></Placemark><Placemark><name>Driving</name><address></address><ExtendedData><Data name="Email"><value>syugen.zhou@gmail.com</value></Data><Data name="Category"><value>Driving</value></Data><Data name="Distance"><value>19582</value></Data></ExtendedData><description> Driving from 2021-12-31T00:14:22.080Z to 2021-12-31T00:43:59.000Z. Distance 19582m </description><LineString><altitudeMode>clampToGround</altitudeMode><extrude>1</extrude><tesselate>1</tesselate><coordinates>-125.75231959999999,49.070312099999995,0 -125.7548626,49.0714647,0 -125.7561164,49.0718355,0 -125.7577348,49.0721119,0 -125.7590879,49.0725409,0 -125.76010169999999,49.0727325,0 -125.76628889999999,49.0728727,0 -125.76793479999999,49.0728226,0 -125.76886919999998,49.072968100000004,0 -125.77376869999999,49.0731029,0 -125.78014319999998,49.072382000000005,0 -125.78061479999998,49.07240770000001,0 -125.78110399999997,49.072523800000006,0 -125.78150969999999,49.072726700000004,0 -125.78788699999998,49.077778200000004,0 -125.78838449999998,49.0783501,0 -125.78856019999996,49.078789300000004,0 -125.78861119999996,49.080679700000005,0 -125.78893569999995,49.081320000000005,0 -125.78940259999995,49.081780200000004,0 -125.79028959999995,49.0822219,0 -125.79131029999995,49.082439,0 -125.79368789999994,49.0823725,0 -125.79548569999993,49.0825179,0 -125.79800829999994,49.082311999999995,0 -125.80029479999993,49.0819043,0 -125.80083069999995,49.0818958,0 -125.80168379999996,49.082027499999995,0 -125.80221739999996,49.0822167,0 -125.80459409999996,49.083397,0 -125.80700009999995,49.085650799999996,0 -125.80746159999995,49.085970499999995,0 -125.80802769999995,49.086196599999994,0 -125.80851999999996,49.086306099999995,0 -125.81079859999997,49.086460699999996,0 -125.81164629999998,49.0865951,0 -125.81479509999996,49.08774189999999,0 -125.81708359999996,49.08835109999999,0 -125.82216639999997,49.08891889999999,0 -125.82445289999995,49.08949789999999,0 -125.82584509999997,49.089618399999985,0 -125.82654959999996,49.089567899999984,0 -125.82793079999998,49.08910929999999,0 -125.82852209999997,49.089055399999985,0 -125.82911599999997,49.08915189999999,0 -125.83637059999997,49.09276809999999,0 -125.83683649999998,49.09290649999999,0 -125.83790319999999,49.09297849999999,0 -125.83878289999998,49.09282219999999,0 -125.84002929999998,49.09233649999999,0 -125.8418405,49.09189559999999,0 -125.84369749999999,49.091695299999984,0 -125.84421269999999,49.091734999999986,0 -125.84633429999998,49.09268509999998,0 -125.846863,49.09283019999998,0 -125.84765220000001,49.09295069999998,0 -125.84828520000002,49.09311899999999,0 -125.85140140000001,49.09429749999998,0 -125.85300880000003,49.095100899999984,0 -125.85502410000002,49.095909399999975,0 -125.85615330000003,49.096547699999974,0 -125.85880260000005,49.09862589999997,0 -125.85912190000005,49.09876259999998,0 -125.85968650000005,49.09883659999998,0 -125.86148310000004,49.09881779999997,0 -125.86194870000004,49.098916099999975,0 -125.86303310000004,49.09933639999997,0 -125.86373450000004,49.09977119999997,0 -125.86407010000002,49.10012149999997,0 -125.86424770000002,49.100491399999974,0 -125.86398570000003,49.101443499999974,0 -125.86405090000002,49.101935599999976,0 -125.86444250000002,49.10259069999998,0 -125.86591180000003,49.10406009999998,0 -125.86777580000002,49.10648509999998,0 -125.86978380000002,49.10826169999998,0 -125.87014030000002,49.10846249999997,0 -125.87131510000002,49.108872499999976,0 -125.8746129,49.10948609999998,0 -125.8776028,49.11041389999997,0 -125.87814309999999,49.11081049999997,0 -125.8790097,49.111668199999976,0 -125.88046200000001,49.11268739999997,0 -125.8806754,49.11289779999997,0 -125.88111479999999,49.113916599999975,0 -125.8813903,49.11424279999997,0 -125.8855158,49.117709499999975,0 -125.88664099999998,49.118264099999976,0 -125.88696059999998,49.118513899999975,0 -125.88828039999999,49.12039989999998,0 -125.894085,49.125806599999976,0 -125.89418609999998,49.125968999999984,0 -125.89438009999999,49.12715089999998,0 -125.8951451,49.12917809999998,0 -125.89590749999999,49.13041539999998,0 -125.8959416,49.13063969999998,0 -125.89580219999999,49.13094669999998,0 -125.8953416,49.131433499999986,0 -125.8921604,49.13403009999998,0 -125.89067619999997,49.13585039999998,0 -125.89061989999996,49.13600889999998,0 -125.89064339999997,49.137787099999976,0 -125.88998689999998,49.14052029999998,0 -125.89034069999998,49.14227039999998,0 -125.89035919999999,49.142983899999976,0 -125.89049329999999,49.14343319999998,0 -125.8911905,49.144427999999984,0 -125.8918381,49.147130599999976,0 -125.8922633,49.147866199999974,0 -125.8931971,49.14884309999997,0 -125.89353379999999,49.14904919999997,0 -125.89663809999999,49.14992649999997,0 -125.900154,49.15167409999997,0 -125.90225129999999,49.152337699999975,0 -125.90273359999999,49.15241199999997,0 -125.90277059999998,49.152290299999976,0 </coordinates></LineString><TimeSpan><begin>2021-12-31T00:14:22.080Z</begin><end>2021-12-31T00:43:59.000Z</end></TimeSpan></Placemark><Placemark><name>Tofino</name><address>Tofino, BC, Canada</address><ExtendedData><Data name="Email"><value>syugen.zhou@gmail.com</value></Data><Data name="Category"><value></value></Data><Data name="Distance"><value>0</value></Data></ExtendedData><description>  from 2021-12-31T00:43:59.000Z to 2021-12-31T01:37:30.460Z. Distance 0m </description><Point><coordinates>-125.9066184,49.1529842,0</coordinates></Point><TimeSpan><begin>2021-12-31T00:43:59.000Z</begin><end>2021-12-31T01:37:30.460Z</end></TimeSpan></Placemark><Placemark><name>Driving</name><address></address><ExtendedData><Data name="Email"><value>syugen.zhou@gmail.com</value></Data><Data name="Category"><value>Driving</value></Data><Data name="Distance"><value>32274</value></Data></ExtendedData><description> Driving from 2021-12-31T01:37:30.460Z to 2021-12-31T02:13:20.539Z. Distance 32274m </description><LineString><altitudeMode>clampToGround</altitudeMode><extrude>1</extrude><tesselate>1</tesselate><coordinates>-125.9027589,49.1523288,0 -125.9027336,49.152412,0 -125.90225130000002,49.1523377,0 -125.90015400000003,49.151674099999994,0 -125.89663810000002,49.1499265,0 -125.89353380000001,49.1490492,0 -125.89319710000002,49.1488431,0 -125.89226330000001,49.1478662,0 -125.89183810000002,49.147130600000004,0 -125.89119050000002,49.144428000000005,0 -125.89049330000002,49.143433200000004,0 -125.88998690000001,49.140520300000006,0 -125.8906434,49.137787100000004,0 -125.89061989999999,49.13600890000001,0 -125.8906762,49.13585040000001,0 -125.89216040000001,49.13403010000001,0 -125.89580220000002,49.13094670000001,0 -125.89594160000003,49.13063970000001,0 -125.89590750000002,49.13041540000001,0 -125.89514510000002,49.12917810000001,0 -125.89438010000002,49.127150900000004,0 -125.89418610000001,49.125969000000005,0 -125.89408500000003,49.125806600000004,0 -125.88828040000001,49.1203999,0 -125.88696060000001,49.1185139,0 -125.88664100000001,49.118264100000005,0 -125.88551580000002,49.1177095,0 -125.88139030000002,49.1142428,0 -125.88111480000002,49.113916599999996,0 -125.88067540000002,49.1128978,0 -125.87900970000001,49.1116682,0 -125.87814310000002,49.1108105,0 -125.87760280000002,49.1104139,0 -125.87461290000003,49.1094861,0 -125.87131510000005,49.1088725,0 -125.87014030000005,49.1084625,0 -125.86978380000005,49.1082617,0 -125.86777580000005,49.1064851,0 -125.86591180000005,49.1040601,0 -125.86444250000005,49.1025907,0 -125.86405090000005,49.101935600000004,0 -125.86398570000006,49.1014435,0 -125.86424770000005,49.100491399999996,0 -125.86407010000005,49.10012149999999,0 -125.86373450000005,49.0997712,0 -125.86303310000007,49.0993364,0 -125.86194870000006,49.0989161,0 -125.86148310000007,49.0988178,0 -125.85968650000008,49.0988366,0 -125.85912190000008,49.0987626,0 -125.85880260000006,49.0986259,0 -125.85615330000006,49.0965477,0 -125.85502410000005,49.095909400000004,0 -125.85300880000005,49.095100900000006,0 -125.85140140000004,49.09429750000001,0 -125.84828520000005,49.09311900000001,0 -125.84633430000004,49.09268510000001,0 -125.84421270000003,49.09173500000001,0 -125.84369750000003,49.09169530000001,0 -125.84184050000005,49.091895600000015,0 -125.84002930000004,49.092336500000016,0 -125.83878290000004,49.092822200000015,0 -125.83790320000003,49.092978500000015,0 -125.83683650000003,49.09290650000002,0 -125.83637060000002,49.092768100000015,0 -125.82911600000003,49.08915190000001,0 -125.82852210000001,49.089055400000014,0 -125.82793080000003,49.08910930000001,0 -125.82654960000002,49.08956790000001,0 -125.82584510000001,49.08961840000001,0 -125.82445290000001,49.08949790000001,0 -125.82216640000001,49.08891890000002,0 -125.81708360000002,49.08835110000002,0 -125.81479510000001,49.08774190000002,0 -125.81164630000002,49.08659510000002,0 -125.81079860000003,49.08646070000002,0 -125.80852000000002,49.08630610000002,0 -125.80802770000001,49.08619660000002,0 -125.80746160000001,49.08597050000002,0 -125.80700010000001,49.085650800000025,0 -125.8045941,49.083397000000026,0 -125.80221740000002,49.08221670000002,0 -125.8016838,49.082027500000024,0 -125.80083069999999,49.08189580000002,0 -125.80029479999999,49.08190430000002,0 -125.79800829999999,49.08231200000002,0 -125.79548569999999,49.08251790000002,0 -125.7936879,49.08237250000003,0 -125.79131029999999,49.08243900000003,0 -125.7902896,49.08222190000003,0 -125.7894026,49.08178020000003,0 -125.78893570000001,49.08132000000003,0 -125.7886112,49.08067970000003,0 -125.78856020000002,49.078789300000025,0 -125.78838450000002,49.07835010000002,0 -125.78788700000003,49.077778200000026,0 -125.78150970000003,49.072726700000025,0 -125.78110400000003,49.07252380000003,0 -125.78061480000004,49.072407700000035,0 -125.78014320000004,49.07238200000003,0 -125.77376870000003,49.07310290000003,0 -125.76886920000004,49.07296810000003,0 -125.76793480000005,49.07282260000003,0 -125.76010170000004,49.07273250000003,0 -125.75908790000005,49.07254090000003,0 -125.75773480000005,49.07211190000003,0 -125.75611640000004,49.071835500000034,0 -125.75486260000004,49.07146470000003,0 -125.75126190000005,49.069879500000035,0 -125.74829140000004,49.06892860000003,0 -125.73940370000003,49.06479600000003,0 -125.73760080000002,49.064379800000026,0 -125.73602260000003,49.06415830000003,0 -125.73020000000002,49.063798500000026,0 -125.72966100000002,49.06367230000003,0 -125.72831320000003,49.06311470000003,0 -125.71833730000003,49.05696540000003,0 -125.71239620000001,49.052765800000024,0 -125.69868820000002,49.04491660000003,0 -125.69686700000003,49.043650300000024,0 -125.69580360000002,49.04317440000003,0 -125.69454530000002,49.04277030000003,0 -125.69295740000003,49.04257040000003,0 -125.6760588,49.04265600000003,0 -125.67498400000001,49.042476300000025,0 -125.67416810000002,49.042124800000025,0 -125.6472706,49.026634700000024,0 -125.62632290000002,49.013746500000025,0 -125.62320790000001,49.012244000000024,0 -125.6130155,49.00646200000002,0 -125.61105539999998,49.00563270000002,0 -125.6102964,49.00521280000002,0 -125.60913529999998,49.00429270000002,0 -125.60564819999999,49.00204260000002,0 -125.58786119999999,48.99178630000002,0 -125.58770139999999,48.99160720000002,0 -125.58712399999997,48.979867200000015,0 -125.58733039999997,48.97928320000002,0 -125.59085289999996,48.97451100000002,0 -125.59034469999997,48.974256600000025,0 </coordinates></LineString><TimeSpan><begin>2021-12-31T01:37:30.460Z</begin><end>2021-12-31T02:13:20.539Z</end></TimeSpan></Placemark><Placemark><name>Pacific Rim Cabins</name><address>Grant Ave, Ucluelet, BC V0R 3A0, Canada</address><ExtendedData><Data name="Email"><value>syugen.zhou@gmail.com</value></Data><Data name="Category"><value>Group accommodation</value></Data><Data name="Distance"><value>0</value></Data></ExtendedData><description> Group accommodation from 2021-12-31T02:13:20.539Z to 2021-12-31T18:31:29.001Z. Distance 0m </description><Point><coordinates>-125.5879755,48.974676599999995,0</coordinates></Point><TimeSpan><begin>2021-12-31T02:13:20.539Z</begin><end>2021-12-31T18:31:29.001Z</end></TimeSpan></Placemark></Document></kml>
