<?xml version="1.0" encoding="UTF-8"?><kml xmlns="http://www.opengis.net/kml/2.2" xmlns:gx="http://www.google.com/kml/ext/2.2"><Document><name> Location history from 2019-09-23 to 2019-09-23 </name><open>1</open><description></description><StyleMap id="multiTrack"><Pair><key>normal</key><styleUrl>#multiTrack_n</styleUrl></Pair><Pair><key>highlight</key><styleUrl>#multiTrack_h</styleUrl></Pair></StyleMap><Style id="multiTrack_n"><IconStyle><Icon><href>https://earth.google.com/images/kml-icons/track-directional/track-0.png</href></Icon></IconStyle><LineStyle><color>99ffac59</color><width>6</width></LineStyle></Style><Style id="multiTrack_h"><IconStyle><scale>1.2</scale><Icon><href>https://earth.google.com/images/kml-icons/track-directional/track-0.png</href></Icon></IconStyle><LineStyle><color>99ffac59</color><width>8</width></LineStyle></Style><Placemark><name>Hampton Inn &amp; Suites Orlando/East UCF Area</name><address>3450 Quadrangle Blvd, Orlando, FL 32817</address><ExtendedData><Data name="Email"><value>syugen.zhou@gmail.com</value></Data><Data name="Category"><value>Hotel</value></Data><Data name="Distance"><value>0</value></Data></ExtendedData><description> Hotel from 2019-09-22T22:49:56.098Z to 2019-09-23T19:04:05.000Z. Distance 0m </description><Point><coordinates>-81.2164763,28.599252999999997,0</coordinates></Point><TimeSpan><begin>2019-09-22T22:49:56.098Z</begin><end>2019-09-23T19:04:05.000Z</end></TimeSpan></Placemark><Placemark><name>Driving</name><address></address><ExtendedData><Data name="Email"><value>syugen.zhou@gmail.com</value></Data><Data name="Category"><value>Driving</value></Data><Data name="Distance"><value>2006</value></Data></ExtendedData><description> Driving from 2019-09-23T19:04:05.000Z to 2019-09-23T19:07:34.000Z. Distance 2006m </description><LineString><altitudeMode>clampToGround</altitudeMode><extrude>1</extrude><tesselate>1</tesselate><coordinates>-81.2161363,28.5995404,0 -81.2161391,28.599555300000002,0 -81.2161458,28.5995707,0 -81.21615380000001,28.5995811,0 -81.2161688,28.5995935,0 -81.21618390000002,28.599602800000003,0 -81.21620640000002,28.599609700000002,0 -81.21625560000001,28.599616000000005,0 -81.21687130000001,28.599589600000005,0 -81.21691700000001,28.599574700000005,0 -81.2169456,28.599555400000007,0 -81.2169604,28.599539900000003,0 -81.2170181,28.599424900000006,0 -81.21716629999999,28.599525500000006,0 -81.2172243,28.599561100000006,0 -81.21715739999999,28.599628400000007,0 -81.2170721,28.59968060000001,0 -81.2170089,28.59970440000001,0 -81.2169318,28.59972820000001,0 -81.2157945,28.59978380000001,0 -81.2156452,28.59979560000001,0 -81.2156833,28.599981500000013,0 -81.2157273,28.600061800000013,0 -81.2157592,28.60036630000001,0 -81.21578469999999,28.600527500000013,0 -81.2158511,28.60080340000001,0 -81.21612939999999,28.601303600000012,0 -81.21626189999999,28.60150670000001,0 -81.21639409999999,28.60165670000001,0 -81.21659869999999,28.60185930000001,0 -81.216734,28.60196230000001,0 -81.2167227,28.60204110000001,0 -81.2168328,28.602235700000012,0 -81.2170796,28.60252480000001,0 -81.2173695,28.60292680000001,0 -81.2174945,28.60314450000001,0 -81.2177019,28.60366520000001,0 -81.2171206,28.60389630000001,0 -81.21681819999999,28.60407880000001,0 -81.2163382,28.604429700000008,0 -81.2157587,28.60500870000001,0 -81.21560249999999,28.605178500000008,0 -81.2155289,28.605352000000007,0 -81.2153489,28.60551330000001,0 -81.21456049999999,28.606257800000005,0 -81.21309659999999,28.60759360000001,0 -81.21266569999999,28.607854700000004,0 -81.21236479999999,28.607993800000006,0 -81.21207969999999,28.608085700000007,0 -81.21187539999998,28.608130900000006,0 -81.21161519999998,28.608175300000006,0 -81.21134679999999,28.608194800000007,0 -81.21112529999999,28.608200400000005,0 -81.21089789999999,28.608191200000007,0 -81.2107047,28.60816940000001,0 -81.21045529999999,28.60812320000001,0 -81.2100651,28.60800860000001,0 -81.2100094,28.60795620000001,0 -81.2096112,28.60777720000001,0 -81.2094659,28.60771730000001,0 -81.2092631,28.60764660000001,0 -81.2090364,28.60757570000001,0 -81.2088103,28.60753420000001,0 -81.20865219999999,28.60751160000001,0 -81.2084266,28.60749670000001,0 -81.20580179999999,28.60751000000001,0 -81.2056111,28.60750050000001,0 -81.2054655,28.607486500000007,0 -81.20539529999999,28.60747520000001,0 -81.20517279999999,28.60742990000001,0 -81.20489319999999,28.607351600000012,0 -81.2047438,28.60730130000001,0 -81.20449959999999,28.607199300000012,0 -81.2043801,28.60713920000001,0 -81.20426289999999,28.60707300000001,0 -81.20414799999999,28.60699700000001,0 -81.2040631,28.60692970000001,0 -81.2040084,28.60687520000001,0 -81.2039612,28.60681980000001,0 -81.2036514,28.606371000000014,0 -81.20354520000001,28.606440100000015,0 -81.2035328,28.606499200000012,0 -81.2035223,28.60652770000001,0 -81.2035068,28.606560300000012,0 -81.2034936,28.606599300000013,0 -81.20348340000001,28.606602700000014,0 -81.20347220000001,28.606604700000016,0 -81.20344560000001,28.606604500000017,0 -81.20343470000002,28.606601000000015,0 -81.20342570000001,28.606594600000015,0 -81.20341690000001,28.606586000000018,0 -81.20331030000001,28.606439500000015,0 -81.20324600000001,28.606371700000018,0 -81.20321860000001,28.60634960000002,0 -81.20320200000002,28.60634140000002,0 -81.20318780000001,28.60634050000002,0 -81.20315680000002,28.60634240000002,0 -81.20311960000002,28.60635600000002,0 -81.20306860000002,28.606389100000023,0 -81.20271210000003,28.60671370000002,0 </coordinates></LineString><TimeSpan><begin>2019-09-23T19:04:05.000Z</begin><end>2019-09-23T19:07:34.000Z</end></TimeSpan></Placemark><Placemark><name>University of Central Florida</name><address>4000 Central Florida Blvd, Orlando, FL 32816</address><ExtendedData><Data name="Email"><value>syugen.zhou@gmail.com</value></Data><Data name="Category"><value>Public university</value></Data><Data name="Distance"><value>0</value></Data></ExtendedData><description> Public university from 2019-09-23T19:07:34.000Z to 2019-09-23T23:10:00.000Z. Distance 0m </description><Point><coordinates>-81.2000599,28.6024274,0</coordinates></Point><TimeSpan><begin>2019-09-23T19:07:34.000Z</begin><end>2019-09-23T23:10:00.000Z</end></TimeSpan></Placemark><Placemark><name>Driving</name><address></address><ExtendedData><Data name="Email"><value>syugen.zhou@gmail.com</value></Data><Data name="Category"><value>Driving</value></Data><Data name="Distance"><value>36629</value></Data></ExtendedData><description> Driving from 2019-09-23T23:10:00.000Z to 2019-09-24T00:10:21.000Z. Distance 36629m </description><LineString><altitudeMode>clampToGround</altitudeMode><extrude>1</extrude><tesselate>1</tesselate><coordinates>-81.2027121,28.6067137,0 -81.2030686,28.6063891,0 -81.2031196,28.606356,0 -81.20315679999999,28.6063424,0 -81.20320199999999,28.6063414,0 -81.20321859999999,28.606349599999998,0 -81.20331029999998,28.606439499999997,0 -81.2034169,28.606585999999997,0 -81.20343469999999,28.606600999999998,0 -81.20344559999998,28.606604499999996,0 -81.20347219999998,28.606604699999995,0 -81.20352069999998,28.606590599999997,0 -81.20361599999998,28.6065385,0 -81.20387239999998,28.606889199999998,0 -81.20399149999999,28.6070225,0 -81.20412119999997,28.6071252,0 -81.20425359999999,28.6072081,0 -81.20451959999998,28.6073335,0 -81.20486599999998,28.6074593,0 -81.20512809999998,28.6075319,0 -81.20559229999998,28.607607599999998,0 -81.20749869999997,28.6076414,0 -81.20748499999998,28.611847799999996,0 -81.20750199999998,28.6119894,0 -81.21092289999999,28.6118952,0 -81.21106679999998,28.611869799999997,0 -81.22409619999998,28.6117881,0 -81.22409929999998,28.6115544,0 -81.22411779999997,28.611501099999998,0 -81.22415399999997,28.609530999999997,0 -81.22413289999997,28.609466099999995,0 -81.22425599999997,28.604027299999995,0 -81.22429449999997,28.603806199999998,0 -81.22436859999996,28.602394699999998,0 -81.22442229999997,28.6000271,0 -81.22445599999998,28.599594999999997,0 -81.22460159999997,28.598727499999995,0 -81.22463829999997,28.598288399999994,0 -81.22461909999998,28.596040799999994,0 -81.22459019999998,28.595694699999992,0 -81.22448089999997,28.595017099999993,0 -81.22443969999996,28.594568399999993,0 -81.22426329999996,28.580236099999993,0 -81.22425369999996,28.580210599999994,0 -81.22409769999996,28.57022179999999,0 -81.22399469999996,28.568804999999994,0 -81.23228559999997,28.569753799999994,0 -81.23275069999997,28.569774799999994,0 -81.23293289999997,28.569809899999992,0 -81.23417499999996,28.569896599999993,0 -81.23662479999996,28.569932699999992,0 -81.23850219999996,28.569891199999994,0 -81.23954089999997,28.569818199999997,0 -81.25080879999997,28.568683699999994,0 -81.25126479999996,28.568617399999994,0 -81.25329949999997,28.568434599999996,0 -81.25928379999996,28.568419599999995,0 -81.26131579999996,28.568458899999996,0 -81.26869939999996,28.568445599999997,0 -81.27084539999996,28.568400299999997,0 -81.28615469999997,28.5683649,0 -81.28707119999996,28.5683123,0 -81.28939139999996,28.5680741,0 -81.29140949999996,28.5677266,0 -81.29230439999996,28.5675308,0 -81.29438189999996,28.5669875,0 -81.29566609999995,28.5665595,0 -81.29702469999995,28.5660539,0 -81.29772079999995,28.565761100000003,0 -81.29934869999995,28.5650128,0 -81.30047039999997,28.564444500000004,0 -81.30212119999997,28.563478500000002,0 -81.30387279999997,28.562299100000004,0 -81.30590589999997,28.560804700000006,0 -81.30936379999996,28.558061700000003,0 -81.31075269999997,28.557143900000003,0 -81.31148199999997,28.556739400000005,0 -81.31246109999996,28.556256500000003,0 -81.31396599999997,28.555609000000004,0 -81.31480489999996,28.555283800000005,0 -81.31587049999996,28.554923700000007,0 -81.31760869999997,28.55440610000001,0 -81.31943519999996,28.553982200000007,0 -81.32014849999996,28.55384830000001,0 -81.32267329999996,28.553504900000007,0 -81.32364759999996,28.553439800000007,0 -81.33136509999996,28.553466200000006,0 -81.33237509999995,28.553521900000007,0 -81.33549869999995,28.553534700000004,0 -81.35316109999994,28.553250600000002,0 -81.35320589999995,28.553241600000003,0 -81.35331979999994,28.553180700000002,0 -81.35342719999994,28.553188100000003,0 -81.36030829999994,28.553117600000004,0 -81.36816289999994,28.553205300000005,0 -81.37905169999993,28.553106300000007,0 -81.37919169999994,28.553155000000007,0 -81.37965239999993,28.553175100000008,0 -81.38010029999994,28.55325880000001,0 -81.38075989999993,28.55329040000001,0 -81.38142569999994,28.55326040000001,0 -81.38221989999994,28.553160500000008,0 -81.38237689999994,28.55316240000001,0 -81.38242009999993,28.55299740000001,0 -81.38245549999994,28.55292860000001,0 -81.38248229999994,28.552911200000008,0 -81.38268959999994,28.552839300000006,0 -81.38277329999993,28.55278270000001,0 -81.38283549999993,28.551561700000008,0 -81.38291079999992,28.55114740000001,0 -81.38291389999992,28.550718100000008,0 -81.38283299999992,28.54909440000001,0 -81.38284319999991,28.549029300000008,0 -81.38283649999993,28.54900660000001,0 -81.38275319999991,28.548937400000007,0 -81.38260289999991,28.544475100000007,0 -81.38252059999992,28.543216500000007,0 -81.38247929999991,28.54049760000001,0 -81.38253419999991,28.539664700000007,0 -81.38267929999991,28.538648100000007,0 -81.38283859999991,28.537893900000007,0 -81.38310139999992,28.53685670000001,0 -81.38343229999991,28.535978800000006,0 -81.38369769999991,28.535405600000008,0 -81.38406339999992,28.53470980000001,0 -81.38421169999992,28.534487500000008,0 -81.38532719999992,28.53247720000001,0 -81.38557029999993,28.53199050000001,0 -81.38599499999991,28.53094780000001,0 -81.38631649999991,28.529780200000012,0 -81.38645279999992,28.52893250000001,0 -81.38652399999991,28.52790360000001,0 -81.3864991999999,28.521536300000008,0 -81.38651789999992,28.52098250000001,0 -81.38661089999991,28.52019870000001,0 -81.38674399999991,28.519631900000007,0 -81.38699179999992,28.518862200000008,0 -81.38733489999993,28.518089000000007,0 -81.38768739999992,28.51746900000001,0 -81.38789339999992,28.517155600000006,0 -81.38827259999992,28.51665370000001,0 -81.38847139999993,28.51642100000001,0 -81.38890629999993,28.51597180000001,0 -81.38922549999992,28.51567230000001,0 -81.38976759999993,28.515229100000006,0 -81.39453789999993,28.51192680000001,0 -81.39544929999994,28.51138840000001,0 -81.39620799999994,28.51101050000001,0 -81.39674189999994,28.51077740000001,0 -81.39758849999994,28.51046450000001,0 -81.39883469999994,28.510113800000006,0 -81.39955819999994,28.50996230000001,0 -81.40029109999995,28.50984770000001,0 -81.40108899999994,28.50976480000001,0 -81.40190409999994,28.509729500000006,0 -81.41569829999995,28.509653600000007,0 -81.41644759999994,28.509565600000006,0 -81.41691409999994,28.509490300000003,0 -81.41751069999995,28.509358000000002,0 -81.41787769999995,28.509257300000005,0 -81.41846189999995,28.509064800000004,0 -81.41938469999995,28.508675200000006,0 -81.41978309999995,28.508472900000005,0 -81.42050119999995,28.508037400000003,0 -81.42106929999996,28.507624800000006,0 -81.42163579999996,28.507137800000002,0 -81.42209339999995,28.506674800000003,0 -81.43634219999996,28.490240100000005,0 -81.43723509999995,28.489288300000005,0 -81.43846699999996,28.488128800000005,0 -81.44921219999996,28.479229900000004,0 -81.45352009999996,28.475931200000005,0 -81.45374479999997,28.475863600000004,0 -81.45562209999996,28.474477700000005,0 -81.45602899999996,28.474204200000003,0 -81.45616089999996,28.474128600000004,0 -81.45620709999996,28.4740718,0 -81.45624829999997,28.474040700000003,0 -81.45639249999996,28.473963,0 -81.45774629999997,28.4734006,0 -81.45801289999997,28.473271800000003,0 -81.45826989999996,28.473126400000005,0 -81.45847079999996,28.472983200000005,0 -81.45872239999996,28.472752800000002,0 -81.45884409999996,28.472609800000004,0 -81.45901869999997,28.472360100000003,0 -81.45914279999997,28.472124300000004,0 -81.45919389999996,28.472000100000006,0 -81.45926099999997,28.471773000000006,0 -81.45935029999997,28.471233100000006,0 -81.45939059999996,28.470846800000007,0 -81.45940419999997,28.47015190000001,0 -81.45946369999997,28.46976520000001,0 -81.45945619999996,28.468765500000007,0 -81.45940199999995,28.468208300000008,0 -81.45892249999996,28.46504450000001,0 -81.45881479999996,28.46383280000001,0 -81.45882389999996,28.46242650000001,0 -81.45880929999996,28.46227990000001,0 -81.45875729999995,28.45507940000001,0 -81.45875259999994,28.45505780000001,0 -81.45876369999995,28.45471320000001,0 -81.45879499999995,28.454679800000008,0 -81.45884319999995,28.45433790000001,0 -81.45889329999996,28.45411000000001,0 -81.45902889999995,28.453689000000008,0 -81.45923949999995,28.45324450000001,0 -81.45946079999996,28.45289350000001,0 -81.45967559999995,28.45261320000001,0 -81.45998289999996,28.452289000000007,0 -81.46027659999996,28.45203410000001,0 -81.46056419999996,28.451827800000007,0 -81.46114709999996,28.451483400000008,0 -81.46158339999997,28.451273900000007,0 -81.46226349999996,28.450993000000008,0 -81.46254609999995,28.450907000000008,0 -81.46297409999995,28.450802300000007,0 -81.46304499999997,28.45077730000001,0 -81.46320089999996,28.450701000000006,0 -81.46552439999996,28.45023520000001,0 -81.46567989999997,28.450221500000005,0 -81.46579829999996,28.449988000000005,0 -81.46591369999996,28.449477000000005,0 -81.46602059999996,28.448730000000005,0 -81.46595739999997,28.448641800000004,0 -81.46610049999997,28.447512400000004,0 -81.46617699999997,28.447437100000005,0 -81.46634989999997,28.446644200000005,0 -81.46700149999997,28.444427600000008,0 -81.46745779999998,28.444480700000007,0 -81.46777379999997,28.444500900000005,0 -81.46834779999998,28.444504300000006,0 -81.46862499999997,28.444486500000007,0 -81.46983709999998,28.444501900000006,0 -81.46991669999997,28.444586800000007,0 -81.46985659999996,28.444659800000007,0 -81.46982149999997,28.444742100000006,0 -81.46980979999996,28.445114600000007,0 -81.47034469999997,28.44512480000001,0 -81.47034859999997,28.445331600000006,0 </coordinates></LineString><TimeSpan><begin>2019-09-23T23:10:00.000Z</begin><end>2019-09-24T00:10:21.000Z</end></TimeSpan></Placemark><Placemark><name>Orange County</name><address>Florida</address><ExtendedData><Data name="Email"><value>syugen.zhou@gmail.com</value></Data><Data name="Category"><value></value></Data><Data name="Distance"><value>0</value></Data></ExtendedData><description>  from 2019-09-24T00:10:21.064Z to 2019-09-24T00:15:52.000Z. Distance 0m </description><Point><coordinates>-81.2518833,28.4844995,0</coordinates></Point><TimeSpan><begin>2019-09-24T00:10:21.064Z</begin><end>2019-09-24T00:15:52.000Z</end></TimeSpan></Placemark><Placemark><name>Driving</name><address></address><ExtendedData><Data name="Email"><value>syugen.zhou@gmail.com</value></Data><Data name="Category"><value>Driving</value></Data><Data name="Distance"><value>32873</value></Data></ExtendedData><description> Driving from 2019-09-24T00:15:52.000Z to 2019-09-24T01:00:00.000Z. Distance 32873m </description><LineString><altitudeMode>clampToGround</altitudeMode><extrude>1</extrude><tesselate>1</tesselate><coordinates>-81.4704208,28.4455629,0 -81.47037069999999,28.4455599,0 -81.47035129999999,28.445533299999997,0 -81.4703447,28.4451248,0 -81.4698098,28.445114599999997,0 -81.4698215,28.4447421,0 -81.4699167,28.4445868,0 -81.47001829999999,28.4446313,0 -81.4706039,28.4446165,0 -81.47080799999999,28.4455684,0 -81.4708845,28.4476549,0 -81.47091649999999,28.447779099999998,0 -81.4709573,28.447835,0 -81.4708577,28.4500104,0 -81.472616,28.450020700000003,0 -81.4726768,28.4500752,0 -81.473365,28.4501152,0 -81.47360540000001,28.450263500000002,0 -81.47397640000001,28.452338700000002,0 -81.4740799,28.4534014,0 -81.47418060000001,28.4535648,0 -81.4741382,28.4549186,0 -81.47402130000002,28.455755699999997,0 -81.47367630000001,28.4569266,0 -81.4732673,28.4578028,0 -81.4728453,28.4584722,0 -81.4720292,28.459480499999998,0 -81.4678552,28.4630223,0 -81.46780319999999,28.463188999999996,0 -81.45275369999999,28.475949599999996,0 -81.44375919999999,28.483174899999995,0 -81.44348729999999,28.483468699999996,0 -81.43812779999999,28.487863299999997,0 -81.43691439999999,28.489086,0 -81.42181619999998,28.5064711,0 -81.4211843,28.5070484,0 -81.42032669999999,28.5076919,0 -81.41922089999998,28.5083122,0 -81.41812099999999,28.5087537,0 -81.41709799999998,28.5090578,0 -81.41599029999999,28.5092417,0 -81.41480949999999,28.5093095,0 -81.4023448,28.5093693,0 -81.40050449999998,28.5094622,0 -81.39953639999999,28.509597000000003,0 -81.39759139999998,28.5100165,0 -81.39700179999998,28.5102118,0 -81.39673819999999,28.5101945,0 -81.39552339999999,28.5107806,0 -81.39478179999998,28.5112177,0 -81.38895599999998,28.5152993,0 -81.38783339999999,28.5164536,0 -81.38712069999998,28.5174814,0 -81.3867588,28.5181696,0 -81.38629659999998,28.5194181,0 -81.38606229999998,28.520598500000002,0 -81.38602079999998,28.5282136,0 -81.38577269999999,28.529931100000002,0 -81.38524349999999,28.5314139,0 -81.38281059999998,28.535652000000002,0 -81.38232109999998,28.5367849,0 -81.38204449999998,28.537967500000004,0 -81.38185309999999,28.539918800000006,0 -81.38216909999998,28.546767000000006,0 -81.38209059999998,28.546902900000003,0 -81.38206779999997,28.549399700000002,0 -81.38193519999997,28.5494024,0 -81.38187369999997,28.5524897,0 -81.38181599999999,28.5527582,0 -81.38175399999997,28.552894300000002,0 -81.38164799999998,28.552985400000004,0 -81.38140249999998,28.553040300000003,0 -81.37919759999997,28.553053300000002,0 -81.37905169999998,28.553106300000003,0 -81.35331979999998,28.553180700000002,0 -81.35318309999998,28.553129100000003,0 -81.33283199999998,28.553397200000003,0 -81.33139209999999,28.553307200000006,0 -81.32364409999998,28.553310700000004,0 -81.32178469999998,28.553469600000007,0 -81.31958029999998,28.553794100000008,0 -81.31776749999999,28.55417360000001,0 -81.31593129999997,28.554700600000007,0 -81.31404509999999,28.555365400000007,0 -81.31389969999998,28.55545770000001,0 -81.31249319999998,28.556045300000008,0 -81.31044509999997,28.55713400000001,0 -81.30311099999997,28.562588400000006,0 -81.30119119999996,28.563819100000007,0 -81.29860009999996,28.565179600000008,0 -81.29695679999996,28.56589500000001,0 -81.29435289999995,28.56679900000001,0 -81.29227089999996,28.56734830000001,0 -81.28909829999996,28.56793310000001,0 -81.28762549999996,28.568106000000007,0 -81.28605639999995,28.56818970000001,0 -81.28609279999995,28.57162040000001,0 -81.28614499999995,28.57168120000001,0 -81.28615279999994,28.57224510000001,0 -81.28608389999995,28.57234680000001,0 -81.28649279999995,28.597057800000012,0 -81.28638039999994,28.597209800000012,0 -81.28626599999996,28.59728390000001,0 -81.28611849999996,28.59732980000001,0 -81.27951049999996,28.597432000000012,0 -81.27857699999996,28.597579800000016,0 -81.27762559999995,28.597887700000012,0 -81.27704809999994,28.598149900000013,0 -81.27494509999995,28.599359600000014,0 -81.27410379999995,28.599732000000014,0 -81.27323769999995,28.599954700000016,0 -81.27271089999995,28.600032900000013,0 -81.27193039999996,28.600051400000012,0 -81.27118349999995,28.599982800000014,0 -81.27035179999996,28.59979840000001,0 -81.26398429999995,28.597642600000015,0 -81.26310669999997,28.597429600000012,0 -81.26227059999997,28.597324300000015,0 -81.25404499999996,28.597134800000017,0 -81.22447129999996,28.59753410000002,0 -81.22446569999997,28.598533300000014,0 -81.22428499999997,28.599864000000014,0 -81.22424989999998,28.601576300000016,0 -81.22314209999998,28.601558400000016,0 -81.22277769999997,28.601597500000015,0 -81.22237479999997,28.601722900000013,0 -81.22181029999996,28.60202310000001,0 -81.22179889999997,28.602073500000014,0 -81.22052689999995,28.603052600000016,0 -81.22027379999996,28.603203300000015,0 -81.21967089999995,28.603416700000015,0 -81.21934429999996,28.603471600000017,0 -81.21922529999996,28.603454600000013,0 -81.21793429999995,28.603603500000013,0 -81.21773679999995,28.603055300000015,0 -81.21745399999995,28.602575400000013,0 -81.21704719999994,28.602134900000014,0 -81.21682619999996,28.601965800000013,0 -81.21673399999995,28.60196230000001,0 -81.21626189999995,28.601506700000012,0 -81.21585109999995,28.600803400000014,0 -81.21572729999995,28.600061800000013,0 -81.21576469999995,28.599975900000015,0 -81.21579449999994,28.599783800000015,0 -81.21693179999994,28.599728200000012,0 -81.21715739999995,28.599628400000014,0 -81.21738559999994,28.599385300000012,0 -81.21797039999994,28.599401100000012,0 -81.21802159999993,28.599353600000015,0 -81.21800239999995,28.598595900000014,0 -81.21740419999995,28.59857140000001,0 -81.21738089999995,28.59858120000001,0 -81.21736779999995,28.59860960000001,0 -81.21738559999996,28.59938530000001,0 -81.21715739999996,28.59962840000001,0 -81.21693179999995,28.59972820000001,0 -81.21579449999996,28.59978380000001,0 -81.21590249999996,28.598854500000012,0 -81.21592279999994,28.59758870000001,0 -81.20765199999995,28.59765770000001,0 -81.20750379999996,28.607500000000012,0 -81.20546549999996,28.60748650000001,0 -81.20474379999996,28.607301300000014,0 -81.20426289999996,28.60707300000001,0 -81.20406309999996,28.606929700000013,0 -81.20331049999996,28.605914600000013,0 -81.20309549999996,28.605719500000014,0 -81.20287899999995,28.605593900000013,0 -81.20251639999995,28.605486800000012,0 -81.20183189999996,28.60544800000001,0 -81.20149239999996,28.60550150000001,0 -81.19888259999996,28.60631140000001,0 -81.19849249999997,28.606330100000008,0 -81.19852349999996,28.606446500000004,0 -81.19852109999997,28.606537400000004,0 -81.19757119999996,28.608211700000005,0 </coordinates></LineString><TimeSpan><begin>2019-09-24T00:15:52.000Z</begin><end>2019-09-24T01:00:00.000Z</end></TimeSpan></Placemark><Placemark><name>Hampton Inn &amp; Suites Orlando/East UCF Area</name><address>3450 Quadrangle Blvd, Orlando, FL 32817</address><ExtendedData><Data name="Email"><value>syugen.zhou@gmail.com</value></Data><Data name="Category"><value>Hotel</value></Data><Data name="Distance"><value>0</value></Data></ExtendedData><description> Hotel from 2019-09-24T01:00:00.000Z to 2019-09-24T12:29:54.000Z. Distance 0m </description><Point><coordinates>-81.2164763,28.599252999999997,0</coordinates></Point><TimeSpan><begin>2019-09-24T01:00:00.000Z</begin><end>2019-09-24T12:29:54.000Z</end></TimeSpan></Placemark></Document></kml>
