<?xml version="1.0" encoding="UTF-8"?><kml xmlns="http://www.opengis.net/kml/2.2" xmlns:gx="http://www.google.com/kml/ext/2.2"><Document><name> Location history from 2019-09-22 to 2019-09-22 </name><open>1</open><description></description><StyleMap id="multiTrack"><Pair><key>normal</key><styleUrl>#multiTrack_n</styleUrl></Pair><Pair><key>highlight</key><styleUrl>#multiTrack_h</styleUrl></Pair></StyleMap><Style id="multiTrack_n"><IconStyle><Icon><href>https://earth.google.com/images/kml-icons/track-directional/track-0.png</href></Icon></IconStyle><LineStyle><color>99ffac59</color><width>6</width></LineStyle></Style><Style id="multiTrack_h"><IconStyle><scale>1.2</scale><Icon><href>https://earth.google.com/images/kml-icons/track-directional/track-0.png</href></Icon></IconStyle><LineStyle><color>99ffac59</color><width>8</width></LineStyle></Style><Placemark><name>Residence Inn by Marriott Orlando Convention Center</name><address>8800 Universal Blvd, Orlando, FL 32819</address><ExtendedData><Data name="Email"><value>syugen.zhou@gmail.com</value></Data><Data name="Category"><value>Hotel</value></Data><Data name="Distance"><value>0</value></Data></ExtendedData><description> Hotel from 2019-09-22T01:20:18.128Z to 2019-09-22T11:43:56.999Z. Distance 0m </description><Point><coordinates>-81.4684498,28.4377766,0</coordinates></Point><TimeSpan><begin>2019-09-22T01:20:18.128Z</begin><end>2019-09-22T11:43:56.999Z</end></TimeSpan></Placemark><Placemark><name>Driving</name><address></address><ExtendedData><Data name="Email"><value>syugen.zhou@gmail.com</value></Data><Data name="Category"><value>Driving</value></Data><Data name="Distance"><value>4244</value></Data></ExtendedData><description> Driving from 2019-09-22T11:43:56.999Z to 2019-09-22T11:52:43.000Z. Distance 4244m </description><LineString><altitudeMode>clampToGround</altitudeMode><extrude>1</extrude><tesselate>1</tesselate><coordinates>-81.4684584,28.437983300000003,0 -81.4683828,28.4379826,0 -81.46836370000001,28.4379754,0 -81.46834910000001,28.437959,0 -81.46834230000002,28.437945399999997,0 -81.46833730000002,28.437924099999996,0 -81.46833890000002,28.4373568,0 -81.46807480000002,28.4373825,0 -81.46784470000001,28.4373901,0 -81.46787510000001,28.437986099999996,0 -81.46787070000002,28.438189799999996,0 -81.46791910000002,28.438627399999998,0 -81.46796770000002,28.438885699999997,0 -81.46804180000002,28.439537699999995,0 -81.46801650000002,28.439652099999996,0 -81.46802110000002,28.439903099999995,0 -81.46800640000002,28.440355399999994,0 -81.46797740000001,28.440632399999995,0 -81.46790990000001,28.441039599999996,0 -81.46776340000002,28.441658599999993,0 -81.46759900000002,28.442163499999996,0 -81.46735220000002,28.442822499999995,0 -81.46710340000003,28.443395699999996,0 -81.46701040000002,28.443649399999995,0 -81.46624150000002,28.446506699999993,0 -81.46610150000002,28.447110099999993,0 -81.46604140000002,28.447419099999994,0 -81.46610050000002,28.447512399999994,0 -81.46595740000002,28.448641799999994,0 -81.46588260000003,28.44871789999999,0 -81.46583980000003,28.449059999999992,0 -81.46580960000003,28.449226599999996,0 -81.46578750000003,28.449394499999993,0 -81.46563820000003,28.449969599999992,0 -81.46552440000004,28.450235199999995,0 -81.46534370000003,28.450939399999996,0 -81.46490980000004,28.452351899999993,0 -81.46440490000003,28.454160599999994,0 -81.46436010000004,28.454372099999993,0 -81.46432720000003,28.454641599999995,0 -81.46431830000003,28.454837199999996,0 -81.46431990000004,28.455015199999995,0 -81.46447160000002,28.456991699999996,0 -81.46446070000003,28.457176099999998,0 -81.46444280000004,28.457260199999997,0 -81.46441970000004,28.457340399999996,0 -81.46437230000004,28.457452199999995,0 -81.46432410000004,28.457546599999997,0 -81.46426330000004,28.457649099999998,0 -81.46398340000003,28.458180999999996,0 -81.46381840000004,28.458554599999996,0 -81.46377810000004,28.458671799999998,0 -81.46371950000004,28.458889399999997,0 -81.46368790000004,28.459057099999995,0 -81.46367560000003,28.459152699999994,0 -81.46367000000004,28.459176499999995,0 -81.46364530000004,28.459375399999995,0 -81.46364050000004,28.459481899999997,0 -81.46364220000004,28.459610299999998,0 -81.46365260000005,28.4597527,0 -81.46368180000005,28.459986899999997,0 -81.46370230000005,28.460098199999997,0 -81.46373820000005,28.460243799999997,0 -81.46388090000005,28.460672799999998,0 -81.46390360000005,28.460761499999997,0 -81.46392740000005,28.460951999999995,0 -81.46395370000003,28.462176099999997,0 -81.46392750000004,28.462355499999997,0 -81.46395670000004,28.463616399999996,0 -81.46396150000004,28.463665599999995,0 -81.46400910000003,28.463899199999993,0 -81.46444920000003,28.465193699999997,0 -81.46454710000002,28.465381999999995,0 -81.46462870000002,28.465703699999995,0 -81.46470760000003,28.466087299999995,0 -81.46478260000002,28.466532699999995,0 -81.46484060000003,28.467092599999994,0 -81.46486480000003,28.467513899999993,0 -81.46487220000003,28.467830899999996,0 -81.46480160000003,28.470211799999994,0 -81.46472690000004,28.470275999999995,0 -81.46471900000004,28.470289399999995,0 -81.46469500000003,28.4703876,0 -81.46466710000004,28.4704759,0 -81.46462520000003,28.470576899999998,0 -81.46455750000004,28.470708499999997,0 -81.46446460000004,28.470857899999995,0 -81.46436770000004,28.470995399999996,0 -81.46423790000004,28.471150799999997,0 -81.46416440000004,28.471228199999995,0 -81.46407340000003,28.471302899999998,0 -81.46393840000003,28.471430099999996,0 -81.46386580000004,28.471510999999996,0 -81.46378390000004,28.471624499999997,0 -81.46372860000004,28.471718599999996,0 -81.46363770000004,28.471904699999996,0 -81.46363380000003,28.471920299999994,0 -81.46363330000003,28.47194019999999,0 -81.46364670000004,28.471981599999992,0 -81.46278530000004,28.473463699999993,0 </coordinates></LineString><TimeSpan><begin>2019-09-22T11:43:56.999Z</begin><end>2019-09-22T11:52:43.000Z</end></TimeSpan></Placemark><Placemark><name>Universal Orlando Resort</name><address>6000 Universal Blvd, Orlando, FL 32819</address><ExtendedData><Data name="Email"><value>syugen.zhou@gmail.com</value></Data><Data name="Category"><value>Theme park</value></Data><Data name="Distance"><value>0</value></Data></ExtendedData><description> Theme park from 2019-09-22T11:52:43.000Z to 2019-09-22T12:05:08.000Z. Distance 0m </description><Point><coordinates>-81.4678193,28.4743207,0</coordinates></Point><TimeSpan><begin>2019-09-22T11:52:43.000Z</begin><end>2019-09-22T12:05:08.000Z</end></TimeSpan></Placemark><Placemark><name>Hiking</name><address></address><ExtendedData><Data name="Email"><value>syugen.zhou@gmail.com</value></Data><Data name="Category"><value>Hiking</value></Data><Data name="Distance"><value>6137</value></Data></ExtendedData><description> Hiking from 2019-09-22T12:05:08.000Z to 2019-09-22T22:06:00.000Z. Distance 6137m </description><LineString><altitudeMode>clampToGround</altitudeMode><extrude>1</extrude><tesselate>1</tesselate><coordinates>-81.46137654122855,28.474000535626264,0 -81.46137654122855,28.474000535626264,0 -81.4642191,28.4739708,0 -81.4658316,28.4734531,0 -81.4665352,28.475125,0 -81.4678044,28.475452,0 -81.4687027,28.4751023,0 -81.4685484,28.4767347,0 -81.4681408,28.4753055,0 -81.4691646,28.4761818,0 -81.4692069,28.4770059,0 -81.4695411,28.4781035,0 -81.4695226,28.4785504,0 -81.4693236,28.4792302,0 -81.4700164,28.4798006,0 -81.4687955,28.4797214,0 -81.4678752,28.4796926,0 -81.4680719,28.4807172,0 -81.4672726,28.480071,0 -81.4675566,28.480214,0 -81.4681932,28.4805629,0 -81.4695587,28.4791037,0 -81.4704366,28.4791999,0 -81.4726665,28.4740248,0 -81.4727021,28.4731337,0 -81.4735826,28.4727048,0 -81.4727537,28.4729559,0 -81.4735894,28.4717593,0 -81.4735894,28.4717593,0 -81.4730545,28.4728631,0 -81.4720435,28.4731952,0 -81.4727712,28.4728987,0 -81.472935,28.4715208,0 -81.4736022,28.470767,0 -81.4729836,28.4702233,0 -81.47304,28.4695515,0 -81.4718148,28.4699212,0 -81.4732276,28.4704047,0 -81.4724716,28.469733,0 -81.471233,28.4698662,0 -81.469435,28.4706365,0 -81.4680253,28.4719005,0 -81.4646338,28.4735607,0 -81.4627605,28.4742138,0 -81.4608342,28.472773,0 </coordinates></LineString><TimeSpan><begin>2019-09-22T12:05:08.000Z</begin><end>2019-09-22T22:06:00.000Z</end></TimeSpan></Placemark><Placemark><name>Driving</name><address></address><ExtendedData><Data name="Email"><value>syugen.zhou@gmail.com</value></Data><Data name="Category"><value>Driving</value></Data><Data name="Distance"><value>31885</value></Data></ExtendedData><description> Driving from 2019-09-22T22:06:00.000Z to 2019-09-22T22:49:56.000Z. Distance 31885m </description><LineString><altitudeMode>clampToGround</altitudeMode><extrude>1</extrude><tesselate>1</tesselate><coordinates>-81.4615774,28.473578399999997,0 -81.4621581,28.473825599999998,0 -81.46227040000001,28.473847099999997,0 -81.4623582,28.473826299999995,0 -81.462473,28.473746399999996,0 -81.46350840000001,28.471928199999997,0 -81.4637404,28.471384099999998,0 -81.4637524,28.471251499999997,0 -81.46374,28.471186799999998,0 -81.4636942,28.471093299999996,0 -81.46362690000001,28.471016099999996,0 -81.4635344,28.470960299999994,0 -81.46276110000001,28.470722599999995,0 -81.462653,28.4706475,0 -81.4625149,28.470489199999996,0 -81.4624352,28.470324299999998,0 -81.4624185,28.470089399999996,0 -81.4624663,28.469917899999995,0 -81.4630313,28.468850599999996,0 -81.4634986,28.468301199999996,0 -81.4652781,28.466654699999996,0 -81.4654523,28.466536199999997,0 -81.46570279999999,28.466461799999994,0 -81.4659247,28.46645519999999,0 -81.4660864,28.466491299999994,0 -81.46626649999999,28.466575899999995,0 -81.46645749999999,28.466743099999995,0 -81.4665437,28.466896999999996,0 -81.46659129999999,28.467123599999994,0 -81.46656429999999,28.467288999999997,0 -81.46644059999998,28.467520299999997,0 -81.46632629999999,28.467628299999998,0 -81.4661941,28.467709099999997,0 -81.46603509999998,28.4677692,0 -81.46579949999999,28.467793999999998,0 -81.46566639999999,28.4677786,0 -81.46546249999999,28.467710999999998,0 -81.4653247,28.467627399999998,0 -81.46520439999999,28.467505199999998,0 -81.46509999999999,28.467332199999998,0 -81.4650429,28.467274599999996,0 -81.46485340000001,28.465838899999998,0 -81.4647612,28.465473799999998,0 -81.464697,28.465423699999995,0 -81.4644871,28.465155699999993,0 -81.4644492,28.465193699999997,0 -81.4642716,28.465259199999995,0 -81.4632876,28.465973399999996,0 -81.4594925,28.469955199999998,0 -81.4594037,28.4701085,0 -81.43811720000001,28.487678199999998,0 -81.4365354,28.489152199999996,0 -81.4219443,28.5060616,0 -81.42144630000001,28.506567099999998,0 -81.4207829,28.5071297,0 -81.4198044,28.5077911,0 -81.41840420000001,28.508465299999997,0 -81.4172439,28.508837099999997,0 -81.41663210000002,28.508972299999996,0 -81.41516890000001,28.509147899999995,0 -81.40097970000001,28.509261399999996,0 -81.39970310000002,28.509377999999998,0 -81.39894860000001,28.5095094,0 -81.39753070000002,28.509892699999998,0 -81.39673820000002,28.510194499999997,0 -81.39552340000002,28.510780599999997,0 -81.3947818,28.511217699999996,0 -81.38895600000001,28.515299299999995,0 -81.3884305,28.5157937,0 -81.3878334,28.5164536,0 -81.3871207,28.5174814,0 -81.3867588,28.5181696,0 -81.3862966,28.5194181,0 -81.38606229999999,28.520598500000002,0 -81.386009,28.5213709,0 -81.3860208,28.5282136,0 -81.3857727,28.529931100000002,0 -81.3855514,28.530662600000003,0 -81.3852435,28.5314139,0 -81.3828106,28.535652000000002,0 -81.38232109999998,28.5367849,0 -81.38204449999999,28.537967500000004,0 -81.3818531,28.539918800000006,0 -81.382284,28.548564000000006,0 -81.3822109,28.548705500000004,0 -81.3821363,28.5505616,0 -81.38199630000001,28.551895100000003,0 -81.38191560000001,28.5520035,0 -81.38181600000001,28.5527582,0 -81.38175400000002,28.552894300000002,0 -81.38164800000001,28.552985400000004,0 -81.38140250000001,28.553040300000003,0 -81.37919760000001,28.553053300000002,0 -81.37905170000002,28.553106300000003,0 -81.35331980000002,28.553180700000002,0 -81.35318310000002,28.553129100000003,0 -81.33283200000002,28.553397200000003,0 -81.33139210000002,28.553307200000006,0 -81.32364410000002,28.553310700000004,0 -81.32178470000002,28.553469600000007,0 -81.31958030000001,28.553794100000008,0 -81.31776750000002,28.55417360000001,0 -81.31593130000002,28.554700600000007,0 -81.31404510000002,28.555365400000007,0 -81.31389970000001,28.55545770000001,0 -81.3124932,28.556045300000008,0 -81.31044510000001,28.55713400000001,0 -81.30948590000001,28.557781200000008,0 -81.303111,28.562588400000006,0 -81.3011912,28.563819100000007,0 -81.2986001,28.565179600000008,0 -81.2969568,28.56589500000001,0 -81.29435289999999,28.56679900000001,0 -81.29227089999999,28.56734830000001,0 -81.28909829999999,28.56793310000001,0 -81.28762549999999,28.568106000000007,0 -81.28605639999999,28.56818970000001,0 -81.28609279999998,28.57162040000001,0 -81.28614499999998,28.57168120000001,0 -81.28615279999998,28.57224510000001,0 -81.28608389999998,28.57234680000001,0 -81.28649279999999,28.597057800000012,0 -81.28638039999998,28.597209800000012,0 -81.28626599999998,28.59728390000001,0 -81.28611849999999,28.59732980000001,0 -81.27951049999999,28.597432000000012,0 -81.278577,28.597579800000016,0 -81.2776256,28.597887700000012,0 -81.27704809999999,28.598149900000013,0 -81.2749451,28.599359600000014,0 -81.27410379999999,28.599732000000014,0 -81.2732377,28.599954700000016,0 -81.27271089999999,28.600032900000013,0 -81.2719304,28.600051400000012,0 -81.27118349999999,28.599982800000014,0 -81.27035179999999,28.59979840000001,0 -81.26398429999999,28.597642600000015,0 -81.2631067,28.597429600000012,0 -81.26227060000001,28.597324300000015,0 -81.254045,28.597134800000017,0 -81.244577,28.597393700000016,0 -81.2244713,28.59753410000002,0 -81.22446570000001,28.598533300000014,0 -81.22428500000001,28.599864000000014,0 -81.22424990000002,28.601576300000016,0 -81.22314210000002,28.601558400000016,0 -81.22277770000001,28.601597500000015,0 -81.22237480000001,28.601722900000013,0 -81.2218103,28.60202310000001,0 -81.2217989,28.602073500000014,0 -81.2205269,28.603052600000016,0 -81.22027379999999,28.603203300000015,0 -81.2196709,28.603416700000015,0 -81.21934429999999,28.603471600000017,0 -81.21922529999999,28.603454600000013,0 -81.2179343,28.603603500000013,0 -81.21773679999998,28.603055300000015,0 -81.21745399999999,28.602575400000013,0 -81.21704719999998,28.602134900000014,0 -81.21682619999999,28.601965800000013,0 -81.21673399999999,28.60196230000001,0 -81.21659869999998,28.60185930000001,0 -81.21626189999998,28.601506700000012,0 -81.21585109999998,28.600803400000014,0 -81.21572729999998,28.600061800000013,0 -81.21576469999998,28.599975900000015,0 -81.21590249999998,28.598854500000016,0 -81.21617999999998,28.598861400000015,0 -81.21613399999998,28.599528200000016,0 -81.21615379999997,28.599581100000012,0 -81.21618389999998,28.599602800000014,0 -81.21631279999998,28.599613900000016,0 </coordinates></LineString><TimeSpan><begin>2019-09-22T22:06:00.000Z</begin><end>2019-09-22T22:49:56.000Z</end></TimeSpan></Placemark><Placemark><name>Hampton Inn &amp; Suites Orlando/East UCF Area</name><address>3450 Quadrangle Blvd, Orlando, FL 32817</address><ExtendedData><Data name="Email"><value>syugen.zhou@gmail.com</value></Data><Data name="Category"><value>Hotel</value></Data><Data name="Distance"><value>0</value></Data></ExtendedData><description> Hotel from 2019-09-22T22:49:56.098Z to 2019-09-23T19:04:05.000Z. Distance 0m </description><Point><coordinates>-81.2164763,28.599252999999997,0</coordinates></Point><TimeSpan><begin>2019-09-22T22:49:56.098Z</begin><end>2019-09-23T19:04:05.000Z</end></TimeSpan></Placemark></Document></kml>
