<?xml version="1.0" encoding="UTF-8"?><kml xmlns="http://www.opengis.net/kml/2.2" xmlns:gx="http://www.google.com/kml/ext/2.2"><Document><name> Location history from 2021-09-11 to 2021-09-11 </name><open>1</open><description></description><StyleMap id="multiTrack"><Pair><key>normal</key><styleUrl>#multiTrack_n</styleUrl></Pair><Pair><key>highlight</key><styleUrl>#multiTrack_h</styleUrl></Pair></StyleMap><Style id="multiTrack_n"><IconStyle><Icon><href>https://earth.google.com/images/kml-icons/track-directional/track-0.png</href></Icon></IconStyle><LineStyle><color>99ffac59</color><width>6</width></LineStyle></Style><Style id="multiTrack_h"><IconStyle><scale>1.2</scale><Icon><href>https://earth.google.com/images/kml-icons/track-directional/track-0.png</href></Icon></IconStyle><LineStyle><color>99ffac59</color><width>8</width></LineStyle></Style><Placemark><name>430 Station Park Cir</name><address>430 Station Park Cir, San Mateo, CA 94402</address><ExtendedData><Data name="Email"><value>syugen.zhou@gmail.com</value></Data><Data name="Category"><value></value></Data><Data name="Distance"><value>0</value></Data></ExtendedData><description>  from 2021-09-11T01:34:24.717Z to 2021-09-11T16:28:20.329Z. Distance 0m </description><Point><coordinates>-122.3074042,37.5543082,0</coordinates></Point><TimeSpan><begin>2021-09-11T01:34:24.717Z</begin><end>2021-09-11T16:28:20.329Z</end></TimeSpan></Placemark><Placemark><name>Driving</name><address></address><ExtendedData><Data name="Email"><value>syugen.zhou@gmail.com</value></Data><Data name="Category"><value>Driving</value></Data><Data name="Distance"><value>2307</value></Data></ExtendedData><description> Driving from 2021-09-11T16:28:20.329Z to 2021-09-11T16:36:14.080Z. Distance 2307m </description><LineString><altitudeMode>clampToGround</altitudeMode><extrude>1</extrude><tesselate>1</tesselate><coordinates>-122.30747059999999,37.554036100000005,0 -122.30723769999997,37.5538138,0 -122.30723769999997,37.5538138,0 -122.30722029999997,37.5536844,0 -122.30713649999996,37.5537342,0 -122.30676479999995,37.5539464,0 -122.30656829999997,37.5540621,0 -122.30611569999996,37.5543276,0 -122.30611569999996,37.5543276,0 -122.30660539999998,37.5548006,0 -122.30674379999998,37.5549276,0 -122.30707489999999,37.5552513,0 -122.30716259999998,37.555331900000006,0 -122.3074521,37.5555918,0 -122.30768339999999,37.555801100000004,0 -122.30781969999998,37.55592000000001,0 -122.30796319999997,37.55605690000001,0 -122.30810989999999,37.55619030000001,0 -122.30834939999998,37.55640810000001,0 -122.30860979999999,37.55664750000001,0 -122.30866889999999,37.55670330000002,0 -122.30881629999998,37.55683890000002,0 -122.30892469999998,37.55693870000001,0 -122.30901809999999,37.557024700000014,0 -122.30935779999999,37.55734190000002,0 -122.30957559999999,37.55753920000002,0 -122.30966609999997,37.55762120000002,0 -122.30971839999997,37.55766660000002,0 -122.30982489999997,37.55776400000002,0 -122.31071129999998,37.55858520000002,0 -122.31169769999998,37.559483100000016,0 -122.31220849999997,37.55995200000001,0 -122.31273289999997,37.560432700000014,0 -122.31335459999997,37.56099980000001,0 -122.31401179999996,37.56159930000001,0 -122.31437009999998,37.56192610000001,0 -122.31438369999996,37.56193850000001,0 -122.31572299999996,37.56317290000001,0 -122.31713739999996,37.56446900000001,0 -122.31747519999996,37.56478410000001,0 -122.31856369999996,37.56577160000001,0 -122.31885699999995,37.56603830000001,0 -122.31896559999997,37.56613710000001,0 -122.31920459999996,37.56636680000001,0 -122.31953559999998,37.56667760000001,0 -122.31982099999998,37.566938000000015,0 -122.32005469999997,37.56714450000002,0 -122.32050629999996,37.56755800000002,0 -122.32087709999995,37.567897600000016,0 -122.32174209999997,37.56867710000001,0 -122.32174209999997,37.56867710000001,0 -122.32249129999997,37.56813260000001,0 -122.32319329999997,37.56766830000001,0 -122.32327859999997,37.56760960000001,0 -122.32332459999998,37.567579800000004,0 -122.32337129999996,37.56754710000001,0 -122.32354589999996,37.56742510000001,0 -122.32368549999995,37.56733290000001,0 -122.32397079999996,37.56713430000001,0 </coordinates></LineString><TimeSpan><begin>2021-09-11T16:28:20.329Z</begin><end>2021-09-11T16:36:14.080Z</end></TimeSpan></Placemark><Placemark><name>Philz Coffee</name><address>113 S B St, San Mateo, CA 94401</address><ExtendedData><Data name="Email"><value>syugen.zhou@gmail.com</value></Data><Data name="Category"><value>Coffee shop</value></Data><Data name="Distance"><value>0</value></Data></ExtendedData><description> Coffee shop from 2021-09-11T16:36:14.080Z to 2021-09-11T16:50:12.133Z. Distance 0m </description><Point><coordinates>-122.3237176,37.5669391,0</coordinates></Point><TimeSpan><begin>2021-09-11T16:36:14.080Z</begin><end>2021-09-11T16:50:12.133Z</end></TimeSpan></Placemark><Placemark><name>Driving</name><address></address><ExtendedData><Data name="Email"><value>syugen.zhou@gmail.com</value></Data><Data name="Category"><value>Driving</value></Data><Data name="Distance"><value>264675</value></Data></ExtendedData><description> Driving from 2021-09-11T16:50:12.133Z to 2021-09-11T20:51:31.999Z. Distance 264675m </description><LineString><altitudeMode>clampToGround</altitudeMode><extrude>1</extrude><tesselate>1</tesselate><coordinates>-122.3239653,37.5677692,0 -122.324248,37.568001200000005,0 -122.3247324,37.567694700000004,0 -122.32409510000001,37.56704780000001,0 -122.32174210000001,37.56867710000001,0 -122.3208771,37.56789760000001,0 -122.3191414,37.5691113,0 -122.31748069999999,37.56757290000001,0 -122.3145595,37.56954350000001,0 -122.31353730000001,37.569696500000006,0 -122.3132415,37.569655000000004,0 -122.31237999999999,37.56907270000001,0 -122.3122352,37.56906630000001,0 -122.30135800000001,37.558823600000004,0 -122.30137859999999,37.558657600000004,0 -122.2978112,37.55454430000001,0 -122.2971192,37.554063000000006,0 -122.29397499999999,37.55322680000001,0 -122.29322429999999,37.55327880000001,0 -122.28806379999999,37.555052800000006,0 -122.2850003,37.5564012,0 -122.27360219999998,37.563484900000006,0 -122.24403819999999,37.59012750000001,0 -122.24250639999998,37.59087060000001,0 -122.15242059999997,37.61751840000001,0 -122.11242779999998,37.6310002,0 -122.10423259999996,37.63462160000001,0 -122.10405529999996,37.634614000000006,0 -122.10031109999997,37.63592900000001,0 -122.09903889999995,37.63661280000001,0 -122.09806459999996,37.63740520000001,0 -122.09731259999995,37.6383069,0 -122.09502329999995,37.642064600000005,0 -122.09360379999994,37.64316350000001,0 -122.09319349999993,37.643803500000004,0 -122.09308509999993,37.64437700000001,0 -122.09323159999992,37.645064100000006,0 -122.09350099999993,37.64549350000001,0 -122.09541569999993,37.647356300000006,0 -122.09554239999993,37.64739970000001,0 -122.11065439999994,37.67134020000001,0 -122.11178249999995,37.67255880000001,0 -122.13050829999995,37.68563970000002,0 -122.13052189999993,37.685789000000014,0 -122.13351679999992,37.68812680000001,0 -122.13376919999992,37.688451100000016,0 -122.13392779999992,37.689041400000015,0 -122.13365889999993,37.68980160000001,0 -122.13321149999993,37.69019720000001,0 -122.13275719999992,37.69040270000001,0 -122.1309082999999,37.69072980000001,0 -122.12963869999992,37.69078830000001,0 -122.1265773999999,37.69057850000001,0 -122.1132835999999,37.688490800000004,0 -122.11024059999991,37.688501,0 -122.08989659999989,37.690484000000005,0 -122.0729948999999,37.6905732,0 -122.0690005999999,37.6908863,0 -122.05925479999989,37.6934178,0 -122.05701929999991,37.6936046,0 -122.05236929999991,37.6932255,0 -122.04934919999991,37.6935132,0 -122.0471897999999,37.69418099999999,0 -122.0448453999999,37.69549789999999,0 -122.0404979999999,37.699433799999994,0 -122.0391233999999,37.700401299999996,0 -122.03691709999991,37.7013825,0 -122.0349541999999,37.7018465,0 -122.0331762999999,37.701992000000004,0 -122.0312400999999,37.7018633,0 -122.0274897999999,37.700950600000006,0 -122.02519599999991,37.70067050000001,0 -122.02254329999991,37.700835700000006,0 -122.01618279999991,37.7026485,0 -122.00149059999991,37.7033598,0 -121.99763009999991,37.7030206,0 -121.99404479999991,37.70208840000001,0 -121.98893669999993,37.6999872,0 -121.98786999999992,37.6996957,0 -121.97334219999992,37.697427100000006,0 -121.96928959999993,37.697063500000006,0 -121.96607899999991,37.69710870000001,0 -121.95754579999992,37.69826040000001,0 -121.93563519999991,37.698136100000006,0 -121.9338039999999,37.698312900000005,0 -121.9182502999999,37.701663100000005,0 -121.7939978999999,37.700554600000004,0 -121.7895125999999,37.6995942,0 -121.7879859999999,37.6994333,0 -121.7757495999999,37.700449400000004,0 -121.76090439999992,37.7027252,0 -121.74348969999993,37.7022333,0 -121.73920969999992,37.7027166,0 -121.73659559999992,37.7035106,0 -121.70672939999992,37.71615490000001,0 -121.70408849999991,37.7169646,0 -121.6819456999999,37.7216822,0 -121.68035299999991,37.7217421,0 -121.6764248999999,37.72133109999999,0 -121.6747137999999,37.7208761,0 -121.6713499999999,37.718919699999994,0 -121.66897209999992,37.71807329999999,0 -121.66710199999993,37.717841299999996,0 -121.66577859999992,37.7178797,0 -121.66428429999992,37.71812369999999,0 -121.63660019999993,37.7268991,0 -121.63473779999993,37.7280076,0 -121.63137779999992,37.731609199999994,0 -121.62890639999993,37.733078199999994,0 -121.62764619999994,37.733470999999994,0 -121.61217599999995,37.734652999999994,0 -121.60797479999995,37.735437,0 -121.60132069999996,37.7372715,0 -121.57922619999995,37.7412989,0 -121.54927459999996,37.743515,0 -121.50027059999996,37.7404509,0 -121.49750539999997,37.7406177,0 -121.49410019999998,37.7413731,0 -121.44347069999996,37.7619253,0 -121.44163459999996,37.7623841,0 -121.43866049999995,37.762771,0 -121.42444679999996,37.7628299,0 -121.40978299999996,37.7647052,0 -121.35450399999995,37.7648619,0 -121.33118959999996,37.7671758,0 -121.32962599999996,37.7676018,0 -121.32812249999995,37.7682296,0 -121.32646919999996,37.7692655,0 -121.32530179999996,37.7703269,0 -121.32278789999997,37.7733373,0 -121.31976479999997,37.77569209999999,0 -121.31964649999998,37.775881399999996,0 -121.30599749999998,37.7853047,0 -121.30579439999997,37.7853047,0 -121.29992329999996,37.788534,0 -121.29795939999995,37.789297600000005,0 -121.29473549999994,37.7899608,0 -121.29322569999995,37.790052200000005,0 -121.29056559999994,37.7899043,0 -121.26482639999995,37.7833291,0 -121.26152069999995,37.78302120000001,0 -121.19315719999996,37.7832203,0 -121.19190119999995,37.78347780000001,0 -121.19122719999996,37.78376790000001,0 -121.18949159999995,37.7849609,0 -121.18840619999995,37.7853061,0 -121.18716479999996,37.7852728,0 -121.18641359999997,37.785036,0 -121.18560499999997,37.784503199999996,0 -121.18499759999997,37.783531499999995,0 -121.18493489999997,37.7828199,0 -121.18515949999997,37.782372699999996,0 -121.18566749999998,37.7820634,0 -121.18609439999999,37.7820032,0 -121.18651449999999,37.7820603,0 -121.1870112,37.7823378,0 -121.1872134,37.7825993,0 -121.1877253,37.7842937,0 -121.1878338,37.7844008,0 -121.19045050000001,37.7946668,0 -121.1905797,37.797419,0 -121.1898933,37.7974663,0 -121.1897749,37.7975481,0 -121.0001164,37.7985166,0 -121.0000149,37.798564,0 -120.9987122,37.7984559,0 -120.9983759,37.7983299,0 -120.9975682,37.7977819,0 -120.9953085,37.7967225,0 -120.9925921,37.7966075,0 -120.99222209999999,37.7964597,0 -120.98960509999999,37.7944671,0 -120.98910699999999,37.7942847,0 -120.90390109999998,37.7929471,0 -120.88974219999999,37.7915422,0 -120.87073479999997,37.791211000000004,0 -120.86850729999998,37.7908903,0 -120.86714249999997,37.790478,0 -120.86495119999996,37.7893761,0 -120.85601199999996,37.7819876,0 -120.85540719999996,37.78122630000001,0 -120.85141529999996,37.773728000000006,0 -120.85122189999996,37.772907700000005,0 -120.84702879999995,37.76663720000001,0 -120.84350099999995,37.76810210000001,0 -120.84013609999994,37.76911040000001,0 -120.82702349999994,37.77426500000001,0 -120.81633849999993,37.776238000000006,0 -120.77623139999992,37.776594200000005,0 -120.77401999999991,37.776901900000006,0 -120.72972919999991,37.787612100000004,0 -120.72915369999991,37.787844400000004,0 -120.7286070999999,37.788217700000004,0 -120.7260377999999,37.791248200000005,0 -120.72544189999992,37.792256300000005,0 -120.72506199999991,37.7938041,0 -120.7241934999999,37.7958845,0 -120.71863179999991,37.8030793,0 -120.71494589999992,37.8061408,0 -120.7142677999999,37.8064957,0 -120.71333929999992,37.806746100000005,0 -120.71247209999993,37.8067718,0 -120.71070029999993,37.8065025,0 -120.70980809999992,37.8061857,0 -120.70822159999992,37.8052081,0 -120.70633389999993,37.804588,0 -120.70446359999993,37.804521900000005,0 -120.70112809999993,37.8052647,0 -120.69643779999994,37.8072876,0 -120.69523809999994,37.8076118,0 -120.69327099999995,37.8077197,0 -120.69189839999996,37.8074967,0 -120.68991759999996,37.8068955,0 -120.68572699999997,37.806679100000004,0 -120.68465609999998,37.8063394,0 -120.67933289999999,37.80362530000001,0 -120.67838569999998,37.8033617,0 -120.6767359,37.803251800000005,0 -120.6755829,37.8034236,0 -120.67441469999999,37.8038404,0 -120.66707459999999,37.8078819,0 -120.66068530000001,37.812850700000006,0 -120.65647510000001,37.81479950000001,0 -120.6542178,37.816340200000006,0 -120.65075259999999,37.819738400000006,0 -120.65014689999997,37.8201606,0 -120.64845189999997,37.8208685,0 -120.64248849999996,37.822179500000004,0 -120.63992349999997,37.8233219,0 -120.63824709999996,37.8244557,0 -120.62934219999997,37.8319043,0 -120.62782689999996,37.8336609,0 -120.62546759999995,37.8384951,0 -120.62369629999995,37.8403917,0 -120.61648849999995,37.8441419,0 -120.61362309999996,37.8451721,0 -120.60939279999995,37.84601609999999,0 -120.60570699999995,37.846128099999994,0 -120.60231089999996,37.846817099999996,0 -120.59683189999994,37.84920149999999,0 -120.59458349999994,37.84986629999999,0 -120.58916259999994,37.84991279999999,0 -120.58584689999995,37.849190199999995,0 -120.58257939999994,37.84903779999999,0 -120.57997079999994,37.84802099999999,0 -120.57769719999996,37.84742729999999,0 -120.57509519999995,37.84716719999999,0 -120.57171849999995,37.847235699999985,0 -120.56344109999995,37.84635499999999,0 -120.55474439999995,37.84610269999999,0 -120.55106369999994,37.845567499999994,0 -120.54321469999995,37.84331499999999,0 -120.53987189999997,37.84302509999999,0 -120.53445349999997,37.84345079999999,0 -120.52851099999998,37.84297159999999,0 -120.51726549999998,37.84097119999999,0 -120.51531799999997,37.84105259999999,0 -120.50948589999996,37.84257889999999,0 -120.50804439999997,37.843332899999986,0 -120.50749749999997,37.84387709999999,0 -120.50695829999998,37.84473409999999,0 -120.50673229999998,37.84600729999999,0 -120.50686429999998,37.84673259999998,0 -120.51168769999997,37.85750869999998,0 -120.51197909999998,37.85874039999998,0 -120.51164729999998,37.865384499999976,0 -120.51127639999999,37.86698509999998,0 -120.50604039999999,37.88033359999998,0 -120.5055582,37.88105699999998,0 -120.50485110000001,37.88171029999998,0 -120.5016013,37.883498699999976,0 -120.4965817,37.88749169999998,0 -120.4954966,37.88815199999998,0 -120.48826190000001,37.89120019999998,0 -120.4851991,37.88664319999998,0 -120.4793884,37.88209089999998,0 -120.4778787,37.881389499999976,0 -120.4630497,37.879447899999974,0 -120.4605551,37.87816169999998,0 -120.45998329999999,37.87800229999997,0 -120.45944109999999,37.87804479999998,0 -120.45905549999998,37.87820779999998,0 -120.45692509999999,37.87987179999998,0 -120.45641159999998,37.88006269999998,0 -120.45603749999998,37.88004559999998,0 -120.44855339999998,37.87767599999998,0 -120.44533779999998,37.87756969999998,0 -120.43767589999999,37.87573809999998,0 -120.43418059999999,37.874450399999986,0 -120.43159119999999,37.872259599999985,0 -120.4312916,37.87176729999999,0 -120.43115839999999,37.87101939999999,0 -120.43153619999998,37.86947629999999,0 -120.43143689999998,37.86894519999999,0 -120.42464299999997,37.86110869999999,0 -120.41381389999998,37.85285049999999,0 -120.41261029999997,37.85214349999998,0 -120.41039469999998,37.85130309999998,0 -120.40931589999998,37.85106039999998,0 -120.39996949999998,37.85013399999998,0 -120.39426779999998,37.850509899999984,0 -120.39319219999999,37.850305599999984,0 -120.38910109999999,37.84886789999999,0 -120.38106819999999,37.84316149999998,0 -120.37970409999998,37.840470099999976,0 -120.37913219999999,37.83992519999998,0 -120.37781359999998,37.83922839999998,0 -120.37678509999998,37.83901349999998,0 -120.37593679999999,37.83899309999998,0 -120.37179509999999,37.83997019999998,0 -120.37029909999998,37.84001979999998,0 -120.36876939999998,37.83979319999998,0 -120.36765069999997,37.839437499999974,0 -120.36302509999997,37.837183699999976,0 -120.35916319999997,37.83406079999998,0 -120.35478489999996,37.83204509999998,0 -120.35313139999995,37.83154159999998,0 -120.34880589999996,37.83093759999998,0 -120.31539969999996,37.81551019999998,0 -120.31318849999995,37.81493019999998,0 -120.31014659999995,37.81466149999998,0 -120.30532819999995,37.81371289999998,0 -120.30425739999995,37.81364729999998,0 -120.30017359999995,37.81397749999998,0 -120.29956689999997,37.81417569999998,0 -120.29890539999995,37.81457809999998,0 -120.29757369999996,37.81605769999998,0 -120.29758659999996,37.81630209999998,0 -120.29781969999996,37.816576099999985,0 -120.29987819999997,37.81694949999998,0 -120.30021109999997,37.81710999999998,0 -120.30080349999996,37.817690299999974,0 -120.30132149999997,37.81794609999997,0 -120.30359619999996,37.81807669999997,0 -120.30416049999997,37.81833019999997,0 -120.30474349999996,37.81881059999997,0 -120.30517139999995,37.81901659999997,0 -120.30562979999995,37.81910879999997,0 -120.30686719999994,37.819012099999966,0 -120.30708459999995,37.81906899999996,0 -120.30734299999995,37.81925609999996,0 -120.30743889999995,37.81960129999996,0 -120.30726129999995,37.81992129999996,0 -120.30684329999995,37.82010279999996,0 -120.30518159999997,37.81990199999996,0 -120.30454049999997,37.819392599999965,0 -120.30393219999996,37.81917449999996,0 -120.30364269999995,37.81922809999996,0 -120.30268089999997,37.81996439999997,0 -120.30093339999996,37.81988279999996,0 -120.30047869999997,37.82015699999996,0 -120.30007199999997,37.82026949999996,0 -120.29977719999998,37.82050779999996,0 -120.29915689999997,37.820668599999955,0 -120.29898319999997,37.82064749999996,0 -120.29885579999996,37.820556099999955,0 -120.29868249999997,37.82015369999996,0 -120.29825289999997,37.819653899999956,0 -120.29803779999996,37.81956419999996,0 -120.29760579999996,37.81956299999996,0 -120.29713709999994,37.81967569999996,0 -120.29647969999995,37.820082499999955,0 -120.29631249999996,37.820078199999955,0 -120.29614359999995,37.81998429999996,0 -120.29587789999997,37.81930129999996,0 -120.29590039999997,37.81873939999996,0 -120.29572119999997,37.81850679999996,0 -120.29557309999997,37.81845689999996,0 -120.29540159999996,37.81847499999996,0 -120.29395239999997,37.81933679999996,0 -120.29373059999998,37.81966389999996,0 -120.29388159999999,37.82017639999996,0 -120.2935414,37.82072539999996,0 -120.29283499999998,37.82088659999996,0 -120.2919821,37.82132539999996,0 -120.29135509999999,37.82111709999996,0 -120.29125109999998,37.82099369999995,0 -120.29119859999999,37.82027779999995,0 -120.29139419999998,37.81990659999995,0 -120.29130839999999,37.81967719999995,0 -120.2910551,37.81955699999995,0 -120.29006809999998,37.819482999999956,0 -120.28987869999999,37.81954899999995,0 -120.28977929999998,37.81967189999995,0 -120.28981019999998,37.82012029999996,0 -120.28898199999999,37.82103429999996,0 -120.28883470000001,37.821112499999956,0 -120.2882858,37.82118329999995,0 -120.2878522,37.82150249999995,0 -120.28765410000001,37.821522199999954,0 -120.2866339,37.82119539999995,0 -120.28645429999999,37.82121429999995,0 -120.28517799999999,37.82177929999995,0 -120.28499099999999,37.82180289999996,0 -120.28451439999998,37.82160539999996,0 -120.28408659999998,37.82128149999996,0 -120.28363339999999,37.82117119999996,0 -120.28286539999998,37.821374399999954,0 -120.28277229999996,37.821460899999956,0 -120.28274899999995,37.82160459999995,0 -120.28344189999994,37.82223319999995,0 -120.28352119999995,37.82239219999995,0 -120.28357609999993,37.823618599999946,0 -120.28472349999994,37.82440239999995,0 -120.28477029999995,37.82450049999995,0 -120.28473049999994,37.82467499999995,0 -120.28449979999994,37.82480829999995,0 -120.28428109999993,37.824793799999945,0 -120.28257989999992,37.82410969999995,0 -120.28220899999992,37.823490799999945,0 -120.28206629999991,37.82340009999995,0 -120.28007129999992,37.82307529999995,0 -120.27986589999993,37.82317509999995,0 -120.27980319999993,37.82333639999995,0 -120.27987479999992,37.823903399999956,0 -120.27978949999992,37.82416439999996,0 -120.27927529999992,37.824774499999954,0 -120.27912249999993,37.82484949999995,0 -120.27896849999993,37.82485619999996,0 -120.27876209999994,37.824739899999955,0 -120.27852209999993,37.82414009999996,0 -120.27822819999993,37.82392679999995,0 -120.27716139999994,37.82374019999996,0 -120.27706669999993,37.82361869999996,0 -120.27709069999993,37.82271349999996,0 -120.27688839999992,37.82255339999996,0 -120.27614389999992,37.82252449999996,0 -120.27570489999991,37.822236599999954,0 -120.27497549999991,37.82208029999995,0 -120.27482999999991,37.82192429999996,0 -120.2748077999999,37.82170189999996,0 -120.2749073999999,37.82153829999996,0 -120.2768292999999,37.82057959999995,0 -120.2769203999999,37.820444299999956,0 -120.2768443999999,37.820205999999956,0 -120.2760916999999,37.81996949999996,0 -120.27584699999989,37.81979349999995,0 -120.2756535999999,37.81928019999995,0 -120.2754922999999,37.81912149999996,0 -120.2752115999999,37.819028199999956,0 -120.2743486999999,37.81904369999995,0 -120.27419379999989,37.81897909999996,0 -120.27409479999989,37.81883899999996,0 -120.27411219999989,37.81853419999996,0 -120.27404989999988,37.81840219999996,0 -120.27384069999988,37.818297799999954,0 -120.27237649999987,37.81805019999996,0 -120.27219759999987,37.817917899999955,0 -120.27218519999988,37.81768289999996,0 -120.27299489999989,37.81687719999996,0 -120.2730562999999,37.81658469999996,0 -120.27218389999989,37.81469969999996,0 -120.2721951999999,37.81429169999996,0 -120.2721062999999,37.814068699999964,0 -120.27199169999989,37.81398459999997,0 -120.2717083999999,37.813947699999964,0 -120.27021879999991,37.81437599999997,0 -120.26936199999989,37.81504429999997,0 -120.26859619999989,37.81677829999997,0 -120.2683830999999,37.816965399999965,0 -120.26800759999989,37.81712379999996,0 -120.26673529999988,37.81734439999996,0 -120.26438559999987,37.81880119999996,0 -120.26148129999987,37.82252559999996,0 -120.26134069999986,37.82260919999997,0 -120.25809309999987,37.82334999999996,0 -120.25633049999985,37.82481519999997,0 -120.25329639999984,37.826006699999965,0 -120.25210679999984,37.82708329999996,0 -120.24944249999984,37.82843589999997,0 -120.24724559999983,37.82990979999996,0 -120.24650409999984,37.830836099999956,0 -120.24432449999983,37.83237029999996,0 -120.24337069999983,37.83264209999996,0 -120.24137319999983,37.83463279999995,0 -120.23744389999982,37.83652959999995,0 -120.23604679999983,37.836605599999956,0 -120.23225769999983,37.83798309999995,0 -120.22940159999983,37.839467399999954,0 -120.22894039999983,37.83960469999996,0 -120.22536379999981,37.839975899999956,0 -120.2237586999998,37.83965909999996,0 -120.2222222999998,37.838722699999956,0 -120.22154219999982,37.83800809999996,0 -120.22073829999981,37.83654609999996,0 -120.2200149999998,37.83598579999996,0 -120.2189344999998,37.835625999999955,0 -120.21511189999978,37.83541249999996,0 -120.21368259999979,37.83576419999996,0 -120.20982319999979,37.838343299999956,0 -120.20896099999979,37.838718899999954,0 -120.20822469999979,37.838865499999955,0 -120.20752659999978,37.838836399999956,0 -120.20620279999977,37.83829659999996,0 -120.20591589999978,37.838081199999955,0 -120.2030704999998,37.83409299999995,0 -120.19524099999978,37.82885069999995,0 -120.19396699999979,37.828346999999944,0 -120.1903518999998,37.82799419999995,0 -120.18906609999979,37.82809739999995,0 -120.1853268999998,37.82887729999995,0 -120.1840281999998,37.82878399999995,0 -120.17899679999978,37.82734489999995,0 -120.17524669999979,37.82569459999995,0 -120.17268619999979,37.825103499999955,0 -120.16885169999978,37.823320899999956,0 -120.15760839999977,37.820747599999955,0 -120.15610859999977,37.82060929999995,0 -120.14947339999978,37.82109809999995,0 -120.13433199999979,37.82014389999995,0 -120.13289139999978,37.819557099999955,0 -120.13081739999977,37.817780999999954,0 -120.12965669999979,37.81710719999996,0 -120.12607879999977,37.816109699999956,0 -120.12189659999979,37.81383399999996,0 -120.12021209999978,37.81349409999996,0 -120.11903959999978,37.81351419999996,0 -120.11811119999979,37.813671499999955,0 -120.11078429999979,37.81623239999996,0 -120.1095481999998,37.81686559999996,0 -120.0996151999998,37.82357299999995,0 -120.0977745999998,37.82450249999995,0 -120.0959953999998,37.82504439999995,0 -120.09216989999979,37.825517699999956,0 -120.09122639999978,37.82529659999996,0 -120.09039999999979,37.82481439999996,0 -120.08995509999978,37.824339899999956,0 -120.08969829999978,37.823852699999954,0 -120.08935959999978,37.822335099999954,0 -120.08889749999979,37.821530099999954,0 -120.08836489999979,37.82108409999995,0 -120.08666659999979,37.82028259999995,0 -120.0858029999998,37.82009489999995,0 -120.08276089999981,37.820411899999954,0 -120.0816634999998,37.82033239999995,0 -120.0792315999998,37.81964669999995,0 -120.0769903999998,37.81965319999995,0 -120.0761319999998,37.81949359999995,0 -120.07535629999981,37.81912059999995,0 -120.0713795999998,37.81496599999995,0 -120.07048539999981,37.81455649999995,0 -120.06613529999981,37.813833099999954,0 -120.0651387999998,37.813973099999956,0 -120.0608063999998,37.81629219999995,0 -120.05026219999979,37.81981599999995,0 -120.04909749999979,37.819933399999954,0 -120.0464424999998,37.81967189999996,0 -120.0452914999998,37.81981879999996,0 -120.0425871999998,37.821092299999954,0 -120.03856879999981,37.82188749999996,0 -120.03758169999979,37.821861499999955,0 -120.0322614999998,37.82086759999996,0 -120.02961299999981,37.821092999999955,0 -120.02830699999981,37.821480999999956,0 -120.02687319999981,37.822414199999955,0 -120.02577329999981,37.82272279999996,0 -120.02342629999981,37.82270449999996,0 -120.02257059999981,37.82305179999995,0 -120.02219489999982,37.823372599999956,0 -120.02149529999981,37.82451479999996,0 -120.02086909999981,37.82497669999996,0 -120.0202158999998,37.825191199999956,0 -120.01986849999982,37.825200299999956,0 -120.01890779999982,37.82480709999996,0 -120.01752279999982,37.82305859999996,0 -120.01662549999982,37.82251459999996,0 -120.01620249999982,37.82250129999996,0 -120.01442559999981,37.82280869999996,0 -120.01338229999982,37.82315249999996,0 -120.01285399999982,37.82371599999996,0 -120.01181029999981,37.824465399999966,0 -120.0105508999998,37.82483109999996,0 -120.0060089999998,37.82437399999996,0 -120.0051338999998,37.82379329999996,0 -120.00473169999981,37.823165999999965,0 -120.0042417999998,37.822736699999965,0 -120.0033757999998,37.822454099999966,0 -120.00266419999981,37.82251709999996,0 -120.00104049999982,37.82307979999997,0 -120.00048249999982,37.82308489999996,0 -119.99970869999981,37.82287219999996,0 -119.99715089999982,37.82123139999996,0 -119.99662639999983,37.82108349999996,0 -119.99566579999983,37.82111109999996,0 -119.99518349999984,37.82127889999996,0 -119.99465919999983,37.82167389999996,0 -119.99374959999984,37.823014399999956,0 -119.99306869999984,37.823491599999954,0 -119.99248209999986,37.823669899999956,0 -119.98892419999986,37.82365109999995,0 -119.98824219999986,37.82384019999995,0 -119.98763799999986,37.82431089999995,0 -119.98725619999988,37.82528839999995,0 -119.98418219999988,37.82909339999995,0 -119.9837519999999,37.82933439999995,0 -119.9832521999999,37.829437799999944,0 -119.9828005999999,37.82940899999995,0 -119.9820962999999,37.829186799999945,0 -119.9801521999999,37.82803779999995,0 -119.9790799999999,37.82770049999994,0 -119.97491949999988,37.82716809999994,0 -119.9740431999999,37.82672089999994,0 -119.97238729999988,37.82531789999994,0 -119.97160259999988,37.82495119999994,0 -119.96971789999988,37.82450069999994,0 -119.96918279999987,37.82425949999993,0 -119.96758859999989,37.82314049999994,0 -119.96637769999988,37.822636999999936,0 -119.95915449999987,37.821612899999934,0 -119.95819929999986,37.821161199999935,0 -119.95596579999987,37.81867239999994,0 -119.95560079999989,37.81847429999994,0 -119.95508979999987,37.81835909999994,0 -119.95424469999986,37.81844789999994,0 -119.95305319999987,37.81890889999994,0 -119.95232679999987,37.81892409999994,0 -119.95192839999987,37.81882119999993,0 -119.95132739999987,37.818430499999934,0 -119.94953599999987,37.816022099999934,0 -119.94882359999986,37.81575809999993,0 -119.94827709999984,37.81573849999993,0 -119.94685629999985,37.816095099999934,0 -119.94481219999986,37.81613139999993,0 -119.94260559999985,37.816480099999936,0 -119.94083199999984,37.81593259999993,0 -119.94018309999986,37.815957199999936,0 -119.93912229999985,37.81628149999994,0 -119.93798449999984,37.81622979999993,0 -119.93663069999987,37.815710199999934,0 -119.93408079999985,37.81514589999994,0 -119.93325469999985,37.81521309999994,0 -119.93268409999985,37.81547219999994,0 -119.93185819999984,37.816239199999934,0 -119.93131699999984,37.81649319999993,0 -119.93085289999983,37.81657139999993,0 -119.92922679999984,37.81631559999993,0 -119.92865479999985,37.816365699999935,0 -119.92164099999984,37.81860649999993,0 -119.92120129999985,37.81900169999993,0 -119.92051779999986,37.82020169999993,0 -119.92006399999987,37.820476399999926,0 -119.91856519999986,37.820834999999924,0 -119.91792259999986,37.82115469999992,0 -119.91712899999986,37.821936199999925,0 -119.91676709999986,37.82213089999993,0 -119.91621509999986,37.822270499999924,0 -119.91574859999986,37.822271099999924,0 -119.91513589999987,37.822103399999925,0 -119.91462989999988,37.82176549999992,0 -119.91436509999987,37.82138449999992,0 -119.91412389999986,37.82006809999992,0 -119.91392619999986,37.81965459999992,0 -119.91323189999987,37.81890289999992,0 -119.91117259999989,37.81779449999992,0 -119.91055349999988,37.81708489999992,0 -119.91008689999988,37.81568079999992,0 -119.90981539999989,37.815318299999916,0 -119.90928099999991,37.81491769999992,0 -119.9087516999999,37.81471429999992,0 -119.90703199999992,37.81451689999992,0 -119.90622219999992,37.81425049999992,0 -119.90566879999993,37.81392199999992,0 -119.90519689999991,37.81345269999992,0 -119.90440929999991,37.81208279999992,0 -119.90375389999991,37.81150529999992,0 -119.9018704999999,37.810859299999926,0 -119.90093339999991,37.81091619999992,0 -119.90040739999992,37.81116949999993,0 -119.89992529999992,37.81165889999992,0 -119.89967189999993,37.81336249999992,0 -119.89948249999992,37.81361709999992,0 -119.89879409999993,37.81403169999992,0 -119.89783969999993,37.81413859999992,0 -119.89541589999995,37.81338259999992,0 -119.89425609999994,37.813247999999916,0 -119.89070419999993,37.813504399999914,0 -119.88166119999993,37.813531899999916,0 -119.88029559999993,37.81393319999992,0 -119.87810809999992,37.815672799999916,0 -119.87737779999992,37.81596229999992,0 -119.87678499999991,37.81600929999992,0 -119.8761401999999,37.81589519999992,0 -119.8753727999999,37.81543709999992,0 -119.87514269999991,37.81510379999992,0 -119.87476009999992,37.812374299999924,0 -119.87412799999991,37.81152929999992,0 -119.87219529999992,37.810091299999925,0 -119.87195259999991,37.80954709999992,0 -119.87194969999993,37.80912159999992,0 -119.87211829999993,37.80864169999992,0 -119.87320959999992,37.807459499999915,0 -119.87328039999993,37.80678009999992,0 -119.87280599999993,37.80575879999992,0 -119.87267139999992,37.804894999999924,0 -119.87513739999991,37.79976369999992,0 -119.87536069999993,37.79887039999992,0 -119.87520499999992,37.79796349999992,0 -119.87442319999992,37.79660359999992,0 -119.87429559999993,37.79597059999992,0 -119.87445239999991,37.79481499999992,0 -119.87425129999991,37.79396389999992,0 -119.8738497999999,37.79346759999992,0 -119.87284339999991,37.79265049999992,0 -119.87260879999991,37.79216899999992,0 -119.8726091999999,37.79168729999992,0 -119.8728716999999,37.79116969999992,0 -119.87338989999992,37.79076519999992,0 -119.87401129999992,37.79058959999992,0 -119.87552179999993,37.790446599999925,0 -119.87613919999991,37.79009319999992,0 -119.87641959999992,37.78977929999992,0 -119.87655719999992,37.789236699999925,0 -119.87644349999992,37.78872029999992,0 -119.87460339999993,37.78661329999993,0 -119.87138739999993,37.783875799999926,0 -119.86976709999992,37.783038399999924,0 -119.86932769999991,37.78261369999993,0 -119.86883259999992,37.78157879999993,0 -119.86835009999992,37.78105409999993,0 -119.8677076999999,37.78064809999992,0 -119.86670329999991,37.78026449999992,0 -119.8662822999999,37.77999189999992,0 -119.8659601999999,37.77952319999993,0 -119.86555029999991,37.778016099999924,0 -119.8652519999999,37.777555799999924,0 -119.8646388999999,37.777167999999925,0 -119.8620919999999,37.77656209999992,0 -119.8616144999999,37.776282099999925,0 -119.86124809999993,37.77576419999992,0 -119.86116499999993,37.77537019999993,0 -119.86149619999993,37.773768499999925,0 -119.86145849999993,37.76950339999993,0 -119.86137899999993,37.76928169999993,0 -119.85926439999993,37.76661589999993,0 -119.85880449999995,37.766326399999926,0 -119.85802629999995,37.76610899999993,0 -119.85621699999996,37.76627809999993,0 -119.85541259999997,37.76609489999993,0 -119.85472559999997,37.76551809999992,0 -119.85438099999998,37.76447649999992,0 -119.85413789999998,37.764123399999924,0 -119.85345449999998,37.763688699999925,0 -119.85250539999997,37.76358799999992,0 -119.85189399999999,37.76375719999993,0 -119.85091969999998,37.76427559999993,0 -119.85007789999997,37.764455499999926,0 -119.84177709999997,37.76317569999993,0 -119.83950949999998,37.76318009999992,0 -119.83712089999999,37.762480599999925,0 -119.8343534,37.76236899999993,0 -119.83384400000001,37.76218979999993,0 -119.83321630000002,37.761593999999924,0 -119.83229130000002,37.759656399999926,0 -119.83190700000002,37.75934659999992,0 -119.82814160000002,37.75832499999993,0 -119.82770950000001,37.758086399999925,0 -119.82585270000003,37.75559199999993,0 -119.82555790000002,37.75492059999993,0 -119.82544400000003,37.75287439999993,0 -119.82525880000004,37.75248549999993,0 -119.82491320000004,37.75215029999993,0 -119.82421970000003,37.75185089999994,0 -119.82288540000003,37.75165779999994,0 -119.82241720000003,37.75169479999994,0 -119.82193990000005,37.75185569999994,0 -119.82137570000003,37.75228969999994,0 -119.82119630000001,37.752562699999935,0 -119.82102290000003,37.75355039999994,0 -119.82058350000003,37.754384299999934,0 -119.81838490000003,37.75589989999993,0 -119.81791500000003,37.75599219999994,0 -119.81740640000001,37.75595089999993,0 -119.8165189,37.75562159999993,0 -119.81611240000001,37.75497059999993,0 -119.81580170000002,37.754053399999925,0 -119.81552970000001,37.75371369999993,0 -119.81503210000002,37.75340859999992,0 -119.81420310000003,37.75327239999993,0 -119.81230080000002,37.753688599999926,0 -119.81172430000002,37.75362809999993,0 -119.81098280000003,37.75324509999993,0 -119.80851890000002,37.75083959999993,0 -119.80739580000001,37.74845849999993,0 -119.80668970000002,37.747965899999926,0 -119.80440110000002,37.74734389999993,0 -119.80369700000001,37.74729899999993,0 -119.80286970000002,37.747585299999926,0 -119.80240510000002,37.747979699999924,0 -119.80217600000003,37.74842139999993,0 -119.80224930000003,37.749055999999925,0 -119.80277690000004,37.749965599999925,0 -119.80280350000004,37.75062919999993,0 -119.80263360000005,37.75100369999992,0 -119.80218410000003,37.75141189999992,0 -119.80134760000003,37.75168899999992,0 -119.79954720000002,37.751668799999926,0 -119.79808400000002,37.75239209999992,0 -119.79757740000001,37.752494899999924,0 -119.79672090000001,37.75246249999993,0 -119.79640090000002,37.75237689999993,0 -119.79319400000001,37.750569299999924,0 -119.79222160000002,37.75029449999993,0 -119.79090300000001,37.75039899999993,0 -119.78636470000001,37.75188949999993,0 -119.7854832,37.75187579999994,0 -119.78481490000001,37.75169089999993,0 -119.78429050000001,37.75138949999993,0 -119.7831329,37.750331299999935,0 -119.7821976,37.74985219999993,0 -119.78188779999999,37.74936659999993,0 -119.7818012,37.74881059999993,0 -119.78162749999998,37.74850349999993,0 -119.78130349999998,37.74822159999993,0 -119.77968209999999,37.74771639999993,0 -119.77881329999998,37.74671819999993,0 -119.77838959999998,37.74651629999993,0 -119.7769982,37.746293999999935,0 -119.77673419999999,37.74610189999993,0 -119.77650539999999,37.74576519999993,0 -119.7763202,37.74484799999993,0 -119.775417,37.74369059999993,0 -119.77481089999999,37.74239309999993,0 -119.7731795,37.73998699999993,0 -119.77279289999998,37.73963949999993,0 -119.77237119999998,37.73947389999993,0 -119.76891789999998,37.73937419999993,0 -119.76794929999998,37.739637899999934,0 -119.76586089999998,37.73956639999993,0 -119.76491969999998,37.73987779999993,0 -119.76448209999997,37.74029919999993,0 -119.76403339999996,37.74139369999993,0 -119.76370839999997,37.74172389999993,0 -119.76197049999998,37.74269479999994,0 -119.75899449999996,37.743736699999936,0 -119.75842779999995,37.74378389999993,0 -119.75775179999995,37.74362939999993,0 -119.75730099999994,37.743365099999934,0 -119.75694709999995,37.742933399999934,0 -119.75683249999993,37.74256889999994,0 -119.75686529999994,37.74212839999994,0 -119.75720449999993,37.74156259999994,0 -119.75887819999994,37.74018319999993,0 -119.75910129999993,37.73979459999993,0 -119.75910179999993,37.73911779999993,0 -119.75852649999992,37.73838339999993,0 -119.75840489999992,37.73801909999993,0 -119.75896909999992,37.73680289999993,0 -119.75893149999992,37.735804399999935,0 -119.75992809999993,37.733839199999935,0 -119.76047329999992,37.73343269999994,0 -119.76068349999993,37.73315419999994,0 -119.76071419999992,37.73265999999993,0 -119.76049949999994,37.73229499999994,0 -119.76022999999992,37.73211109999993,0 -119.75963829999992,37.731972599999935,0 -119.75744259999993,37.732668799999935,0 -119.75674249999993,37.73270209999994,0 -119.75609849999994,37.73241739999994,0 -119.75583939999993,37.73192409999994,0 -119.75625039999993,37.730922599999936,0 -119.75642309999994,37.72980179999993,0 -119.75612869999992,37.72920489999993,0 -119.75573369999991,37.72889939999993,0 -119.7551039999999,37.72870639999993,0 -119.75448299999992,37.728731199999935,0 -119.75304359999991,37.72946709999993,0 -119.75277549999993,37.72952749999993,0 -119.75228079999992,37.72948499999993,0 -119.75178499999991,37.72916799999993,0 -119.75038649999992,37.72660919999993,0 -119.7497452999999,37.72598539999993,0 -119.7484335999999,37.72513269999993,0 -119.7419394999999,37.71916749999993,0 -119.73974259999989,37.716631999999926,0 -119.73628469999989,37.71444039999993,0 -119.73492019999989,37.71406739999993,0 -119.7334067999999,37.714023599999926,0 -119.73192379999989,37.71357269999993,0 -119.73118819999989,37.71348099999993,0 -119.72807249999988,37.71368279999993,0 -119.7272622999999,37.71401239999994,0 -119.72680929999987,37.71436989999994,0 -119.72570629999987,37.71586679999994,0 -119.72382509999986,37.71690349999993,0 -119.72219279999986,37.71820719999993,0 -119.72185929999985,37.718939899999924,0 -119.72151179999986,37.719310199999924,0 -119.72071059999985,37.72083309999993,0 -119.71996579999985,37.72152069999993,0 -119.71864259999984,37.723415699999926,0 -119.71824179999983,37.72487099999993,0 -119.71784689999981,37.72547279999993,0 -119.71493879999983,37.727467599999926,0 -119.71435029999982,37.72768769999993,0 -119.71375919999983,37.72773149999993,0 -119.71193929999983,37.72754209999993,0 -119.71095359999983,37.72786959999993,0 -119.70895469999982,37.72775409999993,0 -119.70868329999983,37.72763469999993,0 -119.70772299999983,37.72657319999993,0 -119.70508669999982,37.72538749999993,0 -119.70334539999982,37.725323799999934,0 -119.70286489999981,37.72518729999993,0 -119.70065279999982,37.72383729999993,0 -119.69900629999981,37.72335309999993,0 -119.6966681999998,37.72324229999993,0 -119.6961391999998,37.72303019999993,0 -119.6951155999998,37.72285749999993,0 -119.69413209999978,37.72235379999993,0 -119.69299549999978,37.72208399999993,0 -119.69225509999978,37.721634399999935,0 -119.69179479999978,37.72154189999993,0 -119.69016739999977,37.72202289999993,0 -119.68920779999978,37.72193359999993,0 -119.68685859999978,37.72113509999993,0 -119.68557279999979,37.72030179999993,0 -119.68364159999979,37.71955379999993,0 -119.6827660999998,37.71943479999993,0 -119.6824815999998,37.71928689999993,0 -119.68246729999981,37.71915149999993,0 -119.68131549999981,37.71896169999993,0 -119.6800155999998,37.71905159999993,0 -119.6788929999998,37.71880339999993,0 -119.67618209999979,37.71879619999993,0 -119.6738261999998,37.71791909999993,0 -119.6734137999998,37.71788219999993,0 -119.6717991999998,37.71817769999993,0 -119.6701970999998,37.71813639999993,0 -119.6678050999998,37.717244899999926,0 -119.66647989999981,37.717016099999924,0 -119.6662506999998,37.716772299999924,0 -119.6661433999998,37.71635049999992,0 -119.6660389999998,37.71623569999992,0 -119.6655354999998,37.71602059999992,0 -119.66462249999981,37.71480529999992,0 -119.66421619999981,37.71463659999991,0 -119.6608348999998,37.715166399999916,0 -119.65854399999981,37.71640759999992,0 -119.65768829999979,37.716677799999914,0 -119.6565986999998,37.71669689999992,0 -119.6521789999998,37.71749989999992,0 -119.6520251999998,37.71742639999992,0 -119.6519567999998,37.71718539999993,0 -119.65252779999979,37.716492099999925,0 -119.6528399999998,37.71630749999992,0 -119.6556881999998,37.71548079999992,0 -119.65785699999981,37.714177999999926,0 -119.65957089999982,37.71349159999993,0 -119.66078299999982,37.712752599999924,0 -119.66137159999982,37.71257099999992,0 -119.66271669999982,37.71255089999992,0 -119.66512909999983,37.71295549999992,0 -119.66718899999984,37.71293779999992,0 -119.66931379999984,37.713494299999915,0 -119.67003769999984,37.713505899999916,0 -119.67173569999983,37.71321499999991,0 -119.67261139999984,37.713257199999916,0 -119.67307119999984,37.71340089999992,0 -119.67408429999985,37.714071299999915,0 -119.67622559999985,37.71492029999991,0 -119.67674229999984,37.715353099999916,0 -119.67705319999986,37.71547219999991,0 -119.67711549999987,37.71571429999991,0 -119.67729939999985,37.71576299999992,0 </coordinates></LineString><TimeSpan><begin>2021-09-11T16:50:12.133Z</begin><end>2021-09-11T20:51:31.999Z</end></TimeSpan></Placemark><Placemark><name>Tunnel View</name><address>California</address><ExtendedData><Data name="Email"><value>syugen.zhou@gmail.com</value></Data><Data name="Category"><value>Vista</value></Data><Data name="Distance"><value>0</value></Data></ExtendedData><description> Vista from 2021-09-11T20:51:31.999Z to 2021-09-11T21:08:41.230Z. Distance 0m </description><Point><coordinates>-119.6769058,37.715546599999996,0</coordinates></Point><TimeSpan><begin>2021-09-11T20:51:31.999Z</begin><end>2021-09-11T21:08:41.230Z</end></TimeSpan></Placemark><Placemark><name>Driving</name><address></address><ExtendedData><Data name="Email"><value>syugen.zhou@gmail.com</value></Data><Data name="Category"><value>Driving</value></Data><Data name="Distance"><value>9889</value></Data></ExtendedData><description> Driving from 2021-09-11T21:08:41.230Z to 2021-09-11T21:28:03.606Z. Distance 9889m </description><LineString><altitudeMode>clampToGround</altitudeMode><extrude>1</extrude><tesselate>1</tesselate><coordinates>-119.6773684,37.715773399999996,0 -119.67748870000001,37.715790299999995,0 -119.6775248,37.715779,0 -119.6775524,37.715737999999995,0 -119.67755989999998,37.715532499999995,0 -119.67697599999998,37.71545319999999,0 -119.6767423,37.715353099999994,0 -119.67622560000001,37.714920299999996,0 -119.67408429999999,37.7140713,0 -119.67307119999998,37.713400899999996,0 -119.6726114,37.7132572,0 -119.67173569999999,37.713215,0 -119.6700377,37.7135059,0 -119.6693138,37.7134943,0 -119.6690297,37.713438000000004,0 -119.6681058,37.7131104,0 -119.66718900000002,37.7129378,0 -119.66512910000002,37.7129555,0 -119.6627167,37.712550900000004,0 -119.6617144,37.7125306,0 -119.66137159999998,37.712571,0 -119.66078299999998,37.7127526,0 -119.65957089999998,37.713491600000005,0 -119.65785699999996,37.714178000000004,0 -119.65649759999997,37.7150789,0 -119.65568819999996,37.71548080000001,0 -119.65511529999995,37.715687900000006,0 -119.65283999999994,37.716307500000006,0 -119.65252779999993,37.71649210000001,0 -119.65225179999995,37.71675940000001,0 -119.65200599999993,37.7170952,0 -119.65167949999993,37.7178716,0 -119.64999239999992,37.71958500000001,0 -119.64775789999993,37.72088640000001,0 -119.64721949999992,37.721021600000014,0 -119.64695159999992,37.72103110000001,0 -119.64624259999992,37.72093720000001,0 -119.64548829999993,37.72093370000001,0 -119.64444259999993,37.72110710000001,0 -119.64344989999994,37.72141740000001,0 -119.64261799999993,37.72181380000001,0 -119.64225329999994,37.72186630000001,0 -119.64192939999992,37.72182310000001,0 -119.64016079999992,37.721234800000005,0 -119.63682799999991,37.7206172,0 -119.6353804999999,37.7201916,0 -119.6328881999999,37.719814,0 -119.6323398999999,37.719884799999996,0 -119.62040159999991,37.72268639999999,0 -119.6192959999999,37.7232199,0 -119.61772909999992,37.724176799999995,0 -119.61528169999991,37.725145899999994,0 -119.61298369999992,37.7257742,0 -119.61148959999991,37.726019099999995,0 -119.61056249999992,37.7264251,0 -119.60942459999991,37.7267386,0 -119.60719539999991,37.7279711,0 -119.60684579999992,37.7282605,0 -119.6066934999999,37.7284437,0 -119.6058470999999,37.729988899999995,0 -119.6044609999999,37.731887799999996,0 -119.6035267999999,37.732751199999996,0 -119.6014331999999,37.7342641,0 -119.6003476999999,37.73537209999999,0 -119.59803829999989,37.73703929999999,0 -119.59741339999988,37.73736389999999,0 -119.59351149999986,37.739856499999995,0 -119.59230529999986,37.741044599999995,0 -119.59179189999985,37.74179269999999,0 -119.59167349999986,37.74189669999999,0 -119.59130599999986,37.74240679999998,0 -119.59069039999986,37.742952899999985,0 -119.59049869999986,37.74306219999998,0 -119.59030549999986,37.74312149999998,0 -119.58972079999985,37.743109899999986,0 -119.58962429999984,37.74382679999999,0 -119.58953709999983,37.74400699999998,0 -119.58937209999985,37.744188399999985,0 -119.58876559999986,37.744493599999984,0 -119.58761599999985,37.744844999999984,0 -119.58673279999985,37.74495649999999,0 -119.58634509999986,37.74494279999999,0 -119.58599629999985,37.745503499999984,0 -119.58595149999985,37.74565329999999,0 -119.58597719999986,37.74589849999998,0 -119.58611749999984,37.74613519999998,0 -119.58641369999984,37.746346399999986,0 -119.58716599999983,37.74666239999999,0 -119.58784329999983,37.74679389999999,0 -119.58830729999983,37.746812999999996,0 -119.59054289999982,37.74656139999999,0 -119.59055469999983,37.74658589999999,0 -119.59027649999983,37.74697669999999,0 -119.59046559999983,37.74778909999999,0 -119.59046169999984,37.7480335,0 -119.59022019999983,37.748587199999996,0 -119.58952819999985,37.749544799999995,0 -119.58893189999984,37.7494356,0 -119.58860139999985,37.749328799999994,0 -119.58849629999983,37.748317699999994,0 </coordinates></LineString><TimeSpan><begin>2021-09-11T21:08:41.230Z</begin><end>2021-09-11T21:28:03.606Z</end></TimeSpan></Placemark><Placemark><name>Yosemite Valley Visitor Center</name><address>9035 Village Dr, Yosemite Valley, CA 95389</address><ExtendedData><Data name="Email"><value>syugen.zhou@gmail.com</value></Data><Data name="Category"><value>Visitor center</value></Data><Data name="Distance"><value>0</value></Data></ExtendedData><description> Visitor center from 2021-09-11T21:28:03.606Z to 2021-09-11T21:48:45.559Z. Distance 0m </description><Point><coordinates>-119.5874199,37.7485956,0</coordinates></Point><TimeSpan><begin>2021-09-11T21:28:03.606Z</begin><end>2021-09-11T21:48:45.559Z</end></TimeSpan></Placemark><Placemark><name>Driving</name><address></address><ExtendedData><Data name="Email"><value>syugen.zhou@gmail.com</value></Data><Data name="Category"><value>Driving</value></Data><Data name="Distance"><value>146033</value></Data></ExtendedData><description> Driving from 2021-09-11T21:48:45.559Z to 2021-09-12T01:38:46.000Z. Distance 146033m </description><LineString><altitudeMode>clampToGround</altitudeMode><extrude>1</extrude><tesselate>1</tesselate><coordinates>-119.5885117,37.7482152,0 -119.5886014,37.749328799999994,0 -119.5895282,37.749544799999995,0 -119.59046169999999,37.7480335,0 -119.5902765,37.7469767,0 -119.5905547,37.7465859,0 -119.5905429,37.7465614,0 -119.5917586,37.7462987,0 -119.5943835,37.7452328,0 -119.59470740000002,37.745207,0 -119.59652870000001,37.745708099999995,0 -119.5972062,37.7457138,0 -119.5984507,37.7454061,0 -119.59919990000002,37.74486399999999,0 -119.60053280000001,37.7425309,0 -119.60134190000001,37.741796199999996,0 -119.60728970000002,37.7384427,0 -119.60818100000003,37.737589,0 -119.60949430000002,37.735498400000004,0 -119.61124430000001,37.7337745,0 -119.61140980000002,37.733451,0 -119.61160100000001,37.731749300000004,0 -119.6128834,37.729008900000004,0 -119.6146276,37.72719550000001,0 -119.6151074,37.7269738,0 -119.61570669999999,37.72685270000001,0 -119.61701779999999,37.726835300000005,0 -119.62045539999997,37.727269400000004,0 -119.62312219999997,37.72718510000001,0 -119.62432689999996,37.7275733,0 -119.62508819999995,37.7275008,0 -119.62602959999995,37.7271422,0 -119.62666619999996,37.727023800000005,0 -119.62956069999997,37.72706660000001,0 -119.63021969999997,37.72677960000001,0 -119.63046929999997,37.7265567,0 -119.63128829999998,37.7251327,0 -119.6319688,37.72466340000001,0 -119.63205439999999,37.72443900000001,0 -119.63190479999999,37.72409450000001,0 -119.63076129999999,37.72385610000001,0 -119.6298126,37.72329410000001,0 -119.62813200000001,37.72121790000001,0 -119.62735390000002,37.72104260000001,0 -119.62040160000001,37.72268640000001,0 -119.61772910000002,37.72417680000001,0 -119.61528170000001,37.72514590000001,0 -119.61148960000001,37.72601910000001,0 -119.60942460000001,37.72673860000001,0 -119.60719540000001,37.72797110000001,0 -119.6066935,37.728443700000014,0 -119.604461,37.73188780000002,0 -119.6014332,37.73426410000001,0 -119.6003477,37.73537210000001,0 -119.59351149999999,37.73985650000001,0 -119.59230529999999,37.74104460000001,0 -119.59130599999999,37.74240680000001,0 -119.59069039999999,37.74295290000001,0 -119.59030549999999,37.743121500000015,0 -119.5888558,37.742993200000015,0 -119.5880404,37.742599800000015,0 -119.5874329,37.74246510000002,0 -119.58646599999999,37.74248210000002,0 -119.5847842,37.742048300000015,0 -119.58403049999998,37.74197410000001,0 -119.58270819999998,37.741616700000016,0 -119.58183509999999,37.74120100000002,0 -119.57958260000001,37.74053900000001,0 -119.57809599999999,37.73931300000001,0 -119.57720400000001,37.73892530000001,0 -119.5731274,37.73963540000001,0 -119.57169900000002,37.73834530000001,0 -119.57112190000002,37.73814390000002,0 -119.57071030000002,37.738112000000015,0 -119.57060690000003,37.73815850000001,0 -119.57051440000004,37.738313800000014,0 -119.57044760000004,37.739759100000015,0 -119.56833170000004,37.73940470000002,0 -119.56758670000005,37.738933500000016,0 -119.56713350000004,37.73840030000002,0 -119.56462990000003,37.73977610000002,0 -119.56439100000003,37.73981210000002,0 -119.56442050000003,37.740019500000024,0 -119.56582300000004,37.74096910000002,0 -119.56556520000004,37.74207760000002,0 -119.56580000000002,37.74258040000003,0 -119.56599000000001,37.742311300000026,0 -119.56637080000003,37.74208220000003,0 -119.56647310000001,37.74157180000003,0 -119.5644205,37.74001950000003,0 -119.564391,37.73981210000003,0 -119.56462990000001,37.73977610000003,0 -119.56713350000003,37.73840030000003,0 -119.56758670000002,37.73893350000002,0 -119.56833170000002,37.73940470000002,0 -119.57044760000002,37.73975910000002,0 -119.57051440000001,37.73831380000002,0 -119.5706069,37.73815850000002,0 -119.57071029999999,37.73811200000002,0 -119.57112190000001,37.738143900000026,0 -119.571699,37.73834530000002,0 -119.57257249999999,37.739048400000016,0 -119.5767012,37.74382420000002,0 -119.57708059999999,37.74406750000002,0 -119.58019939999998,37.74511000000002,0 -119.58173349999998,37.745216700000014,0 -119.5833364,37.745086000000015,0 -119.58342139999999,37.74519860000001,0 -119.5835631,37.74520970000002,0 -119.5836619,37.745141300000014,0 -119.58365979999999,37.74501780000002,0 -119.5835871,37.74496100000002,0 -119.58353450000001,37.744661700000016,0 -119.5837087,37.74424170000002,0 -119.58404240000002,37.74389210000002,0 -119.58460660000003,37.743631100000016,0 -119.58535610000003,37.74360760000002,0 -119.58601990000003,37.74388200000002,0 -119.58636560000004,37.74434380000002,0 -119.58634510000005,37.74494280000002,0 -119.58595150000005,37.745653300000015,0 -119.58597720000006,37.74589850000002,0 -119.58611750000004,37.74613520000002,0 -119.58716600000005,37.74666240000002,0 -119.58830730000005,37.74681300000002,0 -119.59175860000006,37.74629870000002,0 -119.59438350000006,37.74523280000002,0 -119.59470740000008,37.745207000000015,0 -119.59652870000006,37.745708100000016,0 -119.59720620000006,37.74571380000002,0 -119.59845070000006,37.74540610000001,0 -119.59919990000006,37.744864000000014,0 -119.60053280000007,37.74253090000001,0 -119.60134190000005,37.74179620000002,0 -119.60728970000007,37.73844270000002,0 -119.60818100000007,37.73758900000002,0 -119.60949430000007,37.73549840000002,0 -119.61124430000007,37.733774500000024,0 -119.61140980000008,37.733451000000024,0 -119.61160100000006,37.73174930000002,0 -119.61288340000006,37.729008900000025,0 -119.61462760000005,37.72719550000002,0 -119.61510740000004,37.726973800000025,0 -119.61570670000005,37.72685270000002,0 -119.61701780000003,37.726835300000026,0 -119.62045540000003,37.727269400000026,0 -119.62312220000001,37.72718510000003,0 -119.6243269,37.727573300000024,0 -119.62508820000001,37.72750080000002,0 -119.6260296,37.727142200000024,0 -119.6266662,37.727023800000026,0 -119.62956070000001,37.72706660000003,0 -119.63021970000003,37.72677960000002,0 -119.63046930000003,37.726556700000025,0 -119.63128830000004,37.725132700000024,0 -119.63157280000003,37.72491580000002,0 -119.63310350000003,37.72431740000002,0 -119.63369190000003,37.72424710000002,0 -119.64061370000003,37.72443590000002,0 -119.64408080000003,37.72399570000002,0 -119.64781310000001,37.722703600000024,0 -119.64848310000002,37.72264210000002,0 -119.65073310000001,37.72172930000002,0 -119.65340850000001,37.721261900000016,0 -119.65470520000001,37.72067070000002,0 -119.65522720000001,37.72016700000002,0 -119.65610540000002,37.71959680000002,0 -119.65650480000001,37.71906790000002,0 -119.65682800000002,37.71892820000002,0 -119.65722210000001,37.71889790000002,0 -119.65922620000002,37.71942600000002,0 -119.65956980000001,37.71941040000002,0 -119.66070740000002,37.718967700000015,0 -119.66245030000002,37.71704530000002,0 -119.66523190000001,37.71668130000001,0 -119.66780510000001,37.71724490000001,0 -119.6701971,37.71813640000001,0 -119.6717992,37.71817770000002,0 -119.6734138,37.71788220000002,0 -119.6738262,37.717919100000024,0 -119.6761821,37.71879620000002,0 -119.67889300000002,37.71880340000002,0 -119.6800156,37.71905160000002,0 -119.68131550000001,37.718961700000015,0 -119.68246730000001,37.71915150000002,0 -119.68248160000002,37.719286900000014,0 -119.68276610000001,37.719434800000016,0 -119.68364159999999,37.719553800000014,0 -119.68557279999999,37.720301800000016,0 -119.6868586,37.72113510000001,0 -119.68920779999999,37.721933600000014,0 -119.69016739999998,37.72202290000002,0 -119.69179479999998,37.72154190000002,0 -119.6922551,37.72163440000002,0 -119.69299549999998,37.722084000000024,0 -119.69413209999999,37.72235380000002,0 -119.6951156,37.722857500000025,0 -119.6961392,37.72303020000002,0 -119.6966682,37.723242300000024,0 -119.69900630000002,37.72335310000002,0 -119.70065280000003,37.72383730000002,0 -119.70286490000002,37.72518730000002,0 -119.70334540000002,37.72532380000002,0 -119.70508670000002,37.72538750000002,0 -119.70772300000004,37.72657320000002,0 -119.70868330000003,37.72763470000002,0 -119.70895470000004,37.72775410000002,0 -119.71095360000002,37.72786960000001,0 -119.71193930000004,37.727542100000015,0 -119.71375920000003,37.72773150000002,0 -119.71435030000002,37.72768770000002,0 -119.71493880000003,37.72746760000002,0 -119.71784690000003,37.72547280000002,0 -119.71824180000003,37.72487100000002,0 -119.71864260000005,37.72341570000002,0 -119.71996580000005,37.72152070000001,0 -119.72071060000006,37.720833100000014,0 -119.72151180000006,37.71931020000002,0 -119.72185930000005,37.71893990000002,0 -119.72219280000006,37.718207200000016,0 -119.72382510000007,37.71690350000002,0 -119.72570630000007,37.71586680000002,0 -119.72680930000008,37.71436990000002,0 -119.72726230000009,37.71401240000002,0 -119.72807250000008,37.71368280000002,0 -119.73118820000009,37.713481000000016,0 -119.73192380000009,37.71357270000002,0 -119.7334068000001,37.71402360000002,0 -119.73492020000009,37.71406740000002,0 -119.73628470000008,37.714440400000015,0 -119.7397426000001,37.71663200000002,0 -119.7419395000001,37.71916750000002,0 -119.74843360000011,37.72513270000002,0 -119.74974530000011,37.72598540000002,0 -119.75038650000012,37.72660920000001,0 -119.75178500000011,37.729168000000016,0 -119.75228080000012,37.72948500000002,0 -119.75277550000013,37.729527500000025,0 -119.75304360000011,37.72946710000002,0 -119.75448300000012,37.72873120000002,0 -119.75510400000012,37.72870640000002,0 -119.75573370000012,37.728899400000024,0 -119.75612870000012,37.72920490000002,0 -119.75642310000013,37.729801800000025,0 -119.75625040000013,37.73092260000003,0 -119.75583940000014,37.73192410000002,0 -119.75609850000014,37.732417400000024,0 -119.75674250000014,37.732702100000026,0 -119.75744260000013,37.73266880000003,0 -119.75963830000012,37.73197260000003,0 -119.76023000000012,37.732111100000026,0 -119.76049950000014,37.73229500000002,0 -119.76071420000012,37.732660000000024,0 -119.76068350000013,37.73315420000002,0 -119.76047330000011,37.73343270000002,0 -119.75992810000012,37.73383920000002,0 -119.75893150000012,37.73580440000002,0 -119.75896910000013,37.73680290000002,0 -119.75840490000012,37.738019100000024,0 -119.75852650000012,37.738383400000025,0 -119.75910180000012,37.739117800000024,0 -119.75910130000014,37.739794600000025,0 -119.75887820000014,37.740183200000025,0 -119.75720450000014,37.74156260000002,0 -119.75686530000014,37.74212840000003,0 -119.75683250000014,37.74256890000002,0 -119.75694710000015,37.74293340000003,0 -119.75730100000015,37.74336510000002,0 -119.75775180000015,37.743629400000025,0 -119.75842780000015,37.74378390000002,0 -119.75899450000017,37.74373670000003,0 -119.76197050000017,37.742694800000024,0 -119.76370840000018,37.741723900000025,0 -119.76403340000017,37.741393700000025,0 -119.76448210000017,37.74029920000002,0 -119.76491970000018,37.739877800000016,0 -119.76586090000018,37.739566400000015,0 -119.76794930000018,37.73963790000002,0 -119.76891790000018,37.73937420000002,0 -119.7723712000002,37.73947390000002,0 -119.77279290000018,37.73963950000002,0 -119.7731795000002,37.73998700000002,0 -119.7748109000002,37.74239310000002,0 -119.7754170000002,37.743690600000015,0 -119.77632020000021,37.74484800000002,0 -119.77650540000019,37.745765200000015,0 -119.77673420000019,37.74610190000002,0 -119.7769982000002,37.74629400000002,0 -119.77838960000018,37.74651630000002,0 -119.7788133000002,37.74671820000002,0 -119.7796821000002,37.747716400000016,0 -119.78130350000018,37.74822160000002,0 -119.7816275000002,37.74850350000002,0 -119.7818012000002,37.74881060000002,0 -119.78188780000019,37.749366600000016,0 -119.7821976000002,37.74985220000002,0 -119.78313290000021,37.75033130000002,0 -119.78429050000021,37.75138950000002,0 -119.78481490000021,37.75169090000002,0 -119.7854832000002,37.75187580000002,0 -119.78636470000022,37.75188950000002,0 -119.79090300000021,37.750399000000016,0 -119.79222160000022,37.75029450000002,0 -119.79319400000021,37.750569300000016,0 -119.79640090000022,37.752376900000016,0 -119.79672090000022,37.752462500000014,0 -119.79757740000021,37.752494900000016,0 -119.79779260000022,37.75321020000002,0 -119.80176680000022,37.755068000000016,0 -119.80269270000022,37.755822500000015,0 -119.80346870000021,37.75695140000001,0 -119.80476770000021,37.75805930000001,0 -119.80498820000021,37.75864160000001,0 -119.80492880000021,37.75884230000001,0 -119.8045443000002,37.75928600000001,0 -119.80195920000021,37.760900600000014,0 -119.8014246000002,37.76111570000002,0 -119.80076100000021,37.76121360000002,0 -119.80004260000021,37.76111930000001,0 -119.79954370000021,37.760914800000016,0 -119.79808050000021,37.75984500000001,0 -119.79761140000022,37.75966070000001,0 -119.7947171000002,37.75944610000001,0 -119.79422400000021,37.75917150000001,0 -119.7939901000002,37.75883690000001,0 -119.79384410000021,37.75823790000001,0 -119.7934551000002,37.757765000000006,0 -119.7919624000002,37.75693220000001,0 -119.79147870000018,37.75686050000001,0 -119.79098850000018,37.7569494,0 -119.7906564000002,37.75713400000001,0 -119.78933620000019,37.75856590000001,0 -119.78883220000019,37.75868130000001,0 -119.78827950000019,37.75858520000001,0 -119.78638760000018,37.75720610000001,0 -119.78584650000019,37.75706060000001,0 -119.7851405000002,37.75709280000001,0 -119.77954300000019,37.75941860000001,0 -119.77905710000019,37.75941010000001,0 -119.77850710000018,37.75913410000001,0 -119.7776246000002,37.757197900000016,0 -119.77731780000019,37.75684700000002,0 -119.7767798000002,37.75648190000002,0 -119.77429150000019,37.755565500000024,0 -119.7728956000002,37.75527320000002,0 -119.7723555000002,37.75535030000002,0 -119.77198340000021,37.75550730000001,0 -119.7698621000002,37.75773740000001,0 -119.76977640000021,37.75815500000001,0 -119.76982690000021,37.75839570000001,0 -119.77063680000022,37.75939600000001,0 -119.77182350000021,37.760328200000004,0 -119.7725602000002,37.76063250000001,0 -119.7739076000002,37.76093430000001,0 -119.77448590000019,37.761330500000014,0 -119.77481790000017,37.76184140000001,0 -119.77490830000016,37.76222740000001,0 -119.77428790000018,37.765552800000016,0 -119.77377000000018,37.766417900000015,0 -119.77067530000018,37.76928640000001,0 -119.76959990000019,37.769767000000016,0 -119.76855100000017,37.76991570000001,0 -119.76437360000018,37.769597400000016,0 -119.7639294000002,37.76964190000002,0 -119.76323140000018,37.769910400000015,0 -119.76276830000018,37.77027550000001,0 -119.76185430000018,37.77161710000001,0 -119.76143980000018,37.77191870000001,0 -119.75850370000018,37.77314930000001,0 -119.75652530000018,37.7746883,0 -119.75600700000017,37.7748192,0 -119.75452050000015,37.7746778,0 -119.75373380000018,37.7747805,0 -119.75243820000017,37.7752703,0 -119.74987980000017,37.7770693,0 -119.74910960000015,37.777914900000006,0 -119.74826990000017,37.7805304,0 -119.74777700000017,37.781171400000005,0 -119.74669150000017,37.781989800000005,0 -119.74048900000015,37.784758700000005,0 -119.73844490000018,37.786821200000006,0 -119.73528460000017,37.78886560000001,0 -119.73473080000016,37.789059300000005,0 -119.73130180000017,37.7894424,0 -119.73024170000018,37.7893066,0 -119.72844050000019,37.7887656,0 -119.72685300000019,37.7887567,0 -119.72452540000019,37.7895598,0 -119.72392280000018,37.7901672,0 -119.72012320000019,37.7973419,0 -119.71912030000018,37.7984114,0 -119.71864250000017,37.79918249999999,0 -119.71794740000017,37.8022248,0 -119.71529520000018,37.807742299999994,0 -119.71321770000017,37.811155899999996,0 -119.71315180000016,37.8116705,0 -119.71343390000015,37.8128818,0 -119.71333500000014,37.813270599999996,0 -119.71262890000015,37.8142532,0 -119.71248230000015,37.815987,0 -119.71258090000013,37.816500399999995,0 -119.71299500000015,37.817288299999994,0 -119.71414750000014,37.81841729999999,0 -119.71428220000014,37.818655799999995,0 -119.71433030000016,37.81912319999999,0 -119.71418120000016,37.8194873,0 -119.71373040000014,37.8198878,0 -119.71309110000014,37.82006079999999,0 -119.71185920000015,37.82003389999999,0 -119.71002690000014,37.820496999999996,0 -119.70635290000014,37.8210025,0 -119.70508220000015,37.8214687,0 -119.70283500000015,37.823554699999995,0 -119.70191310000014,37.825361099999995,0 -119.70176820000015,37.8261602,0 -119.70224930000015,37.830218599999995,0 -119.70205650000014,37.8308475,0 -119.70170070000013,37.831235899999996,0 -119.70109010000012,37.831568,0 -119.69962770000012,37.8318548,0 -119.69874860000013,37.8321874,0 -119.69231890000012,37.8363453,0 -119.69032850000012,37.838261200000005,0 -119.68966570000012,37.8385547,0 -119.68822840000011,37.83891020000001,0 -119.68706390000011,37.8394141,0 -119.68632160000011,37.8399232,0 -119.68506980000011,37.841155300000004,0 -119.6721696000001,37.8496043,0 -119.6711748000001,37.849974100000004,0 -119.66559670000011,37.8501162,0 -119.66477860000012,37.8503483,0 -119.66285650000012,37.851305,0 -119.66206100000012,37.8515533,0 -119.66115310000012,37.8515845,0 -119.66022410000011,37.8514095,0 -119.6584058000001,37.8502681,0 -119.65755040000012,37.8499367,0 -119.65631050000012,37.8497353,0 -119.65509200000012,37.849814800000004,0 -119.65352800000012,37.850172400000005,0 -119.65260570000012,37.8505792,0 -119.65170340000012,37.851387200000005,0 -119.65095330000011,37.8527349,0 -119.6460107000001,37.8571246,0 -119.64504760000011,37.8575424,0 -119.64429640000012,37.8576708,0 -119.64336550000013,37.8576162,0 -119.64049180000013,37.8567589,0 -119.63502940000012,37.853401600000005,0 -119.62743180000012,37.8501783,0 -119.62148150000012,37.849007300000004,0 -119.6195091000001,37.8490965,0 -119.61842880000012,37.8493953,0 -119.61658340000011,37.8503597,0 -119.6158899000001,37.85053239999999,0 -119.61526870000009,37.850479899999996,0 -119.61148590000009,37.8487766,0 -119.61090850000008,37.848714799999996,0 -119.61032300000007,37.84882149999999,0 -119.60813780000007,37.849780599999995,0 -119.60551570000005,37.85018899999999,0 -119.60453370000006,37.84997069999999,0 -119.60272330000006,37.84870209999999,0 -119.60221570000006,37.84847829999999,0 -119.60124470000007,37.84827149999999,0 -119.59989420000005,37.84833189999999,0 -119.59815380000005,37.84882219999999,0 -119.59725350000006,37.84874099999999,0 -119.59650510000006,37.84835609999999,0 -119.59506450000005,37.84648449999999,0 -119.59486840000004,37.84592389999999,0 -119.59516680000004,37.84413379999999,0 -119.59504740000004,37.843515299999986,0 -119.59392090000006,37.841696099999986,0 -119.59369280000004,37.83998909999998,0 -119.59334890000005,37.83944419999999,0 -119.59293490000005,37.83918109999998,0 -119.59231950000004,37.839034199999986,0 -119.59030020000003,37.83941889999999,0 -119.58979490000002,37.83966449999999,0 -119.58953510000003,37.839918399999995,0 -119.58883650000003,37.84167869999999,0 -119.58879730000004,37.84390809999999,0 -119.58848780000005,37.84473999999999,0 -119.58789980000003,37.84563889999999,0 -119.58710330000002,37.84640459999999,0 -119.58638510000002,37.84684029999999,0 -119.58510410000002,37.84729149999999,0 -119.58441830000002,37.847688299999994,0 -119.58305750000004,37.84885579999999,0 -119.58184400000003,37.84934829999999,0 -119.58044440000003,37.85021979999999,0 -119.57915090000004,37.85159289999999,0 -119.57855680000004,37.851994699999985,0 -119.57807440000005,37.85218539999998,0 -119.57709750000005,37.85228739999999,0 -119.57408840000006,37.851742899999984,0 -119.57298590000008,37.85117409999998,0 -119.57195030000007,37.84990109999998,0 -119.57173190000007,37.84903989999999,0 -119.57185700000008,37.84804699999999,0 -119.57308020000008,37.84543389999999,0 -119.57341170000008,37.843962799999986,0 -119.57386750000008,37.84294509999999,0 -119.57773130000007,37.837406599999994,0 -119.57802850000007,37.836284599999985,0 -119.57788530000008,37.83385599999999,0 -119.57833180000007,37.83221889999999,0 -119.58110930000007,37.828465499999986,0 -119.58134370000008,37.82793629999998,0 -119.58141670000008,37.82678619999998,0 -119.58111730000007,37.82619079999998,0 -119.58013540000009,37.82497859999998,0 -119.58001830000008,37.824403599999975,0 -119.58018450000007,37.82381759999997,0 -119.58086970000008,37.822924199999974,0 -119.58100070000009,37.82256899999997,0 -119.5809367000001,37.821972599999974,0 -119.58046250000008,37.821438899999976,0 -119.57899520000008,37.82070469999998,0 -119.57839430000007,37.820107399999976,0 -119.57802960000008,37.81908879999998,0 -119.57825850000006,37.81810219999998,0 -119.57869180000007,37.817532199999974,0 -119.58043200000007,37.81611429999998,0 -119.58054580000007,37.815422399999974,0 -119.58042730000007,37.81501539999998,0 -119.57987570000007,37.81433929999998,0 -119.57904940000006,37.81401589999997,0 -119.57827980000006,37.81402809999997,0 -119.57684180000005,37.81459709999997,0 -119.57587940000005,37.81465069999997,0 -119.57528990000004,37.81448549999997,0 -119.57464610000004,37.81400059999997,0 -119.57271870000004,37.81107179999997,0 -119.57113940000004,37.80965009999997,0 -119.56994410000003,37.80887409999997,0 -119.56810440000002,37.80801379999997,0 -119.56604410000003,37.80740999999997,0 -119.55660620000003,37.80591329999997,0 -119.55501680000003,37.805876999999974,0 -119.55088240000003,37.806543499999975,0 -119.54919580000002,37.807176499999976,0 -119.54829630000002,37.807259799999976,0 -119.54610350000002,37.80675529999998,0 -119.54526340000001,37.80670539999997,0 -119.53775290000002,37.808143899999976,0 -119.53576520000001,37.80892609999998,0 -119.53203410000002,37.81159599999998,0 -119.53090950000002,37.811969599999976,0 -119.52905200000001,37.812158599999975,0 -119.5192514,37.81610609999998,0 -119.51706,37.81775219999997,0 -119.5165329,37.817932899999974,0 -119.51545839999999,37.81786139999997,0 -119.51425679999998,37.81727509999997,0 -119.50909619999997,37.81717469999997,0 -119.50814109999997,37.81671999999997,0 -119.50769749999996,37.81617779999997,0 -119.50751469999997,37.81571509999997,0 -119.50747789999997,37.81512109999997,0 -119.50762119999997,37.81451809999997,0 -119.50800519999997,37.81399179999997,0 -119.50920109999997,37.812950599999965,0 -119.50941959999997,37.81259769999997,0 -119.50940749999998,37.81189939999997,0 -119.50902789999998,37.81142009999997,0 -119.50868409999998,37.81122859999997,0 -119.50798899999998,37.811109799999976,0 -119.50734309999997,37.81123999999998,0 -119.50595659999998,37.81204039999997,0 -119.50252589999997,37.81327599999997,0 -119.50079379999995,37.81453389999997,0 -119.49860089999996,37.81682109999997,0 -119.49825469999998,37.81703459999997,0 -119.49786259999998,37.81715259999997,0 -119.4972428,37.81713609999997,0 -119.4968791,37.81701819999997,0 -119.49645029999999,37.81669729999997,0 -119.496247,37.81634069999998,0 -119.49630119999999,37.81514719999998,0 -119.4961427,37.814625299999975,0 -119.4956689,37.814100699999976,0 -119.4925507,37.81249199999998,0 -119.49166779999999,37.81233629999998,0 -119.48801649999997,37.81261679999998,0 -119.48754029999998,37.81255779999998,0 -119.48679829999998,37.81214849999998,0 -119.48601929999998,37.81117669999998,0 -119.48562059999996,37.81099129999998,0 -119.48494859999995,37.810913499999984,0 -119.48444569999995,37.81102099999998,0 -119.48378629999995,37.811537299999976,0 -119.48111059999995,37.81630299999998,0 -119.47873609999994,37.81875299999997,0 -119.47833929999993,37.81950549999997,0 -119.47769249999995,37.82279939999997,0 -119.47709059999995,37.82368629999997,0 -119.47590629999996,37.82440199999997,0 -119.47017479999995,37.82597349999997,0 -119.46933589999995,37.82652999999997,0 -119.46802899999994,37.82898139999997,0 -119.46769309999993,37.830320599999965,0 -119.46644429999992,37.83250919999997,0 -119.46610999999993,37.83281859999997,0 -119.46527579999993,37.833172899999965,0 -119.46358089999991,37.834217499999966,0 -119.4630012999999,37.834313499999965,0 -119.4625846999999,37.83425229999996,0 -119.4613364999999,37.83373629999996,0 -119.46070019999992,37.833600399999966,0 -119.45957489999992,37.833630199999966,0 -119.45897899999993,37.83381289999996,0 -119.45486499999993,37.83604129999996,0 -119.45072499999992,37.83940949999996,0 -119.44784519999992,37.84271069999996,0 -119.44501529999992,37.84779459999996,0 -119.44305689999993,37.84955799999996,0 -119.43991309999993,37.85367899999996,0 -119.43796169999993,37.857303799999954,0 -119.43293419999995,37.86334849999995,0 -119.43180139999994,37.865612499999955,0 -119.42953729999995,37.86840669999995,0 -119.42733099999995,37.87194399999995,0 -119.42669139999997,37.87265859999995,0 -119.42606459999998,37.873110399999945,0 -119.42509439999998,37.873569499999945,0 -119.42422399999998,37.87379949999995,0 -119.4201272,37.874273499999944,0 -119.419502,37.87457059999994,0 -119.41768039999998,37.876333499999944,0 -119.41720339999998,37.87655409999994,0 -119.41629899999997,37.87674079999994,0 -119.41557319999997,37.876707499999945,0 -119.41301229999998,37.876079999999945,0 -119.41190409999997,37.876007099999946,0 -119.40671439999998,37.876577299999944,0 -119.40620489999999,37.87676259999994,0 -119.40545949999998,37.87731269999994,0 -119.40412819999999,37.87941809999994,0 -119.40182169999999,37.88117399999994,0 -119.401021,37.88144709999994,0 -119.40057029999998,37.88147779999994,0 -119.39767299999998,37.88080969999994,0 -119.39686449999998,37.880354399999945,0 -119.39615729999998,37.87963479999995,0 -119.39539639999998,37.87763989999994,0 -119.3949578,37.87712659999994,0 -119.39443269999998,37.876762099999944,0 -119.38643579999999,37.873632199999946,0 -119.38412479999998,37.873328599999944,0 -119.37767329999998,37.87374859999994,0 -119.37614129999999,37.87353269999995,0 -119.37141519999997,37.87214279999994,0 -119.36936899999998,37.871942999999945,0 -119.36227849999997,37.872486099999946,0 -119.36022289999997,37.87296219999995,0 -119.35828279999997,37.87378189999994,0 -119.35441599999996,37.876585199999944,0 -119.35363739999995,37.87693079999995,0 -119.34755389999995,37.877265599999944,0 -119.34317059999997,37.87796329999995,0 -119.33732749999996,37.88030009999995,0 -119.33678589999997,37.88040219999995,0 -119.32900369999997,37.88009999999995,0 -119.32810369999997,37.880188499999946,0 -119.32583329999996,37.88096949999995,0 -119.32483289999996,37.881874499999945,0 -119.32426599999995,37.88209299999995,0 -119.32346189999996,37.88212069999995,0 -119.32106039999996,37.88115669999995,0 -119.31543299999997,37.880234099999946,0 -119.31358889999996,37.88029739999995,0 -119.30990699999995,37.88087589999994,0 -119.30785079999994,37.880826199999944,0 -119.30638659999993,37.880588599999946,0 -119.30124779999994,37.87902109999994,0 -119.29992169999994,37.87876989999994,0 -119.29829309999992,37.87869269999994,0 -119.29573299999993,37.87889999999994,0 -119.29322849999994,37.878747799999935,0 -119.28971339999994,37.87782249999994,0 -119.28666169999995,37.87754049999994,0 -119.28109609999994,37.878441299999935,0 -119.27900879999994,37.87921329999993,0 -119.27709909999993,37.87925099999993,0 -119.27637799999994,37.87941739999993,0 -119.27567839999993,37.87987569999993,0 -119.27402049999993,37.882276599999926,0 -119.27025849999995,37.886142899999925,0 -119.26077399999994,37.89235039999992,0 -119.26028689999995,37.89287779999992,0 -119.25992869999995,37.893712799999925,0 -119.25965759999994,37.896989399999924,0 -119.26012029999994,37.90132389999993,0 -119.25998939999994,37.904226899999934,0 -119.25962229999993,37.905791999999934,0 -119.25807219999994,37.90967159999993,0 -119.25773609999993,37.91298999999994,0 -119.25651749999994,37.916540599999934,0 -119.25519249999995,37.91866119999993,0 -119.25489619999995,37.92155779999993,0 -119.25617219999997,37.92441719999993,0 -119.25627439999995,37.92577399999993,0 -119.25521709999995,37.92817079999993,0 -119.25473879999996,37.928747199999925,0 -119.25426459999994,37.92910139999993,0 -119.25326549999994,37.92955709999993,0 -119.25134229999995,37.930085699999935,0 -119.25048779999993,37.93068929999993,0 -119.24835819999993,37.934502299999934,0 -119.24841379999992,37.935269099999935,0 -119.24943719999992,37.93672499999994,0 -119.24952269999991,37.93720109999993,0 -119.24944769999992,37.93753359999993,0 -119.24910109999992,37.938014199999934,0 -119.24857969999992,37.93830269999994,0 -119.24798509999994,37.93834969999994,0 -119.24615499999992,37.93811679999994,0 -119.24541099999993,37.938227199999936,0 -119.24453149999992,37.938616199999935,0 -119.24302819999993,37.93975469999994,0 -119.24222739999993,37.94010079999993,0 -119.24142859999992,37.940256199999936,0 -119.24068929999993,37.94026849999994,0 -119.23938889999994,37.93996559999994,0 -119.23869459999995,37.93958639999994,0 -119.23526489999995,37.936764899999936,0 -119.23304049999993,37.93567649999994,0 -119.23254269999995,37.93563149999994,0 -119.23194249999995,37.935756899999944,0 -119.23143049999996,37.93606479999994,0 -119.23109839999996,37.936621399999936,0 -119.23129279999996,37.93816179999994,0 -119.23120969999997,37.938594299999934,0 -119.23025849999998,37.93979809999994,0 -119.2300071,37.94108439999994,0 -119.22896639999999,37.942160399999935,0 -119.22763119999998,37.944138399999936,0 -119.22625119999996,37.94552489999993,0 -119.22580069999998,37.947510999999935,0 -119.22475669999997,37.94885269999994,0 -119.22471659999997,37.94959819999994,0 -119.22482879999998,37.94984639999994,0 -119.22589899999998,37.95081309999994,0 -119.22611179999998,37.95119259999994,0 -119.22611429999998,37.95194839999994,0 -119.22589289999999,37.95225989999994,0 -119.22530379999998,37.95261699999993,0 -119.22464609999999,37.952722299999934,0 -119.22418099999999,37.95265339999993,0 -119.22375969999997,37.95247589999993,0 -119.22286839999997,37.95176219999993,0 -119.22216439999997,37.95142709999993,0 -119.21902829999996,37.950724999999935,0 -119.21804559999995,37.950289199999936,0 -119.21315439999996,37.949451199999935,0 -119.21267329999996,37.949511299999934,0 -119.21054319999998,37.95016959999994,0 -119.20903009999996,37.95016959999994,0 -119.20766749999997,37.950431999999935,0 -119.20716859999997,37.95042169999993,0 -119.20580279999996,37.95013119999994,0 -119.20007799999996,37.949970999999934,0 -119.19674449999998,37.94915429999994,0 -119.1947785,37.94834749999993,0 -119.1914771,37.94775589999993,0 -119.1898903,37.94795009999993,0 -119.1892916,37.94780039999993,0 -119.18896090000001,37.94754329999993,0 -119.18848510000001,37.94672089999993,0 -119.18795910000001,37.94618639999993,0 -119.1866866,37.945309099999925,0 -119.1851384,37.94472209999993,0 -119.18468259999999,37.94428269999993,0 -119.18422129999998,37.94297119999993,0 -119.1835969,37.94233829999993,0 -119.18209219999999,37.94133859999994,0 -119.17931779999999,37.937934699999936,0 -119.1770314,37.93294399999993,0 -119.1762746,37.93227789999993,0 -119.1754496,37.93182429999994,0 -119.16990199999998,37.93043019999993,0 -119.16838249999999,37.93041839999994,0 -119.1644221,37.93113349999994,0 -119.1605419,37.93105569999993,0 -119.1509206,37.93393959999993,0 -119.14688310000001,37.93586159999993,0 -119.134792,37.940062699999935,0 -119.13020740000002,37.94075299999993,0 -119.1263928,37.94045409999993,0 -119.12335770000003,37.93971009999993,0 -119.12223410000003,37.93963489999992,0 -119.12077630000003,37.939920199999925,0 -119.11982820000003,37.94040629999993,0 -119.11916970000003,37.94098879999993,0 -119.11860150000003,37.94196029999993,0 -119.11807450000003,37.94435919999992,0 -119.11781380000004,37.944837999999926,0 -119.11710020000002,37.945608899999925,0 -119.11436950000004,37.947534399999924,0 -119.11362830000003,37.948612599999926,0 -119.11319590000004,37.950097199999924,0 -119.11295960000002,37.95025039999993,0 -119.11247890000003,37.95026959999993,0 -119.11030030000003,37.94985469999993,0 -119.10841120000002,37.94901309999993,0 -119.10744890000001,37.948268599999935,0 -119.1027347,37.94270859999993,0 -119.101666,37.94032359999993,0 -119.0853041,37.856671899999924,0 -119.08309039999999,37.851992699999926,0 -119.08043819999999,37.84816049999993,0 -119.07715299999998,37.84114199999993,0 -119.07339959999999,37.83515249999993,0 -119.07293119999999,37.83400529999993,0 -119.07260349999997,37.832322499999925,0 -119.07174709999998,37.830889999999926,0 -119.0707284,37.830067799999924,0 -119.0673575,37.828646299999924,0 -119.0654497,37.82728469999993,0 -119.0645976,37.82624609999993,0 -119.0606248,37.81887859999993,0 -119.05984300000001,37.81780819999993,0 -119.0558144,37.814452599999925,0 -119.05560330000002,37.81436609999993,0 -119.05429130000002,37.813334399999924,0 -119.0542465,37.81322799999993,0 -119.04683300000002,37.80745659999993,0 -119.04267870000001,37.80509989999993,0 -119.0413967,37.80365299999993,0 -119.0408081,37.80182119999993,0 -119.04094650000002,37.79862839999993,0 -119.0407349,37.79740559999993,0 -119.0402045,37.79621279999992,0 -119.0390173,37.79479049999993,0 -119.03812609999999,37.79409369999993,0 -119.0235447,37.786476199999925,0 -119.0225694,37.78557349999993,0 -119.02188570000001,37.78456959999992,0 -119.02073370000001,37.78046179999992,0 -119.01957440000001,37.77866349999992,0 -119.01801850000001,37.77721939999992,0 -119.00414180000003,37.768329699999924,0 -118.99866990000001,37.76361909999992,0 -118.995509,37.76227589999992,0 -118.9925632,37.759930599999926,0 -118.9901004,37.75893979999993,0 -118.9882218,37.757875999999925,0 -118.9865172,37.75632039999993,0 -118.98566409999998,37.755145999999925,0 -118.98273959999999,37.748919799999925,0 -118.97678159999998,37.74316929999992,0 -118.95431269999999,37.712800799999926,0 -118.953789,37.71165799999992,0 -118.95145020000001,37.70328199999992,0 -118.94876830000001,37.69709489999992,0 -118.9438043,37.691485099999916,0 -118.94304170000001,37.690110399999924,0 -118.93931330000001,37.67627609999992,0 -118.93559290000002,37.66818559999992,0 -118.93461380000001,37.66686249999992,0 -118.92680020000002,37.65887999999992,0 -118.92581460000004,37.65753749999992,0 -118.92486840000004,37.65549179999992,0 -118.92445640000004,37.65347539999992,0 -118.92445680000003,37.64927729999992,0 -118.92406600000002,37.64755949999992,0 -118.92331380000003,37.64607419999992,0 -118.92148370000002,37.643916999999924,0 -118.91826760000004,37.641194899999924,0 -118.91828140000004,37.64103919999992,0 -118.91843830000006,37.64089419999992,0 -118.92446240000005,37.63970619999992,0 -118.93012730000007,37.63965099999992,0 -118.93720410000007,37.64021509999993,0 -118.93866680000006,37.64059809999993,0 -118.94602000000008,37.643772899999924,0 -118.95213010000008,37.64597359999993,0 -118.95510860000009,37.64653739999993,0 -118.96339350000008,37.64660029999993,0 -118.96583580000008,37.64685869999993,0 -118.96667170000008,37.639211299999936,0 -118.96643860000007,37.63921719999993,0 -118.96646090000009,37.63943049999994,0 -118.96612600000007,37.63943539999994,0 -118.96611590000006,37.639578499999935,0 -118.96602970000006,37.63962459999994,0 -118.96567450000006,37.639621099999935,0 -118.96567630000007,37.63942689999994,0 -118.96646090000009,37.63943049999994,0 -118.96643860000007,37.63921719999993,0 -118.96667170000008,37.639211299999936,0 -118.96650410000007,37.63729329999993,0 -118.96816840000008,37.637289399999936,0 -118.96827230000008,37.63775549999993,0 -118.96816840000008,37.637289399999936,0 -118.96650410000007,37.63729329999993,0 -118.96667340000008,37.639394699999926,0 -118.96613140000007,37.64482899999993,0 -118.96393980000006,37.64482759999993,0 -118.96390510000008,37.64663419999992,0 -118.96570070000008,37.64683529999992,0 -118.97359330000009,37.64849559999992,0 -118.97671900000009,37.648799499999924,0 -118.98242030000007,37.64851969999992,0 -118.98373250000007,37.64822739999992,0 -118.98437280000007,37.64790949999992,0 -118.98471610000007,37.64832589999992,0 -118.98484720000008,37.64902269999992,0 -118.98503340000008,37.64937119999992,0 -118.98573430000008,37.64997369999992,0 -118.98670390000008,37.65024559999992,0 -118.98704480000008,37.65021689999992,0 -118.98708340000009,37.64955219999992,0 -118.98675670000009,37.64947679999992,0 -118.9865325000001,37.649493099999916,0 -118.98648570000009,37.64946339999992,0 -118.98647970000009,37.649405599999916,0 </coordinates></LineString><TimeSpan><begin>2021-09-11T21:48:45.559Z</begin><end>2021-09-12T01:38:46.000Z</end></TimeSpan></Placemark><Placemark><name>The Westin Monache Resort, Mammoth</name><address>50 Hillside Dr, Mammoth Lakes, CA 93546</address><ExtendedData><Data name="Email"><value>syugen.zhou@gmail.com</value></Data><Data name="Category"><value>Hotel</value></Data><Data name="Distance"><value>0</value></Data></ExtendedData><description> Hotel from 2021-09-12T01:38:46.000Z to 2021-09-12T17:25:48.000Z. Distance 0m </description><Point><coordinates>-118.9863187,37.649229399999996,0</coordinates></Point><TimeSpan><begin>2021-09-12T01:38:46.000Z</begin><end>2021-09-12T17:25:48.000Z</end></TimeSpan></Placemark></Document></kml>
