<?xml version="1.0" encoding="UTF-8"?><kml xmlns="http://www.opengis.net/kml/2.2" xmlns:gx="http://www.google.com/kml/ext/2.2"><Document><name> Location history from 2020-11-15 to 2020-11-15 </name><open>1</open><description></description><StyleMap id="multiTrack"><Pair><key>normal</key><styleUrl>#multiTrack_n</styleUrl></Pair><Pair><key>highlight</key><styleUrl>#multiTrack_h</styleUrl></Pair></StyleMap><Style id="multiTrack_n"><IconStyle><Icon><href>https://earth.google.com/images/kml-icons/track-directional/track-0.png</href></Icon></IconStyle><LineStyle><color>99ffac59</color><width>6</width></LineStyle></Style><Style id="multiTrack_h"><IconStyle><scale>1.2</scale><Icon><href>https://earth.google.com/images/kml-icons/track-directional/track-0.png</href></Icon></IconStyle><LineStyle><color>99ffac59</color><width>8</width></LineStyle></Style><Placemark><name>Wigwam Motel</name><address>2728 Foothill Blvd, San Bernardino, CA 92410</address><ExtendedData><Data name="Email"><value>syugen.zhou@gmail.com</value></Data><Data name="Category"><value>Motel</value></Data><Data name="Distance"><value>0</value></Data></ExtendedData><description> Motel from 2020-11-15T01:45:39.998Z to 2020-11-15T17:20:04.000Z. Distance 0m </description><Point><coordinates>-117.35000509999999,34.1069989,0</coordinates></Point><TimeSpan><begin>2020-11-15T01:45:39.998Z</begin><end>2020-11-15T17:20:04.000Z</end></TimeSpan></Placemark><Placemark><name>Driving</name><address></address><ExtendedData><Data name="Email"><value>syugen.zhou@gmail.com</value></Data><Data name="Category"><value>Driving</value></Data><Data name="Distance"><value>130044</value></Data></ExtendedData><description> Driving from 2020-11-15T17:20:04.000Z to 2020-11-15T18:44:44.000Z. Distance 130044m </description><LineString><altitudeMode>clampToGround</altitudeMode><extrude>1</extrude><tesselate>1</tesselate><coordinates>-117.35153190000001,34.1067821,0 -117.35289540000002,34.106779499999995,0 -117.35297360000001,34.1252778,0 -117.3529185,34.1253953,0 -117.35314269999999,34.133759999999995,0 -117.3512954,34.133866,0 -117.3487952,34.134315799999996,0 -117.34865309999999,34.134433,0 -117.34658759999998,34.1346842,0 -117.34467199999997,34.1347936,0 -117.34306209999997,34.13477600000001,0 -117.33629699999997,34.13440550000001,0 -117.33540139999998,34.134413800000004,0 -117.33406299999999,34.134512900000004,0 -117.3327719,34.13472060000001,0 -117.33204200000002,34.134886400000006,0 -117.3305325,34.13536130000001,0 -117.3295229,34.1357835,0 -117.3286469,34.1362213,0 -117.3275893,34.1368779,0 -117.32651530000001,34.1376756,0 -117.32633880000002,34.137687799999995,0 -117.32576400000002,34.1381388,0 -117.32369090000002,34.1400707,0 -117.3236097,34.1402279,0 -117.3215947,34.1425666,0 -117.3209488,34.143149199999996,0 -117.32024829999999,34.143661099999996,0 -117.32022379999998,34.143668899999994,0 -117.31992139999998,34.14387289999999,0 -117.31878159999998,34.144482399999994,0 -117.31867979999998,34.14449959999999,0 -117.31809229999999,34.14468869999999,0 -117.3179522,34.14468819999999,0 -117.31775129999998,34.14463129999999,0 -117.31761869999998,34.144544499999995,0 -117.3175345,34.144440599999996,0 -117.31745779999999,34.1442226,0 -117.31748679999997,34.144048299999994,0 -117.31758279999997,34.1439206,0 -117.31768159999996,34.1438459,0 -117.31788999999996,34.1437676,0 -117.31805919999996,34.1437568,0 -117.31816079999996,34.1437727,0 -117.31836329999996,34.1438518,0 -117.31848389999996,34.143947499999996,0 -117.32096259999997,34.1476999,0 -117.32100729999999,34.1477376,0 -117.32110089999999,34.1477831,0 -117.32625379999998,34.156282399999995,0 -117.32683299999998,34.157105699999995,0 -117.34728539999998,34.1808067,0 -117.34808749999996,34.1816373,0 -117.34936459999997,34.1827664,0 -117.36484489999998,34.193658,0 -117.40000389999997,34.2210957,0 -117.40095859999995,34.2217342,0 -117.40208639999997,34.2223134,0 -117.40785629999996,34.22434,0 -117.40835189999997,34.2245506,0 -117.40943189999997,34.2251261,0 -117.41006649999997,34.2255469,0 -117.41265479999997,34.2277233,0 -117.41471619999997,34.2291186,0 -117.41489799999998,34.229195999999995,0 -117.43088079999997,34.2413075,0 -117.43104249999999,34.2413773,0 -117.43263059999998,34.2426441,0 -117.43698609999998,34.2467078,0 -117.43791199999998,34.2474032,0 -117.4397408,34.2485172,0 -117.44541619999998,34.25129590000001,0 -117.44654509999997,34.25198960000001,0 -117.44711429999998,34.2524293,0 -117.44803289999999,34.253316600000005,0 -117.44854999999998,34.25396190000001,0 -117.44918689999999,34.25501150000001,0 -117.44940439999999,34.25548800000001,0 -117.44970350000001,34.25637170000001,0 -117.44987870000001,34.25727250000001,0 -117.44994560000002,34.25870500000001,0 -117.44927400000003,34.263764400000014,0 -117.44944820000002,34.27371460000001,0 -117.44967560000002,34.27485940000002,0 -117.44994580000002,34.275655100000016,0 -117.45037550000002,34.27656560000002,0 -117.45125390000003,34.278070700000015,0 -117.45157520000001,34.278827600000014,0 -117.45197170000002,34.28016280000002,0 -117.45208960000002,34.28115100000002,0 -117.45207610000004,34.28172730000002,0 -117.45148070000003,34.28756800000002,0 -117.45151790000003,34.28914240000002,0 -117.45176530000002,34.29049740000002,0 -117.45216110000001,34.29168090000002,0 -117.45275410000002,34.29289380000002,0 -117.45342600000001,34.293935000000026,0 -117.45957800000001,34.30163040000002,0 -117.46082660000002,34.302799300000025,0 -117.46122310000003,34.303107000000026,0 -117.46223760000002,34.30374160000002,0 -117.46292690000001,34.304108400000025,0 -117.46382780000002,34.30446430000002,0 -117.46564090000001,34.305029000000026,0 -117.46663120000001,34.30544860000003,0 -117.46787180000001,34.306168900000024,0 -117.4685242,34.30664420000002,0 -117.47105040000001,34.308812000000025,0 -117.4710663,34.30897300000002,0 -117.4737519,34.31185750000002,0 -117.47888359999999,34.31155340000003,0 -117.48025319999999,34.31161430000003,0 -117.48080340000001,34.31169080000003,0 -117.4817139,34.31188990000003,0 -117.4853682,34.312874200000024,0 -117.5023214,34.31787930000002,0 -117.5034489,34.31832900000003,0 -117.5039709,34.31858830000002,0 -117.5050328,34.31923580000003,0 -117.5093639,34.32254200000003,0 -117.51707130000001,34.327333100000025,0 -117.51752680000001,34.32769380000003,0 -117.5180445,34.32821070000003,0 -117.5184072,34.328687100000025,0 -117.51865629999999,34.32911720000003,0 -117.52346419999999,34.34059390000002,0 -117.5272222,34.351825500000025,0 -117.5273997,34.35223730000002,0 -117.52767380000002,34.35271120000002,0 -117.52808310000002,34.35327390000002,0 -117.54497830000003,34.37166500000002,0 -117.54497190000004,34.37171170000003,0 -117.54564920000003,34.372413900000026,0 -117.54618350000003,34.372840700000026,0 -117.54675320000003,34.373200000000026,0 -117.54723160000002,34.373448600000025,0 -117.54776920000002,34.37367380000003,0 -117.55351440000001,34.375522100000026,0 -117.56227460000001,34.37946420000002,0 -117.5716392,34.38448090000002,0 -117.57225720000001,34.384917700000024,0 -117.57296610000002,34.385605400000024,0 -117.5733663,34.386086300000024,0 -117.57371150000002,34.38665920000002,0 -117.57495030000001,34.389290000000024,0 -117.5750609,34.38934870000002,0 -117.57550950000001,34.39001580000002,0 -117.5755072,34.39009720000002,0 -117.57570030000001,34.39035270000002,0 -117.57648970000001,34.39111000000002,0 -117.57802610000002,34.392188900000015,0 -117.57820080000003,34.39226600000001,0 -117.57875860000003,34.392828500000014,0 -117.57919030000004,34.39340270000001,0 -117.57916920000004,34.393485100000014,0 -117.57965020000003,34.39464110000001,0 -117.58026850000002,34.396502000000005,0 -117.58032280000002,34.39682270000001,0 -117.58035010000002,34.397404400000006,0 -117.58023600000003,34.3981972,0 -117.57913960000003,34.4011927,0 -117.57900780000004,34.4020457,0 -117.57902430000004,34.4025495,0 -117.57915500000003,34.40332370000001,0 -117.57931360000003,34.4037713,0 -117.58037480000003,34.405900700000004,0 -117.58108820000004,34.40691950000001,0 -117.58204790000005,34.4078547,0 -117.58264190000006,34.4082899,0 -117.59346950000005,34.413622399999994,0 -117.59352480000007,34.4136289,0 -117.61683540000006,34.425078899999995,0 -117.61687890000006,34.4251197,0 -117.62220260000005,34.4277347,0 -117.62228510000006,34.4277472,0 -117.62591230000008,34.429590499999996,0 -117.64178850000008,34.4399616,0 -117.64261810000008,34.440448700000005,0 -117.65976960000008,34.4516706,0 -117.73780660000007,34.4978932,0 -117.73834240000008,34.4981457,0 -117.73841120000007,34.498215699999996,0 -117.7391519000001,34.4984228,0 -117.7402028000001,34.4985301,0 -117.74043650000009,34.49852320000001,0 -117.7405936000001,34.4984862,0 -117.7512460000001,34.49853710000001,0 -117.75141430000009,34.498515600000005,0 -117.80528750000008,34.498675000000006,0 -117.80605500000007,34.49878040000001,0 -117.80727210000008,34.499099900000004,0 -117.80811710000009,34.4994761,0 -117.80889780000007,34.4999407,0 -117.81485540000008,34.50455000000001,0 -117.81562590000009,34.5050511,0 -117.81614240000007,34.50530870000001,0 -117.81721670000007,34.50567530000001,0 -117.81813410000008,34.50587910000001,0 -117.81856940000009,34.50592800000001,0 -117.82271750000007,34.50598110000001,0 -117.82593810000007,34.50580190000001,0 -117.82889850000007,34.50584710000001,0 -117.83235730000006,34.50606880000001,0 -117.83348720000004,34.50608530000001,0 -117.83365370000006,34.50614700000001,0 -117.83716770000005,34.50616440000001,0 -117.83737440000006,34.50610690000001,0 -117.91757730000008,34.50644890000001,0 -117.91770320000006,34.50648020000001,0 -117.92232790000007,34.506493800000015,0 -117.92314770000006,34.50664620000001,0 -117.92367080000005,34.50680220000001,0 -117.92442190000006,34.50715960000001,0 -117.92487290000005,34.50745380000001,0 -117.92531560000006,34.507814900000014,0 -117.93518870000005,34.51897200000001,0 -117.93565970000006,34.51941990000001,0 -117.93615090000007,34.51980310000001,0 -117.93683510000007,34.52023490000001,0 -117.93786760000008,34.52071520000001,0 -117.93899380000006,34.52099800000001,0 -117.93982530000005,34.52110810000001,0 -117.94285260000007,34.521158000000014,0 -117.94290090000007,34.52113280000002,0 -117.94293030000007,34.52110180000001,0 -118.00135470000006,34.521026800000016,0 -118.00219790000006,34.52106410000002,0 -118.00239250000004,34.52112360000002,0 -118.00435350000004,34.521301000000015,0 -118.00450690000005,34.521263300000015,0 -118.00511540000005,34.52132570000002,0 -118.00599580000006,34.52151710000002,0 -118.00652460000008,34.52169550000002,0 -118.00704850000005,34.52192620000002,0 -118.00749390000006,34.52217200000002,0 -118.00800490000006,34.52252630000002,0 -118.00864310000007,34.52310940000002,0 -118.00892240000007,34.52345120000002,0 -118.01368700000006,34.53051490000002,0 -118.01406590000006,34.530955100000014,0 -118.01458460000006,34.53143300000002,0 -118.02704710000006,34.54044610000002,0 -118.03032440000007,34.54266570000002,0 -118.03036500000006,34.54272770000002,0 -118.03041910000006,34.54271400000002,0 -118.06736920000006,34.54271750000002,0 -118.06855100000006,34.54261810000002,0 -118.07698010000004,34.54112970000002,0 -118.07806440000006,34.54085930000002,0 -118.07990580000005,34.54014980000002,0 -118.08076010000006,34.539636100000024,0 -118.08126620000004,34.53926310000002,0 -118.08205580000005,34.53856760000002,0 -118.08479750000006,34.53564640000002,0 -118.08484290000006,34.535557600000026,0 -118.09073940000005,34.529809800000024,0 -118.09516950000005,34.52463950000003,0 -118.09528350000005,34.52457390000003,0 -118.10088760000004,34.518321200000024,0 -118.10156130000004,34.517710900000026,0 -118.10220870000005,34.51728690000003,0 -118.10556310000004,34.515750500000024,0 -118.10595940000005,34.51552290000002,0 -118.10653530000003,34.515123100000025,0 -118.10732100000006,34.51437680000002,0 -118.10840790000005,34.512950700000026,0 -118.10867230000004,34.513083200000025,0 -118.10894600000003,34.51327820000003,0 -118.11000380000003,34.51439380000003,0 -118.11012910000004,34.514576600000034,0 -118.11019530000003,34.51474910000003,0 -118.11041340000003,34.516665300000035,0 -118.11050350000002,34.516858600000035,0 -118.11081090000003,34.52118380000003,0 -118.11101090000004,34.52195040000003,0 -118.11319150000004,34.52710600000003,0 -118.11340530000005,34.52801600000003,0 -118.11356650000005,34.53003570000003,0 -118.11366310000007,34.53063980000003,0 -118.11380580000008,34.53114030000003,0 -118.11402260000007,34.53166920000003,0 -118.11450490000006,34.532475000000034,0 -118.11509740000005,34.53316910000003,0 -118.11562080000004,34.53363600000003,0 -118.11751670000004,34.534955700000026,0 -118.11815920000005,34.535467000000025,0 -118.12283240000005,34.54046030000002,0 -118.12937230000006,34.54618530000002,0 -118.13015830000006,34.54707250000001,0 -118.13042860000006,34.54745890000001,0 -118.13093810000005,34.54834900000001,0 -118.13136160000006,34.54940710000002,0 -118.13149850000006,34.54991730000002,0 -118.13164350000005,34.55078370000002,0 -118.13335280000007,34.56836190000001,0 -118.13390590000006,34.59217910000001,0 -118.13410360000006,34.59340930000001,0 -118.13436070000006,34.59419460000001,0 -118.13469390000004,34.594925800000006,0 -118.13538630000005,34.59602050000001,0 -118.13600180000006,34.59674200000001,0 -118.13659720000005,34.59732130000001,0 -118.14993530000005,34.60731630000001,0 -118.15090350000006,34.60815300000001,0 -118.15156220000004,34.60890120000001,0 -118.15201730000004,34.609535100000016,0 -118.15243270000003,34.61027660000001,0 -118.15270440000003,34.610905500000015,0 -118.15302530000002,34.611999800000014,0 -118.15313500000003,34.612765500000016,0 -118.15324020000004,34.667013400000016,0 -118.15328560000003,34.66763110000002,0 -118.15345730000003,34.66862690000002,0 -118.15384190000003,34.66991990000002,0 -118.15418010000005,34.67069230000001,0 -118.15479580000004,34.671807500000014,0 -118.15534380000004,34.67258060000002,0 -118.16737250000003,34.68557590000001,0 -118.16800910000005,34.68639390000002,0 -118.16871920000006,34.687547400000014,0 -118.16906520000005,34.68828350000002,0 -118.16938370000004,34.689152800000016,0 -118.16971040000004,34.69058130000002,0 -118.16978860000005,34.69138390000002,0 -118.17009490000005,34.72958600000002,0 -118.17004000000006,34.729682900000014,0 -118.16992420000005,34.730642300000014,0 -118.16982480000006,34.73102330000001,0 -118.16963180000005,34.73143440000001,0 -118.16893470000005,34.732353500000016,0 -118.16884200000005,34.732636000000014,0 -118.16882950000004,34.73322330000001,0 -118.17453660000004,34.73321240000001,0 -118.17468140000003,34.73324580000001,0 -118.21517270000002,34.73313810000001,0 -118.21517280000003,34.733318300000015,0 </coordinates></LineString><TimeSpan><begin>2020-11-15T17:20:04.000Z</begin><end>2020-11-15T18:44:44.000Z</end></TimeSpan></Placemark><Placemark><name>34° 43' 59.588" N, 118° 11' 9.5384" W</name><address></address><ExtendedData><Data name="Email"><value>syugen.zhou@gmail.com</value></Data><Data name="Category"><value></value></Data><Data name="Distance"><value>0</value></Data></ExtendedData><description>  from 2020-11-15T18:44:44.000Z to 2020-11-15T18:58:41.000Z. Distance 0m </description><Point><coordinates>-118.1859829,34.7332189,0</coordinates></Point><TimeSpan><begin>2020-11-15T18:44:44.000Z</begin><end>2020-11-15T18:58:41.000Z</end></TimeSpan></Placemark><Placemark><name>Driving</name><address></address><ExtendedData><Data name="Email"><value>syugen.zhou@gmail.com</value></Data><Data name="Category"><value>Driving</value></Data><Data name="Distance"><value>237018</value></Data></ExtendedData><description> Driving from 2020-11-15T18:58:41.000Z to 2020-11-15T21:37:53.000Z. Distance 237018m </description><LineString><altitudeMode>clampToGround</altitudeMode><extrude>1</extrude><tesselate>1</tesselate><coordinates>-118.2151729,34.7334136,0 -118.21517270000001,34.7331381,0 -118.21956540000001,34.733115299999994,0 -118.2197288,34.7330542,0 -118.2372142,34.7330202,0 -118.2371362,34.7474244,0 -118.2371811,34.7620963,0 -118.2374026,34.776644399999995,0 -118.2549433,34.7765205,0 -118.3078498,34.776424799999994,0 -118.32508189999999,34.7760415,0 -118.3419095,34.775911799999996,0 -118.3609335,34.7755557,0 -118.37843099999999,34.77547559999999,0 -118.39637829999998,34.775501999999996,0 -118.41352529999998,34.77524749999999,0 -118.43965399999996,34.77501699999999,0 -118.44100159999996,34.77506379999999,0 -118.44264449999997,34.77505459999999,0 -118.44645469999998,34.774993499999994,0 -118.44894989999996,34.77498179999999,0 -118.46772019999995,34.77465169999999,0 -118.48409239999995,34.77455999999999,0 -118.55446329999994,34.77461739999999,0 -118.56256489999994,34.77455449999999,0 -118.56311489999996,34.774561599999984,0 -118.56356329999997,34.77458199999999,0 -118.56418899999996,34.77462949999998,0 -118.56487089999996,34.774708299999986,0 -118.57043099999996,34.775569699999984,0 -118.57092589999995,34.77562249999998,0 -118.57134559999994,34.77564879999998,0 -118.58420659999993,34.77577469999998,0 -118.58709739999993,34.77578049999998,0 -118.60439559999993,34.77570059999998,0 -118.60454769999993,34.77571509999998,0 -118.60485039999993,34.77570979999998,0 -118.60629669999994,34.77572169999998,0 -118.60661109999995,34.77573289999998,0 -118.60701649999994,34.775762899999975,0 -118.60730369999996,34.77579159999998,0 -118.60749119999996,34.77581749999998,0 -118.60793209999994,34.77590199999998,0 -118.60823759999994,34.77596919999998,0 -118.60865069999994,34.77608499999997,0 -118.60911369999994,34.77624219999998,0 -118.60960489999994,34.77645089999998,0 -118.60968969999995,34.77646839999998,0 -118.60985559999995,34.77654929999997,0 -118.61026009999996,34.77677859999998,0 -118.61052559999995,34.77695069999997,0 -118.61091669999995,34.77724409999997,0 -118.61127239999993,34.777549699999966,0 -118.61139519999995,34.77766729999997,0 -118.61167339999994,34.777961799999964,0 -118.61185969999993,34.77818549999997,0 -118.61384579999992,34.78078649999997,0 -118.61396399999992,34.780924799999966,0 -118.61426429999993,34.781246899999964,0 -118.61447249999993,34.78144629999996,0 -118.61483319999995,34.78174639999997,0 -118.61501749999995,34.78188339999997,0 -118.61524749999995,34.78203889999997,0 -118.61551909999994,34.78220739999996,0 -118.61580059999994,34.78236619999996,0 -118.61602719999993,34.782475699999964,0 -118.61650539999994,34.78268329999996,0 -118.61693529999994,34.782840299999954,0 -118.61727489999994,34.78294139999996,0 -118.61764939999993,34.78303519999996,0 -118.61826589999994,34.78315159999996,0 -118.61849869999995,34.78318039999996,0 -118.61882779999995,34.78320859999995,0 -118.61906959999995,34.78321969999996,0 -118.65922349999994,34.78322909999996,0 -118.66082059999995,34.78320269999996,0 -118.66104669999994,34.78318999999996,0 -118.66197499999994,34.78310869999996,0 -118.66272539999996,34.78301479999996,0 -118.66304879999994,34.78296129999996,0 -118.66397339999995,34.78278369999996,0 -118.66445799999994,34.782675699999956,0 -118.66489859999994,34.78256479999995,0 -118.66561239999994,34.78235969999996,0 -118.66638119999993,34.78210849999995,0 -118.66687369999994,34.78192629999995,0 -118.66753799999994,34.78165019999995,0 -118.66851709999993,34.78120309999995,0 -118.66909339999994,34.780905599999954,0 -118.66953559999993,34.78065059999995,0 -118.67009509999994,34.78029749999995,0 -118.67057089999994,34.779977299999956,0 -118.67079959999994,34.77981139999996,0 -118.67139129999994,34.779356499999956,0 -118.67213449999996,34.77872059999996,0 -118.67260549999996,34.77827249999996,0 -118.67343159999996,34.77744159999996,0 -118.67410549999995,34.77678659999996,0 -118.67456619999996,34.77636659999995,0 -118.67478549999996,34.776184999999955,0 -118.67504869999995,34.775992299999956,0 -118.67523099999994,34.77587089999995,0 -118.67554489999993,34.775679599999954,0 -118.67573229999994,34.77557409999996,0 -118.67613729999994,34.77536319999996,0 -118.67648029999994,34.775209699999955,0 -118.67680359999994,34.775083299999956,0 -118.67713299999993,34.774968199999954,0 -118.67757379999992,34.77483449999995,0 -118.67786709999993,34.77475809999995,0 -118.67839869999993,34.774636799999946,0 -118.69543119999994,34.771583099999944,0 -118.69638469999992,34.771392899999945,0 -118.69701939999993,34.771249899999944,0 -118.69740079999993,34.77115289999994,0 -118.69815649999993,34.77093829999994,0 -118.6991999999999,34.77058559999994,0 -118.7114403999999,34.766131599999945,0 -118.71215699999989,34.765897499999944,0 -118.71278369999989,34.76571309999994,0 -118.7134095999999,34.76554799999994,0 -118.71387799999991,34.76543729999994,0 -118.71481299999992,34.765250499999944,0 -118.7156349999999,34.76511639999994,0 -118.71649309999992,34.76500829999994,0 -118.71730259999993,34.764930799999945,0 -118.71794209999992,34.76489239999994,0 -118.71880189999992,34.76487129999994,0 -118.73261389999992,34.764908899999945,0 -118.73295819999993,34.76492439999994,0 -118.73362299999992,34.765033399999936,0 -118.73387849999992,34.76508889999994,0 -118.73406949999992,34.76514349999994,0 -118.73421939999993,34.765193299999936,0 -118.73448849999991,34.76529559999994,0 -118.7347423999999,34.765409099999935,0 -118.73508039999989,34.76558219999994,0 -118.73523429999989,34.76567089999994,0 -118.73550729999991,34.76585329999994,0 -118.73566899999992,34.76597719999994,0 -118.73585129999992,34.76612849999994,0 -118.73656289999991,34.76679749999994,0 -118.73706119999991,34.76728469999994,0 -118.73742259999992,34.76760119999994,0 -118.73751109999992,34.76766809999994,0 -118.73764449999993,34.767757299999936,0 -118.73792129999994,34.76792519999994,0 -118.73816049999994,34.76804939999994,0 -118.73848289999992,34.768187699999935,0 -118.73886999999992,34.768306199999934,0 -118.73907779999993,34.768353199999936,0 -118.73916149999995,34.76836799999993,0 -118.73944889999996,34.76840559999993,0 -118.74380469999996,34.768625999999934,0 -118.74395239999997,34.768638399999936,0 -118.74447089999997,34.768700299999935,0 -118.75493939999997,34.77019739999994,0 -118.75531399999996,34.77025879999994,0 -118.75574069999995,34.77034789999993,0 -118.75609849999995,34.77044609999994,0 -118.75654999999993,34.770602099999934,0 -118.75687129999993,34.770723799999935,0 -118.76161679999993,34.772744299999935,0 -118.76175999999992,34.772797699999934,0 -118.76210169999993,34.77290069999993,0 -118.76603809999995,34.773799199999935,0 -118.76633859999995,34.773895299999936,0 -118.76669679999996,34.77398759999994,0 -118.76725049999997,34.77411419999994,0 -118.76746569999997,34.774153699999935,0 -118.77079859999998,34.77463419999994,0 -118.77122499999997,34.774679699999936,0 -118.77160489999997,34.77470969999993,0 -118.77192879999998,34.77471989999993,0 -118.77240969999998,34.774722199999935,0 -118.77302699999997,34.774703999999936,0 -118.77366819999999,34.77465679999994,0 -118.77455409999997,34.77451369999994,0 -118.7750191,34.77441679999995,0 -118.7757089,34.77423629999994,0 -118.77619750000001,34.77408379999994,0 -118.7767659,34.773869999999945,0 -118.77734600000001,34.773616399999945,0 -118.7778631,34.773356099999944,0 -118.7784518,34.77301379999995,0 -118.77866230000001,34.77287799999995,0 -118.78482050000001,34.76858689999995,0 -118.78491730000002,34.76855159999995,0 -118.78500200000002,34.76850689999995,0 -118.78769860000004,34.76683009999995,0 -118.78820190000003,34.76655299999995,0 -118.78863100000002,34.76635699999995,0 -118.78902550000002,34.76619049999995,0 -118.78938440000002,34.76606049999995,0 -118.79020220000002,34.76582029999995,0 -118.79062820000003,34.76572609999995,0 -118.79107430000003,34.76565079999996,0 -118.79154440000003,34.765589099999964,0 -118.79202490000003,34.76554879999996,0 -118.79246080000003,34.76552789999996,0 -118.79332670000002,34.76555329999996,0 -118.79381350000001,34.76559859999996,0 -118.79433880000002,34.76567739999996,0 -118.79728090000003,34.76618869999996,0 -118.79758710000004,34.76624939999996,0 -118.79796090000005,34.76634739999996,0 -118.79813880000005,34.766406199999956,0 -118.79855930000004,34.766572599999954,0 -118.79873080000004,34.76665799999996,0 -118.79897310000005,34.76679619999996,0 -118.79913530000005,34.76689859999996,0 -118.79934830000005,34.767055699999965,0 -118.79958130000006,34.76725769999996,0 -118.79981250000004,34.76749329999996,0 -118.79992790000004,34.76763479999996,0 -118.80002320000003,34.76773369999996,0 -118.80117640000003,34.76902459999996,0 -118.80143860000001,34.76930529999996,0 -118.8015042,34.76933599999996,0 -118.80164309999999,34.76936759999996,0 -118.8017405,34.76951339999996,0 -118.80251679999999,34.77039119999996,0 -118.8026481,34.77050359999997,0 -118.80324759999999,34.771133699999965,0 -118.8040608,34.771932599999964,0 -118.80455969999998,34.77239679999997,0 -118.80540409999998,34.773137099999964,0 -118.80625029999999,34.773825399999964,0 -118.80699389999998,34.77439959999997,0 -118.80789979999999,34.775052399999964,0 -118.80889339999997,34.77571789999996,0 -118.80989539999997,34.77634449999996,0 -118.82681389999996,34.78650669999996,0 -118.82778859999996,34.78713919999996,0 -118.82829409999995,34.78748759999996,0 -118.82899089999997,34.78799119999996,0 -118.83296069999997,34.79100149999996,0 -118.83332149999998,34.79126369999996,0 -118.8336088,34.79146069999996,0 -118.8342322,34.791849199999966,0 -118.83454440000001,34.79202619999997,0 -118.8349841,34.792256999999964,0 -118.8355193,34.792513199999966,0 -118.83596969999999,34.792707099999966,0 -118.8364491,34.792890799999974,0 -118.83687439999999,34.79303559999997,0 -118.8372006,34.793133499999975,0 -118.8375277,34.79322239999997,0 -118.83781899999998,34.793291999999965,0 -118.83825689999999,34.79338519999997,0 -118.83872869999998,34.79346329999997,0 -118.84293879999998,34.79396439999997,0 -118.857479,34.795864699999974,0 -118.85763449999999,34.79590079999997,0 -118.8583633,34.79596949999997,0 -118.86742369999999,34.79703669999997,0 -118.86790379999997,34.79710699999997,0 -118.86838949999996,34.797202499999976,0 -118.86883169999996,34.79731019999998,0 -118.86942279999995,34.79748799999997,0 -118.86986289999996,34.79764899999998,0 -118.87009769999995,34.79774329999998,0 -118.87058519999995,34.79796589999998,0 -118.87097119999996,34.79816679999998,0 -118.87137679999996,34.798405199999976,0 -118.87176369999997,34.79866139999998,0 -118.87210759999996,34.79891369999998,0 -118.87224509999996,34.79902209999998,0 -118.88062169999996,34.80618329999997,0 -118.88089559999995,34.80642769999998,0 -118.88120439999996,34.80668289999998,0 -118.88240419999994,34.80772029999998,0 -118.88265709999996,34.80796669999997,0 -118.88300809999994,34.80834639999998,0 -118.88310919999994,34.80846939999998,0 -118.88336439999995,34.80881359999998,0 -118.88353149999995,34.80905909999998,0 -118.88364259999994,34.80923599999998,0 -118.88389989999993,34.80970739999998,0 -118.88410979999993,34.81016809999998,0 -118.88424189999994,34.81052969999998,0 -118.88432229999994,34.81079339999998,0 -118.88439309999995,34.811069199999984,0 -118.88445829999995,34.81139129999998,0 -118.88449569999996,34.81164039999999,0 -118.88453539999998,34.81206139999998,0 -118.88454529999996,34.81242249999998,0 -118.88452009999996,34.812935399999986,0 -118.88446539999997,34.81335749999999,0 -118.88436439999998,34.813815599999984,0 -118.88424839999998,34.814217099999986,0 -118.88408519999997,34.814665799999986,0 -118.88396889999999,34.814928899999984,0 -118.88384539999998,34.81517379999998,0 -118.8837182,34.81540119999998,0 -118.883559,34.815663299999976,0 -118.88332940000001,34.81599169999998,0 -118.8829665,34.816443899999975,0 -118.8826715,34.81675969999998,0 -118.8800632,34.81928389999998,0 -118.8799251,34.81940909999998,0 -118.86804059999999,34.83085129999998,0 -118.86795099999998,34.83092419999998,0 -118.86429679999998,34.83446119999997,0 -118.86407369999999,34.834701699999975,0 -118.863898,34.83491159999998,0 -118.8637279,34.83514259999997,0 -118.863575,34.835369299999975,0 -118.8634343,34.83560029999997,0 -118.8632302,34.83599599999997,0 -118.86308520000001,34.83634179999997,0 -118.8629647,34.83672529999997,0 -118.86290280000001,34.83697859999997,0 -118.86285370000003,34.83724089999997,0 -118.86279880000004,34.83777609999997,0 -118.86279800000003,34.83817069999997,0 -118.86280540000003,34.83832159999997,0 -118.86284600000002,34.83870209999997,0 -118.8628939,34.83895319999997,0 -118.8630317,34.83946459999997,0 -118.8631784,34.83985599999997,0 -118.8633679,34.84024259999997,0 -118.86360839999999,34.840646599999964,0 -118.86376229999999,34.84087309999997,0 -118.87874739999998,34.86131789999997,0 -118.87930109999999,34.862010299999966,0 -118.8797663,34.86255639999997,0 -118.8801533,34.86299049999997,0 -118.8809524,34.86383639999997,0 -118.88303,34.86588969999997,0 -118.883291,34.86613549999997,0 -118.8902421,34.87296419999997,0 -118.8907667,34.87345169999997,0 -118.8925747,34.87519429999997,0 -118.89316369999999,34.87570929999997,0 -118.89370119999998,34.87615019999997,0 -118.89444869999997,34.876707399999965,0 -118.89629319999997,34.87802289999996,0 -118.89665849999999,34.87829589999996,0 -118.897012,34.878574699999966,0 -118.89746530000001,34.87898149999996,0 -118.89794499999999,34.87948379999996,0 -118.8981684,34.879745099999965,0 -118.8983496,34.87997869999996,0 -118.8985832,34.88031009999997,0 -118.8987876,34.88062999999997,0 -118.8989431,34.880894899999966,0 -118.89916099999999,34.88131529999996,0 -118.8996429,34.882314599999965,0 -118.8998511,34.882772999999965,0 -118.9000894,34.883226699999966,0 -118.90023509999999,34.88347989999996,0 -118.9004657,34.88382999999997,0 -118.9006268,34.88404729999996,0 -118.90097639999999,34.884467499999964,0 -118.90117539999999,34.88467989999997,0 -118.90138629999998,34.88488699999997,0 -118.90159469999999,34.88507599999998,0 -118.90181599999998,34.88526399999997,0 -118.90216689999998,34.88553319999997,0 -118.90253409999997,34.885782899999974,0 -118.90279749999996,34.88594619999998,0 -118.90331009999997,34.886228099999975,0 -118.91152769999998,34.890330899999974,0 -118.91204549999996,34.890621599999974,0 -118.91267149999997,34.89101109999997,0 -118.91914569999997,34.895361099999974,0 -118.91960849999997,34.89570559999997,0 -118.91982499999997,34.895885299999975,0 -118.92007559999999,34.896107299999976,0 -118.92046289999999,34.89648139999998,0 -118.92073649999998,34.89677829999997,0 -118.92108489999997,34.89720149999997,0 -118.92139089999996,34.89762029999998,0 -118.92164939999995,34.89803209999997,0 -118.92184729999995,34.89838829999997,0 -118.92196869999997,34.89862959999997,0 -118.92213999999997,34.89902379999997,0 -118.92229739999998,34.89944679999997,0 -118.92241509999997,34.89984569999997,0 -118.92249379999996,34.90016609999997,0 -118.92360679999994,34.90637719999997,0 -118.92365109999994,34.906678399999976,0 -118.92369229999994,34.90708299999998,0 -118.92370719999995,34.907350699999974,0 -118.92371449999995,34.90771169999998,0 -118.92367609999997,34.908287899999976,0 -118.92325859999995,34.91167519999998,0 -118.92323239999996,34.91208429999998,0 -118.92323359999996,34.91239099999998,0 -118.92326279999996,34.912817099999984,0 -118.92331589999996,34.91326089999998,0 -118.92382759999997,34.915609799999984,0 -118.92389249999997,34.916009299999985,0 -118.92397149999998,34.916658699999985,0 -118.92401839999998,34.917448599999986,0 -118.92400939999997,34.918220699999985,0 -118.92396559999997,34.91882279999999,0 -118.92387329999997,34.919537199999986,0 -118.92374279999997,34.920197899999984,0 -118.92358879999998,34.92081659999999,0 -118.92247459999999,34.924238999999986,0 -118.92240999999997,34.92446769999999,0 -118.92233299999997,34.92479299999999,0 -118.92225479999998,34.925221599999986,0 -118.92221989999999,34.92559939999998,0 -118.92219449999999,34.926251499999985,0 -118.92220799999998,34.92663619999998,0 -118.92225349999997,34.927078499999986,0 -118.92227879999996,34.927237699999985,0 -118.92245979999997,34.927955099999984,0 -118.92258559999996,34.92837269999999,0 -118.92283939999996,34.92900809999999,0 -118.92299899999996,34.92933649999999,0 -118.92321709999995,34.92973989999999,0 -118.92338239999997,34.930019999999985,0 -118.92713999999997,34.93557189999999,0 -118.92731609999997,34.935817599999986,0 -118.92952099999997,34.93907439999999,0 -118.92957129999996,34.93915839999999,0 -118.92997719999997,34.93975209999999,0 -118.93032009999997,34.94030529999999,0 -118.93073609999996,34.941086999999996,0 -118.93093499999996,34.941502299999996,0 -118.93109609999996,34.94188039999999,0 -118.93133569999995,34.94252589999999,0 -118.93889309999996,34.96649839999999,0 -118.93960179999996,34.968887499999994,0 -118.94030769999996,34.97097829999999,0 -118.95162349999995,35.00678459999999,0 -118.95168849999995,35.00696819999999,0 -118.95163199999995,35.00705149999999,0 -118.95162639999994,35.00707089999999,0 -118.95164409999994,35.00723929999999,0 -118.95178629999994,35.00777969999999,0 -118.95189659999993,35.00831839999999,0 -118.95194329999993,35.00863929999999,0 -118.95196509999991,35.00887279999999,0 -118.9519796999999,35.00914389999999,0 -118.9519832999999,35.009404999999994,0 -118.9518578999999,35.012161799999994,0 -118.95187869999991,35.01269769999999,0 -118.95194129999992,35.01321149999999,0 -118.9520158999999,35.01359889999999,0 -118.95207819999992,35.0138616,0 -118.95214909999993,35.0141132,0 -118.95227419999993,35.014494799999994,0 -118.95237339999994,35.014755099999995,0 -118.95258929999993,35.015240799999994,0 -118.95277739999993,35.01559989999999,0 -118.95306869999993,35.0160639,0 -118.95322229999994,35.01628869999999,0 -118.95339099999993,35.016515999999996,0 -118.95374639999993,35.01695459999999,0 -118.95393759999992,35.01716369999999,0 -118.95423669999992,35.017469999999996,0 -118.95444989999991,35.01767219999999,0 -118.95466909999992,35.01786439999999,0 -118.97186179999991,35.032033199999994,0 -118.97231659999991,35.032420599999995,0 -118.9737106999999,35.03368019999999,0 -118.9743359999999,35.03428429999999,0 -118.97503159999991,35.03500239999999,0 -118.9865708999999,35.04756519999999,0 -118.9874660999999,35.048509199999984,0 -118.9884834999999,35.04952869999998,0 -118.99120589999988,35.052109299999984,0 -119.02291469999987,35.08176289999998,0 -119.02293679999988,35.081800399999985,0 -119.02434129999988,35.08312059999998,0 -119.0244093999999,35.08316539999998,0 -119.0244906999999,35.08323439999998,0 -119.04220039999991,35.09978259999998,0 -119.08059329999992,35.13454069999998,0 -119.08114719999992,35.135023099999984,0 -119.08340829999993,35.13707189999999,0 -119.08465779999992,35.13824469999999,0 -119.08638589999994,35.13982019999999,0 -119.08814169999994,35.141362999999984,0 -119.08909379999993,35.14223039999998,0 -119.09010879999992,35.143124399999984,0 -119.09050499999994,35.14349999999998,0 -119.10236789999992,35.15423099999998,0 -119.10312529999993,35.15489649999998,0 -119.10525459999992,35.15684539999998,0 -119.10612369999991,35.15761259999998,0 -119.11385969999992,35.164617399999976,0 -119.11755249999992,35.16791119999998,0 -119.13246419999992,35.18141619999998,0 -119.13269699999992,35.18165769999998,0 -119.14806859999992,35.19549289999998,0 -119.15258949999992,35.199678399999975,0 -119.15335999999992,35.200359899999974,0 -119.18534789999993,35.23046469999997,0 -119.18586639999992,35.23096839999997,0 -119.19510059999992,35.23963179999998,0 -119.19570829999991,35.24022709999998,0 -119.19689659999992,35.24132289999998,0 -119.25530769999992,35.29617369999997,0 -119.2566198999999,35.29734089999997,0 -119.2581094999999,35.29858919999997,0 -119.2585633999999,35.29893749999997,0 -119.2597271999999,35.29986609999997,0 -119.27550179999989,35.312126099999965,0 -119.27743059999989,35.31357479999996,0 -119.27956449999988,35.31511119999997,0 -119.28054259999988,35.315788199999965,0 -119.28751739999987,35.32075519999997,0 -119.28897489999987,35.321763799999964,0 -119.28920639999988,35.32193389999997,0 -119.2897320999999,35.32234319999997,0 -119.2923470999999,35.32415759999997,0 -119.2929566999999,35.32460099999997,0 -119.2930836999999,35.32470029999997,0 -119.3636431999999,35.37473439999997,0 -119.3895913999999,35.39342639999997,0 -119.3905454999999,35.394136299999964,0 -119.39240629999992,35.39547029999997,0 -119.43405689999992,35.42596009999997,0 -119.51113399999993,35.481944799999965,0 -119.51141179999993,35.48212549999997,0 -119.52744679999994,35.49377069999996,0 -119.52828289999992,35.49440189999996,0 -119.52898449999994,35.494956899999956,0 -119.52978239999995,35.495615299999955,0 -119.53056699999995,35.496297599999956,0 -119.53580399999994,35.50110969999996,0 -119.53689239999993,35.50207909999995,0 -119.53704499999994,35.50223219999995,0 -119.58036679999995,35.54209809999995,0 -119.58174819999995,35.54333149999995,0 -119.61003879999994,35.569290599999945,0 -119.61180309999995,35.57097619999995,0 -119.61310119999993,35.57228509999995,0 -119.64404489999993,35.60456799999995,0 -119.64473139999993,35.60531149999995,0 -119.64522299999993,35.60586909999995,0 -119.64601309999992,35.60681529999996,0 -119.64658349999992,35.607534999999956,0 -119.64985259999992,35.61192569999996,0 -119.64991919999991,35.612025199999955,0 -119.72040779999992,35.706809499999956,0 -119.72067209999992,35.70714829999996,0 -119.73192829999992,35.722242799999954,0 -119.7320932999999,35.72250309999995,0 -119.73394569999992,35.725018299999945,0 -119.73403219999992,35.725127199999946,0 -119.73446199999992,35.72571319999995,0 -119.73565159999993,35.72711309999995,0 -119.73573519999994,35.727225499999946,0 -119.73582769999993,35.72733589999995,0 -119.73635149999991,35.72801869999995,0 -119.73644089999993,35.72815259999995,0 -119.73686079999995,35.72870999999995,0 -119.73704619999995,35.728937099999946,0 -119.73719289999995,35.72916649999995,0 -119.73753189999995,35.72962639999995,0 -119.73762269999995,35.72973259999995,0 -119.73812229999996,35.73043069999995,0 -119.73882409999996,35.73133159999995,0 -119.73896869999996,35.73154799999995,0 -119.73916159999996,35.73181459999995,0 -119.73924489999995,35.73191449999995,0 -119.74013869999995,35.73313719999995,0 -119.74034669999996,35.733398199999954,0 -119.74231409999997,35.73602539999996,0 -119.74272029999997,35.736543499999954,0 -119.74455179999997,35.739033399999954,0 -119.74492559999997,35.73969209999996,0 -119.74755179999997,35.74320549999995,0 -119.74778569999998,35.74354279999996,0 -119.7489672,35.74510999999996,0 -119.74944819999999,35.74571349999996,0 -119.74998479999998,35.74630529999996,0 -119.75329309999996,35.75075849999996,0 -119.75358979999999,35.75112589999996,0 -119.75434869999998,35.75234569999996,0 -119.756728,35.755520099999956,0 -119.75994039999999,35.75988299999996,0 -119.76256539999999,35.76335849999996,0 -119.7625802,35.76337449999996,0 -119.8137278,35.83183459999996,0 -119.81498619999999,35.83347369999996,0 -119.81866790000001,35.83804429999996,0 -119.8212833,35.841218699999956,0 -119.8236231,35.84412449999996,0 -119.82367700000002,35.84418379999995,0 -119.82840850000001,35.84998529999996,0 -119.8292343,35.850945199999956,0 -119.8302711,35.852109599999956,0 -119.86433029999999,35.88806589999996,0 -119.86564499999999,35.889388099999955,0 -119.95701789999998,35.978673999999955,0 -119.95703319999998,35.978746399999956,0 -119.95705329999998,35.97878769999996,0 -119.9577797,35.97961029999996,0 -119.95795360000001,35.97982099999996,0 -119.9581278,35.98007489999996,0 -119.9581746,35.98015859999997,0 -119.95827490000002,35.980370099999966,0 -119.95946580000002,35.98350569999997,0 -119.95957460000002,35.98390469999997,0 -119.95961820000004,35.98423919999996,0 -119.95967420000002,35.98438329999997,0 -119.95966950000002,35.98566869999997,0 -119.95964070000004,35.98625169999997,0 -119.95960310000002,35.98811779999997,0 -119.95940030000003,35.98814089999997,0 -119.95909180000002,35.98813549999997,0 -119.95900740000003,35.98812789999997,0 -119.95892150000002,35.98811169999996,0 -119.95877530000003,35.98806609999996,0 -119.95869220000003,35.988029199999964,0 -119.95861980000004,35.98798579999996,0 -119.95854600000004,35.98792499999996,0 -119.95849510000005,35.98787619999996,0 -119.95823350000005,35.987590799999964,0 -119.95818530000004,35.987529999999964,0 -119.95815310000005,35.98747029999996,0 -119.95813030000005,35.987412799999966,0 -119.95811420000004,35.987357499999966,0 -119.95810610000004,35.987296699999966,0 -119.95813800000003,35.98633619999997,0 -119.95829520000004,35.986334199999966,0 -119.95856610000004,35.986355899999964,0 -119.95881560000005,35.98636669999996,0 -119.95900870000006,35.98636669999996,0 -119.95903320000006,35.98638559999996,0 -119.95904950000006,35.98639149999996,0 -119.95909110000007,35.98640199999996,0 -119.95913180000005,35.98640729999996,0 -119.95931450000005,35.98640359999996,0 -119.95934930000003,35.98638629999996,0 -119.95935470000005,35.98634499999996,0 -119.95935980000004,35.98623139999996,0 -119.95935280000003,35.98614429999996,0 </coordinates></LineString><TimeSpan><begin>2020-11-15T18:58:41.000Z</begin><end>2020-11-15T21:37:53.000Z</end></TimeSpan></Placemark><Placemark><name>In-N-Out Burger</name><address>33464 Bernard Dr, Kettleman City, CA 93239</address><ExtendedData><Data name="Email"><value>syugen.zhou@gmail.com</value></Data><Data name="Category"><value>Hamburger</value></Data><Data name="Distance"><value>0</value></Data></ExtendedData><description> Hamburger from 2020-11-15T21:37:53.000Z to 2020-11-15T21:40:04.000Z. Distance 0m </description><Point><coordinates>-119.9592831,35.9861368,0</coordinates></Point><TimeSpan><begin>2020-11-15T21:37:53.000Z</begin><end>2020-11-15T21:40:04.000Z</end></TimeSpan></Placemark><Placemark><name>Starbucks</name><address>33300 Bernard Dr, Kettleman City, CA 93239</address><ExtendedData><Data name="Email"><value>syugen.zhou@gmail.com</value></Data><Data name="Category"><value>Coffee shop</value></Data><Data name="Distance"><value>0</value></Data></ExtendedData><description> Coffee shop from 2020-11-15T21:40:04.000Z to 2020-11-15T21:42:43.000Z. Distance 0m </description><Point><coordinates>-119.959301,35.987769,0</coordinates></Point><TimeSpan><begin>2020-11-15T21:40:04.000Z</begin><end>2020-11-15T21:42:43.000Z</end></TimeSpan></Placemark><Placemark><name>Driving</name><address></address><ExtendedData><Data name="Email"><value>syugen.zhou@gmail.com</value></Data><Data name="Category"><value>Driving</value></Data><Data name="Distance"><value>298889</value></Data></ExtendedData><description> Driving from 2020-11-15T21:42:43.000Z to 2020-11-16T00:46:33.458Z. Distance 298889m </description><LineString><altitudeMode>clampToGround</altitudeMode><extrude>1</extrude><tesselate>1</tesselate><coordinates>-119.95935139999999,35.986118999999995,0 -119.9593225,35.9857395,0 -119.95879390000002,35.9857288,0 -119.95876190000001,35.9856918,0 -119.9586949,35.9856744,0 -119.95840519999999,35.985663499999994,0 -119.95811899999998,35.9856844,0 -119.95815559999998,35.9858382,0 -119.95810609999998,35.9872967,0 -119.95811419999998,35.987357499999995,0 -119.95818529999998,35.98753,0 -119.9584951,35.9878762,0 -119.95861979999998,35.9879858,0 -119.95877529999997,35.9880661,0 -119.95900739999998,35.9881279,0 -119.95940029999998,35.9881409,0 -119.95960309999997,35.9881178,0 -119.95972289999997,35.988121500000005,0 -119.96006349999998,35.983683500000005,0 -119.96048919999998,35.983801500000006,0 -119.96201829999998,35.98414240000001,0 -119.96231339999997,35.984260100000014,0 -119.96245169999997,35.98433890000001,0 -119.96285799999997,35.98464650000001,0 -119.96414709999998,35.98590070000001,0 -119.96431219999997,35.985963000000005,0 -119.98122469999996,36.00366270000001,0 -119.98205999999995,36.004466300000004,0 -119.98275869999995,36.005081200000006,0 -119.98387299999993,36.00597380000001,0 -119.98518519999993,36.00690430000001,0 -120.01813959999993,36.02811320000001,0 -120.01981989999992,36.029121200000006,0 -120.05300309999993,36.047419100000006,0 -120.10223179999993,36.07711640000001,0 -120.10310129999992,36.07771840000001,0 -120.10474779999993,36.07900480000001,0 -120.10562019999993,36.07979590000001,0 -120.10683469999995,36.08102980000001,0 -120.19534749999994,36.177881200000016,0 -120.19641039999995,36.17920100000001,0 -120.19705319999996,36.180116300000016,0 -120.27197259999994,36.299027500000015,0 -120.27298629999994,36.300442400000016,0 -120.27366919999994,36.301304400000014,0 -120.28851059999995,36.31847070000001,0 -120.29848339999994,36.32899910000001,0 -120.40786729999995,36.45125870000001,0 -120.42868789999994,36.47308130000002,0 -120.44482079999995,36.49181710000001,0 -120.44638969999994,36.493508900000016,0 -120.47372379999993,36.520056400000016,0 -120.47551279999993,36.52156320000002,0 -120.60785679999994,36.621547200000016,0 -120.60944679999993,36.62289860000002,0 -120.61060739999992,36.624042000000024,0 -120.61159329999994,36.62517140000003,0 -120.68221559999994,36.717209600000025,0 -120.68386329999996,36.71950440000003,0 -120.79973099999995,36.88797450000003,0 -120.80138639999994,36.890089700000026,0 -120.82098539999993,36.91254200000002,0 -120.82232369999993,36.91387230000002,0 -120.82354919999992,36.91496360000003,0 -120.82813819999993,36.91867130000003,0 -120.82924639999993,36.91964120000003,0 -120.83915149999993,36.92926780000003,0 -120.84210819999993,36.93187640000003,0 -120.88739949999992,36.96897180000003,0 -120.88815389999992,36.96966580000003,0 -120.8892849999999,36.97081180000003,0 -120.89064569999991,36.97228960000003,0 -120.91717739999991,37.002546300000034,0 -120.9692087999999,37.05633930000004,0 -120.96923459999992,37.05649560000004,0 -120.9692551999999,37.05654640000004,0 -120.9696965999999,37.057074700000044,0 -120.9697536999999,37.057248600000044,0 -120.9697328999999,37.05737800000004,0 -120.9696853999999,37.057460200000044,0 -120.9696056999999,37.05754320000004,0 -120.96950119999991,37.05760450000004,0 -120.9693674999999,37.05764180000004,0 -120.9691946999999,37.05764400000004,0 -120.96912459999992,37.057632000000034,0 -120.96900949999991,37.05758730000004,0 -120.96890519999992,37.05751450000004,0 -120.96884809999993,37.05744990000004,0 -120.96881089999994,37.057364700000036,0 -120.96879489999992,37.057271600000036,0 -120.96881159999992,37.05716650000004,0 -120.96883019999993,37.05712150000004,0 -120.96888179999995,37.057046600000035,0 -120.96898189999996,37.056959000000035,0 -120.96907789999995,37.056912200000035,0 -120.96925999999996,37.05686140000003,0 -120.96937779999995,37.05679580000003,0 -120.97528999999993,37.05682340000003,0 -120.97547069999995,37.05681060000003,0 -121.04072269999995,37.05702110000003,0 -121.04168609999995,37.05710260000003,0 -121.05122249999994,37.058437600000026,0 -121.05204369999994,37.05859480000002,0 -121.05266459999994,37.058748700000024,0 -121.05335069999992,37.05895870000002,0 -121.05449489999991,37.059395800000026,0 -121.05534689999993,37.05980640000002,0 -121.09395699999992,37.08235000000003,0 -121.09435139999992,37.08251540000003,0 -121.09482789999991,37.08267110000003,0 -121.09516599999992,37.08275010000003,0 -121.09988169999993,37.08348050000003,0 -121.10106429999992,37.08375170000003,0 -121.10996069999993,37.086099000000026,0 -121.11038509999992,37.08624700000003,0 -121.11097369999992,37.08652010000003,0 -121.1159409999999,37.08962590000003,0 -121.11626129999992,37.08990260000004,0 -121.11688779999992,37.09059720000003,0 -121.1203805999999,37.095701800000036,0 -121.12058899999991,37.096131000000035,0 -121.12238979999991,37.100621200000035,0 -121.1226868999999,37.10110540000004,0 -121.1231737999999,37.101664100000036,0 -121.12356069999991,37.10199320000004,0 -121.12406049999991,37.10231040000004,0 -121.1279846999999,37.10441380000004,0 -121.1286513999999,37.10466130000004,0 -121.1291992999999,37.10479110000004,0 -121.12976669999989,37.10486640000004,0 -121.1302517999999,37.10489260000004,0 -121.1305978999999,37.10488050000004,0 -121.13122059999989,37.104813700000044,0 -121.13186519999988,37.10466850000004,0 -121.13219869999989,37.10455800000004,0 -121.15147689999988,37.09711420000004,0 -121.15195419999988,37.09689820000004,0 -121.15247299999987,37.09659750000004,0 -121.15293219999988,37.09624560000004,0 -121.15314049999988,37.096058000000035,0 -121.15359349999989,37.095566700000035,0 -121.15853819999988,37.08970460000003,0 -121.15925929999989,37.08892380000003,0 -121.15973269999989,37.08851290000003,0 -121.16037959999987,37.088033300000035,0 -121.16136669999989,37.08749550000004,0 -121.16210599999988,37.087182000000034,0 -121.16269919999988,37.086987500000035,0 -121.16333309999986,37.08682620000003,0 -121.16443079999986,37.086644600000035,0 -121.16511159999986,37.08659870000003,0 -121.16576729999987,37.08659820000003,0 -121.16640399999987,37.086636600000034,0 -121.17120309999986,37.08719090000004,0 -121.17200839999985,37.08724920000004,0 -121.17286049999987,37.087243600000036,0 -121.17392109999987,37.08713240000003,0 -121.17447999999987,37.08703150000003,0 -121.18197539999989,37.084966500000036,0 -121.18264359999988,37.08482630000003,0 -121.18282299999989,37.084804000000034,0 -121.1836583999999,37.08476420000004,0 -121.18897379999989,37.08491060000004,0 -121.18957629999989,37.084882000000036,0 -121.19012239999988,37.08479520000004,0 -121.19053599999987,37.08469310000004,0 -121.19100879999986,37.084536000000035,0 -121.19168779999985,37.084243600000036,0 -121.19222989999986,37.08393630000004,0 -121.19241899999986,37.08380120000004,0 -121.19329599999988,37.083030100000045,0 -121.19734659999986,37.07884410000004,0 -121.19785729999985,37.07844120000004,0 -121.19822349999986,37.07821130000004,0 -121.19871229999985,37.077959300000046,0 -121.19920769999985,37.077764100000046,0 -121.19984039999983,37.07758690000004,0 -121.20061769999985,37.07746800000004,0 -121.20507259999985,37.07737110000004,0 -121.20574589999987,37.077306700000044,0 -121.20658489999988,37.07712520000004,0 -121.20718839999988,37.07693240000005,0 -121.20769319999987,37.07668950000004,0 -121.20817329999986,37.07640770000004,0 -121.20858189999986,37.07610210000004,0 -121.20892389999986,37.07579870000004,0 -121.20920239999985,37.075493000000044,0 -121.20962319999984,37.07484400000004,0 -121.21202499999985,37.06969990000004,0 -121.21218499999985,37.06941990000004,0 -121.21249599999986,37.06899750000004,0 -121.21273519999986,37.06875510000004,0 -121.21324609999988,37.068337000000035,0 -121.21370269999989,37.06805340000004,0 -121.21410109999987,37.067859600000034,0 -121.21433089999987,37.067772200000036,0 -121.21484599999987,37.06762160000004,0 -121.22438899999986,37.06534410000004,0 -121.22546709999988,37.06503640000003,0 -121.22638169999986,37.064698500000034,0 -121.24185899999986,37.05755830000003,0 -121.24320799999985,37.05683660000003,0 -121.24715349999984,37.05448210000004,0 -121.24781019999985,37.05412350000004,0 -121.24841469999986,37.05386210000004,0 -121.24903659999985,37.05366160000004,0 -121.24963949999984,37.053514000000035,0 -121.25190289999986,37.05311380000004,0 -121.25237479999987,37.052993400000034,0 -121.25280909999988,37.05285510000004,0 -121.25333069999988,37.05265440000004,0 -121.25409079999989,37.05227450000004,0 -121.25473589999989,37.05185540000004,0 -121.2569210999999,37.05008690000004,0 -121.25724249999989,37.049775300000036,0 -121.25789569999989,37.049023800000036,0 -121.2599114999999,37.04617290000003,0 -121.2603330999999,37.045725700000034,0 -121.2606587999999,37.045477600000034,0 -121.2609161999999,37.04531250000003,0 -121.26147779999988,37.04504140000003,0 -121.26192799999988,37.04489130000003,0 -121.26256009999987,37.04476230000003,0 -121.26304829999987,37.044721800000026,0 -121.26371229999988,37.04474260000003,0 -121.26738649999987,37.04549000000003,0 -121.26781369999988,37.04554660000002,0 -121.26817009999988,37.045559600000026,0 -121.26866159999987,37.045542500000025,0 -121.26899459999987,37.045504100000024,0 -121.27107339999988,37.045085800000024,0 -121.27136869999985,37.04504560000002,0 -121.27179799999988,37.04502590000002,0 -121.27215289999988,37.045034600000015,0 -121.27251199999986,37.045071700000015,0 -121.27298679999987,37.045166400000014,0 -121.27332549999987,37.045264500000016,0 -121.27604549999985,37.046223200000014,0 -121.27647939999984,37.046347300000015,0 -121.27703479999984,37.046465800000014,0 -121.28170029999983,37.04706870000001,0 -121.28256199999984,37.04712380000001,0 -121.28361619999983,37.04707040000002,0 -121.28442179999982,37.04694040000001,0 -121.28533189999983,37.04669220000001,0 -121.28618309999983,37.04634810000001,0 -121.28672939999981,37.04605300000001,0 -121.28876829999982,37.04473690000001,0 -121.28932089999982,37.04428970000001,0 -121.28969929999984,37.04391060000001,0 -121.28999569999982,37.04356690000001,0 -121.29250779999983,37.03996630000001,0 -121.29276339999984,37.039640100000014,0 -121.29295529999983,37.03944510000001,0 -121.29328749999985,37.03916770000001,0 -121.29380989999984,37.03882970000001,0 -121.29410949999983,37.03867910000001,0 -121.29449279999984,37.03852360000001,0 -121.29491849999985,37.03839280000001,0 -121.29546209999985,37.03827950000001,0 -121.29596879999986,37.03822790000001,0 -121.29640329999985,37.03822560000001,0 -121.29677209999984,37.03825180000001,0 -121.29956709999985,37.03862900000001,0 -121.30005119999986,37.03865960000001,0 -121.30052269999985,37.03864710000001,0 -121.30123389999986,37.03856660000001,0 -121.30759399999987,37.03737970000001,0 -121.30900899999986,37.03704660000001,0 -121.31015359999986,37.03670530000001,0 -121.31297629999986,37.035747300000004,0 -121.31591089999988,37.0349112,0 -121.31951109999989,37.03405730000001,0 -121.3228292999999,37.0328219,0 -121.3233984999999,37.0325763,0 -121.3238140999999,37.0323511,0 -121.3243102999999,37.0320112,0 -121.3245420999999,37.0318224,0 -121.32486849999991,37.0315109,0 -121.3267535999999,37.029208800000006,0 -121.32722989999989,37.0285008,0 -121.32748139999988,37.028007800000005,0 -121.32763299999989,37.0276337,0 -121.3277852999999,37.0271229,0 -121.3278657999999,37.026730900000004,0 -121.3280826999999,37.0250356,0 -121.32822529999989,37.024525700000005,0 -121.32844109999988,37.02402360000001,0 -121.32872029999987,37.023554000000004,0 -121.32898129999987,37.023210500000005,0 -121.32948449999986,37.0226926,0 -121.33999949999986,37.014450200000006,0 -121.34046439999987,37.014135800000005,0 -121.34110739999987,37.013784900000005,0 -121.34184519999987,37.01347930000001,0 -121.34260789999986,37.013251900000014,0 -121.34308579999987,37.01315020000001,0 -121.34911089999989,37.01215590000001,0 -121.35012899999988,37.01191410000001,0 -121.35972169999988,37.00921240000001,0 -121.36029969999987,37.00899860000001,0 -121.36492409999988,37.006923100000016,0 -121.36509079999989,37.006830100000016,0 -121.36665769999988,37.00612310000001,0 -121.36749199999988,37.00570660000001,0 -121.36851929999989,37.005066100000015,0 -121.36915069999989,37.00459270000001,0 -121.36990709999989,37.00392530000001,0 -121.3746214999999,36.99917200000001,0 -121.3750343999999,36.99880830000001,0 -121.3754030999999,36.9985313,0 -121.37754249999989,36.9971053,0 -121.37812759999989,36.9966291,0 -121.37875429999988,36.9960066,0 -121.38364379999989,36.9900881,0 -121.38395039999989,36.989644000000006,0 -121.3842235999999,36.989138200000006,0 -121.3845028999999,36.988503800000004,0 -121.38463209999989,36.988128,0 -121.38475059999989,36.987584500000004,0 -121.3847974999999,36.9868023,0 -121.38475089999991,36.9861415,0 -121.38454909999993,36.98524460000001,0 -121.38345289999992,36.98248490000001,0 -121.38296869999992,36.98162250000001,0 -121.38191689999994,36.98006960000001,0 -121.38161359999994,36.97950720000001,0 -121.38146339999993,36.97913660000001,0 -121.38129059999993,36.97849660000001,0 -121.38124119999992,36.97808300000001,0 -121.38123529999993,36.977715200000006,0 -121.38130429999991,36.97705320000001,0 -121.38268929999992,36.970842700000006,0 -121.38306059999994,36.9697028,0 -121.38313939999995,36.969525100000006,0 -121.38332389999995,36.96922730000001,0 -121.38354839999995,36.96894360000001,0 -121.38365999999995,36.968831400000006,0 -121.38416139999994,36.96841610000001,0 -121.38427289999993,36.96834610000001,0 -121.38452619999994,36.96822610000002,0 -121.39153759999994,36.96562930000002,0 -121.39256999999994,36.965139100000016,0 -121.39533619999993,36.96364740000001,0 -121.39597449999992,36.96324360000001,0 -121.39800149999992,36.961797300000015,0 -121.39843189999993,36.96155250000002,0 -121.39891629999994,36.961335900000016,0 -121.39962069999994,36.96112320000001,0 -121.40027849999996,36.96100420000001,0 -121.40085669999993,36.96096390000001,0 -121.40168419999995,36.96097240000002,0 -121.40228609999993,36.96103620000002,0 -121.40318719999993,36.96121710000002,0 -121.40401089999995,36.96146090000002,0 -121.40454879999993,36.96166300000002,0 -121.40512529999994,36.96192650000002,0 -121.40579189999994,36.96228530000002,0 -121.40611259999994,36.96249140000002,0 -121.40671269999994,36.962941000000015,0 -121.41253199999994,36.96814910000002,0 -121.41299759999994,36.96848820000002,0 -121.41358129999993,36.96885320000002,0 -121.41409029999994,36.96911690000002,0 -121.41577989999993,36.96989330000002,0 -121.41688699999993,36.97034080000002,0 -121.41693969999994,36.97037730000002,0 -121.41788989999996,36.97080970000002,0 -121.41876959999996,36.97113760000002,0 -121.41912089999997,36.97123940000002,0 -121.42073639999995,36.97161250000002,0 -121.42092389999995,36.97163710000002,0 -121.42182569999996,36.971860100000015,0 -121.42494179999996,36.972896200000015,0 -121.42522259999996,36.97295220000001,0 -121.42573779999995,36.97300850000001,0 -121.42610709999995,36.97301820000001,0 -121.42653909999996,36.97298640000001,0 -121.42935509999994,36.97239670000002,0 -121.42986949999994,36.97232390000001,0 -121.43044559999994,36.972300400000016,0 -121.43093429999995,36.97231900000002,0 -121.43131699999995,36.97235850000001,0 -121.43193769999993,36.97247830000002,0 -121.43249529999994,36.97264110000002,0 -121.43295259999994,36.97283150000002,0 -121.43351839999994,36.97313780000002,0 -121.43400869999994,36.97348810000001,0 -121.43430759999993,36.973754100000015,0 -121.43460309999993,36.97406100000002,0 -121.43483449999992,36.97437290000002,0 -121.43627359999991,36.97699720000002,0 -121.43652559999991,36.97730110000002,0 -121.43747699999993,36.97826510000002,0 -121.43767309999994,36.97850320000002,0 -121.43782859999993,36.97873750000002,0 -121.43795239999994,36.97898900000003,0 -121.43888179999993,36.98184000000003,0 -121.43918699999995,36.982435200000026,0 -121.43954239999994,36.98290810000003,0 -121.44104599999994,36.98447600000003,0 -121.44140219999994,36.984751100000025,0 -121.44878989999995,36.98872650000003,0 -121.44900659999995,36.98882350000003,0 -121.44953979999994,36.98899530000003,0 -121.44987899999992,36.98906450000003,0 -121.45030929999992,36.98911420000003,0 -121.45063079999993,36.98912210000003,0 -121.45120729999994,36.989071400000036,0 -121.45156879999993,36.988997700000034,0 -121.45192159999992,36.98889110000004,0 -121.45224079999994,36.98876170000003,0 -121.45367509999993,36.98807090000003,0 -121.45407639999993,36.98790600000004,0 -121.45437279999992,36.98781860000004,0 -121.45486549999991,36.98772300000004,0 -121.45534799999993,36.98769430000004,0 -121.45735379999992,36.98775990000004,0 -121.45756169999994,36.987746400000034,0 -121.45796119999993,36.987690600000036,0 -121.45823669999993,36.987627200000034,0 -121.45865799999994,36.98749490000004,0 -121.46315019999993,36.98525450000003,0 -121.46336819999993,36.98510740000003,0 -121.46445639999993,36.984133600000035,0 -121.46495869999993,36.983771300000036,0 -121.46532569999992,36.983574800000035,0 -121.46604539999993,36.98333620000003,0 -121.46641849999992,36.983267700000034,0 -121.46682339999992,36.983227500000034,0 -121.46957339999993,36.98329900000004,0 -121.47046129999994,36.98338190000004,0 -121.47887809999993,36.98465620000004,0 -121.48255159999995,36.98538220000004,0 -121.48326389999995,36.98556200000004,0 -121.48449049999996,36.98595120000004,0 -121.48505579999994,36.98616040000004,0 -121.48784729999996,36.98733210000004,0 -121.48797919999994,36.98741170000004,0 -121.49087699999993,36.988643900000035,0 -121.49257029999993,36.98929670000003,0 -121.49333979999993,36.989557100000034,0 -121.49340599999994,36.98956430000003,0 -121.49367479999994,36.989682900000034,0 -121.49404149999994,36.98988930000004,0 -121.49438419999993,36.99012670000003,0 -121.49690549999991,36.99248640000003,0 -121.4969474999999,36.99254700000004,0 -121.49813079999988,36.99372920000003,0 -121.50048269999988,36.99587350000003,0 -121.50081789999987,36.99621340000003,0 -121.50094259999987,36.99629820000003,0 -121.50357659999987,36.99914010000003,0 -121.50584909999986,37.00108770000003,0 -121.51095829999986,37.00596430000003,0 -121.51502119999988,37.00963730000003,0 -121.51521529999988,37.009753100000026,0 -121.51539579999987,37.00982150000003,0 -121.51563009999987,37.00987880000003,0 -121.51574589999987,37.00989060000003,0 -121.51599609999987,37.01052690000003,0 -121.52007729999987,37.01695250000003,0 -121.52008989999987,37.01701970000003,0 -121.52072279999989,37.01806670000003,0 -121.52113759999988,37.018647200000025,0 -121.52123179999988,37.01885230000003,0 -121.52147199999989,37.01913330000003,0 -121.52209489999989,37.019967800000025,0 -121.52213909999988,37.01998820000002,0 -121.52635379999988,37.026028700000026,0 -121.52635889999988,37.02607610000002,0 -121.52730719999988,37.02750220000002,0 -121.5281461999999,37.02864580000003,0 -121.52820699999988,37.02868160000003,0 -121.52959279999988,37.03066100000002,0 -121.52961099999986,37.030725100000026,0 -121.53002929999985,37.03130640000003,0 -121.53097719999987,37.03219910000003,0 -121.53105009999987,37.03223420000003,0 -121.53290149999988,37.033974400000034,0 -121.53314709999987,37.03414260000003,0 -121.53335609999988,37.03424740000003,0 -121.5336455999999,37.03435420000003,0 -121.5338265999999,37.03440160000003,0 -121.53412519999989,37.034452800000025,0 -121.53456109999989,37.03447170000003,0 -121.53480839999989,37.03445090000003,0 -121.53514749999988,37.03438160000003,0 -121.53579479999989,37.03417980000003,0 -121.53587049999989,37.034176400000035,0 -121.5369690999999,37.03382030000004,0 -121.53899649999988,37.03302280000003,0 -121.53905579999989,37.032980400000035,0 -121.55231049999988,37.02789030000004,0 -121.55247259999989,37.02786050000004,0 -121.55582729999988,37.02660210000004,0 -121.55591489999988,37.026552000000045,0 -121.56113579999989,37.02456980000004,0 -121.5612232999999,37.024562600000046,0 -121.56379969999989,37.02356870000004,0 -121.56484449999988,37.02311940000004,0 -121.56550159999988,37.02288710000004,0 -121.56592469999987,37.022919600000044,0 -121.56607929999988,37.02296250000004,0 -121.56618989999987,37.02301340000004,0 -121.56632249999987,37.02311970000004,0 -121.56687489999987,37.02385120000004,0 -121.5685912999999,37.02652910000004,0 -121.5686075999999,37.02654410000004,0 -121.56867789999988,37.02658060000004,0 -121.5687353999999,37.02659560000004,0 -121.5749028999999,37.037951800000044,0 -121.57641149999989,37.041038600000036,0 -121.5888985999999,37.06979340000004,0 -121.5903211999999,37.07269490000003,0 -121.60390879999991,37.097354400000036,0 -121.6043401999999,37.098046800000034,0 -121.60522839999989,37.099268200000026,0 -121.60587869999989,37.10003000000003,0 -121.60666219999989,37.10084440000003,0 -121.60795399999989,37.10199230000003,0 -121.61965819999988,37.111163000000026,0 -121.61984089999987,37.11128470000003,0 -121.62111039999986,37.11233180000003,0 -121.62187699999986,37.11306020000003,0 -121.62260779999986,37.11384690000003,0 -121.62336649999986,37.114787400000026,0 -121.62422959999985,37.11606020000003,0 -121.62680339999986,37.12042130000003,0 -121.62680769999987,37.12049460000003,0 -121.63530129999988,37.13481190000003,0 -121.63616929999988,37.13609060000003,0 -121.63743219999988,37.13763760000003,0 -121.6568905999999,37.157654400000034,0 -121.6577465999999,37.15845840000003,0 -121.65866579999988,37.159237700000034,0 -121.66242019999989,37.16203590000003,0 -121.66324469999988,37.162733200000034,0 -121.66427379999988,37.163714600000034,0 -121.66525599999989,37.164778100000035,0 -121.66856139999989,37.16874520000003,0 -121.66930639999988,37.16956640000003,0 -121.6702911999999,37.170558900000024,0 -121.6711231999999,37.17132830000003,0 -121.67816119999989,37.17734710000003,0 -121.67915219999989,37.17825930000003,0 -121.67998149999988,37.17909060000002,0 -121.68469999999986,37.18451640000003,0 -121.68544799999988,37.18524500000003,0 -121.68656469999988,37.18620010000003,0 -121.68722919999986,37.18670280000003,0 -121.70398699999987,37.19845220000003,0 -121.70687299999989,37.20027550000003,0 -121.72062499999988,37.208086700000024,0 -121.7216769999999,37.208776300000025,0 -121.7228066999999,37.209649900000024,0 -121.7236237999999,37.21039020000003,0 -121.72944439999989,37.216351100000026,0 -121.73063429999989,37.21743530000003,0 -121.7423125999999,37.22663720000003,0 -121.7437116999999,37.22760720000002,0 -121.7446473999999,37.22819640000003,0 -121.76565449999991,37.24025580000003,0 -121.7689779999999,37.24206690000003,0 -121.77630919999991,37.246305000000035,0 -121.7945345999999,37.25616430000003,0 -121.79513119999991,37.25653830000004,0 -121.79578909999992,37.256998300000035,0 -121.79688149999993,37.25788150000004,0 -121.79790359999993,37.25890130000003,0 -121.79849289999993,37.259582400000035,0 -121.79938179999994,37.26080560000003,0 -121.79994659999993,37.26176370000003,0 -121.80034159999994,37.26257850000003,0 -121.80062769999995,37.26329180000003,0 -121.80472089999995,37.27584420000004,0 -121.80498999999995,37.276486200000036,0 -121.80536099999993,37.277227800000034,0 -121.80843119999993,37.28205100000003,0 -121.80863669999994,37.282470900000035,0 -121.80893069999993,37.283237000000035,0 -121.80907739999994,37.283767700000034,0 -121.80921069999995,37.284541200000035,0 -121.80977979999996,37.29405700000003,0 -121.80987489999994,37.29459260000003,0 -121.81007259999994,37.29536240000003,0 -121.81034849999995,37.29607850000003,0 -121.81060889999995,37.296593400000035,0 -121.81096279999996,37.29717480000003,0 -121.81164379999994,37.29805770000003,0 -121.83906359999995,37.326423000000034,0 -121.84226319999993,37.32991770000004,0 -121.84807949999993,37.335733200000035,0 -121.84810759999993,37.33575110000003,0 -121.85535159999992,37.343257400000034,0 -121.85545699999993,37.343413700000035,0 -121.85586599999992,37.34384210000003,0 -121.85602559999992,37.34395430000003,0 -121.85621939999993,37.34415690000003,0 -121.85627059999992,37.34426200000003,0 -121.85891639999993,37.34697330000002,0 -121.86292409999993,37.35142510000003,0 -121.86348589999992,37.35196760000003,0 -121.86871269999993,37.35661450000003,0 -121.86961869999993,37.357356700000025,0 -121.87123679999993,37.358519800000025,0 -121.87261149999993,37.35934170000002,0 -121.87361089999993,37.359859300000025,0 -121.87502029999992,37.36047780000003,0 -121.87623369999993,37.36091840000003,0 -121.87795089999992,37.36141460000003,0 -121.87916709999992,37.361695600000026,0 -121.8806156999999,37.36193680000003,0 -121.8894740999999,37.362948600000024,0 -121.89969249999989,37.36386250000003,0 -121.9006172999999,37.36400560000003,0 -121.9015875999999,37.36422350000002,0 -121.9022587999999,37.364421400000026,0 -121.90317229999991,37.36477910000003,0 -121.9042454999999,37.36531130000002,0 -121.9049729999999,37.365777200000025,0 -121.90635759999988,37.366823700000026,0 -121.90832189999988,37.368489600000025,0 -121.90876519999988,37.36882690000003,0 -121.90959659999986,37.36935530000003,0 -121.91035519999987,37.369757400000026,0 -121.91122529999987,37.37015460000003,0 -121.91204519999987,37.37045440000003,0 -121.91570309999985,37.371599100000026,0 -121.91677759999986,37.37184630000002,0 -121.92373179999987,37.37289730000003,0 -121.93397049999989,37.375309300000026,0 -121.95086749999987,37.378635200000026,0 -121.95090259999989,37.37865560000003,0 -121.95409839999988,37.37934620000003,0 -121.99339529999988,37.39050770000003,0 -121.99605379999987,37.391319800000026,0 -121.99627389999986,37.39140710000003,0 -122.00211659999988,37.39311500000003,0 -122.00865709999987,37.39485630000003,0 -122.01456739999988,37.39615250000003,0 -122.01475569999988,37.39621290000003,0 -122.02859589999986,37.39924690000003,0 -122.02902959999986,37.399317100000026,0 -122.05074969999986,37.40407800000003,0 -122.05517679999986,37.40525960000003,0 -122.06743679999985,37.40797360000003,0 -122.06848219999986,37.40827470000003,0 -122.08093619999987,37.413221400000026,0 -122.08198299999987,37.413733300000025,0 -122.08318529999985,37.41443610000002,0 -122.08431609999985,37.41518800000002,0 -122.09678189999985,37.42424280000002,0 -122.09841019999985,37.42557900000002,0 -122.10427329999986,37.431154200000016,0 -122.10444299999985,37.43129180000002,0 -122.10614679999985,37.43291460000002,0 -122.10628829999986,37.433082200000015,0 -122.12478689999986,37.450709900000014,0 -122.12622019999986,37.45188910000002,0 -122.12759579999987,37.45277340000002,0 -122.14568459999988,37.463365600000024,0 -122.14594929999988,37.46354260000002,0 -122.17777749999989,37.48215820000002,0 -122.17896049999987,37.482739700000025,0 -122.18026089999987,37.48328300000002,0 -122.18120389999986,37.48363630000002,0 -122.18347739999986,37.48437150000002,0 -122.18544049999986,37.48487850000002,0 -122.18789089999986,37.485366900000024,0 -122.20691489999987,37.487746900000026,0 -122.20894929999986,37.48807360000003,0 -122.21108009999988,37.48853210000003,0 -122.21302039999988,37.489068000000024,0 -122.21434149999989,37.48950060000003,0 -122.21592799999988,37.49009640000003,0 -122.2242332999999,37.493727000000035,0 -122.22572099999991,37.49427690000003,0 -122.2269298999999,37.49467270000003,0 -122.2332183999999,37.49646200000003,0 -122.23577749999988,37.49726210000003,0 -122.23682969999989,37.49768810000003,0 -122.2373997999999,37.497971000000035,0 -122.23792859999992,37.49827010000003,0 -122.23871709999992,37.498784400000034,0 -122.23940459999993,37.49931610000003,0 -122.25936629999994,37.516943200000036,0 -122.25961089999994,37.51718490000004,0 -122.26524269999996,37.52212070000004,0 -122.26545619999995,37.52228560000003,0 -122.27421679999993,37.530061900000035,0 -122.27570369999994,37.531525500000036,0 -122.29208049999994,37.549191700000044,0 -122.29205169999996,37.54932090000004,0 -122.29328989999996,37.55092900000004,0 -122.29334599999994,37.55096920000004,0 -122.29393679999995,37.55172050000004,0 -122.29408049999994,37.55187080000004,0 -122.29434259999994,37.55207520000005,0 -122.29453629999995,37.55219570000004,0 -122.29498109999994,37.55239620000004,0 -122.29731439999996,37.55313520000004,0 -122.29745849999996,37.55316440000004,0 -122.29774299999995,37.55319230000004,0 -122.29797389999996,37.55319330000004,0 -122.29818199999997,37.55317710000004,0 -122.29981599999996,37.55289210000004,0 -122.30022409999997,37.552842700000035,0 -122.30033379999998,37.552854400000044,0 -122.30055879999998,37.55282190000004,0 -122.30067729999998,37.55273000000004,0 -122.30496749999999,37.55264090000004,0 -122.3050286,37.55268990000005,0 -122.30614539999999,37.552766300000044,0 -122.30634909999999,37.55281650000005,0 -122.30652439999999,37.55291380000005,0 -122.30658999999997,37.552977600000055,0 -122.30669279999998,37.55311880000005,0 -122.30677269999997,37.55327230000005,0 -122.30682439999998,37.553336200000054,0 -122.30691819999997,37.55353500000006,0 -122.30692919999997,37.55360560000006,0 -122.30692479999996,37.55366650000006,0 -122.30689129999996,37.55375780000006,0 -122.30679789999996,37.55387480000006,0 -122.30676479999995,37.55394640000006,0 -122.30611569999996,37.55432760000006,0 -122.30580669999996,37.55398750000006,0 -122.30574949999998,37.55390420000006,0 -122.30547109999998,37.55325640000006,0 -122.30535829999998,37.552828100000056,0 -122.30522049999999,37.55176800000006,0 </coordinates></LineString><TimeSpan><begin>2020-11-15T21:42:43.000Z</begin><end>2020-11-16T00:46:33.458Z</end></TimeSpan></Placemark><Placemark><name>ARCO</name><address>1950 S Delaware St, San Mateo, CA 94403</address><ExtendedData><Data name="Email"><value>syugen.zhou@gmail.com</value></Data><Data name="Category"><value>Gas station</value></Data><Data name="Distance"><value>0</value></Data></ExtendedData><description> Gas station from 2020-11-16T00:46:33.458Z to 2020-11-16T01:00:54.000Z. Distance 0m </description><Point><coordinates>-122.30568149999999,37.551756499999996,0</coordinates></Point><TimeSpan><begin>2020-11-16T00:46:33.458Z</begin><end>2020-11-16T01:00:54.000Z</end></TimeSpan></Placemark><Placemark><name>Driving</name><address></address><ExtendedData><Data name="Email"><value>syugen.zhou@gmail.com</value></Data><Data name="Category"><value>Driving</value></Data><Data name="Distance"><value>4781</value></Data></ExtendedData><description> Driving from 2020-11-16T01:00:54.000Z to 2020-11-16T01:09:39.999Z. Distance 4781m </description><LineString><altitudeMode>clampToGround</altitudeMode><extrude>1</extrude><tesselate>1</tesselate><coordinates>-122.30582809999999,37.552081799999996,0 -122.3057399,37.5520829,0 -122.30561390000001,37.552081300000005,0 -122.3052566,37.5520805,0 -122.30526200000001,37.552143,0 -122.30489390000001,37.5522225,0 -122.3048079,37.552239,0 -122.30466670000001,37.5522598,0 -122.30455880000001,37.55227360000001,0 -122.30413960000001,37.552317200000005,0 -122.30384760000001,37.55233810000001,0 -122.30351250000001,37.552365800000004,0 -122.3032732,37.55237940000001,0 -122.30311250000001,37.552390700000004,0 -122.30266950000001,37.5524302,0 -122.3026581,37.55243230000001,0 -122.3025151,37.5524867,0 -122.30197629999999,37.5524964,0 -122.30086829999999,37.552526300000004,0 -122.30026239999998,37.552551,0 -122.30014229999999,37.5524964,0 -122.30013960000001,37.552495900000004,0 -122.29966200000001,37.5525061,0 -122.2991629,37.552507399999996,0 -122.2988761,37.5525045,0 -122.29867940000001,37.5524949,0 -122.29856540000002,37.5524834,0 -122.29833940000002,37.5524462,0 -122.29818390000003,37.5524146,0 -122.29803780000003,37.55237819999999,0 -122.29793030000003,37.552346799999995,0 -122.29777240000004,37.5522961,0 -122.29763640000003,37.5522475,0 -122.29757270000003,37.5522228,0 -122.29752680000003,37.55220610000001,0 -122.29723990000004,37.55210700000001,0 -122.29709180000003,37.55205920000001,0 -122.29674750000002,37.551940200000004,0 -122.29628070000004,37.55178680000001,0 -122.29535460000004,37.55152280000001,0 -122.29525210000003,37.55149050000001,0 -122.29517300000002,37.55146330000001,0 -122.29507420000003,37.551425200000004,0 -122.29492460000004,37.55135940000001,0 -122.29485810000004,37.55132060000001,0 -122.29473610000005,37.551245800000004,0 -122.29461910000005,37.551165000000005,0 -122.29445140000003,37.55103170000001,0 -122.29406790000003,37.55068670000001,0 -122.29350810000003,37.55016930000001,0 -122.29328180000003,37.54995490000001,0 -122.29328020000004,37.54995400000001,0 -122.29327880000004,37.54995350000001,0 -122.29308880000006,37.5499263,0 -122.29093260000006,37.547599100000006,0 -122.29095010000006,37.547464700000006,0 -122.29094850000007,37.54745340000001,0 -122.29094380000008,37.547442900000014,0 -122.29080640000008,37.54727190000001,0 -122.29038600000008,37.54672270000001,0 -122.28984910000008,37.54603800000001,0 -122.28974500000008,37.54588190000002,0 -122.28970830000009,37.54582210000002,0 -122.28968020000008,37.54577000000002,0 -122.2896382000001,37.545684500000014,0 -122.28961530000011,37.54561360000001,0 -122.28959910000009,37.545553200000015,0 -122.28958230000009,37.54544760000001,0 -122.28957960000011,37.54540640000001,0 -122.28957910000011,37.54536940000001,0 -122.28958270000011,37.54527440000001,0 -122.28965380000011,37.54506840000001,0 -122.2897274000001,37.544912800000006,0 -122.28979230000012,37.54479280000001,0 -122.2898468000001,37.54470490000001,0 -122.28990110000012,37.54463360000001,0 -122.28997930000011,37.54456350000001,0 -122.29005700000012,37.544502900000005,0 -122.29008010000014,37.5444838,0 -122.29023650000013,37.544377000000004,0 -122.29116170000012,37.5437914,0 -122.29191450000013,37.543333000000004,0 -122.29183070000012,37.543226600000004,0 -122.29176480000011,37.54311940000001,0 -122.29173230000012,37.543055300000006,0 -122.29167680000012,37.54292970000001,0 -122.29151260000012,37.542467900000005,0 -122.29146490000012,37.54235560000001,0 -122.29140050000014,37.542229700000014,0 -122.29128320000014,37.54205620000001,0 -122.29113920000012,37.54189570000002,0 -122.29102160000014,37.541778700000016,0 -122.29094130000013,37.54163550000002,0 -122.29071100000012,37.54144010000002,0 -122.29019640000011,37.54180050000002,0 -122.29015500000011,37.54183060000002,0 -122.2893147000001,37.54241620000002,0 -122.28871820000009,37.542787200000014,0 -122.2886905000001,37.542956300000014,0 -122.2887010000001,37.54300400000001,0 </coordinates></LineString><TimeSpan><begin>2020-11-16T01:00:54.000Z</begin><end>2020-11-16T01:09:39.999Z</end></TimeSpan></Placemark><Placemark><name>Enterprise Rent-A-Car</name><address>477 E Hillsdale Blvd, San Mateo, CA 94403</address><ExtendedData><Data name="Email"><value>syugen.zhou@gmail.com</value></Data><Data name="Category"><value>Car rental agency</value></Data><Data name="Distance"><value>0</value></Data></ExtendedData><description> Car rental agency from 2020-11-16T01:09:39.999Z to 2020-11-16T01:23:25.140Z. Distance 0m </description><Point><coordinates>-122.289003,37.542912799999996,0</coordinates></Point><TimeSpan><begin>2020-11-16T01:09:39.999Z</begin><end>2020-11-16T01:23:25.140Z</end></TimeSpan></Placemark><Placemark><name>Driving</name><address></address><ExtendedData><Data name="Email"><value>syugen.zhou@gmail.com</value></Data><Data name="Category"><value>Driving</value></Data><Data name="Distance"><value>4241</value></Data></ExtendedData><description> Driving from 2020-11-16T01:23:25.140Z to 2020-11-16T01:33:38.266Z. Distance 4241m </description><LineString><altitudeMode>clampToGround</altitudeMode><extrude>1</extrude><tesselate>1</tesselate><coordinates>-122.28870060000001,37.543002099999995,0 -122.2886905,37.54295629999999,0 -122.28871819999999,37.5427872,0 -122.28931469999999,37.5424162,0 -122.2906284,37.541498,0 -122.29084870000001,37.541737499999996,0 -122.29057150000001,37.5422394,0 -122.29046020000001,37.5424218,0 -122.29039329999999,37.542523,0 -122.29028500000001,37.5426774,0 -122.29005720000002,37.5429605,0 -122.28990300000002,37.5431305,0 -122.28978810000002,37.543250199999996,0 -122.28957510000002,37.5434187,0 -122.28939450000001,37.543568099999995,0 -122.28907800000002,37.5438048,0 -122.28889700000002,37.543924499999996,0 -122.28805600000003,37.544423099999996,0 -122.28804850000003,37.544428399999994,0 -122.28768360000004,37.54464289999999,0 -122.28765080000004,37.54466899999999,0 -122.28742290000004,37.54479959999999,0 -122.28734490000004,37.544851699999995,0 -122.28677070000003,37.5451662,0 -122.28660370000004,37.54524979999999,0 -122.28566270000003,37.545765499999995,0 -122.28505120000004,37.546121799999995,0 -122.28492260000003,37.54617929999999,0 -122.28454430000002,37.54640609999999,0 -122.28434590000002,37.546541899999994,0 -122.28430330000002,37.546579099999995,0 -122.28425790000001,37.546622899999996,0 -122.28421810000002,37.546669099999995,0 -122.28417980000002,37.5467175,0 -122.28408010000003,37.546867999999996,0 -122.28404770000003,37.546929199999994,0 -122.28392050000005,37.5472094,0 -122.28364550000005,37.5478958,0 -122.28334400000004,37.548682899999996,0 -122.28325030000005,37.54890879999999,0 -122.28321270000004,37.548985099999996,0 -122.28316350000003,37.5490765,0 -122.28306780000003,37.5492147,0 -122.28300160000002,37.5492955,0 -122.28292000000002,37.5493869,0 -122.2823309,37.5499867,0 -122.2822541,37.5500694,0 -122.28170670000002,37.5506305,0 -122.28141850000003,37.5509371,0 -122.28111890000002,37.551242,0 -122.28033600000003,37.5520027,0 -122.28025620000004,37.5520764,0 -122.27979320000004,37.5525402,0 -122.27961000000003,37.5527168,0 -122.27934200000004,37.5529644,0 -122.27917130000004,37.553110999999994,0 -122.27903080000004,37.553225,0 -122.27876630000006,37.553424299999996,0 -122.27746300000004,37.55428189999999,0 -122.27733100000006,37.554359399999996,0 -122.27636410000005,37.554984899999994,0 -122.27536050000005,37.555624599999994,0 -122.27429950000004,37.55631589999999,0 -122.27425210000004,37.55634349999999,0 -122.27244650000004,37.55751029999999,0 -122.27214850000004,37.55771319999998,0 -122.27203850000004,37.557799199999984,0 -122.27172530000003,37.55810749999999,0 -122.27150240000003,37.558367199999985,0 -122.27144410000004,37.55844039999999,0 -122.27128570000004,37.55860349999998,0 -122.27057890000003,37.55945399999998,0 -122.26903100000004,37.561252799999984,0 -122.26803160000004,37.560670499999986,0 -122.26793820000003,37.56060979999999,0 -122.26767370000005,37.560475799999985,0 -122.26699500000005,37.560104199999984,0 -122.26621630000005,37.55966089999998,0 -122.26605640000005,37.55957269999998,0 -122.26593460000005,37.55952009999998,0 -122.26535130000003,37.55920899999998,0 -122.26442450000003,37.55868789999998,0 -122.26425660000002,37.55858929999999,0 -122.26369730000003,37.558274199999985,0 -122.26360070000003,37.55822659999998,0 -122.26306100000002,37.55792129999998,0 -122.26304270000003,37.55790899999998,0 -122.26134800000004,37.55695739999998,0 -122.26018820000003,37.55628289999998,0 -122.26002350000003,37.55617599999998,0 -122.25982050000005,37.55605079999998,0 -122.25906960000005,37.555613299999976,0 -122.25760030000005,37.55481169999998,0 -122.25736990000004,37.554675799999984,0 -122.25567050000005,37.553721199999984,0 -122.25558290000005,37.553808199999985,0 -122.25488940000004,37.554613199999984,0 -122.25477900000004,37.554787099999984,0 -122.25383520000005,37.55436979999999,0 -122.25364660000005,37.55429079999998,0 </coordinates></LineString><TimeSpan><begin>2020-11-16T01:23:25.140Z</begin><end>2020-11-16T01:33:38.266Z</end></TimeSpan></Placemark><Placemark><name>702 Marlin Ave</name><address>702 Marlin Ave, Foster City, CA 94404</address><ExtendedData><Data name="Email"><value>syugen.zhou@gmail.com</value></Data><Data name="Category"><value></value></Data><Data name="Distance"><value>0</value></Data></ExtendedData><description>  from 2020-11-16T01:33:38.266Z to 2020-11-16T01:50:12.447Z. Distance 0m </description><Point><coordinates>-122.25498479999999,37.5541321,0</coordinates></Point><TimeSpan><begin>2020-11-16T01:33:38.266Z</begin><end>2020-11-16T01:50:12.447Z</end></TimeSpan></Placemark><Placemark><name>Driving</name><address></address><ExtendedData><Data name="Email"><value>syugen.zhou@gmail.com</value></Data><Data name="Category"><value>Driving</value></Data><Data name="Distance"><value>13604</value></Data></ExtendedData><description> Driving from 2020-11-16T01:50:12.447Z to 2020-11-16T02:08:31.681Z. Distance 13604m </description><LineString><altitudeMode>clampToGround</altitudeMode><extrude>1</extrude><tesselate>1</tesselate><coordinates>-122.2545093,37.5546678,0 -122.254779,37.5547871,0 -122.25488939999998,37.5546132,0 -122.2555829,37.55380819999999,0 -122.257991,37.555179499999994,0 -122.2589452,37.5556953,0 -122.260703,37.5567215,0 -122.26757320000002,37.5605833,0 -122.26799610000002,37.5608486,0 -122.26962250000003,37.5617861,0 -122.27035760000003,37.56228349999999,0 -122.27036040000002,37.5622872,0 -122.27306630000001,37.563850699999996,0 -122.27481600000002,37.56481659999999,0 -122.27488560000002,37.564721,0 -122.27542940000001,37.56416159999999,0 -122.2756935,37.56392399999999,0 -122.27582350000002,37.56388619999999,0 -122.2757658,37.563827499999995,0 -122.27576670000002,37.5637365,0 -122.275754,37.5636971,0 -122.275713,37.56363819999999,0 -122.27565309999999,37.563584899999995,0 -122.2755416,37.563435,0 -122.27548809999999,37.5633463,0 -122.2754628,37.563288299999996,0 -122.2754336,37.5631888,0 -122.2754249,37.563066899999995,0 -122.27543500000002,37.5629874,0 -122.2754639,37.56288299999999,0 -122.27553850000001,37.56272319999999,0 -122.2755884,37.56265099999999,0 -122.27574310000001,37.56248819999999,0 -122.2766518,37.56179039999999,0 -122.27665449999999,37.56178379999999,0 -122.2766566,37.561701299999996,0 -122.282531,37.5579882,0 -122.28328710000002,37.5575407,0 -122.28436130000001,37.5569536,0 -122.28542230000001,37.5564232,0 -122.28688200000002,37.5557981,0 -122.28796740000001,37.55536299999999,0 -122.28947240000002,37.554817199999995,0 -122.29049520000002,37.5544856,0 -122.29129290000003,37.554256599999995,0 -122.29242250000003,37.5539948,0 -122.29551930000004,37.5534462,0 -122.29569680000004,37.5534678,0 -122.29751540000004,37.553298100000006,0 -122.29763130000003,37.55330300000001,0 -122.29770740000004,37.553318100000006,0 -122.29783370000004,37.553368600000006,0 -122.29786430000004,37.553386200000006,0 -122.29792300000005,37.5534319,0 -122.29797750000006,37.55349340000001,0 -122.29801790000005,37.55356520000001,0 -122.29804000000006,37.55364620000001,0 -122.29804100000007,37.55371280000001,0 -122.29803150000006,37.55377080000001,0 -122.29799760000006,37.55385060000001,0 -122.29795410000006,37.55391150000001,0 -122.29787330000006,37.55398450000001,0 -122.29779760000005,37.554027900000015,0 -122.29775210000007,37.55404670000002,0 -122.29769590000008,37.55406300000002,0 -122.29758780000009,37.55408240000003,0 -122.2975234000001,37.554084000000024,0 -122.2974365000001,37.55407400000002,0 -122.29731210000011,37.55403490000002,0 -122.29713060000012,37.55394850000002,0 -122.29697260000013,37.55385190000002,0 -122.29678850000013,37.55370440000002,0 -122.29645300000014,37.55339230000003,0 -122.29644570000015,37.55338950000003,0 -122.29628860000014,37.55336420000003,0 -122.28653440000015,37.54284720000003,0 -122.28637930000015,37.54266080000003,0 -122.27641300000015,37.53187560000003,0 -122.27531080000014,37.530748300000035,0 -122.24866580000015,37.50717240000003,0 -122.24852520000015,37.50702510000003,0 -122.24525760000014,37.504118000000034,0 -122.24509630000014,37.50394940000003,0 -122.24000830000016,37.49949070000003,0 -122.23988070000016,37.49939570000003,0 -122.23945100000014,37.49902630000003,0 -122.23944750000015,37.49889250000003,0 -122.23892790000015,37.49843090000003,0 -122.23823810000013,37.497864000000035,0 -122.23761900000014,37.49732260000004,0 -122.23743780000014,37.497185900000034,0 -122.23573200000013,37.49569240000003,0 -122.23457990000013,37.49461330000003,0 -122.23894660000012,37.491407900000034,0 -122.23906680000013,37.49130310000003,0 -122.23977500000014,37.49053080000003,0 -122.23984530000013,37.490439900000034,0 -122.23989300000011,37.490351300000036,0 -122.2415048000001,37.489048900000036,0 -122.24066990000011,37.488383600000034,0 </coordinates></LineString><TimeSpan><begin>2020-11-16T01:50:12.447Z</begin><end>2020-11-16T02:08:31.681Z</end></TimeSpan></Placemark><Placemark><name>39 Birch St</name><address>39 Birch St, Redwood City, CA 94062</address><ExtendedData><Data name="Email"><value>syugen.zhou@gmail.com</value></Data><Data name="Category"><value>Building</value></Data><Data name="Distance"><value>0</value></Data></ExtendedData><description> Building from 2020-11-16T02:08:31.681Z to 2020-11-16T03:16:33.752Z. Distance 0m </description><Point><coordinates>-122.2403511,37.4886566,0</coordinates></Point><TimeSpan><begin>2020-11-16T02:08:31.681Z</begin><end>2020-11-16T03:16:33.752Z</end></TimeSpan></Placemark><Placemark><name>Driving</name><address></address><ExtendedData><Data name="Email"><value>syugen.zhou@gmail.com</value></Data><Data name="Category"><value>Driving</value></Data><Data name="Distance"><value>13712</value></Data></ExtendedData><description> Driving from 2020-11-16T03:16:33.752Z to 2020-11-16T03:36:03.904Z. Distance 13712m </description><LineString><altitudeMode>clampToGround</altitudeMode><extrude>1</extrude><tesselate>1</tesselate><coordinates>-122.24068310000001,37.4883941,0 -122.2415048,37.4890489,0 -122.23989300000001,37.4903513,0 -122.23978540000002,37.4903845,0 -122.23935740000002,37.4907669,0 -122.23903010000004,37.4911871,0 -122.23866930000003,37.4915135,0 -122.23608160000002,37.4934038,0 -122.23595200000003,37.493465300000004,0 -122.23450610000003,37.4945286,0 -122.23394070000002,37.4948712,0 -122.23367920000001,37.4951455,0 -122.23345020000004,37.4954702,0 -122.23295550000003,37.4965417,0 -122.23279030000002,37.496777,0 -122.2325801,37.4969531,0 -122.2324386,37.4970278,0 -122.23229059999998,37.4970589,0 -122.23215709999998,37.4970551,0 -122.23202149999997,37.497010499999995,0 -122.23194129999996,37.496963699999995,0 -122.23185439999997,37.496870099999995,0 -122.23180249999997,37.496748499999995,0 -122.23179919999997,37.4966807,0 -122.23181799999996,37.496580699999996,0 -122.23185709999997,37.496506399999994,0 -122.23190709999996,37.49645089999999,0 -122.23198689999995,37.49641119999999,0 -122.23223439999995,37.49637299999999,0 -122.23239079999995,37.496378099999994,0 -122.23301319999996,37.49648789999999,0 -122.23321839999994,37.49646199999999,0 -122.23577749999994,37.497262099999986,0 -122.23682969999994,37.49768809999998,0 -122.23792859999995,37.498270099999985,0 -122.23871709999995,37.49878439999999,0 -122.23940459999994,37.49931609999999,0 -122.27421679999993,37.530061899999986,0 -122.27570369999994,37.53152549999999,0 -122.28537479999994,37.541947999999984,0 -122.28537219999994,37.541991399999986,0 -122.28545099999995,37.54221899999999,0 -122.28628629999994,37.54331539999999,0 -122.28637819999994,37.54356019999999,0 -122.28639359999995,37.54379659999999,0 -122.28624319999994,37.54440659999999,0 -122.28623979999995,37.544652099999986,0 -122.28636439999994,37.54495239999999,0 -122.28660369999994,37.54524979999999,0 -122.28492259999993,37.54617929999999,0 -122.28434589999993,37.546541899999994,0 -122.28425789999994,37.546622899999996,0 -122.28408009999995,37.546867999999996,0 -122.28316349999996,37.54907649999999,0 -122.28291999999995,37.549386899999995,0 -122.28033599999996,37.552002699999996,0 -122.28021239999997,37.551980199999996,0 -122.27979049999998,37.551711899999994,0 -122.27946139999997,37.551574099999996,0 -122.27889659999998,37.5514976,0 -122.27858189999996,37.551500499999996,0 -122.27831699999996,37.551529499999994,0 -122.27800919999996,37.551601399999996,0 -122.27780639999997,37.5516753,0 -122.27584729999997,37.5526675,0 -122.27495309999996,37.5515016,0 -122.27470339999996,37.550996500000004,0 -122.27461449999997,37.5507119,0 -122.27455769999996,37.55025990000001,0 -122.27457809999996,37.5494623,0 -122.27454069999995,37.549163300000004,0 -122.27444299999993,37.5488282,0 -122.27419979999995,37.548344300000004,0 -122.27358529999995,37.547534,0 -122.27234439999995,37.545688299999995,0 -122.27182389999994,37.5459149,0 -122.27131939999994,37.546077600000004,0 -122.26858429999994,37.5466389,0 -122.26800559999994,37.5468358,0 -122.26758099999992,37.547058199999995,0 -122.26718479999992,37.54732669999999,0 -122.26664019999991,37.547815699999994,0 -122.26635399999991,37.54802389999999,0 -122.2659293999999,37.54824909999999,0 -122.26537669999989,37.548440199999995,0 -122.2651303999999,37.548502,0 -122.26454009999989,37.5485807,0 -122.25764119999988,37.548580799999996,0 -122.25537679999987,37.54843999999999,0 -122.25493219999986,37.548462099999995,0 -122.25462819999986,37.5485056,0 -122.25422449999985,37.548605099999996,0 -122.25369309999985,37.5488114,0 -122.25337149999983,37.5489907,0 -122.25316419999984,37.5491345,0 -122.25284599999983,37.5494152,0 -122.25126689999982,37.551454,0 -122.25252949999981,37.552085999999996,0 -122.25558289999982,37.55380819999999,0 -122.25520249999983,37.554249799999994,0 </coordinates></LineString><TimeSpan><begin>2020-11-16T03:16:33.752Z</begin><end>2020-11-16T03:36:03.904Z</end></TimeSpan></Placemark></Document></kml>
