<?xml version="1.0" encoding="UTF-8"?><kml xmlns="http://www.opengis.net/kml/2.2" xmlns:gx="http://www.google.com/kml/ext/2.2"><Document><name> Location history from 2020-11-06 to 2020-11-06 </name><open>1</open><description></description><StyleMap id="multiTrack"><Pair><key>normal</key><styleUrl>#multiTrack_n</styleUrl></Pair><Pair><key>highlight</key><styleUrl>#multiTrack_h</styleUrl></Pair></StyleMap><Style id="multiTrack_n"><IconStyle><Icon><href>https://earth.google.com/images/kml-icons/track-directional/track-0.png</href></Icon></IconStyle><LineStyle><color>99ffac59</color><width>6</width></LineStyle></Style><Style id="multiTrack_h"><IconStyle><scale>1.2</scale><Icon><href>https://earth.google.com/images/kml-icons/track-directional/track-0.png</href></Icon></IconStyle><LineStyle><color>99ffac59</color><width>8</width></LineStyle></Style><Placemark><name>702 Marlin Ave</name><address>702 Marlin Ave, Foster City, CA 94404</address><ExtendedData><Data name="Email"><value>syugen.zhou@gmail.com</value></Data><Data name="Category"><value></value></Data><Data name="Distance"><value>0</value></Data></ExtendedData><description>  from 2020-11-06T01:38:07.000Z to 2020-11-06T23:47:11.000Z. Distance 0m </description><Point><coordinates>-122.25498479999999,37.5541321,0</coordinates></Point><TimeSpan><begin>2020-11-06T01:38:07.000Z</begin><end>2020-11-06T23:47:11.000Z</end></TimeSpan></Placemark><Placemark><name>Driving</name><address></address><ExtendedData><Data name="Email"><value>syugen.zhou@gmail.com</value></Data><Data name="Category"><value>Driving</value></Data><Data name="Distance"><value>4678</value></Data></ExtendedData><description> Driving from 2020-11-06T23:47:11.000Z to 2020-11-06T23:58:30.000Z. Distance 4678m </description><LineString><altitudeMode>clampToGround</altitudeMode><extrude>1</extrude><tesselate>1</tesselate><coordinates>-122.25483729999999,37.5546952,0 -122.25488939999998,37.5546132,0 -122.2555829,37.55380819999999,0 -122.256461,37.5543048,0 -122.2569521,37.5545706,0 -122.257991,37.555179499999994,0 -122.2585963,37.555503099999996,0 -122.2589452,37.55569529999999,0 -122.2601135,37.5563819,0 -122.2605947,37.556653,0 -122.26070299999998,37.556721499999995,0 -122.26104439999997,37.556918599999996,0 -122.26256519999997,37.55777949999999,0 -122.26305539999996,37.55804779999999,0 -122.26322269999996,37.558145799999984,0 -122.26507839999995,37.559189899999986,0 -122.26527459999996,37.55929419999998,0 -122.26697119999996,37.56023769999999,0 -122.26757319999994,37.56058329999999,0 -122.26799609999993,37.560848599999986,0 -122.26893349999995,37.561390299999985,0 -122.26904939999994,37.56145249999999,0 -122.26918909999995,37.56133389999998,0 -122.26991729999995,37.56044029999998,0 -122.27012099999995,37.56019649999998,0 -122.27021089999995,37.56009959999998,0 -122.27047709999995,37.559825199999985,0 -122.27054179999996,37.55973429999998,0 -122.27141829999995,37.55868849999998,0 -122.27149429999994,37.558602399999984,0 -122.27158599999994,37.55851629999998,0 -122.27184309999993,37.55821419999998,0 -122.27201709999993,37.55803609999998,0 -122.27219309999994,37.557877499999975,0 -122.27242859999994,37.55769969999997,0 -122.27295779999994,37.557342999999975,0 -122.27344799999995,37.55703209999998,0 -122.27451589999995,37.55634189999998,0 -122.27463499999996,37.55626119999997,0 -122.27524109999996,37.55586319999997,0 -122.27636049999995,37.55513939999997,0 -122.27744489999995,37.55446749999997,0 -122.27757469999996,37.554395299999975,0 -122.27802909999997,37.55411529999997,0 -122.27846289999995,37.55383979999997,0 -122.27879209999996,37.55360929999997,0 -122.27922169999997,37.55326689999997,0 -122.27957929999997,37.55296279999997,0 -122.27991039999996,37.55264939999997,0 -122.28039929999997,37.55215969999997,0 -122.28046789999998,37.55208459999997,0 -122.28125339999995,37.55133239999997,0 -122.28228059999996,37.55028129999997,0 -122.28233239999997,37.55023059999997,0 -122.28276879999999,37.54978109999997,0 -122.28308139999999,37.54944559999997,0 -122.28313989999998,37.549367699999976,0 -122.28323469999998,37.54923229999998,0 -122.28333639999998,37.54905059999998,0 -122.28337779999998,37.54896779999997,0 -122.28345389999997,37.548788799999976,0 -122.28406299999996,37.547263099999974,0 -122.28421369999995,37.54690769999998,0 -122.28427429999995,37.54682529999997,0 -122.28438439999995,37.54671399999997,0 -122.28445279999995,37.54665809999997,0 -122.28452729999995,37.54660369999998,0 -122.28459369999996,37.54655829999998,0 -122.28493559999995,37.546351899999976,0 -122.28502559999995,37.54629359999998,0 -122.28515759999995,37.54622869999998,0 -122.28591039999995,37.545803499999984,0 -122.28626519999996,37.54557849999998,0 -122.28668549999996,37.54532219999998,0 -122.28757009999995,37.54482299999998,0 -122.28858509999995,37.54422569999998,0 -122.28884779999996,37.54408179999998,0 -122.28898999999996,37.54399939999998,0 -122.28909479999996,37.543944899999985,0 -122.28920789999998,37.54389269999999,0 -122.28932219999999,37.54382059999998,0 -122.2894803,37.54371269999998,0 -122.28965520000001,37.54357979999998,0 -122.28982509999999,37.54344279999998,0 -122.2899018,37.54337829999998,0 -122.2900461,37.54324769999998,0 -122.2902296,37.54305439999998,0 -122.290329,37.54291269999998,0 -122.29044580000001,37.54276899999998,0 -122.29050600000002,37.542689299999985,0 -122.29057060000002,37.542598099999985,0 -122.29073460000004,37.54233799999998,0 -122.29096260000006,37.54188489999998,0 -122.29102160000005,37.54177869999998,0 -122.29094130000006,37.54163549999998,0 -122.29071100000004,37.54144009999998,0 -122.28931470000005,37.542416199999984,0 -122.28871820000005,37.54278719999998,0 -122.28869050000006,37.54295629999998,0 -122.28870230000005,37.54300989999997,0 </coordinates></LineString><TimeSpan><begin>2020-11-06T23:47:11.000Z</begin><end>2020-11-06T23:58:30.000Z</end></TimeSpan></Placemark><Placemark><name>Enterprise Rent-A-Car</name><address>477 E Hillsdale Blvd, San Mateo, CA 94403</address><ExtendedData><Data name="Email"><value>syugen.zhou@gmail.com</value></Data><Data name="Category"><value>Car rental agency</value></Data><Data name="Distance"><value>0</value></Data></ExtendedData><description> Car rental agency from 2020-11-06T23:58:30.000Z to 2020-11-07T00:16:04.000Z. Distance 0m </description><Point><coordinates>-122.289003,37.542912799999996,0</coordinates></Point><TimeSpan><begin>2020-11-06T23:58:30.000Z</begin><end>2020-11-07T00:16:04.000Z</end></TimeSpan></Placemark><Placemark><name>Driving</name><address></address><ExtendedData><Data name="Email"><value>syugen.zhou@gmail.com</value></Data><Data name="Category"><value>Driving</value></Data><Data name="Distance"><value>4350</value></Data></ExtendedData><description> Driving from 2020-11-07T00:16:04.306Z to 2020-11-07T00:25:09.636Z. Distance 4350m </description><LineString><altitudeMode>clampToGround</altitudeMode><extrude>1</extrude><tesselate>1</tesselate><coordinates>-122.28870169999999,37.5430073,0 -122.2886905,37.5429563,0 -122.28871819999999,37.54278720000001,0 -122.28931469999999,37.542416200000005,0 -122.290155,37.54183060000001,0 -122.2901964,37.54180050000001,0 -122.2906284,37.541498000000004,0 -122.29084870000001,37.5417375,0 -122.29072790000001,37.54195920000001,0 -122.29057150000001,37.54223940000001,0 -122.29046020000001,37.54242180000001,0 -122.29039329999999,37.54252300000001,0 -122.29028500000001,37.54267740000001,0 -122.29020320000001,37.54277740000001,0 -122.29005720000002,37.542960500000014,0 -122.28990300000002,37.54313050000001,0 -122.28978810000002,37.54325020000001,0 -122.28957510000002,37.54341870000001,0 -122.28939450000001,37.54356810000001,0 -122.28907800000002,37.54380480000001,0 -122.28889700000002,37.54392450000001,0 -122.28842870000001,37.544203700000004,0 -122.288056,37.5444231,0 -122.2880485,37.54442840000001,0 -122.28768360000001,37.54464290000001,0 -122.28765080000001,37.544669000000006,0 -122.2874886,37.544762600000006,0 -122.28742290000002,37.544799600000005,0 -122.28734490000001,37.5448517,0 -122.2871453,37.54496110000001,0 -122.2870158,37.54502980000001,0 -122.28677070000002,37.54516620000001,0 -122.28660370000001,37.54524980000001,0 -122.2856627,37.5457655,0 -122.28505120000003,37.54612180000001,0 -122.28492260000002,37.546179300000006,0 -122.2845443,37.546406100000006,0 -122.28434589999999,37.5465419,0 -122.28430329999999,37.54657910000001,0 -122.2842579,37.54662290000001,0 -122.28421809999999,37.54666910000001,0 -122.28417979999999,37.54671750000001,0 -122.2840801,37.546868,0 -122.28404770000002,37.54692920000001,0 -122.28392050000002,37.54720940000001,0 -122.28364550000003,37.54789580000001,0 -122.28337950000002,37.548587200000014,0 -122.28334400000001,37.54868290000001,0 -122.28329230000001,37.54881090000001,0 -122.28325030000002,37.54890880000001,0 -122.28321270000002,37.54898510000001,0 -122.2831635,37.54907650000001,0 -122.28311240000001,37.549152200000016,0 -122.2830678,37.549214700000014,0 -122.28300159999999,37.549295500000014,0 -122.28291999999999,37.549386900000016,0 -122.2826415,37.54967400000002,0 -122.2823309,37.54998670000001,0 -122.2822541,37.550069400000005,0 -122.28170670000002,37.55063050000001,0 -122.28141850000003,37.55093710000001,0 -122.28111890000002,37.55124200000001,0 -122.28033600000003,37.55200270000001,0 -122.28025620000004,37.55207640000001,0 -122.27979320000004,37.55254020000001,0 -122.27961000000003,37.55271680000001,0 -122.27945690000004,37.55285640000002,0 -122.27934200000004,37.552964400000015,0 -122.27917130000004,37.553111000000015,0 -122.27903080000004,37.55322500000002,0 -122.27876630000006,37.55342430000001,0 -122.27844810000005,37.55363540000001,0 -122.27817860000003,37.55381180000001,0 -122.27785060000004,37.55402340000001,0 -122.27746300000004,37.554281900000014,0 -122.27733100000006,37.55435940000001,0 -122.27703310000005,37.55454940000001,0 -122.27636410000005,37.55498490000001,0 -122.27536050000005,37.55562460000001,0 -122.27497950000003,37.55587460000001,0 -122.27429950000004,37.556315900000016,0 -122.27425210000004,37.55634350000001,0 -122.27356580000004,37.55678300000001,0 -122.27244650000004,37.55751030000001,0 -122.27214850000004,37.55771320000001,0 -122.27203850000004,37.55779920000001,0 -122.27172530000003,37.55810750000001,0 -122.27150240000003,37.55836720000001,0 -122.27144410000004,37.55844040000001,0 -122.27136410000003,37.55852120000001,0 -122.27128570000004,37.55860350000001,0 -122.27057890000003,37.55945400000001,0 -122.27021850000004,37.55987750000001,0 -122.26945630000003,37.560754900000006,0 -122.26903100000004,37.561252800000005,0 -122.26803160000004,37.56067050000001,0 -122.26793820000003,37.56060980000001,0 -122.26767370000005,37.560475800000006,0 -122.26699500000005,37.56010420000001,0 -122.26625800000006,37.55968500000001,0 </coordinates></LineString><TimeSpan><begin>2020-11-07T00:16:04.306Z</begin><end>2020-11-07T00:25:09.636Z</end></TimeSpan></Placemark><Placemark><name>702 Marlin Ave</name><address>702 Marlin Ave, Foster City, CA 94404</address><ExtendedData><Data name="Email"><value>syugen.zhou@gmail.com</value></Data><Data name="Category"><value></value></Data><Data name="Distance"><value>0</value></Data></ExtendedData><description>  from 2020-11-07T00:25:09.636Z to 2020-11-07T01:12:43.999Z. Distance 0m </description><Point><coordinates>-122.25498479999999,37.5541321,0</coordinates></Point><TimeSpan><begin>2020-11-07T00:25:09.636Z</begin><end>2020-11-07T01:12:43.999Z</end></TimeSpan></Placemark><Placemark><name>Driving</name><address></address><ExtendedData><Data name="Email"><value>syugen.zhou@gmail.com</value></Data><Data name="Category"><value>Driving</value></Data><Data name="Distance"><value>390177</value></Data></ExtendedData><description> Driving from 2020-11-07T01:12:43.999Z to 2020-11-07T07:42:12.599Z. Distance 390177m </description><LineString><altitudeMode>clampToGround</altitudeMode><extrude>1</extrude><tesselate>1</tesselate><coordinates>-122.2555525,37.5538435,0 -122.2555829,37.5538082,0 -122.25695209999998,37.554570600000005,0 -122.25799099999998,37.5551795,0 -122.25894519999997,37.555695300000004,0 -122.26059469999997,37.55665300000001,0 -122.26070299999996,37.5567215,0 -122.26757319999997,37.560583300000005,0 -122.26799609999996,37.56084860000001,0 -122.26962249999997,37.561786100000006,0 -122.27017449999997,37.56216190000001,0 -122.27028699999997,37.56223280000001,0 -122.27035759999998,37.56228350000001,0 -122.27036039999997,37.56228720000001,0 -122.27150939999996,37.56294110000001,0 -122.27201249999996,37.56241850000001,0 -122.27213749999997,37.56230390000001,0 -122.27252209999997,37.561980500000004,0 -122.27268009999996,37.562124600000004,0 -122.27307969999997,37.56251290000001,0 -122.27314039999997,37.56258530000001,0 -122.27318039999997,37.56264300000001,0 -122.27323009999998,37.56273320000001,0 -122.27327179999996,37.56283490000001,0 -122.27328299999995,37.56287550000001,0 -122.27329859999995,37.56296370000001,0 -122.27330499999994,37.56308590000001,0 -122.27329699999993,37.56320070000002,0 -122.27327789999994,37.56329210000002,0 -122.27322139999993,37.56344480000002,0 -122.27317389999993,37.563530200000024,0 -122.27313919999995,37.563581900000024,0 -122.27310669999996,37.56362110000002,0 -122.27250379999995,37.56421360000002,0 -122.27238959999997,37.564313500000026,0 -122.27238479999997,37.56432040000002,0 -122.27238259999997,37.56432650000003,0 -122.27236799999997,37.56446770000002,0 -122.2692204,37.567317000000024,0 -122.26913139999999,37.567385900000026,0 -122.2681707,37.56826910000003,0 -122.268082,37.56835890000003,0 -122.24506950000001,37.58936570000003,0 -122.24493910000001,37.589476500000025,0 -122.24458720000003,37.58975160000002,0 -122.2440382,37.59012750000002,0 -122.2435531,37.59040090000003,0 -122.2431403,37.59060650000003,0 -122.2429953,37.59067180000003,0 -122.24250640000001,37.59087060000003,0 -122.24212700000002,37.59100140000003,0 -122.22001830000002,37.597597600000036,0 -122.21959940000002,37.59773470000003,0 -122.17688910000003,37.61043680000004,0 -122.17640790000003,37.610569700000035,0 -122.17480710000004,37.61104300000004,0 -122.17466990000003,37.611078100000036,0 -122.15556860000002,37.61674900000004,0 -122.15480700000003,37.61694760000004,0 -122.15300480000003,37.61736110000004,0 -122.15242060000006,37.61751840000004,0 -122.15210310000005,37.61761240000004,0 -122.15144450000005,37.61782460000004,0 -122.14985820000005,37.61841490000004,0 -122.14810310000006,37.61902280000004,0 -122.12134580000007,37.62801040000004,0 -122.12079420000006,37.628176400000044,0 -122.11285300000007,37.63084190000004,0 -122.11242780000008,37.631000200000045,0 -122.11194810000008,37.63120100000004,0 -122.11167360000007,37.63132830000004,0 -122.10951720000008,37.632437000000046,0 -122.1088516000001,37.63274480000005,0 -122.10812520000007,37.633052800000044,0 -122.10480320000006,37.634378900000044,0 -122.10448320000008,37.634497000000046,0 -122.10439810000007,37.634533400000045,0 -122.10423260000007,37.634621600000045,0 -122.10405530000006,37.63461400000004,0 -122.10405040000006,37.63461470000004,0 -122.10291080000005,37.634961500000045,0 -122.10260180000004,37.63506570000005,0 -122.10031110000004,37.63592900000005,0 -122.10005100000004,37.636046800000045,0 -122.09972990000004,37.636205500000045,0 -122.09949490000005,37.63633150000005,0 -122.09929350000006,37.636450600000046,0 -122.09903890000005,37.636612800000044,0 -122.09869230000005,37.63685950000004,0 -122.09843790000005,37.63706480000005,0 -122.09806460000006,37.637405200000046,0 -122.09794630000005,37.637525600000046,0 -122.09761680000005,37.63789980000005,0 -122.09731260000005,37.638306900000046,0 -122.09713520000005,37.63859410000004,0 -122.09635070000004,37.640019000000045,0 -122.09529620000004,37.641733100000046,0 -122.09521200000003,37.64184780000004,0 -122.09512580000003,37.641953200000046,0 -122.09502330000002,37.64206460000004,0 -122.09482390000004,37.642251600000044,0 -122.09470220000003,37.64235220000005,0 -122.09457800000003,37.642443700000044,0 -122.09396600000002,37.64285700000004,0 -122.09382610000003,37.64296080000005,0 -122.09370720000004,37.64306190000005,0 -122.09360380000004,37.64316350000005,0 -122.09351160000004,37.64326870000004,0 -122.09342810000003,37.64337570000004,0 -122.09334310000003,37.64350080000004,0 -122.09324950000003,37.643673900000046,0 -122.09319350000003,37.64380350000005,0 -122.09315170000004,37.643929300000046,0 -122.09311950000004,37.64405670000004,0 -122.09309130000004,37.64425300000004,0 -122.09308510000005,37.64437700000004,0 -122.09309010000004,37.64450850000004,0 -122.09309840000004,37.64458610000004,0 -122.09313220000006,37.644772500000045,0 -122.09318290000006,37.64494080000004,0 -122.09323160000005,37.64506410000005,0 -122.09331460000006,37.64522520000005,0 -122.09335060000004,37.64528250000005,0 -122.09350100000005,37.64549350000005,0 -122.09357520000005,37.64557860000005,0 -122.09370610000006,37.64570930000006,0 -122.09436440000006,37.64629140000006,0 -122.09487020000006,37.646719700000055,0 -122.09502490000007,37.64689750000006,0 -122.09535990000006,37.64731080000006,0 -122.09537760000006,37.64732820000006,0 -122.09541570000006,37.64735630000006,0 -122.09543710000005,37.64736640000006,0 -122.09554240000006,37.647399700000065,0 -122.09657710000006,37.64883770000006,0 -122.09714560000006,37.649672600000066,0 -122.09773790000006,37.650591100000064,0 -122.10267570000003,37.65856650000006,0 -122.10299600000005,37.65904620000006,0 -122.10703150000005,37.665604000000066,0 -122.10706220000004,37.665668300000064,0 -122.10832540000004,37.66772140000006,0 -122.10890390000006,37.66861890000006,0 -122.10933480000006,37.669352900000064,0 -122.11007610000006,37.67054170000006,0 -122.11025670000006,37.67080570000006,0 -122.11065440000007,37.67134020000006,0 -122.11091710000008,37.67165300000006,0 -122.11128230000006,37.672058800000066,0 -122.11178250000005,37.67255880000006,0 -122.11219320000005,37.672930000000065,0 -122.11262030000006,37.67328190000006,0 -122.11308000000005,37.67362720000007,0 -122.11427190000006,37.67445470000007,0 -122.11472430000006,37.67478420000007,0 -122.11680500000006,37.676364200000066,0 -122.11744640000006,37.67681570000006,0 -122.11802470000005,37.677192900000065,0 -122.11978120000006,37.67827730000007,0 -122.12040250000007,37.678684300000064,0 -122.12328620000008,37.680677500000066,0 -122.12355280000007,37.68087430000007,0 -122.12784370000007,37.68384040000007,0 -122.13013950000007,37.68537870000007,0 -122.13050830000006,37.685639700000074,0 -122.13052020000005,37.68578550000007,0 -122.13052190000005,37.68578900000008,0 -122.13216380000004,37.687091200000076,0 -122.13227780000004,37.68717280000008,0 -122.13289730000004,37.687651200000076,0 -122.13299620000005,37.687718100000076,0 -122.13335450000005,37.68798840000007,0 -122.13351680000005,37.68812680000008,0 -122.13360960000004,37.68822160000008,0 -122.13367950000004,37.68831060000008,0 -122.13376920000005,37.68845110000008,0 -122.13384630000004,37.68861950000008,0 -122.13387020000005,37.68868380000008,0 -122.13390500000003,37.68881820000008,0 -122.13392130000004,37.68892600000007,0 -122.13392780000002,37.68904140000008,0 -122.13391960000003,37.68917120000008,0 -122.13389990000002,37.689287300000075,0 -122.1338494,37.68946040000008,0 -122.1338069,37.68956050000008,0 -122.13372840000001,37.68970110000008,0 -122.1336589,37.68980160000008,0 -122.1335632,37.68991350000008,0 -122.13345770000001,37.69001560000008,0 -122.1333327,37.690115600000084,0 -122.1332115,37.690197200000085,0 -122.133079,37.69026980000008,0 -122.13288289999998,37.69035600000008,0 -122.13275719999999,37.690402700000085,0 -122.13255259999998,37.69045450000008,0 -122.13196899999998,37.69054650000008,0 -122.13187179999998,37.69057330000009,0 -122.13179849999999,37.69060370000009,0 -122.13090829999999,37.690729800000085,0 -122.13035229999997,37.690774300000086,0 -122.12985129999997,37.69078840000009,0 -122.12963869999996,37.690788300000094,0 -122.12918999999997,37.69076700000009,0 -122.12910449999997,37.69077560000009,0 -122.12744339999996,37.69065460000009,0 -122.12657739999997,37.690578500000086,0 -122.12596679999997,37.69050840000009,0 -122.12468269999997,37.69033640000009,0 -122.11756139999996,37.68921250000009,0 -122.11461229999995,37.68866150000009,0 -122.11369309999996,37.688532500000086,0 -122.11328359999996,37.68849080000008,0 -122.11289679999994,37.68846660000008,0 -122.11196789999994,37.68843180000008,0 -122.11069159999994,37.68847060000008,0 -122.11024059999993,37.68850100000008,0 -122.09510249999992,37.690180100000084,0 -122.09465879999992,37.69021330000008,0 -122.09427899999991,37.69025050000008,0 -122.09249719999991,37.69038490000008,0 -122.08989659999992,37.69048400000008,0 -122.08391659999991,37.69052570000009,0 -122.0781150999999,37.690512700000085,0 -122.07654279999991,37.690544400000086,0 -122.0751556999999,37.690545600000085,0 -122.0729948999999,37.69057320000008,0 -122.0717785999999,37.69061700000008,0 -122.07069509999991,37.69069320000008,0 -122.06900059999991,37.69088630000008,0 -122.06803429999992,37.69107510000008,0 -122.06786889999991,37.69111860000008,0 -122.06673329999991,37.69135950000008,0 -122.06639509999991,37.69144850000008,0 -122.0662268999999,37.69150070000008,0 -122.05990029999992,37.69326640000008,0 -122.05947719999993,37.69337300000008,0 -122.05925479999992,37.69341780000008,0 -122.05810059999992,37.69354440000008,0 -122.0577907999999,37.69356940000007,0 -122.05767189999992,37.69357370000008,0 -122.05744199999992,37.69359070000007,0 -122.05701929999992,37.69360460000007,0 -122.05648569999993,37.69359240000008,0 -122.05595389999992,37.69356190000008,0 -122.05322539999993,37.693266300000076,0 -122.05285759999992,37.693241900000075,0 -122.05236929999994,37.69322550000008,0 -122.05177999999994,37.693227900000075,0 -122.05115079999995,37.69325590000008,0 -122.05046289999994,37.69332770000008,0 -122.05012319999994,37.69337370000008,0 -122.04934919999994,37.693513200000076,0 -122.04902009999994,37.69358900000008,0 -122.04840219999993,37.69375250000007,0 -122.04780349999992,37.693948400000075,0 -122.04718979999993,37.69418100000008,0 -122.04669119999993,37.69440110000008,0 -122.04635569999994,37.69456790000008,0 -122.04593779999993,37.69479370000008,0 -122.04570299999995,37.69492980000009,0 -122.04518979999996,37.69525430000009,0 -122.04484539999996,37.695497900000085,0 -122.04366139999995,37.69651000000008,0 -122.04146939999997,37.69854310000009,0 -122.04106319999997,37.698934400000084,0 -122.04049799999997,37.69943380000009,0 -122.03999399999996,37.69982780000009,0 -122.03975189999998,37.699997300000085,0 -122.03912339999998,37.70040130000009,0 -122.03887729999997,37.70053990000009,0 -122.03845199999998,37.70076370000008,0 -122.03817579999999,37.700896000000085,0 -122.03745759999997,37.701190800000084,0 -122.03691709999997,37.701382500000086,0 -122.03632809999998,37.70155410000009,0 -122.03585169999998,37.70167410000008,0 -122.0352035,37.70180600000009,0 -122.03495419999999,37.70184650000009,0 -122.0338032,37.70196480000009,0 -122.0331763,37.70199200000009,0 -122.03285239999998,37.701989500000096,0 -122.03227709999999,37.70196800000009,0 -122.03180749999997,37.70192970000009,0 -122.03124009999998,37.7018633000001,0 -122.03072539999998,37.7017824000001,0 -122.03036989999998,37.7017125000001,0 -122.03003419999997,37.7016371000001,0 -122.02774429999997,37.7010103000001,0 -122.02748979999997,37.70095060000009,0 -122.02692669999996,37.7008454000001,0 -122.02624889999997,37.7007499000001,0 -122.02584049999997,37.700709500000094,0 -122.02519599999998,37.70067050000009,0 -122.02486789999998,37.7006625000001,0 -122.02431879999997,37.7006668000001,0 -122.02375489999999,37.700693900000104,0 -122.02317819999999,37.7007484000001,0 -122.0225433,37.7008357000001,0 -122.02209029999997,37.7009176000001,0 -122.02161249999997,37.7010227000001,0 -122.02112109999997,37.701150500000104,0 -122.02059539999998,37.701312300000104,0 -122.02026059999996,37.70142800000011,0 -122.01855929999996,37.70206600000011,0 -122.01810329999996,37.7022174000001,0 -122.01779399999997,37.7023093000001,0 -122.01720829999996,37.7024570000001,0 -122.01684689999998,37.702533500000094,0 -122.01649989999997,37.702598000000094,0 -122.01618279999997,37.7026485000001,0 -122.01555989999997,37.7027215000001,0 -122.01528629999997,37.702742400000105,0 -122.00275959999998,37.7033372000001,0 -122.00149059999997,37.7033598000001,0 -122.00034299999997,37.7033258000001,0 -121.99919249999996,37.7032289000001,0 -121.99837659999997,37.703134900000094,0 -121.99763009999998,37.7030206000001,0 -121.99657039999998,37.702802300000094,0 -121.99576929999998,37.702616200000094,0 -121.99498579999997,37.70239420000009,0 -121.99452159999997,37.7022492000001,0 -121.99404479999997,37.70208840000009,0 -121.99326759999997,37.701798500000095,0 -121.99282139999997,37.7016173000001,0 -121.98989179999998,37.7003394000001,0 -121.98942749999998,37.7001573000001,0 -121.98893669999997,37.6999872000001,0 -121.98849649999997,37.6998551000001,0 -121.98819889999997,37.6997748000001,0 -121.98786999999997,37.699695700000106,0 -121.98740449999997,37.699597800000106,0 -121.98692899999996,37.6995167000001,0 -121.98656709999996,37.6994668000001,0 -121.98346179999994,37.6991193000001,0 -121.98188249999994,37.6988916000001,0 -121.97334219999995,37.6974271000001,0 -121.97232919999993,37.6972906000001,0 -121.97163679999993,37.6972145000001,0 -121.97108339999994,37.6971642000001,0 -121.97016579999995,37.697101100000104,0 -121.96928959999994,37.697063500000105,0 -121.96822759999995,37.6970482000001,0 -121.96736259999993,37.697057200000096,0 -121.96607899999994,37.6971087000001,0 -121.96565619999994,37.6971382000001,0 -121.96425399999994,37.6972673000001,0 -121.96296029999993,37.6974373000001,0 -121.96100749999995,37.697773400000095,0 -121.96082649999994,37.697810600000096,0 -121.95894489999995,37.6981373000001,0 -121.95810309999995,37.6982223000001,0 -121.95754579999993,37.698260400000095,0 -121.95713329999995,37.6982677000001,0 -121.93703799999994,37.6981102000001,0 -121.93615039999993,37.6981191000001,0 -121.93563519999994,37.6981361000001,0 -121.93494779999992,37.698179600000095,0 -121.93427989999992,37.6982505000001,0 -121.93380399999992,37.698312900000104,0 -121.93300539999994,37.6984573000001,0 -121.93216809999994,37.69864160000011,0 -121.92999219999993,37.699164200000105,0 -121.92654299999994,37.69993180000011,0 -121.92312449999994,37.700731000000104,0 -121.92015749999995,37.7013844000001,0 -121.91935019999994,37.701525800000105,0 -121.91825029999994,37.701663100000104,0 -121.91768539999994,37.701703400000106,0 -121.91704389999994,37.70172930000011,0 -121.91614899999993,37.70173050000011,0 -121.91253889999994,37.70168930000011,0 -121.91111289999995,37.701635800000105,0 -121.91015279999995,37.7016149000001,0 -121.90990469999994,37.701603600000105,0 -121.90047219999992,37.7014356000001,0 -121.89477389999992,37.701388400000106,0 -121.89318189999992,37.701390900000106,0 -121.89233989999991,37.70140440000011,0 -121.88741349999991,37.70135870000011,0 -121.88409589999992,37.70135330000011,0 -121.88342369999991,37.70136270000011,0 -121.88061739999992,37.70135660000011,0 -121.88046699999991,37.70136210000011,0 -121.87940569999992,37.70136590000011,0 -121.87929259999991,37.701371500000114,0 -121.87534229999993,37.70134870000011,0 -121.87438109999992,37.70135490000011,0 -121.87017449999992,37.70130270000011,0 -121.86895639999992,37.70130670000012,0 -121.85614699999991,37.70116970000012,0 -121.8560089999999,37.70117290000012,0 -121.8550377999999,37.70116470000012,0 -121.85460899999991,37.70117180000012,0 -121.8479311999999,37.70113950000012,0 -121.84168509999992,37.70106710000012,0 -121.84066079999992,37.70106790000012,0 -121.83957629999992,37.701050500000115,0 -121.83928159999992,37.70105420000012,0 -121.83813779999993,37.70103660000012,0 -121.83735589999993,37.701037400000125,0 -121.83670219999993,37.70102390000012,0 -121.83618279999993,37.70102500000012,0 -121.83506809999994,37.700993100000126,0 -121.82330509999994,37.70089250000012,0 -121.82204819999993,37.70089970000012,0 -121.81073139999994,37.700804800000114,0 -121.81028459999995,37.70079290000012,0 -121.80883809999993,37.70079500000012,0 -121.79516989999995,37.70066080000012,0 -121.79485089999996,37.70064600000012,0 -121.79448209999997,37.70061930000012,0 -121.79431199999996,37.700600300000126,0 -121.79399789999997,37.700554600000125,0 -121.79366179999997,37.70049110000012,0 -121.79213249999995,37.70013690000012,0 -121.78999769999996,37.69968360000012,0 -121.78951259999995,37.69959420000012,0 -121.78881669999994,37.69950000000012,0 -121.78833819999994,37.69945550000013,0 -121.78798599999996,37.69943330000012,0 -121.78790989999996,37.69944300000013,0 -121.78720629999997,37.69943670000013,0 -121.78644329999999,37.699470100000134,0 -121.77688289999998,37.70030950000013,0 -121.77574959999998,37.70044940000013,0 -121.77110429999999,37.70118310000014,0 -121.76422889999999,37.70232340000013,0 -121.76311019999999,37.702493900000135,0 -121.76174209999998,37.70265350000013,0 -121.76090439999996,37.70272520000013,0 -121.75934259999997,37.70279700000013,0 -121.75830109999995,37.702806400000135,0 -121.75667689999995,37.70276850000013,0 -121.74448359999997,37.702252600000136,0 -121.74348969999997,37.70223330000014,0 -121.74303869999997,37.70224360000014,0 -121.74242219999996,37.70227060000013,0 -121.74073989999997,37.70243760000013,0 -121.74000989999995,37.70255420000014,0 -121.73920969999995,37.70271660000014,0 -121.73879129999996,37.70281870000014,0 -121.73786559999995,37.70307740000014,0 -121.73708079999994,37.703333500000134,0 -121.73659559999994,37.703510600000136,0 -121.72841239999993,37.70695710000014,0 -121.72832769999992,37.70697840000014,0 -121.72653969999992,37.707742400000136,0 -121.72590629999992,37.708028000000134,0 -121.71958309999991,37.71070450000013,0 -121.7164529999999,37.71199470000013,0 -121.71600499999991,37.71219940000014,0 -121.71275149999991,37.71357170000014,0 -121.70720879999992,37.71596360000014,0 -121.70672939999992,37.716154900000134,0 -121.70619579999992,37.71634260000013,0 -121.7050924999999,37.71669530000014,0 -121.70408849999991,37.71696460000014,0 -121.70366169999991,37.717063300000135,0 -121.68746669999993,37.72040410000014,0 -121.68619079999992,37.72069540000014,0 -121.68281059999991,37.72153380000014,0 -121.68238169999992,37.72161700000014,0 -121.68194569999993,37.72168220000013,0 -121.68141439999992,37.721728100000135,0 -121.68099649999992,37.72174660000014,0 -121.68035299999991,37.721742100000135,0 -121.67993939999991,37.72171160000014,0 -121.67684049999993,37.72138780000014,0 -121.67642489999993,37.721331100000135,0 -121.67619259999994,37.721290300000135,0 -121.67579769999992,37.721208200000135,0 -121.67558939999992,37.721155400000136,0 -121.67520099999992,37.721043500000135,0 -121.67471379999994,37.72087610000013,0 -121.67444039999992,37.720766300000136,0 -121.67399899999992,37.72056390000014,0 -121.67362599999993,37.72036590000013,0 -121.67334509999993,37.72019990000013,0 -121.67208689999993,37.71935230000013,0 -121.67161559999992,37.71906510000013,0 -121.67134999999993,37.718919700000136,0 -121.67098099999993,37.71874230000014,0 -121.67058139999992,37.71856920000013,0 -121.6700418999999,37.71836790000013,0 -121.66976239999991,37.718278800000135,0 -121.66943529999992,37.718185700000134,0 -121.66897209999992,37.71807330000013,0 -121.6685546999999,37.71799300000013,0 -121.66824429999991,37.71794420000013,0 -121.66792189999991,37.71790340000013,0 -121.66759979999992,37.717871200000125,0 -121.66710199999993,37.71784130000013,0 -121.66676809999993,37.717835400000126,0 -121.66631899999994,37.71784360000013,0 -121.66598769999993,37.71786190000013,0 -121.66577859999992,37.71787970000013,0 -121.66529029999994,37.71793660000013,0 -121.66494379999992,37.717990900000125,0 -121.66428429999992,37.71812370000013,0 -121.66102789999994,37.71903330000013,0 -121.66087669999993,37.719080500000125,0 -121.65774069999992,37.71996450000013,0 -121.65697179999992,37.72020090000013,0 -121.64695009999994,37.72342990000013,0 -121.64654509999994,37.723583000000126,0 -121.63721919999993,37.72666600000013,0 -121.63692899999994,37.72677010000013,0 -121.63660019999993,37.72689910000013,0 -121.63628549999991,37.72703880000014,0 -121.63595499999992,37.727200300000135,0 -121.63555289999992,37.727419300000136,0 -121.63513279999991,37.727692900000136,0 -121.63499679999991,37.72779390000014,0 -121.6347377999999,37.72800760000013,0 -121.63433729999991,37.72840830000013,0 -121.63404689999992,37.728733200000136,0 -121.63281969999993,37.73023320000014,0 -121.63260859999994,37.73047000000014,0 -121.63240099999994,37.730683900000145,0 -121.63194839999996,37.731116900000146,0 -121.63162559999994,37.73140480000015,0 -121.63137779999995,37.73160920000015,0 -121.63099969999996,37.73188830000015,0 -121.63073859999994,37.73206700000015,0 -121.63021569999994,37.73240350000015,0 -121.62994269999993,37.73256550000015,0 -121.62956209999993,37.73277260000015,0 -121.62920129999993,37.732950200000154,0 -121.62890639999993,37.73307820000015,0 -121.62862369999992,37.733185500000154,0 -121.62829539999993,37.73329570000015,0 -121.62797179999994,37.733390400000154,0 -121.62764619999994,37.73347100000015,0 -121.62731159999993,37.73353880000015,0 -121.62697999999993,37.733592800000146,0 -121.62664139999993,37.73363410000015,0 -121.62629399999994,37.73366480000015,0 -121.62302609999995,37.73386770000015,0 -121.61425039999995,37.734483500000145,0 -121.61217599999995,37.73465300000015,0 -121.61182299999994,37.73469600000015,0 -121.61099809999995,37.73481500000015,0 -121.60916269999994,37.73516650000015,0 -121.60797479999995,37.735437000000154,0 -121.60719159999996,37.73564060000015,0 -121.60132069999996,37.737271500000155,0 -121.60011909999996,37.73756240000015,0 -121.59894369999995,37.73781040000016,0 -121.58924789999995,37.73964570000015,0 -121.58346999999995,37.74070040000015,0 -121.57922619999995,37.74129890000015,0 -121.57750929999996,37.74147700000015,0 -121.57391299999998,37.74175130000015,0 -121.57381119999997,37.741689400000155,0 -121.57380699999996,37.74168840000016,0 -121.57011839999997,37.74182830000016,0 -121.56941119999998,37.74183150000016,0 -121.56895269999998,37.74181650000016,0 -121.56805279999999,37.74176390000016,0 -121.56730359999997,37.74168050000016,0 -121.56437229999997,37.74127940000016,0 -121.56275519999997,37.74109950000015,0 -121.56208609999997,37.741004800000155,0 -121.56157929999998,37.74090430000015,0 -121.56109119999998,37.740785200000154,0 -121.56077009999998,37.74068900000015,0 -121.5604312,37.74057130000015,0 -121.5599405,37.74037800000015,0 -121.5593995,37.74012410000015,0 -121.55881640000001,37.73980110000015,0 -121.55800970000003,37.73927940000015,0 -121.55761820000001,37.738998600000144,0 -121.55724180000001,37.73871090000015,0 -121.5525926,37.73484000000015,0 -121.55118879999999,37.73358430000015,0 -121.55021319999999,37.73267760000015,0 -121.5379306,37.72162420000015,0 -121.53762989999998,37.72136730000015,0 -121.5374199,37.721174000000154,0 -121.53696470000001,37.72078040000015,0 -121.5362712,37.72020920000015,0 -121.5353219,37.719476900000146,0 -121.5343379,37.71877940000015,0 -121.53354310000002,37.71824980000015,0 -121.53300460000001,37.717907700000154,0 -121.52495920000001,37.713038600000154,0 -121.5249132,37.713015100000156,0 -121.52305369999999,37.71188570000015,0 -121.5226629,37.71163240000015,0 -121.52108709999999,37.710701300000146,0 -121.48703589999998,37.69009690000015,0 -121.48637149999999,37.689708100000146,0 -121.41666219999998,37.64743840000015,0 -121.41456099999998,37.646185700000146,0 -121.41394409999998,37.64577790000015,0 -121.41360859999999,37.64561940000015,0 -121.41325699999999,37.645390900000145,0 -121.41199069999998,37.64462450000015,0 -121.41063969999998,37.643781700000154,0 -121.41013499999998,37.64349190000015,0 -121.37476249999997,37.622018100000155,0 -121.37410879999997,37.62160450000015,0 -121.37306029999996,37.620915800000155,0 -121.37139599999996,37.619749000000155,0 -121.37082179999996,37.61932370000015,0 -121.27859989999995,37.54829510000015,0 -121.27848709999996,37.54820000000015,0 -121.27837949999996,37.54812690000015,0 -121.26263269999995,37.53598010000015,0 -121.26260839999993,37.53596510000015,0 -121.26036789999995,37.534232200000154,0 -121.25898459999995,37.53311270000015,0 -121.22594189999995,37.50504130000015,0 -121.22490179999997,37.504198700000146,0 -121.22397339999996,37.50347050000015,0 -121.21272849999998,37.495220100000154,0 -121.21223799999999,37.49484180000015,0 -121.21121489999999,37.49399840000015,0 -121.2102262,37.493106600000154,0 -121.20446179999998,37.48743230000015,0 -121.20357419999998,37.48650870000016,0 -121.19894189999998,37.481922100000155,0 -121.19852089999998,37.481487400000155,0 -121.18114009999996,37.46421360000016,0 -121.18036289999998,37.46339820000016,0 -121.1798568,37.46282800000016,0 -121.17925869999999,37.462119500000156,0 -121.1792184,37.462062900000156,0 -121.1789436,37.46171910000016,0 -121.1782646,37.46081650000016,0 -121.17074960000002,37.450158100000166,0 -121.16891820000001,37.44764120000016,0 -121.16316760000001,37.439906800000166,0 -121.1630119,37.43968490000016,0 -121.16216709999999,37.43840070000016,0 -121.1615832,37.43757770000016,0 -121.16143149999999,37.437346800000164,0 -121.1609009,37.436377700000165,0 -121.16055329999999,37.43563980000016,0 -121.1503943,37.41528060000016,0 -121.1495733,37.413701300000156,0 -121.14910090000001,37.41286660000016,0 -121.14858000000001,37.412006700000155,0 -121.1478322,37.410852600000155,0 -121.13074189999998,37.38631850000016,0 -121.13051239999997,37.38595850000016,0 -121.13008429999996,37.38523770000016,0 -121.12962199999998,37.38437640000016,0 -121.12929329999997,37.38369520000016,0 -121.12899689999998,37.38301570000016,0 -121.12866459999996,37.38213930000016,0 -121.10711759999997,37.31600610000016,0 -121.10667909999997,37.31459440000016,0 -121.10611479999996,37.31256720000016,0 -121.10234419999995,37.29785620000016,0 -121.10228329999997,37.29764890000016,0 -121.10161959999995,37.29499580000016,0 -121.10150839999994,37.29460990000016,0 -121.09865079999993,37.28346030000016,0 -121.09859869999994,37.28332080000016,0 -121.09854229999992,37.283119100000164,0 -121.09790759999993,37.280481000000165,0 -121.09772529999992,37.279838900000165,0 -121.08513589999993,37.230682000000165,0 -121.08498879999993,37.230050300000165,0 -121.08090599999994,37.21415750000017,0 -121.08068899999995,37.21324920000016,0 -121.07740859999994,37.200435900000166,0 -121.07719769999994,37.199717100000164,0 -121.07711519999994,37.19946710000016,0 -121.07653719999995,37.197993500000166,0 -121.07614449999993,37.19708660000016,0 -121.07593189999992,37.19666390000017,0 -121.07562919999991,37.196103700000165,0 -121.07534039999992,37.19560480000017,0 -121.0747654999999,37.194688300000166,0 -121.03107669999989,37.12782070000017,0 -121.0309471999999,37.12760850000017,0 -121.02745179999991,37.12224700000017,0 -121.02722509999992,37.121916800000164,0 -121.02352099999993,37.11623570000017,0 -121.02311839999993,37.11564270000017,0 -121.02237659999992,37.11448680000017,0 -121.02130609999992,37.11291990000017,0 -121.02062219999992,37.11199060000017,0 -121.0200091999999,37.11119300000016,0 -121.01058679999991,37.09962270000017,0 -121.0105419999999,37.099559700000164,0 -121.0060619999999,37.094075500000166,0 -121.0049433999999,37.092783400000165,0 -121.00377409999989,37.09151110000017,0 -120.99370009999987,37.08111210000017,0 -120.99330829999987,37.08072390000017,0 -120.97052129999987,37.05720350000017,0 -120.97030319999988,37.05696660000017,0 -120.96990679999988,37.05656340000017,0 -120.96978679999988,37.05643200000017,0 -120.9680470999999,37.05464660000017,0 -120.96747049999989,37.054077200000165,0 -120.9502849999999,37.036317500000166,0 -120.95023179999988,37.036257300000166,0 -120.9438601999999,37.02969830000016,0 -120.94291139999991,37.02869840000017,0 -120.94257219999992,37.028368800000166,0 -120.92551699999991,37.01071500000016,0 -120.9253351999999,37.010537900000166,0 -120.9209986999999,37.006067700000166,0 -120.91980989999989,37.00478310000017,0 -120.91708989999991,37.001958600000165,0 -120.91631309999991,37.00110140000017,0 -120.9096238999999,36.993468800000166,0 -120.90882539999991,36.992593300000166,0 -120.88987879999992,36.97092480000017,0 -120.88906679999991,36.97007990000017,0 -120.88844529999992,36.96948220000017,0 -120.88763909999992,36.968751600000175,0 -120.8872411999999,36.968411100000175,0 -120.84259139999992,36.931848100000174,0 -120.84100369999992,36.930501400000175,0 -120.83957139999991,36.92922620000017,0 -120.83816829999992,36.927927500000166,0 -120.8325706999999,36.92239090000017,0 -120.8285715999999,36.91849590000017,0 -120.82610239999991,36.91617450000017,0 -120.8198431999999,36.91051650000016,0 -120.8193107999999,36.91000260000017,0 -120.8186911999999,36.90937470000017,0 -120.8176219999999,36.90822120000017,0 -120.80171419999989,36.889956200000164,0 -120.8012631999999,36.889412200000166,0 -120.8003753999999,36.88828560000017,0 -120.79952759999989,36.88713050000017,0 -120.77083129999988,36.84545290000017,0 -120.76911349999989,36.84300230000017,0 -120.72935259999988,36.785181100000166,0 -120.7275192999999,36.78246500000017,0 -120.7151852999999,36.76457540000017,0 -120.7145924999999,36.76367060000017,0 -120.7002097999999,36.74274210000017,0 -120.69816499999989,36.73971480000017,0 -120.69791529999989,36.739372800000176,0 -120.68597139999989,36.72196030000017,0 -120.68561589999989,36.72142260000017,0 -120.6837506999999,36.718741000000165,0 -120.6826498999999,36.71724750000016,0 -120.6814369999999,36.71568310000016,0 -120.6805206999999,36.714425900000165,0 -120.6428589999999,36.66532880000017,0 -120.6397794999999,36.66138040000017,0 -120.61192579999991,36.62504000000017,0 -120.6115888999999,36.62463390000017,0 -120.6111592999999,36.62414400000017,0 -120.61046449999989,36.62340850000017,0 -120.6098415999999,36.62280160000017,0 -120.6094887999999,36.62247580000017,0 -120.60875149999988,36.62183940000017,0 -120.60828369999989,36.621457700000164,0 -120.5894625999999,36.60725350000016,0 -120.5894447999999,36.60723710000017,0 -120.5737676999999,36.59542990000016,0 -120.5726190999999,36.59454460000016,0 -120.55092899999988,36.57817150000017,0 -120.55091859999989,36.57816570000016,0 -120.47594269999988,36.52148140000016,0 -120.47506429999987,36.52077930000016,0 -120.47397349999989,36.51983730000016,0 -120.47329649999988,36.51920110000017,0 -120.44971379999988,36.49582760000017,0 -120.44898539999988,36.495081900000166,0 -120.44812959999987,36.494172900000166,0 -120.44692059999988,36.49282770000016,0 -120.4377523999999,36.482258700000166,0 -120.4358803999999,36.48018970000017,0 -120.4357817999999,36.48008810000017,0 -120.4342980999999,36.478440300000166,0 -120.40797869999992,36.45088530000017,0 -120.38200289999993,36.42189710000017,0 -120.38124889999992,36.421026400000166,0 -120.37692499999991,36.41623740000017,0 -120.37268389999993,36.41145720000017,0 -120.37199839999992,36.41071980000017,0 -120.35454659999992,36.391218100000174,0 -120.35340999999991,36.38991100000017,0 -120.35085989999992,36.38710280000017,0 -120.34952519999992,36.38558300000017,0 -120.29970729999992,36.329843500000166,0 -120.29829459999993,36.32822530000017,0 -120.28408329999993,36.31123010000017,0 -120.28272459999992,36.30967540000017,0 -120.27376219999991,36.29987850000017,0 -120.2728793999999,36.29886400000017,0 -120.2719293999999,36.29782450000017,0 -120.2713353999999,36.297113100000175,0 -120.27103789999991,36.296733700000175,0 -120.27062839999991,36.296181000000175,0 -120.27012669999989,36.29544680000018,0 -120.20432559999989,36.191048900000176,0 -120.2030867999999,36.18903110000017,0 -120.1974507999999,36.180099000000176,0 -120.19695399999989,36.17936670000017,0 -120.19637079999988,36.178585600000176,0 -120.19580709999988,36.177891800000175,0 -120.19446049999989,36.17641230000018,0 -120.19331589999989,36.17518870000018,0 -120.1915017999999,36.17320040000018,0 -120.18971059999988,36.17118870000018,0 -120.13933159999989,36.11610140000018,0 -120.13801309999988,36.114627700000185,0 -120.13583669999989,36.11229620000018,0 -120.1072798999999,36.08101570000018,0 -120.10648709999988,36.080180100000184,0 -120.10607409999987,36.079773400000185,0 -120.10518099999989,36.078951300000185,0 -120.10454669999987,36.078419400000186,0 -120.10408509999988,36.07805190000018,0 -120.10348579999987,36.07759760000018,0 -120.1026861999999,36.07703950000018,0 -120.10229449999989,36.07678030000018,0 -120.10137789999989,36.07620280000018,0 -120.07296029999988,36.059056800000185,0 -120.07072719999988,36.05773720000018,0 -120.05356329999987,36.04738800000018,0 -120.05239619999986,36.04670750000018,0 -120.05066149999986,36.04572990000018,0 -120.02452689999987,36.03135780000018,0 -120.02374909999988,36.030905800000184,0 -120.02245419999987,36.03011510000018,0 -119.99558389999986,36.01283610000018,0 -119.99472949999985,36.01225540000018,0 -119.98847109999984,36.00824050000018,0 -119.98760109999984,36.007643900000176,0 -119.98675969999984,36.00700890000018,0 -119.98607899999983,36.00645420000018,0 -119.98528699999983,36.00575830000018,0 -119.98489629999983,36.005391700000175,0 -119.97412899999983,35.99489740000018,0 -119.97406379999983,35.99483900000018,0 -119.96070329999984,35.98180290000018,0 -119.96052859999983,35.981619200000175,0 -119.89425719999983,35.91692120000018,0 -119.89420809999984,35.916878200000184,0 -119.87708999999984,35.90012370000018,0 -119.87708229999983,35.900117900000176,0 -119.86624439999981,35.88952470000018,0 -119.86412039999982,35.88736320000018,0 -119.8626480999998,35.885812900000175,0 -119.86257309999982,35.885743600000175,0 -119.8624395999998,35.88559180000018,0 -119.8321465999998,35.853618500000174,0 -119.83207689999979,35.85353790000018,0 -119.83029689999981,35.85164770000018,0 -119.82925949999981,35.85046870000018,0 -119.82810229999981,35.84907940000018,0 -119.82450849999982,35.844666000000174,0 -119.82432279999982,35.84442060000018,0 -119.82257269999982,35.842308200000176,0 -119.82225959999984,35.841904300000174,0 -119.81689999999983,35.83532960000017,0 -119.81341209999982,35.83085500000017,0 -119.81064949999984,35.82716680000017,0 -119.81007879999984,35.82635560000017,0 -119.78479469999984,35.79256220000017,0 -119.78438289999983,35.79204860000017,0 -119.78414449999984,35.79177430000017,0 -119.78348329999986,35.791064400000174,0 -119.78294339999985,35.79044080000017,0 -119.78256069999986,35.789950500000174,0 -119.77963209999984,35.78599560000018,0 -119.77910559999984,35.78531970000018,0 -119.77578009999984,35.78077460000018,0 -119.77480439999984,35.77950750000018,0 -119.77317449999983,35.77732220000018,0 -119.77242649999981,35.77628600000018,0 -119.7720430999998,35.775786100000175,0 -119.77139189999981,35.774860000000174,0 -119.7704579999998,35.773658700000176,0 -119.76999339999982,35.77300240000018,0 -119.76680759999981,35.76871920000018,0 -119.7657506999998,35.76725590000018,0 -119.76483719999979,35.76610180000018,0 -119.7622769999998,35.76257610000018,0 -119.76120399999981,35.761183900000184,0 -119.76015929999981,35.75971820000018,0 -119.75760289999982,35.75632030000018,0 -119.75702229999983,35.755356800000186,0 -119.75659489999983,35.75479750000018,0 -119.75654639999982,35.75472150000018,0 -119.75555379999983,35.75336060000018,0 -119.75404809999982,35.751370300000175,0 -119.75374979999982,35.75095520000018,0 -119.75312459999982,35.750148300000184,0 -119.75296489999982,35.74992110000018,0 -119.75242599999983,35.749220200000174,0 -119.75162219999983,35.748116800000176,0 -119.75150469999983,35.747969700000176,0 -119.75012729999985,35.746126000000174,0 -119.74997219999985,35.74589950000018,0 -119.74938249999984,35.745105700000174,0 -119.74931889999984,35.74502780000017,0 -119.74697679999984,35.74189090000017,0 -119.74689339999985,35.74176570000017,0 -119.73953919999985,35.73190290000017,0 -119.73945379999986,35.73180000000017,0 -119.73938359999987,35.73170100000017,0 -119.73906739999987,35.73129700000017,0 -119.73871799999988,35.73081170000017,0 -119.73871059999988,35.730795700000165,0 -119.73718909999988,35.728768500000164,0 -119.73698189999988,35.72846370000016,0 -119.7368417999999,35.728294300000165,0 -119.73646799999989,35.727787900000166,0 -119.73640439999987,35.727690600000166,0 -119.73401269999988,35.724479500000164,0 -119.73394739999988,35.72438080000017,0 -119.73353959999989,35.72382510000017,0 -119.73325549999988,35.72346460000017,0 -119.68861199999989,35.663509900000165,0 -119.68602519999989,35.659971900000166,0 -119.68286249999989,35.65577430000017,0 -119.6567789999999,35.620681900000164,0 -119.6567861999999,35.620667400000166,0 -119.65679209999989,35.620649100000165,0 -119.6567916999999,35.62063240000017,0 -119.6567826999999,35.620603500000165,0 -119.65590239999987,35.619144900000165,0 -119.65557009999988,35.61855540000016,0 -119.65550189999986,35.61837960000016,0 -119.65543489999985,35.618162100000156,0 -119.65540159999985,35.61802420000016,0 -119.65534299999987,35.61763270000016,0 -119.65531579999987,35.617233000000155,0 -119.65529429999987,35.61618320000016,0 -119.65472349999988,35.616177500000155,0 -119.65284789999988,35.61625420000016,0 -119.65097789999989,35.61629100000015,0 -119.6499015999999,35.61632660000015,0 -119.64789999999988,35.61632660000015,0 -119.64259239999987,35.61624480000015,0 -119.64232219999988,35.616279700000156,0 -119.60719799999988,35.615925200000156,0 -119.59441029999986,35.61584390000015,0 -119.59381809999987,35.61582630000015,0 -119.59340449999988,35.615796300000156,0 -119.59274319999987,35.61571210000016,0 -119.59235559999988,35.61564440000016,0 -119.59197379999989,35.61556740000016,0 -119.59130619999988,35.61540670000016,0 -119.59071109999988,35.61522210000015,0 -119.59023699999989,35.615052000000155,0 -119.58967139999987,35.61481520000015,0 -119.58926029999988,35.61461610000015,0 -119.58857799999988,35.61424010000015,0 -119.5883256999999,35.614082800000155,0 -119.58774959999988,35.61368790000016,0 -119.58755299999989,35.61353840000016,0 -119.57576179999988,35.60339090000016,0 -119.57536909999988,35.60306750000016,0 -119.57486079999988,35.60270220000016,0 -119.57431899999987,35.60237450000016,0 -119.57403699999988,35.60222190000015,0 -119.57374739999986,35.602078000000155,0 -119.57345139999987,35.601945400000155,0 -119.57314889999988,35.601821500000156,0 -119.57284199999988,35.601709500000155,0 -119.57220579999989,35.60151730000016,0 -119.5715008999999,35.601349500000154,0 -119.57076009999989,35.601236500000155,0 -119.5705146999999,35.601212200000155,0 -119.5699375999999,35.601175700000155,0 -119.51501589999991,35.60106000000016,0 -119.51116329999991,35.60102050000016,0 -119.4557376999999,35.60121100000016,0 -119.44214229999989,35.601376500000164,0 -119.4391818999999,35.601446000000166,0 -119.4377299999999,35.60146030000016,0 -119.43512959999991,35.60145170000016,0 -119.4332771999999,35.601422700000164,0 -119.42921449999992,35.60140380000016,0 -119.40447949999992,35.60149780000016,0 -119.35801719999992,35.601525500000164,0 -119.34922969999992,35.60156960000017,0 -119.34636049999993,35.60155380000017,0 -119.34636059999993,35.60185220000017,0 -119.34587859999993,35.601852000000164,0 -119.34585789999994,35.60185540000016,0 -119.34583229999993,35.601864100000164,0 -119.34582069999992,35.60187220000016,0 -119.34580249999993,35.60189170000016,0 -119.34578929999994,35.601926700000156,0 -119.34577849999994,35.60203560000016,0 -119.34577019999995,35.60206450000016,0 -119.34575829999994,35.60208080000016,0 -119.34574539999994,35.602090100000154,0 -119.34570159999994,35.602104200000156,0 -119.34563209999993,35.602117000000156,0 -119.34557669999992,35.60212370000016,0 -119.34553869999993,35.60212300000016,0 -119.34549069999991,35.60211630000016,0 -119.34523009999992,35.602105500000164,0 </coordinates></LineString><TimeSpan><begin>2020-11-07T01:12:43.999Z</begin><end>2020-11-07T07:42:12.599Z</end></TimeSpan></Placemark><Placemark><name>Best Western Plus Wasco Inn &amp; Suites</name><address>1704 CA-46, Wasco, CA 93280</address><ExtendedData><Data name="Email"><value>syugen.zhou@gmail.com</value></Data><Data name="Category"><value>Hotel</value></Data><Data name="Distance"><value>0</value></Data></ExtendedData><description> Hotel from 2020-11-07T07:42:12.599Z to 2020-11-07T16:59:09.999Z. Distance 0m </description><Point><coordinates>-119.3453701,35.602308199999996,0</coordinates></Point><TimeSpan><begin>2020-11-07T07:42:12.599Z</begin><end>2020-11-07T16:59:09.999Z</end></TimeSpan></Placemark></Document></kml>
