<?xml version="1.0" encoding="UTF-8"?><kml xmlns="http://www.opengis.net/kml/2.2" xmlns:gx="http://www.google.com/kml/ext/2.2"><Document><name> Location history from 2020-11-09 to 2020-11-09 </name><open>1</open><description></description><StyleMap id="multiTrack"><Pair><key>normal</key><styleUrl>#multiTrack_n</styleUrl></Pair><Pair><key>highlight</key><styleUrl>#multiTrack_h</styleUrl></Pair></StyleMap><Style id="multiTrack_n"><IconStyle><Icon><href>https://earth.google.com/images/kml-icons/track-directional/track-0.png</href></Icon></IconStyle><LineStyle><color>99ffac59</color><width>6</width></LineStyle></Style><Style id="multiTrack_h"><IconStyle><scale>1.2</scale><Icon><href>https://earth.google.com/images/kml-icons/track-directional/track-0.png</href></Icon></IconStyle><LineStyle><color>99ffac59</color><width>8</width></LineStyle></Style><Placemark><name>Orange Tree Resort</name><address>10601 N 56th St, Scottsdale, AZ 85254</address><ExtendedData><Data name="Email"><value>syugen.zhou@gmail.com</value></Data><Data name="Category"><value>Resort hotel</value></Data><Data name="Distance"><value>0</value></Data></ExtendedData><description> Resort hotel from 2020-11-09T01:08:03.001Z to 2020-11-09T12:51:57.074Z. Distance 0m </description><Point><coordinates>-111.9603712,33.5876027,0</coordinates></Point><TimeSpan><begin>2020-11-09T01:08:03.001Z</begin><end>2020-11-09T12:51:57.074Z</end></TimeSpan></Placemark><Placemark><name>Driving</name><address></address><ExtendedData><Data name="Email"><value>syugen.zhou@gmail.com</value></Data><Data name="Category"><value>Driving</value></Data><Data name="Distance"><value>252782</value></Data></ExtendedData><description> Driving from 2020-11-09T12:51:57.074Z to 2020-11-09T15:46:57.116Z. Distance 252782m </description><LineString><altitudeMode>clampToGround</altitudeMode><extrude>1</extrude><tesselate>1</tesselate><coordinates>-111.96057189999999,33.5851325,0 -111.9605657,33.5877462,0 -111.95996559999999,33.5877399,0 -111.95996099999999,33.587212199999996,0 -111.95996559999999,33.5871904,0 -111.9599796,33.5871725,0 -111.9600039,33.5871632,0 -111.9601854,33.5871663,0 -111.96018570000001,33.5870581,0 -111.96019460000001,33.587032199999996,0 -111.96030700000001,33.58694469999999,0 -111.96031890000002,33.58692249999999,0 -111.96031760000001,33.585999799999996,0 -111.96057300000001,33.58600309999999,0 -111.9605768,33.58271229999999,0 -111.96149310000001,33.58272659999999,0 -111.9616469,33.582654799999986,0 -111.96385790000001,33.58266299999999,0 -111.96422700000001,33.582678399999985,0 -111.9729027,33.58268509999999,0 -111.9732054,33.582738499999984,0 -111.97420199999999,33.582763599999986,0 -111.97978789999999,33.58277059999999,0 -111.9825147,33.58272129999999,0 -111.9895452,33.582758099999985,0 -111.9915651,33.58282209999999,0 -111.99645890000001,33.582804199999984,0 -111.9967533,33.582784899999986,0 -111.9968447,33.582729399999984,0 -112.00847219999999,33.58253949999998,0 -112.0085223,33.58257359999998,0 -112.0086408,33.58261269999998,0 -112.00999569999999,33.582589999999975,0 -112.0099984,33.58247779999998,0 -112.0100839,33.58240469999998,0 -112.0101732,33.582344499999984,0 -112.0102506,33.58227369999998,0 -112.0103908,33.58210049999998,0 -112.01041310000001,33.58205899999999,0 -112.0104369,33.582030799999984,0 -112.0104744,33.581925799999986,0 -112.01063629999999,33.58105159999999,0 -112.010651,33.58090009999999,0 -112.0107867,33.580346099999986,0 -112.0109222,33.57990119999998,0 -112.01110010000001,33.579450399999985,0 -112.011398,33.578858099999984,0 -112.01157,33.57857629999999,0 -112.01190190000001,33.578102999999984,0 -112.01257170000001,33.577311399999985,0 -112.0131678,33.57671699999999,0 -112.013176,33.576702199999986,0 -112.01317890000001,33.576615799999985,0 -112.01342220000001,33.576409099999985,0 -112.0137394,33.57616869999999,0 -112.01435970000001,33.575753899999995,0 -112.01517820000002,33.57529449999999,0 -112.01568190000002,33.575054099999996,0 -112.01631720000002,33.57479479999999,0 -112.01952400000002,33.5736723,0 -112.01967350000002,33.57363809999999,0 -112.02182690000004,33.57287619999999,0 -112.02249130000003,33.572587899999995,0 -112.02297070000003,33.572350199999995,0 -112.02351770000003,33.572042599999996,0 -112.02404940000002,33.57170179999999,0 -112.02450280000002,33.571376099999995,0 -112.02495890000002,33.5710048,0 -112.02555020000003,33.5704598,0 -112.02716020000003,33.56880030000001,0 -112.02774370000003,33.568268800000006,0 -112.02819140000003,33.567898,0 -112.02829040000003,33.5678425,0 -112.02850770000002,33.5676753,0 -112.02864250000003,33.5675541,0 -112.02953590000003,33.56695,0 -112.03015240000002,33.5665853,0 -112.03079490000002,33.566244399999995,0 -112.03583250000003,33.5638005,0 -112.03632050000002,33.56350200000001,0 -112.03678730000003,33.56312690000001,0 -112.03722130000003,33.5627123,0 -112.03746640000003,33.5624254,0 -112.03767340000003,33.56213790000001,0 -112.03789070000003,33.561775700000005,0 -112.03803910000003,33.561467300000004,0 -112.03822240000004,33.5609574,0 -112.03830910000003,33.5605824,0 -112.03837060000004,33.5600722,0 -112.03837530000003,33.559657599999994,0 -112.03797980000003,33.553077599999995,0 -112.03797790000004,33.552407599999995,0 -112.03805460000004,33.551657299999995,0 -112.03819790000004,33.551021799999994,0 -112.04144030000005,33.54013279999999,0 -112.04156840000003,33.53944319999999,0 -112.04166560000003,33.53865229999999,0 -112.04170540000003,33.537601299999984,0 -112.04164070000003,33.53527239999999,0 -112.04165900000004,33.53490569999998,0 -112.04176580000004,33.53426109999998,0 -112.04186800000004,33.53391069999998,0 -112.04198130000003,33.533608399999984,0 -112.04230190000004,33.53294529999999,0 -112.04312800000002,33.53162489999998,0 -112.04336830000003,33.531127799999986,0 -112.04351990000004,33.530701999999984,0 -112.04362240000003,33.53030099999998,0 -112.04369980000003,33.52977469999998,0 -112.04371640000004,33.52942019999998,0 -112.04370460000003,33.52649129999998,0 -112.04374990000004,33.525169499999976,0 -112.04393030000004,33.52292279999998,0 -112.04429350000005,33.51987759999998,0 -112.04432680000004,33.51937499999998,0 -112.04432580000004,33.51848279999998,0 -112.04423750000004,33.51681439999998,0 -112.04422860000004,33.51583539999998,0 -112.04444310000004,33.51261209999998,0 -112.04448750000003,33.50733389999998,0 -112.04445340000004,33.50687739999998,0 -112.04436830000003,33.506411899999975,0 -112.04391180000003,33.504863899999975,0 -112.04379520000003,33.50426179999997,0 -112.04376510000003,33.50384169999998,0 -112.04379970000002,33.498496599999974,0 -112.04407730000003,33.49288719999998,0 -112.04407770000003,33.49234259999998,0 -112.04403740000002,33.49174599999997,0 -112.04396070000003,33.49129479999998,0 -112.04383740000003,33.490802599999974,0 -112.04358330000002,33.49008659999998,0 -112.04330410000003,33.489485699999975,0 -112.04099000000002,33.48528719999997,0 -112.03955090000002,33.48296289999998,0 -112.03921110000002,33.48228729999998,0 -112.03896190000002,33.48167669999998,0 -112.03871070000002,33.48088619999998,0 -112.03851930000003,33.48001199999998,0 -112.03842110000004,33.47912989999998,0 -112.03840440000003,33.47837689999998,0 -112.03862370000003,33.47576609999999,0 -112.03868120000003,33.47457949999998,0 -112.03870910000002,33.46976639999998,0 -112.03863190000003,33.46912189999998,0 -112.03823940000002,33.46718559999998,0 -112.03821050000002,33.46675419999998,0 -112.03821890000002,33.46520539999999,0 -112.03829670000002,33.46510989999999,0 -112.03830480000002,33.46509339999998,0 -112.03833910000002,33.46482089999998,0 -112.03849680000002,33.46429939999998,0 -112.03855530000003,33.46420759999998,0 -112.03881140000003,33.46365169999998,0 -112.03891550000003,33.46350319999998,0 -112.03904060000002,33.46335439999998,0 -112.03924970000003,33.463161999999976,0 -112.03948880000002,33.462997199999975,0 -112.03974150000002,33.46285819999997,0 -112.03990510000001,33.46278769999997,0 -112.04007020000002,33.46273109999998,0 -112.04038080000002,33.46265089999997,0 -112.04105130000003,33.462567299999975,0 -112.04112960000003,33.46254769999998,0 -112.04125140000004,33.462485999999984,0 -112.04141180000003,33.462481799999985,0 -112.04329060000003,33.46230229999998,0 -112.04417230000003,33.46224929999999,0 -112.04441560000004,33.46217439999999,0 -112.05112360000003,33.46227709999999,0 -112.05229480000003,33.46225549999998,0 -112.05485860000003,33.462110199999984,0 -112.05577580000002,33.46208949999998,0 -112.06090400000002,33.46212329999998,0 -112.06240020000003,33.46218759999998,0 -112.06754770000002,33.46259289999998,0 -112.06833040000002,33.46261939999999,0 -112.06918640000002,33.46258839999998,0 -112.06998380000002,33.46249309999998,0 -112.07060870000002,33.46238839999998,0 -112.07144410000002,33.46221419999998,0 -112.07218680000003,33.46202509999998,0 -112.07274490000003,33.46193339999997,0 -112.07347310000003,33.46185939999997,0 -112.07390230000003,33.46184179999998,0 -112.07802560000003,33.461829199999976,0 -112.07892460000004,33.46175049999997,0 -112.08119060000004,33.461345799999975,0 -112.08223470000004,33.46122829999997,0 -112.08300150000004,33.461186499999975,0 -112.08432840000003,33.46119329999998,0 -112.08495920000004,33.461233299999975,0 -112.09061860000004,33.461834599999975,0 -112.09190710000004,33.46192299999998,0 -112.09315790000005,33.46195469999997,0 -112.10352690000005,33.46190379999997,0 -112.11735960000004,33.46207499999997,0 -112.11751190000004,33.46210779999997,0 -112.12612360000004,33.46223759999997,0 -112.12744480000003,33.46233889999998,0 -112.12849350000003,33.46245939999997,0 -112.13079310000002,33.46282369999997,0 -112.13235420000002,33.46303109999998,0 -112.13326360000002,33.46308799999998,0 -112.13396930000002,33.463101799999976,0 -112.13482490000001,33.46307719999998,0 -112.13591170000002,33.46298499999998,0 -112.13672190000003,33.46288089999998,0 -112.13952000000003,33.46237179999998,0 -112.14055480000003,33.46221689999998,0 -112.14151990000003,33.46212319999998,0 -112.14306260000004,33.46203939999998,0 -112.14567190000004,33.46197679999998,0 -112.14847690000003,33.46200089999998,0 -112.14986670000003,33.46204919999998,0 -112.16677240000003,33.46296479999998,0 -112.18452820000003,33.46310129999998,0 -112.18673800000003,33.46307589999998,0 -112.18718240000004,33.46305279999998,0 -112.19423390000003,33.46296169999997,0 -112.19433310000004,33.46299019999997,0 -112.21980650000005,33.46274969999997,0 -112.22315250000004,33.46282779999997,0 -112.22678820000003,33.46280329999997,0 -112.23150410000004,33.462682699999974,0 -112.23387400000003,33.46256819999997,0 -112.24024500000003,33.46242679999997,0 -112.24377590000003,33.46245179999997,0 -112.24389230000003,33.46246689999997,0 -112.25334350000003,33.46254599999997,0 -112.25521700000003,33.46251569999997,0 -112.26026320000003,33.462274699999966,0 -112.26047870000004,33.46224859999997,0 -112.27073690000003,33.46174659999997,0 -112.29429900000002,33.46136669999997,0 -112.29566060000003,33.46128699999997,0 -112.29701500000003,33.461143899999975,0 -112.29790190000003,33.46102209999998,0 -112.31405720000004,33.45815729999998,0 -112.31493120000003,33.458038899999984,0 -112.31622610000002,33.45791779999998,0 -112.31727750000002,33.457859499999984,0 -112.31819350000002,33.457838999999986,0 -112.36489350000002,33.45812579999998,0 -112.36632010000002,33.458193999999985,0 -112.36766790000003,33.45834689999999,0 -112.36914520000002,33.45861279999998,0 -112.37048830000002,33.45894899999998,0 -112.37626000000003,33.46068059999998,0 -112.37702870000003,33.46086659999998,0 -112.37806340000003,33.461073099999986,0 -112.37893810000003,33.461209199999985,0 -112.37980440000003,33.46130689999998,0 -112.38079030000002,33.46137719999999,0 -112.38156650000002,33.46140219999999,0 -112.40329260000001,33.461528399999985,0 -112.40543470000001,33.461591099999985,0 -112.40555410000002,33.46155909999998,0 -112.41689320000002,33.46223049999998,0 -112.41843300000002,33.46226749999998,0 -112.42047840000002,33.46224749999998,0 -112.43617760000001,33.46168049999998,0 -112.43929600000001,33.46162239999998,0 -112.45770130000001,33.46162649999998,0 -112.4587498,33.46169369999998,0 -112.4595893,33.46178359999998,0 -112.46314980000001,33.46229969999998,0 -112.4642307,33.46241629999999,0 -112.46553520000002,33.462507299999984,0 -112.46899920000001,33.46255329999998,0 -112.46945380000001,33.462538599999974,0 -112.49548430000002,33.46255449999998,0 -112.49778130000001,33.46244319999998,0 -112.49910700000001,33.46232389999998,0 -112.5014287,33.462016999999975,0 -112.50299980000001,33.46172109999998,0 -112.50516630000001,33.46124889999998,0 -112.50640690000002,33.460937799999975,0 -112.50865990000003,33.46028279999998,0 -112.60535240000002,33.429060999999976,0 -112.60707430000002,33.428573799999974,0 -112.60906660000002,33.42810369999998,0 -112.61060030000002,33.42780879999998,0 -112.61303830000001,33.427457099999984,0 -112.61459010000002,33.42730209999998,0 -112.61592790000002,33.427214299999974,0 -112.61602320000001,33.42725409999997,0 -112.61709860000002,33.42726869999997,0 -112.61810080000002,33.42732319999997,0 -112.61864510000001,33.42739489999997,0 -112.61900150000001,33.427474899999964,0 -112.61935730000002,33.42758029999997,0 -112.61982510000001,33.42776469999997,0 -112.62142930000002,33.42857989999997,0 -112.62198800000002,33.42880209999997,0 -112.62245610000002,33.42891899999997,0 -112.62270690000003,33.428955499999965,0 -112.62303750000002,33.42897909999997,0 -112.62337710000003,33.42897519999997,0 -112.62361350000002,33.428957599999976,0 -112.62411500000002,33.428871199999975,0 -112.62454040000001,33.42873869999997,0 -112.62474090000002,33.42865909999997,0 -112.62516390000003,33.42845039999997,0 -112.62557860000004,33.42816609999997,0 -112.62590270000003,33.42786649999997,0 -112.62614350000004,33.42755869999997,0 -112.62633450000004,33.427233099999974,0 -112.62649000000005,33.42681709999998,0 -112.62655570000004,33.426521899999976,0 -112.62657900000004,33.426304699999974,0 -112.62652120000004,33.42276099999998,0 -112.62653190000003,33.42256319999998,0 -112.62648140000003,33.421761699999976,0 -112.62650770000003,33.42167389999997,0 -112.62648380000003,33.41431789999997,0 -112.62654830000004,33.412760999999975,0 -112.62655270000003,33.41160079999997,0 -112.62661270000002,33.41016259999997,0 -112.62669810000003,33.40917479999997,0 -112.62691070000002,33.40749169999997,0 -112.62697940000002,33.40641549999997,0 -112.62697470000002,33.38916829999997,0 -112.62689740000002,33.38750589999997,0 -112.62667070000002,33.38524829999997,0 -112.62656830000002,33.383769199999975,0 -112.62649660000001,33.381766399999975,0 -112.62649600000002,33.38028249999998,0 -112.62659320000002,33.37757129999997,0 -112.6266284,33.37740899999997,0 -112.62669340000001,33.375661099999974,0 -112.62650020000001,33.36797199999997,0 -112.62653800000001,33.36006449999997,0 -112.62649460000002,33.359285799999974,0 -112.62615190000002,33.35569899999997,0 -112.62580790000003,33.353692499999966,0 -112.62564410000002,33.35291279999997,0 -112.62498000000001,33.35029949999997,0 -112.62451570000002,33.34807199999997,0 -112.62403260000002,33.34519619999997,0 -112.62395520000001,33.34451299999997,0 -112.6232118,33.32240679999997,0 -112.62321460000001,33.32190859999997,0 -112.62327370000001,33.32098899999997,0 -112.62335470000002,33.32029299999997,0 -112.62368410000002,33.318629699999974,0 -112.62370110000002,33.31848039999998,0 -112.63871670000002,33.244798699999976,0 -112.6397689,33.24111799999997,0 -112.6403585,33.238581499999974,0 -112.64085330000002,33.23687319999998,0 -112.64154530000002,33.23475029999998,0 -112.64202190000002,33.23292979999998,0 -112.64229820000001,33.23155959999998,0 -112.64253690000001,33.22992769999998,0 -112.64271310000002,33.22783909999998,0 -112.64289780000001,33.22620399999998,0 -112.64304480000001,33.225219899999985,0 -112.64681080000001,33.20658609999998,0 -112.64711690000001,33.20531719999998,0 -112.64733310000001,33.204638599999974,0 -112.65103290000002,33.19456719999998,0 -112.65148720000002,33.192950599999975,0 -112.65167010000002,33.19207839999997,0 -112.65179250000001,33.191312599999975,0 -112.65193500000002,33.18977169999997,0 -112.65195340000002,33.18877779999997,0 -112.65186850000002,33.18712429999997,0 -112.65174720000002,33.18617249999997,0 -112.65104620000002,33.18253209999997,0 -112.65091910000002,33.18165649999997,0 -112.65082480000002,33.18055549999997,0 -112.65073770000002,33.17271559999997,0 -112.65061760000002,33.170839799999975,0 -112.65030160000002,33.16799569999997,0 -112.65028400000001,33.16699229999997,0 -112.65031320000001,33.166329899999965,0 -112.65071160000001,33.16215929999996,0 -112.65079800000001,33.16026579999997,0 -112.65078260000001,33.15894379999997,0 -112.65069590000002,33.15750759999997,0 -112.65044220000001,33.15464249999997,0 -112.65029820000002,33.15122839999997,0 -112.65039740000003,33.13921129999997,0 -112.65055440000002,33.13678209999997,0 -112.65095160000003,33.132942299999975,0 -112.65101800000002,33.13101509999997,0 -112.65096430000001,33.129374299999974,0 -112.65048580000003,33.12420779999997,0 -112.64999000000002,33.11603999999997,0 -112.64983800000002,33.102455399999975,0 -112.64973400000001,33.10080239999997,0 -112.6441168,33.05347279999997,0 -112.6440667,33.05260109999997,0 -112.64404,33.050980099999975,0 -112.6440966,33.04966449999997,0 -112.6442903,33.047759599999964,0 -112.6446816,33.04552289999997,0 -112.6450958,33.04381119999997,0 -112.64522120000001,33.04339199999997,0 -112.64553310000001,33.04205519999997,0 -112.6460222,33.03852609999997,0 -112.6463762,33.03653519999997,0 -112.6466776,33.03510619999997,0 -112.65014120000001,33.02093719999997,0 -112.65065860000001,33.01921099999996,0 -112.6510732,33.01806429999996,0 -112.65158280000001,33.016838599999964,0 -112.669231,32.97933489999996,0 -112.6707346,32.97569949999996,0 -112.67135780000001,32.974338499999966,0 -112.67209840000001,32.972554499999966,0 -112.67265880000001,32.97132579999997,0 -112.67266790000001,32.97127059999997,0 -112.673671,32.96916299999997,0 -112.67443899999999,32.96769409999997,0 -112.6750392,32.966682099999964,0 -112.6762547,32.96485169999997,0 -112.6778794,32.96278209999996,0 -112.67944009999998,32.961076199999965,0 -112.68034299999998,32.960190299999965,0 -112.68134419999998,32.95927299999997,0 -112.68345199999999,32.95755009999996,0 -112.68359099999999,32.95749929999996,0 -112.68459189999999,32.95678239999996,0 -112.68609049999999,32.955798499999965,0 -112.68722399999999,32.95511729999996,0 -112.6880741,32.954641399999964,0 -112.69011609999998,32.95362979999996,0 -112.69094399999997,32.95326259999996,0 -112.69136699999999,32.95310069999996,0 -112.69159179999998,32.953037799999954,0 -112.69162209999999,32.953022599999954,0 -112.69165529999998,32.95299009999996,0 -112.6919676,32.952934499999955,0 -112.69338169999999,32.95260889999995,0 -112.69511119999999,32.95212739999995,0 -112.69630939999999,32.95175399999996,0 -112.69969859999999,32.95057429999995,0 -112.70086259999998,32.95031829999995,0 -112.70092569999998,32.950266999999954,0 -112.70576519999999,32.94929699999995,0 -112.72294749999999,32.94625089999995,0 -112.7239625,32.946043199999956,0 -112.7250287,32.94575589999995,0 -112.72953869999999,32.944386699999946,0 -112.73059619999998,32.94413059999995,0 -112.73172569999998,32.943914399999954,0 -112.7318083,32.94427659999995,0 -112.73187259999999,32.94445119999995,0 -112.7319591,32.94461989999996,0 -112.7321146,32.94482559999996,0 -112.73223089999999,32.94493759999995,0 -112.73241169999999,32.94507289999995,0 -112.73258329999999,32.945171799999954,0 -112.73278679999999,32.94525789999995,0 -112.7330028,32.94531899999995,0 -112.7332747,32.94535739999995,0 -112.73351689999998,32.945358499999955,0 -112.73380189999999,32.945327399999954,0 -112.73409159999999,32.94524269999995,0 -112.73420709999998,32.94519279999995,0 -112.73438919999998,32.94509489999995,0 -112.73454399999997,32.94498509999995,0 -112.73470899999998,32.94483049999995,0 -112.73488059999998,32.94459279999995,0 -112.73492979999997,32.94449769999996,0 -112.73501979999998,32.944225099999954,0 -112.73504559999998,32.943972699999954,0 -112.73502379999998,32.94378049999995,0 -112.7336223,32.93809539999995,0 -112.73346429999998,32.93702949999995,0 -112.7334037,32.93620249999995,0 -112.7334001,32.935110699999946,0 -112.73519029999999,32.91694999999995,0 -112.73528389999998,32.91624599999995,0 -112.7354134,32.915577499999955,0 -112.7356993,32.91442509999996,0 -112.735872,32.913881699999955,0 -112.73622689999999,32.912993499999956,0 -112.73639899999999,32.912625499999955,0 -112.7650809,32.861208499999954,0 -112.7799351,32.835220999999954,0 -112.822699,32.75848579999996,0 -112.8236795,32.75657399999996,0 -112.8432856,32.712722999999954,0 -112.8433146,32.71263339999995,0 -112.8537062,32.689280699999955,0 -112.85411620000002,32.68826989999995,0 -112.85463190000002,32.686805499999956,0 -112.85505330000001,32.68535759999995,0 -112.85532560000001,32.68425139999995,0 -112.87610980000002,32.56783779999995,0 -112.87665260000001,32.565569199999956,0 -112.87836380000003,32.56016839999995,0 -112.87867450000003,32.55893229999995,0 -112.87893560000002,32.557679999999955,0 -112.87979330000003,32.55144259999996,0 -112.87994870000003,32.549514299999956,0 -112.87994830000004,32.53960869999995,0 -112.88113220000004,32.501558199999955,0 -112.88168910000003,32.496922599999955,0 -112.88178060000004,32.49554199999996,0 -112.88178860000005,32.493747599999956,0 -112.88172920000005,32.49262889999996,0 -112.88159460000006,32.49123979999996,0 -112.88137090000005,32.48973699999996,0 -112.88114370000005,32.48858269999996,0 -112.88083690000006,32.48733089999996,0 -112.87338990000005,32.46172019999996,0 -112.87286180000005,32.45967109999996,0 -112.87236620000006,32.45748969999996,0 -112.87169690000005,32.45365779999996,0 -112.87138550000004,32.45121639999996,0 -112.87113200000005,32.44841529999996,0 -112.87101130000005,32.44599679999995,0 -112.87097830000005,32.44383139999995,0 -112.87244600000004,32.375636399999955,0 -112.87242090000005,32.375444199999954,0 -112.87237360000005,32.375301999999955,0 -112.87226540000005,32.37511379999996,0 -112.87212230000004,32.37496909999995,0 -112.87193940000004,32.37484979999996,0 -112.87174290000004,32.37475989999995,0 -112.87167060000004,32.374734699999955,0 -112.87139740000005,32.374673199999954,0 -112.87117830000005,32.37466509999995,0 -112.86375130000005,32.374999699999954,0 -112.86363530000004,32.37498899999995,0 -112.86355240000005,32.374956099999956,0 -112.86350750000004,32.374920699999954,0 -112.86301660000005,32.374249399999954,0 -112.86298750000005,32.37410609999995,0 -112.86291940000005,32.37316789999995,0 -112.86283130000004,32.37290349999995,0 -112.86277490000005,32.372798099999955,0 -112.86266960000005,32.37270399999995,0 -112.86256310000005,32.37263039999995,0 -112.86207420000004,32.37237129999995,0 -112.86076250000004,32.371802699999954,0 -112.86062620000004,32.37176219999995,0 -112.86042310000005,32.37173189999995,0 -112.86021190000004,32.371758299999954,0 -112.85882780000004,32.37227759999995,0 -112.85854180000004,32.37236029999995,0 -112.85834960000004,32.37240179999994,0 -112.85792760000004,32.37243409999994,0 -112.85752480000004,32.37240759999994,0 -112.85722340000004,32.37236209999994,0 -112.85582990000005,32.37207249999994,0 -112.85557240000004,32.37198819999994,0 -112.85530230000005,32.37186269999994,0 -112.85507920000005,32.37172489999994,0 -112.85483560000004,32.371532399999936,0 -112.85467910000006,32.37136889999994,0 -112.85449770000005,32.37111259999994,0 -112.85398080000006,32.37023019999994,0 -112.85386460000007,32.37006479999994,0 -112.85367280000007,32.36986759999994,0 -112.85336480000007,32.36962579999994,0 -112.85311280000006,32.36948709999994,0 -112.85280770000007,32.36936259999994,0 -112.85264540000007,32.36931269999993,0 -112.85238080000008,32.369251699999936,0 -112.84371640000008,32.368058799999936,0 -112.84284090000007,32.367892699999935,0 -112.84214890000007,32.36770089999993,0 -112.84161310000007,32.36751649999994,0 -112.84118250000007,32.36734509999994,0 -112.84062270000007,32.367085299999935,0 -112.84022900000006,32.36687469999994,0 -112.83974100000007,32.366581099999934,0 -112.83896090000007,32.36602519999994,0 -112.83861850000008,32.36573029999994,0 -112.83078650000007,32.35840139999994,0 -112.83031530000007,32.35802349999994,0 -112.82970390000007,32.357609199999935,0 -112.77329660000008,32.32422529999994,0 -112.77301470000008,32.32403689999994,0 -112.77261960000008,32.32374029999994,0 -112.77212550000007,32.32329999999994,0 -112.77189400000007,32.32305689999994,0 -112.77136440000008,32.32239509999994,0 -112.74753920000008,32.28740169999994,0 -112.74709120000007,32.28666929999994,0 -112.74672670000007,32.28592809999994,0 -112.74323210000007,32.278197999999946,0 -112.74320230000006,32.27809419999994,0 -112.74213080000007,32.27570529999994,0 -112.74190430000006,32.27527879999994,0 -112.74181020000006,32.27513429999994,0 -112.73936410000006,32.26968029999994,0 -112.73915170000006,32.26911909999994,0 -112.73907640000006,32.268823199999936,0 -112.73900510000007,32.26833079999994,0 -112.73900110000007,32.267791299999935,0 -112.73901430000006,32.26765549999993,0 -112.73914610000007,32.26708229999993,0 -112.73921700000007,32.26693149999993,0 -112.74017480000008,32.26447779999993,0 -112.74018100000006,32.26440769999993,0 -112.75546330000006,32.225639899999926,0 -112.75587580000007,32.22434209999992,0 -112.75648450000007,32.222164799999916,0 -112.75673740000006,32.221106099999915,0 -112.75715080000006,32.21903359999992,0 -112.75728470000006,32.21819139999992,0 -112.76723860000006,32.13365719999992,0 -112.76726640000005,32.133595699999915,0 -112.76810420000005,32.12665839999992,0 -112.76808790000004,32.126557799999915,0 -112.77100440000005,32.10177259999991,0 -112.77114490000005,32.10096529999991,0 -112.77148050000005,32.099659499999916,0 -112.77175090000006,32.09886679999991,0 -112.80050280000005,32.027562999999915,0 -112.80123110000005,32.025601599999916,0 -112.80270330000005,32.02112609999992,0 -112.80360250000005,32.01789619999992,0 -112.80413980000006,32.01568029999992,0 -112.80485080000005,32.01225629999992,0 -112.80521820000006,32.010172899999915,0 -112.80579690000006,32.00591449999991,0 -112.80597580000007,32.00412319999991,0 -112.80623780000008,32.00013239999991,0 -112.80630670000006,31.997704699999908,0 -112.80630090000007,31.99556899999991,0 -112.80578410000007,31.981969999999908,0 -112.80572260000007,31.97854839999991,0 -112.80585060000006,31.97635019999991,0 -112.80610230000006,31.974277299999912,0 -112.80611670000005,31.973984099999907,0 -112.80610910000006,31.973491699999904,0 -112.80601700000004,31.972704099999902,0 -112.80584510000006,31.971969599999905,0 -112.80564120000005,31.971369999999904,0 -112.80552590000005,31.971098699999903,0 -112.80524840000005,31.9705400999999,0 -112.80181750000006,31.964377199999902,0 -112.80128450000007,31.9632440999999,0 -112.80099500000006,31.9625067999999,0 -112.80073680000007,31.961712599999903,0 -112.80048230000006,31.960688099999903,0 -112.80031020000006,31.959691799999902,0 -112.79975180000007,31.953834899999904,0 -112.80034390000006,31.9538171999999,0 -112.80044980000007,31.9538290999999,0 -112.80056790000005,31.9538569999999,0 -112.80104310000006,31.954056799999897,0 -112.80123360000006,31.954112299999903,0 -112.80145620000006,31.954157299999903,0 -112.80157890000005,31.954167499999897,0 -112.80216720000006,31.954146499999897,0 -112.80253190000006,31.954161099999897,0 -112.80270320000005,31.954179099999898,0 -112.80258890000006,31.9523088999999,0 -112.80318100000005,31.9509907999999,0 -112.80325890000006,31.950690899999902,0 -112.80328440000005,31.9502915999999,0 -112.80324280000006,31.949906399999904,0 -112.80316680000007,31.949575699999905,0 -112.80279860000006,31.948708499999903,0 -112.80269820000007,31.9483364999999,0 -112.80267210000007,31.947964999999904,0 -112.80275830000006,31.9474121999999,0 -112.80293970000007,31.946773999999902,0 -112.80291320000006,31.946464799999898,0 -112.80245930000005,31.944856399999896,0 -112.80244410000005,31.944532099999893,0 -112.80250080000005,31.944207599999896,0 -112.80270270000005,31.943609099999897,0 -112.80286230000006,31.943316899999896,0 -112.80303820000006,31.9430675999999,0 -112.80320250000005,31.9429040999999,0 -112.80343460000006,31.9427119999999,0 -112.80380150000006,31.942540499999904,0 -112.80457200000006,31.942256399999902,0 -112.80493270000007,31.942165499999902,0 -112.80550160000007,31.942068599999907,0 -112.80601100000005,31.942019399999907,0 -112.80638810000006,31.942013099999908,0 -112.80665180000005,31.94202679999991,0 -112.80699530000005,31.94208679999991,0 -112.80760730000006,31.942294399999906,0 -112.80861440000005,31.942725699999905,0 -112.80913500000004,31.942918999999904,0 -112.80946380000005,31.942993299999905,0 -112.80986960000004,31.943036299999903,0 -112.81057130000003,31.942999399999902,0 -112.81164100000004,31.942860499999902,0 -112.81166260000002,31.9427924999999,0 -112.81169960000003,31.9427894999999,0 -112.81175130000003,31.942768699999903,0 -112.81204910000002,31.9425420999999,0 -112.81216260000004,31.942437299999902,0 -112.81238420000003,31.942129099999903,0 -112.81240910000002,31.942075199999902,0 -112.81244450000003,31.9419580999999,0 -112.81250520000003,31.941639299999903,0 -112.81263590000003,31.940480999999902,0 </coordinates></LineString><TimeSpan><begin>2020-11-09T12:51:57.074Z</begin><end>2020-11-09T15:46:57.116Z</end></TimeSpan></Placemark><Placemark><name>Organ Pipe Cactus National Monument</name><address>Ajo, AZ 85321</address><ExtendedData><Data name="Email"><value>syugen.zhou@gmail.com</value></Data><Data name="Category"><value>Nature preserve</value></Data><Data name="Distance"><value>0</value></Data></ExtendedData><description> Nature preserve from 2020-11-09T15:46:57.116Z to 2020-11-09T15:58:59.000Z. Distance 0m </description><Point><coordinates>-112.83204119999999,32.0280019,0</coordinates></Point><TimeSpan><begin>2020-11-09T15:46:57.116Z</begin><end>2020-11-09T15:58:59.000Z</end></TimeSpan></Placemark><Placemark><name>Driving</name><address></address><ExtendedData><Data name="Email"><value>syugen.zhou@gmail.com</value></Data><Data name="Category"><value>Driving</value></Data><Data name="Distance"><value>255055</value></Data></ExtendedData><description> Driving from 2020-11-09T15:58:59.000Z to 2020-11-09T18:59:50.070Z. Distance 255055m </description><LineString><altitudeMode>clampToGround</altitudeMode><extrude>1</extrude><tesselate>1</tesselate><coordinates>-112.8108367,31.9389597,0 -112.8103237,31.9390039,0 -112.8101003,31.939039199999996,0 -112.8093467,31.939234799999998,0 -112.809034,31.9393644,0 -112.8087598,31.9395017,0 -112.8087153,31.939533100000002,0 -112.80868530000001,31.939573199999998,0 -112.8086641,31.939619099999998,0 -112.80865730000001,31.9397001,0 -112.8086724,31.939749100000004,0 -112.8095287,31.941142900000003,0 -112.80990170000001,31.9416894,0 -112.8104311,31.9423948,0 -112.8104778,31.9424409,0 -112.8105668,31.942507100000004,0 -112.8107059,31.942571600000004,0 -112.8108491,31.942596500000004,0 -112.8111858,31.942614600000002,0 -112.81128650000001,31.942638200000005,0 -112.8113168,31.942652700000004,0 -112.81135019999999,31.942682200000007,0 -112.8113716,31.94271820000001,0 -112.8113837,31.942763900000006,0 -112.81139019999999,31.942892900000007,0 -112.81057129999999,31.94299940000001,0 -112.8098696,31.94303630000001,0 -112.8094638,31.942993300000012,0 -112.80913500000001,31.942919000000014,0 -112.80861440000001,31.942725700000015,0 -112.80760730000002,31.942294400000016,0 -112.80699530000001,31.942086800000016,0 -112.80665180000001,31.942026800000015,0 -112.80638810000002,31.94201310000002,0 -112.80601100000003,31.942019400000014,0 -112.80550160000003,31.942068600000013,0 -112.80493270000002,31.942165500000012,0 -112.80457200000004,31.94225640000001,0 -112.80380150000002,31.94254050000001,0 -112.80343460000002,31.942712000000007,0 -112.80320250000003,31.94290410000001,0 -112.80303820000002,31.943067600000006,0 -112.80286230000002,31.943316900000006,0 -112.80270270000001,31.943609100000003,0 -112.80257970000001,31.943942400000005,0 -112.80250080000002,31.944207600000006,0 -112.80244410000002,31.944532100000004,0 -112.80245930000001,31.944856400000006,0 -112.80291320000002,31.946464800000005,0 -112.80293970000002,31.94677400000001,0 -112.80275830000002,31.94741220000001,0 -112.80267210000002,31.94796500000001,0 -112.80269820000002,31.94833650000001,0 -112.80279860000003,31.948708500000013,0 -112.80316680000003,31.949575700000015,0 -112.80324280000002,31.94990640000001,0 -112.80328440000002,31.95029160000001,0 -112.80325890000002,31.95069090000001,0 -112.80318100000001,31.950990800000007,0 -112.80258890000002,31.95230890000001,0 -112.80270320000001,31.954179100000005,0 -112.80253190000002,31.954161100000004,0 -112.80216720000003,31.954146500000007,0 -112.80157890000002,31.954167500000008,0 -112.80145620000002,31.95415730000001,0 -112.80123360000002,31.95411230000001,0 -112.80104310000002,31.954056800000007,0 -112.80056790000002,31.953857000000006,0 -112.80044980000002,31.953829100000007,0 -112.80034390000002,31.95381720000001,0 -112.79975180000002,31.95383490000001,0 -112.80031020000001,31.959691800000012,0 -112.80048230000003,31.960688100000013,0 -112.80073680000002,31.96171260000001,0 -112.80099500000003,31.96250680000001,0 -112.80128450000002,31.96324410000001,0 -112.80181750000001,31.96437720000001,0 -112.80524840000001,31.97054010000001,0 -112.80552590000002,31.97109870000001,0 -112.80564120000001,31.97137000000001,0 -112.80584510000001,31.971969600000016,0 -112.80601700000001,31.972704100000012,0 -112.80610910000001,31.97349170000001,0 -112.80611670000002,31.973984100000017,0 -112.80610230000002,31.97427730000002,0 -112.80585060000003,31.976350200000017,0 -112.80572260000002,31.978548400000015,0 -112.80578410000003,31.981970000000018,0 -112.80630090000002,31.995569000000017,0 -112.80630670000002,31.997704700000018,0 -112.80623780000003,32.00013240000002,0 -112.80597580000003,32.00412320000002,0 -112.80579690000003,32.005914500000024,0 -112.80521820000003,32.01017290000002,0 -112.80485080000003,32.012256300000026,0 -112.80413980000002,32.01568030000003,0 -112.80360250000001,32.01789620000003,0 -112.80270330000002,32.021126100000025,0 -112.80123110000001,32.02560160000003,0 -112.80050280000002,32.02756300000002,0 -112.77175090000001,32.098866800000025,0 -112.77148050000001,32.09965950000002,0 -112.77114490000001,32.10096530000003,0 -112.77100440000001,32.101772600000025,0 -112.76808790000001,32.12655780000002,0 -112.7680488,32.126651600000024,0 -112.76768560000001,32.129803200000026,0 -112.76765739999999,32.12995040000002,0 -112.7672219,32.13359420000002,0 -112.76723859999998,32.13365720000002,0 -112.75728469999999,32.21819140000002,0 -112.75715079999999,32.21903360000002,0 -112.75673739999999,32.22110610000002,0 -112.7564845,32.22216480000002,0 -112.7558758,32.22434210000002,0 -112.7554633,32.225639900000026,0 -112.740181,32.26440770000003,0 -112.7401268,32.264468200000024,0 -112.7396845,32.26552060000002,0 -112.73917329999999,32.26692010000002,0 -112.7391541,32.26705330000002,0 -112.7390143,32.26765550000002,0 -112.7390011,32.26779130000002,0 -112.7390051,32.26833080000002,0 -112.7390764,32.26882320000003,0 -112.7391517,32.269119100000026,0 -112.7393641,32.269680300000026,0 -112.7418102,32.27513430000003,0 -112.7418485,32.27530040000003,0 -112.7431706,32.27810640000003,0 -112.7432321,32.278198000000025,0 -112.7467267,32.28592810000002,0 -112.7470912,32.28666930000002,0 -112.7475392,32.28740170000002,0 -112.77136440000001,32.32239510000002,0 -112.77189400000002,32.32305690000002,0 -112.77212550000002,32.32330000000002,0 -112.77261960000003,32.323740300000026,0 -112.77301470000002,32.324036900000024,0 -112.77329660000001,32.32422530000002,0 -112.82970390000001,32.35760920000002,0 -112.83031530000001,32.358023500000016,0 -112.83078650000002,32.35840140000002,0 -112.83861850000001,32.365730300000024,0 -112.8389609,32.36602520000002,0 -112.839741,32.36658110000002,0 -112.84022900000001,32.36687470000002,0 -112.84062270000001,32.367085300000014,0 -112.84118250000002,32.367345100000016,0 -112.8416131,32.367516500000015,0 -112.8421489,32.36770090000002,0 -112.8428409,32.36789270000002,0 -112.8437164,32.368058800000014,0 -112.8523808,32.369251700000014,0 -112.85264540000001,32.369312700000016,0 -112.8528077,32.36936260000002,0 -112.8531128,32.36948710000002,0 -112.85336480000001,32.36962580000002,0 -112.8536728,32.36986760000002,0 -112.85386460000001,32.37006480000002,0 -112.8539808,32.37023020000002,0 -112.8544977,32.371112600000025,0 -112.85467909999998,32.37136890000002,0 -112.85483559999999,32.37153240000002,0 -112.85507919999998,32.37172490000002,0 -112.85530229999998,32.37186270000002,0 -112.85557239999999,32.371988200000025,0 -112.85582989999997,32.37207250000002,0 -112.85600459999998,32.372117000000024,0 -112.85722339999998,32.37236210000002,0 -112.85752479999998,32.372407600000024,0 -112.85792759999997,32.37243410000003,0 -112.85834959999997,32.37240180000003,0 -112.85854179999998,32.372360300000025,0 -112.85882779999997,32.37227760000003,0 -112.86021189999998,32.37175830000003,0 -112.86042309999998,32.371731900000036,0 -112.86062619999998,32.371762200000035,0 -112.86076249999998,32.37180270000003,0 -112.86207419999998,32.37237130000003,0 -112.86256309999999,32.372630400000034,0 -112.86266959999999,32.372704000000034,0 -112.86277489999999,32.37279810000003,0 -112.86283129999998,32.372903500000035,0 -112.86291939999998,32.373167900000034,0 -112.86296749999998,32.37365660000003,0 -112.86298749999999,32.374106100000034,0 -112.86301659999998,32.37424940000003,0 -112.86350749999998,32.37492070000003,0 -112.86355239999997,32.374956100000034,0 -112.86363529999998,32.374989000000035,0 -112.86375129999998,32.37499970000003,0 -112.87117829999998,32.37466510000004,0 -112.87139739999998,32.37467320000003,0 -112.87167059999997,32.37473470000003,0 -112.87174289999997,32.374759900000036,0 -112.87193939999997,32.374849800000035,0 -112.87212229999997,32.37496910000004,0 -112.87226539999997,32.37511380000004,0 -112.87237359999999,32.37530200000004,0 -112.87242089999998,32.37544420000004,0 -112.87244599999998,32.37563640000003,0 -112.87245389999997,32.37602720000003,0 -112.87097829999998,32.44383140000003,0 -112.87101129999998,32.44599680000003,0 -112.87113199999997,32.448415300000036,0 -112.87138549999997,32.451216400000035,0 -112.87169689999998,32.45365780000003,0 -112.87236619999997,32.45748970000003,0 -112.87286179999998,32.45967110000004,0 -112.87338989999998,32.46172020000004,0 -112.88083689999998,32.48733090000004,0 -112.88114369999998,32.48858270000004,0 -112.88137089999998,32.489737000000034,0 -112.88159459999999,32.49123980000004,0 -112.88172919999998,32.492628900000035,0 -112.88178859999998,32.493747600000034,0 -112.88178059999997,32.495542000000036,0 -112.88168909999996,32.49692260000003,0 -112.88123669999996,32.50048640000003,0 -112.88113219999995,32.501558200000034,0 -112.88104489999996,32.503266900000035,0 -112.87994829999997,32.53960870000003,0 -112.87996819999998,32.54890220000003,0 -112.87994869999997,32.54951430000003,0 -112.87979329999996,32.55144260000003,0 -112.87893559999996,32.557680000000026,0 -112.87867449999996,32.55893230000003,0 -112.87836379999996,32.56016840000003,0 -112.87665259999996,32.56556920000003,0 -112.87610979999995,32.56783780000003,0 -112.85532559999996,32.68425140000003,0 -112.85505329999995,32.685357600000025,0 -112.85463189999994,32.68680550000003,0 -112.85411619999995,32.68826990000003,0 -112.85370619999995,32.689280700000026,0 -112.84331459999994,32.71263340000003,0 -112.84327849999994,32.71266360000003,0 -112.84326359999994,32.712682400000034,0 -112.84245259999994,32.71417340000003,0 -112.84227169999994,32.71442810000003,0 -112.84200479999993,32.715029700000024,0 -112.84192279999992,32.715361700000024,0 -112.84147889999993,32.716631400000026,0 -112.84147769999993,32.716663700000026,0 -112.84149119999992,32.71672460000003,0 -112.82434239999992,32.75516660000003,0 -112.82367949999993,32.75657400000003,0 -112.82269899999993,32.75848580000003,0 -112.77993509999993,32.83522100000003,0 -112.76508089999993,32.86120850000003,0 -112.73639899999992,32.91262550000003,0 -112.73622689999992,32.912993500000034,0 -112.73587199999992,32.91388170000003,0 -112.73569929999992,32.91442510000003,0 -112.73541339999991,32.91557750000003,0 -112.73528389999991,32.91624600000003,0 -112.73519029999991,32.91695000000003,0 -112.73340009999991,32.935110700000024,0 -112.73340369999991,32.93620250000003,0 -112.73346429999991,32.93702950000003,0 -112.73362229999991,32.93809540000003,0 -112.73428599999991,32.94092070000003,0 -112.73502379999991,32.94378050000003,0 -112.7350455999999,32.94397270000003,0 -112.7350356999999,32.94413210000003,0 -112.7350197999999,32.94422510000003,0 -112.7349297999999,32.94449770000003,0 -112.73488059999991,32.94459280000003,0 -112.73470899999991,32.94483050000003,0 -112.7345439999999,32.944985100000025,0 -112.73438919999991,32.94509490000003,0 -112.7342070999999,32.94519280000003,0 -112.7340915999999,32.94524270000003,0 -112.7338018999999,32.94532740000003,0 -112.73351689999991,32.94535850000003,0 -112.73327469999991,32.94535740000003,0 -112.73300279999992,32.945319000000026,0 -112.73278679999991,32.94525790000003,0 -112.73258329999992,32.945171800000026,0 -112.73241169999991,32.94507290000003,0 -112.73223089999992,32.94493760000003,0 -112.73211459999992,32.94482560000003,0 -112.73195909999991,32.944619900000035,0 -112.73187259999992,32.94445120000003,0 -112.73180829999991,32.94427660000003,0 -112.73172569999991,32.943914400000025,0 -112.73059619999991,32.94413060000002,0 -112.7295386999999,32.944386700000024,0 -112.72502869999991,32.94575590000002,0 -112.72396249999991,32.94604320000003,0 -112.7229474999999,32.94625090000003,0 -112.70576519999992,32.94929700000003,0 -112.70092569999991,32.95026700000003,0 -112.70081299999993,32.95022590000003,0 -112.69984789999992,32.95041810000003,0 -112.69931849999993,32.95056690000003,0 -112.69780099999993,32.95109070000003,0 -112.69762779999992,32.95113640000003,0 -112.69554239999992,32.951852900000034,0 -112.69437399999991,32.95220230000003,0 -112.69348049999992,32.952440200000034,0 -112.69246489999992,32.95267610000003,0 -112.6909465999999,32.95297490000003,0 -112.68725519999991,32.95360880000003,0 -112.6869244999999,32.953649800000036,0 -112.6864679999999,32.95366760000003,0 -112.6861802999999,32.95366440000003,0 -112.6857332999999,32.95363250000003,0 -112.6853172999999,32.95355990000003,0 -112.6852969999999,32.95372520000003,0 -112.6845327999999,32.95620160000003,0 -112.6844440999999,32.95644370000003,0 -112.6843771999999,32.95658580000003,0 -112.68430359999991,32.95670920000003,0 -112.68413879999991,32.95693500000003,0 -112.68406469999991,32.957018500000025,0 -112.68382649999991,32.95724140000003,0 -112.68134419999991,32.95927300000003,0 -112.68034299999992,32.96019030000003,0 -112.67944009999992,32.96107620000003,0 -112.67787939999992,32.96278210000003,0 -112.67682089999992,32.964099600000026,0 -112.67625469999993,32.96485170000003,0 -112.67503919999993,32.96668210000003,0 -112.67443899999994,32.96769410000003,0 -112.67367099999994,32.96916300000004,0 -112.67266789999994,32.97127060000003,0 -112.67261559999994,32.97133480000003,0 -112.65161679999996,33.01594330000003,0 -112.65089469999995,33.017585200000035,0 -112.65055049999995,33.01845990000003,0 -112.65008819999996,33.01983690000003,0 -112.64978629999995,33.02090530000003,0 -112.64424759999996,33.04357110000003,0 -112.64419729999995,33.04371930000003,0 -112.64395789999996,33.04483110000003,0 -112.64368429999996,33.04658140000003,0 -112.64353209999996,33.04838230000003,0 -112.64349659999996,33.049277100000026,0 -112.64349859999996,33.05019830000003,0 -112.64359859999996,33.052175400000024,0 -112.64937489999996,33.100780200000024,0 -112.64946459999996,33.101972700000026,0 -112.64964529999996,33.116028800000024,0 -112.65009009999994,33.12420350000002,0 -112.64985219999994,33.16684320000002,0 -112.64987389999995,33.16746430000001,0 -112.65028669999995,33.17102230000001,0 -112.65038599999995,33.17266040000001,0 -112.65046999999996,33.180468200000014,0 -112.65053149999996,33.18134380000001,0 -112.65069099999995,33.18254930000001,0 -112.65130739999995,33.185716100000015,0 -112.65145779999995,33.18665330000001,0 -112.65151899999994,33.18720200000001,0 -112.65158329999994,33.18819120000001,0 -112.65159189999996,33.189389800000015,0 -112.65156509999996,33.19005440000001,0 -112.65146269999995,33.191260600000014,0 -112.65108989999995,33.19310200000001,0 -112.65082539999995,33.194063500000006,0 -112.65043139999995,33.1952325,0 -112.64695669999995,33.2046397,0 -112.64666829999994,33.2056388,0 -112.63954299999995,33.2405673,0 -112.63927239999995,33.241638800000004,0 -112.63899149999996,33.2425919,0 -112.63834739999996,33.2444748,0 -112.63795879999996,33.245747200000004,0 -112.63749169999997,33.2475662,0 -112.62723699999997,33.2978803,0 -112.62720249999997,33.29815,0 -112.62484259999998,33.309661000000006,0 -112.62433789999997,33.3118266,0 -112.62394199999997,33.3133336,0 -112.62378329999997,33.3138327,0 -112.62322119999996,33.3160487,0 -112.62302469999996,33.317056300000004,0 -112.62290549999997,33.317997399999996,0 -112.62287219999997,33.3185032,0 -112.62286039999996,33.3191676,0 -112.62370769999997,33.344398000000005,0 -112.62376479999996,33.3449685,0 -112.62442129999997,33.349248100000004,0 -112.62511079999996,33.3550074,0 -112.62515779999995,33.3557079,0 -112.62513469999996,33.3651575,0 -112.62495029999997,33.36820710000001,0 -112.62482449999996,33.37533520000001,0 -112.62491559999997,33.37665730000001,0 -112.62524999999997,33.379449000000015,0 -112.62532929999996,33.38057180000001,0 -112.62550099999996,33.405904000000014,0 -112.62558149999997,33.40761410000001,0 -112.62567829999998,33.40852190000001,0 -112.62590589999996,33.40991970000001,0 -112.62599059999997,33.410716700000016,0 -112.62605119999996,33.411724000000014,0 -112.62613309999995,33.41549610000001,0 -112.62613219999994,33.42135600000001,0 -112.62608789999994,33.421715700000014,0 -112.62603689999995,33.42194960000001,0 -112.62594769999994,33.42224550000001,0 -112.62581359999993,33.42256670000001,0 -112.62561619999994,33.42292610000001,0 -112.62542699999993,33.42320700000001,0 -112.62524739999994,33.42343190000001,0 -112.62519189999993,33.42346550000001,0 -112.62486249999995,33.423766000000015,0 -112.62250469999994,33.425757200000014,0 -112.62230859999994,33.42589580000001,0 -112.62198709999994,33.42609440000001,0 -112.62165299999995,33.42626830000002,0 -112.62122619999995,33.42644150000002,0 -112.62093279999995,33.42653410000001,0 -112.62046099999995,33.42665630000002,0 -112.61991739999995,33.42673890000002,0 -112.61655899999995,33.426838400000015,0 -112.61645549999994,33.42690750000001,0 -112.61517599999995,33.42697350000001,0 -112.61377969999995,33.42708660000001,0 -112.61269349999995,33.42720540000001,0 -112.61121319999994,33.42741370000001,0 -112.60960299999994,33.42769840000001,0 -112.60745499999994,33.428175500000016,0 -112.60627999999994,33.42848410000001,0 -112.60501299999994,33.42885740000001,0 -112.50618519999995,33.460763600000014,0 -112.50524559999995,33.46103410000001,0 -112.50419869999996,33.46129670000001,0 -112.50406249999996,33.46131410000002,0 -112.50238229999997,33.46165460000001,0 -112.50079509999996,33.46191580000001,0 -112.49955009999996,33.46207620000001,0 -112.49771219999995,33.46225190000001,0 -112.49575519999995,33.462353100000016,0 -112.46870349999995,33.462342700000015,0 -112.46711339999995,33.46237100000002,0 -112.46572229999995,33.46232680000002,0 -112.46467839999995,33.46226250000002,0 -112.46359469999994,33.46216140000002,0 -112.45964999999995,33.46159300000002,0 -112.45842509999996,33.46146730000002,0 -112.45767299999996,33.46142370000002,0 -112.43779019999997,33.46139380000002,0 -112.43755949999996,33.46138010000002,0 -112.43211029999996,33.461389400000016,0 -112.42915659999996,33.461472000000015,0 -112.42912939999997,33.461478800000016,0 -112.41987349999997,33.46182270000002,0 -112.41728909999996,33.46185320000002,0 -112.41387139999996,33.46177920000002,0 -112.40497079999996,33.46127920000002,0 -112.40262709999996,33.46123110000001,0 -112.38105959999996,33.461100600000016,0 -112.38003479999996,33.46103680000002,0 -112.37866969999996,33.46087690000002,0 -112.37739649999996,33.460648800000016,0 -112.37672809999995,33.460497400000015,0 -112.37601469999996,33.460309600000016,0 -112.37011129999996,33.45854360000002,0 -112.36884609999996,33.45825500000002,0 -112.36769559999996,33.458058000000015,0 -112.36665369999996,33.45793540000002,0 -112.36613229999996,33.457892100000024,0 -112.36495829999997,33.45783730000002,0 -112.31796909999997,33.45755490000002,0 -112.31661269999996,33.45761020000002,0 -112.31521849999997,33.45772970000002,0 -112.31406039999997,33.457878800000024,0 -112.29781019999997,33.46075860000003,0 -112.29680629999997,33.460905000000025,0 -112.29608479999997,33.46098310000003,0 -112.29435149999996,33.461087400000025,0 -112.28827129999996,33.46116300000002,0 -112.28812099999996,33.46120670000003,0 -112.27158299999996,33.46145600000003,0 -112.26947319999996,33.461528900000026,0 -112.25873459999995,33.46206910000002,0 -112.25599279999996,33.46214670000002,0 -112.25409199999996,33.46216520000002,0 -112.23980739999996,33.462042500000024,0 -112.23369409999995,33.46216660000002,0 -112.23168419999995,33.46215970000002,0 -112.22376279999995,33.46228360000003,0 -112.22028799999995,33.462425600000024,0 -112.20100189999995,33.46259850000003,0 -112.20025149999995,33.46264300000002,0 -112.18669209999995,33.46273410000003,0 -112.18451449999995,33.462664700000026,0 -112.16544089999995,33.46250560000002,0 -112.15428239999994,33.46187270000003,0 -112.15391769999995,33.46186720000002,0 -112.15033619999994,33.461674200000026,0 -112.14732059999994,33.46158550000002,0 -112.14361329999996,33.46163480000003,0 -112.14203479999996,33.46169830000003,0 -112.14073989999996,33.461799500000026,0 -112.13981119999995,33.46192500000003,0 -112.13722119999996,33.46240560000003,0 -112.13580559999996,33.46261210000003,0 -112.13477329999996,33.46269260000003,0 -112.13398339999996,33.46271330000003,0 -112.13292579999995,33.46268640000003,0 -112.13227289999995,33.46263770000003,0 -112.13110429999995,33.46249050000003,0 -112.12916849999995,33.46216080000003,0 -112.12775329999995,33.46197640000003,0 -112.12644029999994,33.461862300000035,0 -112.12540149999994,33.46181240000003,0 -112.11684389999994,33.46170320000003,0 -112.11662889999994,33.46171550000003,0 -112.11499379999994,33.46169300000003,0 -112.11484699999994,33.461707100000034,0 -112.10296119999994,33.461553400000035,0 -112.09985109999992,33.461560600000034,0 -112.09970879999993,33.46153530000004,0 -112.09276009999994,33.461575900000035,0 -112.09119189999993,33.46150580000003,0 -112.08451799999993,33.46081600000004,0 -112.08398949999992,33.46078350000003,0 -112.08306369999993,33.46077750000004,0 -112.08227049999992,33.46082010000004,0 -112.08134399999992,33.46092430000004,0 -112.07906019999992,33.46134330000004,0 -112.07847299999992,33.46141380000004,0 -112.0779996999999,33.461445400000045,0 -112.07392509999991,33.46147980000004,0 -112.0732910999999,33.46153110000004,0 -112.0727225999999,33.46160270000004,0 -112.06952549999991,33.46216260000004,0 -112.0688675999999,33.46221370000004,0 -112.06769669999991,33.46221980000005,0 -112.06157419999991,33.46175040000005,0 -112.0590742999999,33.46171690000005,0 -112.05891959999991,33.46170140000005,0 -112.05516749999991,33.46170110000005,0 -112.05143539999992,33.46187820000005,0 -112.04742469999992,33.46183680000005,0 -112.04698119999992,33.461854600000045,0 -112.04391529999992,33.461812100000046,0 -112.04380759999992,33.461723200000044,0 -112.04379779999991,33.461719000000045,0 -112.0417765999999,33.46137760000005,0 -112.04160389999991,33.46139160000005,0 -112.04075119999992,33.46129850000004,0 -112.04034849999992,33.46128160000004,0 -112.03982889999992,33.46129190000005,0 -112.03931689999992,33.461333000000046,0 -112.03903399999992,33.461385300000046,0 -112.03876089999991,33.461453400000046,0 -112.03850699999991,33.46153880000005,0 -112.0384603999999,33.46156490000005,0 -112.03829879999991,33.461634700000054,0 -112.03818959999991,33.46169330000005,0 -112.03801179999992,33.46180780000005,0 -112.03779969999992,33.46198470000005,0 -112.03774449999993,33.46204140000006,0 -112.03754079999993,33.46230360000006,0 -112.03740769999993,33.46260640000006,0 -112.03737399999993,33.462780400000064,0 -112.03735869999993,33.46295230000006,0 -112.03737089999993,33.46317440000006,0 -112.03740569999994,33.463336700000056,0 -112.03747079999994,33.46352950000006,0 -112.03752449999993,33.463626100000056,0 -112.03786449999993,33.46452840000005,0 -112.03786509999993,33.464625100000056,0 -112.03789589999992,33.464773400000055,0 -112.03794589999993,33.465211700000054,0 -112.03799969999993,33.46532020000006,0 -112.03798799999993,33.46682830000006,0 -112.03801329999993,33.467199300000054,0 -112.03800899999993,33.46724390000006,0 -112.03843119999992,33.469139700000056,0 -112.03849399999993,33.46974870000005,0 -112.03846299999994,33.474891500000055,0 -112.03819889999993,33.47825370000005,0 -112.03819439999992,33.47884040000005,0 -112.03829649999992,33.48002480000005,0 -112.03842419999992,33.48063430000005,0 -112.03857249999993,33.48116890000005,0 -112.03874289999993,33.481683600000046,0 -112.03890519999993,33.482099300000044,0 -112.03924579999993,33.48283040000005,0 -112.03949359999993,33.483272300000046,0 -112.04037399999993,33.484659700000044,0 -112.04095049999994,33.48563340000005,0 -112.04315329999993,33.48964220000005,0 -112.04329009999994,33.48992440000004,0 -112.04346209999994,33.49034130000004,0 -112.04366419999994,33.490968700000046,0 -112.04379779999994,33.491574800000045,0 -112.04386499999994,33.49208940000005,0 -112.04388559999994,33.49241860000005,0 -112.04388529999994,33.493006800000046,0 -112.04360809999994,33.49835540000005,0 -112.04358739999994,33.50394100000005,0 -112.04360509999994,33.504234400000044,0 -112.04366669999995,33.504674200000046,0 -112.04374799999994,33.50502040000005,0 -112.04417839999994,33.50649730000005,0 -112.04425679999993,33.50695950000005,0 -112.04428169999993,33.50727440000006,0 -112.04426519999993,33.51195680000006,0 -112.04422099999992,33.51308940000005,0 -112.04404449999993,33.51552680000005,0 -112.04404049999992,33.51673900000005,0 -112.04414059999992,33.51860760000005,0 -112.04414439999992,33.51914670000005,0 -112.04408279999991,33.52008000000005,0 -112.04363569999992,33.52399670000005,0 -112.04354909999992,33.525329900000045,0 -112.04351019999991,33.52698980000005,0 -112.04352029999993,33.52957880000005,0 -112.04345949999991,33.53013940000005,0 -112.04334179999991,33.53064030000005,0 -112.04317409999992,33.53111090000005,0 -112.04305879999991,33.53136280000005,0 -112.04288709999992,33.531682000000046,0 -112.04198909999991,33.53312220000005,0 -112.04180179999992,33.533510500000055,0 -112.04161909999992,33.534012000000054,0 -112.04150539999992,33.53446780000005,0 -112.04142219999991,33.53514040000005,0 -112.0414144999999,33.53534040000005,0 -112.04147559999991,33.53792010000005,0 -112.0414120999999,33.53883740000005,0 -112.0413090999999,33.539487300000054,0 -112.04121489999991,33.53989770000005,0 -112.03804099999992,33.550539900000054,0 -112.0378322999999,33.55138200000005,0 -112.03770909999992,33.55227450000005,0 -112.03769319999991,33.55298490000005,0 -112.03810259999992,33.55972270000005,0 -112.03809669999991,33.560068800000046,0 -112.03807019999991,33.56038090000004,0 -112.03803099999992,33.560617800000045,0 -112.03793269999991,33.56099930000004,0 -112.03781879999993,33.56131520000004,0 -112.03773099999992,33.56151420000004,0 -112.03748039999992,33.56196600000004,0 -112.03733199999992,33.56218350000004,0 -112.03708899999992,33.562486000000035,0 -112.03677399999994,33.56281120000004,0 -112.03636129999994,33.56315630000004,0 -112.03601389999993,33.56339580000004,0 -112.03550479999993,33.56368610000004,0 -112.03484219999993,33.564008700000045,0 -112.03456429999994,33.564119300000044,0 -112.03008249999993,33.56630660000005,0 -112.02940409999994,33.56670270000005,0 -112.02890429999994,33.56702520000005,0 -112.02794669999993,33.56772830000005,0 -112.02749539999994,33.56810380000005,0 -112.02689989999993,33.56865190000005,0 -112.02514339999993,33.57045990000005,0 -112.02471799999994,33.57084200000005,0 -112.02435189999994,33.57114010000005,0 -112.02387749999994,33.57148540000006,0 -112.02320539999995,33.571911500000056,0 -112.02243149999995,33.57231840000006,0 -112.02198759999995,33.57252000000006,0 -112.02140049999994,33.572754200000055,0 -112.01705289999994,33.574265600000054,0 -112.01691559999995,33.57433290000005,0 -112.01607889999995,33.57463440000006,0 -112.01539909999995,33.574925400000055,0 -112.01481499999994,33.575215500000056,0 -112.01401589999995,33.57568570000006,0 -112.01346589999994,33.57606900000006,0 -112.01274399999996,33.576657300000065,0 -112.01203379999994,33.57735090000006,0 -112.01163389999994,33.57782090000006,0 -112.01121659999994,33.57838700000006,0 -112.01097269999994,33.57877490000006,0 -112.01084169999994,33.57902050000006,0 -112.01068189999994,33.579092400000064,0 -112.01067469999994,33.57909840000006,0 -112.01044709999995,33.57945200000006,0 -112.01012269999995,33.58004140000006,0 -112.00981699999996,33.58068800000006,0 -112.00964529999996,33.58118110000006,0 -112.00959619999996,33.58126900000006,0 -112.00955869999996,33.58139770000006,0 -112.00948869999996,33.581774300000056,0 -112.00943449999995,33.58187970000006,0 -112.00935199999996,33.58215590000006,0 -112.00929919999996,33.582282600000056,0 -112.00924739999996,33.582341600000056,0 -112.00919689999996,33.58238440000006,0 -112.00909149999997,33.58243430000006,0 -112.00894459999996,33.582471100000056,0 -112.00869159999996,33.58248150000006,0 -112.00847219999996,33.58253950000006,0 -111.99684469999997,33.58272940000006,0 -111.99675879999997,33.582679300000066,0 -111.99623959999997,33.582659700000065,0 -111.99157699999996,33.582674400000066,0 -111.98933719999998,33.582605700000066,0 -111.98729329999998,33.58259860000007,0 -111.98699209999997,33.58260940000007,0 -111.98177549999997,33.58258700000006,0 -111.98019549999997,33.58263240000006,0 -111.97476359999996,33.582612700000055,0 -111.97409719999996,33.58263310000006,0 -111.97321479999995,33.58262820000005,0 -111.97290269999995,33.582685100000056,0 -111.96422699999995,33.58267840000005,0 -111.96385789999997,33.58266300000005,0 -111.96164689999996,33.58265480000005,0 -111.96151959999996,33.58257040000005,0 -111.96057129999996,33.582579100000046,0 -111.96057299999995,33.58600310000005,0 -111.96031759999997,33.58599980000005,0 -111.96031679999997,33.58575010000005,0 -111.96031759999997,33.58599980000005,0 -111.96057299999995,33.58600310000005,0 -111.96056779999995,33.58436580000005,0 </coordinates></LineString><TimeSpan><begin>2020-11-09T15:58:59.000Z</begin><end>2020-11-09T18:59:50.070Z</end></TimeSpan></Placemark><Placemark><name>Orange Tree Resort</name><address>10601 N 56th St, Scottsdale, AZ 85254</address><ExtendedData><Data name="Email"><value>syugen.zhou@gmail.com</value></Data><Data name="Category"><value>Resort hotel</value></Data><Data name="Distance"><value>0</value></Data></ExtendedData><description> Resort hotel from 2020-11-09T18:59:50.070Z to 2020-11-10T02:02:12.213Z. Distance 0m </description><Point><coordinates>-111.9603712,33.5876027,0</coordinates></Point><TimeSpan><begin>2020-11-09T18:59:50.070Z</begin><end>2020-11-10T02:02:12.213Z</end></TimeSpan></Placemark><Placemark><name>Driving</name><address></address><ExtendedData><Data name="Email"><value>syugen.zhou@gmail.com</value></Data><Data name="Category"><value>Driving</value></Data><Data name="Distance"><value>6601</value></Data></ExtendedData><description> Driving from 2020-11-10T02:02:12.213Z to 2020-11-10T02:25:01.000Z. Distance 6601m </description><LineString><altitudeMode>clampToGround</altitudeMode><extrude>1</extrude><tesselate>1</tesselate><coordinates>-111.9605715,33.5850486,0 -111.96056730000001,33.5899001,0 -111.96057130000001,33.5899986,0 -111.9605927,33.5957886,0 -111.960604,33.5963206,0 -111.9606006,33.597164299999996,0 -111.9612295,33.5971724,0 -111.9666106,33.597145999999995,0 -111.966754,33.5971483,0 -111.9688082,33.5971408,0 -111.9692298,33.597156899999995,0 -111.9701134,33.597233599999996,0 -111.97055639999999,33.5972539,0 -111.9710034,33.5972583,0 -111.9741632,33.5972173,0 -111.9742131,33.597256699999996,0 -111.974248,33.5972726,0 -111.9743923,33.5972953,0 -111.9751406,33.597317,0 -111.9752411,33.597323700000004,0 -111.97583050000001,33.5973964,0 -111.97608330000001,33.59743830000001,0 -111.97646030000001,33.597511700000005,0 -111.97683200000002,33.5976015,0 -111.97712150000001,33.597683800000006,0 -111.97806310000001,33.5979887,0 -111.97885220000002,33.59826270000001,0 -111.98049650000003,33.59878030000001,0 -111.98158910000002,33.59915380000001,0 -111.98177120000004,33.599208700000005,0 -111.98210210000003,33.599325300000004,0 -111.98293180000005,33.5995855,0 -111.98351550000004,33.599746200000006,0 -111.98363430000005,33.599766900000006,0 -111.98396550000004,33.59981630000001,0 -111.98393530000004,33.59997340000001,0 -111.98381370000004,33.60050330000001,0 -111.98359100000005,33.600466000000004,0 -111.98343080000004,33.600434400000005,0 -111.98340460000004,33.60090640000001,0 -111.98307910000004,33.60114110000001,0 -111.98306870000003,33.601151300000005,0 -111.98305810000004,33.60116850000001,0 -111.98305280000004,33.6011833,0 -111.98303900000003,33.60133690000001,0 -111.98302930000004,33.6013609,0 -111.98301920000004,33.601375100000006,0 -111.98300380000005,33.601393,0 -111.98298670000004,33.6014067,0 -111.98297130000005,33.6014159,0 -111.98295450000005,33.6014229,0 -111.98292330000004,33.601431,0 -111.98290890000006,33.601432700000004,0 -111.98289450000006,33.6014332,0 -111.98279080000006,33.6014276,0 -111.98287970000005,33.6003102,0 -111.98244680000006,33.6001934,0 -111.98231020000006,33.6001664,0 -111.98219500000005,33.6001515,0 -111.98212490000006,33.600146,0 -111.98194630000005,33.6001427,0 -111.98194890000005,33.600037900000004,0 -111.98195280000004,33.5999932,0 -111.98197640000005,33.5998782,0 -111.98199490000005,33.5998143,0 -111.98220830000004,33.5993601,0 -111.98228210000005,33.5992157,0 -111.98151910000004,33.5989544,0 -111.98139960000005,33.5989215,0 -111.97892410000004,33.5981075,0 -111.97812560000004,33.597862600000006,0 -111.97741790000003,33.597603500000005,0 -111.97698110000003,33.597475200000005,0 -111.97679490000003,33.597429000000005,0 -111.97650750000004,33.597368100000004,0 -111.97611070000005,33.59729170000001,0 -111.97585220000003,33.597261200000005,0 -111.97563140000004,33.597220500000006,0 -111.97517250000004,33.5971758,0 -111.97430900000003,33.59715080000001,0 -111.97426880000003,33.59715250000001,0 -111.97424710000003,33.59715750000001,0 -111.97422350000002,33.597168200000006,0 -111.97416320000002,33.59721730000001,0 -111.97100340000001,33.597258300000014,0 -111.97055640000002,33.59725390000001,0 -111.97011340000003,33.59723360000001,0 -111.96922980000002,33.59715690000001,0 -111.96880820000003,33.59714080000001,0 -111.96675400000002,33.59714830000001,0 -111.96661060000002,33.59714600000001,0 -111.96122950000002,33.597172400000005,0 -111.96060060000002,33.59716430000001,0 -111.96060400000003,33.59632060000001,0 -111.96059270000003,33.59578860000001,0 -111.96057130000003,33.589998600000015,0 -111.96056730000004,33.589900100000015,0 -111.96057300000004,33.58600310000001,0 -111.96031760000004,33.58599980000001,0 -111.96031780000004,33.58615110000001,0 </coordinates></LineString><TimeSpan><begin>2020-11-10T02:02:12.213Z</begin><end>2020-11-10T02:25:01.000Z</end></TimeSpan></Placemark><Placemark><name>Orange Tree Resort</name><address>10601 N 56th St, Scottsdale, AZ 85254</address><ExtendedData><Data name="Email"><value>syugen.zhou@gmail.com</value></Data><Data name="Category"><value>Resort hotel</value></Data><Data name="Distance"><value>0</value></Data></ExtendedData><description> Resort hotel from 2020-11-10T02:25:01.000Z to 2020-11-10T15:12:06.999Z. Distance 0m </description><Point><coordinates>-111.9603712,33.5876027,0</coordinates></Point><TimeSpan><begin>2020-11-10T02:25:01.000Z</begin><end>2020-11-10T15:12:06.999Z</end></TimeSpan></Placemark></Document></kml>
