<?xml version="1.0" encoding="UTF-8"?><kml xmlns="http://www.opengis.net/kml/2.2" xmlns:gx="http://www.google.com/kml/ext/2.2"><Document><name> Location history from 2020-11-14 to 2020-11-14 </name><open>1</open><description></description><StyleMap id="multiTrack"><Pair><key>normal</key><styleUrl>#multiTrack_n</styleUrl></Pair><Pair><key>highlight</key><styleUrl>#multiTrack_h</styleUrl></Pair></StyleMap><Style id="multiTrack_n"><IconStyle><Icon><href>https://earth.google.com/images/kml-icons/track-directional/track-0.png</href></Icon></IconStyle><LineStyle><color>99ffac59</color><width>6</width></LineStyle></Style><Style id="multiTrack_h"><IconStyle><scale>1.2</scale><Icon><href>https://earth.google.com/images/kml-icons/track-directional/track-0.png</href></Icon></IconStyle><LineStyle><color>99ffac59</color><width>8</width></LineStyle></Style><Placemark><name>Country Inn &amp; Suites by Radisson, Flagstaff Downtown, AZ</name><address>224 S Mikes Pike St, Flagstaff, AZ 86001</address><ExtendedData><Data name="Email"><value>syugen.zhou@gmail.com</value></Data><Data name="Category"><value>Hotel</value></Data><Data name="Distance"><value>0</value></Data></ExtendedData><description> Hotel from 2020-11-13T23:07:08.999Z to 2020-11-14T16:52:12.003Z. Distance 0m </description><Point><coordinates>-111.65459369999999,35.1952344,0</coordinates></Point><TimeSpan><begin>2020-11-13T23:07:08.999Z</begin><end>2020-11-14T16:52:12.003Z</end></TimeSpan></Placemark><Placemark><name>Driving</name><address></address><ExtendedData><Data name="Email"><value>syugen.zhou@gmail.com</value></Data><Data name="Category"><value>Driving</value></Data><Data name="Distance"><value>224119</value></Data></ExtendedData><description> Driving from 2020-11-14T16:52:12.003Z to 2020-11-14T19:11:49.402Z. Distance 224119m </description><LineString><altitudeMode>clampToGround</altitudeMode><extrude>1</extrude><tesselate>1</tesselate><coordinates>-111.6547587,35.195540099999995,0 -111.6537284,35.19608309999999,0 -111.65369460000001,35.19576109999999,0 -111.6541114,35.19492769999999,0 -111.65529120000001,35.195311899999986,0 -111.6553538,35.19523429999999,0 -111.65841420000001,35.192872699999995,0 -111.65871230000002,35.1929543,0 -111.65879520000001,35.19296129999999,0 -111.65983420000002,35.192840499999996,0 -111.66059480000001,35.1928384,0 -111.66095200000001,35.1927918,0 -111.66153960000001,35.192641,0 -111.66214100000002,35.19237890000001,0 -111.66649260000003,35.1890366,0 -111.66695610000002,35.188738,0 -111.66738750000003,35.1885242,0 -111.66813240000002,35.18826190000001,0 -111.66886430000002,35.188117000000005,0 -111.66948240000002,35.188051900000005,0 -111.67475740000002,35.187917,0 -111.67488290000003,35.1879496,0 -111.68248290000002,35.1877584,0 -111.68394920000003,35.1878363,0 -111.68541570000002,35.1880338,0 -111.68883910000002,35.188792199999995,0 -111.69509770000002,35.1893129,0 -111.69581660000001,35.189446399999994,0 -111.70801490000001,35.192527,0 -111.70932470000002,35.19279469999999,0 -111.71065730000002,35.19298119999999,0 -111.71228150000002,35.1931082,0 -111.73078730000002,35.192761399999995,0 -111.73133660000002,35.19282569999999,0 -111.73356650000002,35.193471999999986,0 -111.73377370000003,35.19347229999999,0 -111.73580160000003,35.19411009999999,0 -111.73690920000003,35.19458019999999,0 -111.73785260000004,35.19511209999999,0 -111.73991400000004,35.19650749999999,0 -111.74119140000003,35.19723269999999,0 -111.74200480000005,35.197622299999985,0 -111.74324150000004,35.198110599999985,0 -111.74532930000004,35.19870339999999,0 -111.74645650000004,35.19891329999999,0 -111.75177610000004,35.199470199999986,0 -111.75381270000004,35.199845799999984,0 -111.75503630000004,35.200163299999986,0 -111.76552580000005,35.20357989999999,0 -111.76690900000006,35.20425289999999,0 -111.76813710000006,35.205054399999995,0 -111.76944850000005,35.206216999999995,0 -111.77047190000006,35.20748269999999,0 -111.77222320000006,35.210237799999994,0 -111.77305610000005,35.2111787,0 -111.77363070000006,35.21169939999999,0 -111.77419740000005,35.2121186,0 -111.77505620000005,35.212638999999996,0 -111.77667100000006,35.2133432,0 -111.78297340000006,35.215438799999994,0 -111.78400630000006,35.215864999999994,0 -111.78544410000006,35.216566199999995,0 -111.78676410000007,35.2173453,0 -111.78787290000007,35.2181145,0 -111.79067700000007,35.2203363,0 -111.79288380000008,35.221902899999996,0 -111.79463430000008,35.2230149,0 -111.79792840000007,35.224844499999996,0 -111.84030790000008,35.2448821,0 -111.84268600000007,35.245875,0 -111.84487890000007,35.2466732,0 -111.84865970000008,35.2478054,0 -111.85330410000007,35.24881429999999,0 -111.85613690000007,35.24923119999999,0 -111.85843900000008,35.24946549999999,0 -111.86145310000008,35.249634199999996,0 -111.86537330000007,35.249619599999996,0 -111.86953120000008,35.2493141,0 -111.87189810000007,35.2490083,0 -111.88000670000007,35.247512699999994,0 -111.88266900000006,35.2472296,0 -111.88430720000007,35.247211099999994,0 -111.88682050000006,35.24740679999999,0 -111.88917980000005,35.24784439999999,0 -111.89102020000006,35.24837269999999,0 -111.89253020000007,35.24894109999999,0 -111.89741270000007,35.251239399999996,0 -111.89873350000006,35.25173099999999,0 -111.90063080000007,35.25227749999999,0 -111.90244550000007,35.252633599999996,0 -111.90336560000006,35.25275539999999,0 -111.90780270000006,35.25304289999999,0 -111.91003970000006,35.25332629999998,0 -111.91171220000005,35.253650999999984,0 -111.92438590000005,35.256785499999985,0 -111.92699800000005,35.25719009999999,0 -111.92957360000005,35.25730379999999,0 -111.93082120000004,35.25726339999999,0 -111.93264020000005,35.25708899999999,0 -111.93412030000005,35.25684499999999,0 -111.96768070000005,35.2488895,0 -111.96952640000005,35.248530499999994,0 -111.97220590000005,35.24814849999999,0 -111.97608470000004,35.247869599999994,0 -111.97836940000003,35.24785689999999,0 -111.98102020000005,35.24798309999999,0 -111.98263410000004,35.24813569999999,0 -111.98554840000004,35.24855879999999,0 -111.98872890000004,35.249242899999985,0 -111.99160330000004,35.25007779999999,0 -111.99919370000005,35.25271929999999,0 -112.00099190000005,35.25322999999999,0 -112.04680100000004,35.264201499999984,0 -112.04861160000004,35.26455939999998,0 -112.05137650000003,35.26494059999999,0 -112.05467940000004,35.26513109999999,0 -112.05792080000003,35.26504769999999,0 -112.06054400000002,35.26478799999999,0 -112.06226220000002,35.264520899999994,0 -112.06483800000002,35.263968799999994,0 -112.06822450000001,35.26295209999999,0 -112.07004800000001,35.262251799999994,0 -112.07594110000002,35.25963909999999,0 -112.07740500000001,35.25911309999999,0 -112.07945920000002,35.25857299999999,0 -112.08076430000003,35.25833469999999,0 -112.08302690000002,35.258106799999986,0 -112.08463450000004,35.25808239999999,0 -112.09637160000003,35.25860519999999,0 -112.14124970000002,35.25819829999999,0 -112.14324860000002,35.25836629999999,0 -112.14447470000003,35.258553899999995,0 -112.14651210000004,35.259015299999994,0 -112.14773600000002,35.25940069999999,0 -112.15810780000002,35.26320569999999,0 -112.16049720000002,35.26381739999999,0 -112.16311740000002,35.26418569999999,0 -112.16472450000002,35.26426119999999,0 -112.17990750000003,35.264061,0 -112.18155410000001,35.263897,0 -112.18375330000002,35.2634423,0 -112.18526250000001,35.26295759999999,0 -112.18656260000002,35.2624144,0 -112.20297840000002,35.254290399999995,0 -112.20462420000001,35.253339,0 -112.20645200000003,35.2520719,0 -112.21377220000002,35.2463006,0 -112.2147996,35.2453042,0 -112.2155881,35.2444108,0 -112.21815490000002,35.2409374,0 -112.2189572,35.240053599999996,0 -112.21958140000001,35.2394926,0 -112.22095460000001,35.238471399999995,0 -112.22238990000001,35.2376662,0 -112.22832820000002,35.2351077,0 -112.22966150000002,35.2343786,0 -112.23132240000002,35.2332653,0 -112.23229580000002,35.2324824,0 -112.23334210000002,35.231497,0 -112.23458340000002,35.230069,0 -112.23632990000002,35.2275786,0 -112.23714860000001,35.2266875,0 -112.23779420000001,35.226132899999996,0 -112.238403,35.22569969999999,0 -112.23918970000001,35.22523339999999,0 -112.23982240000002,35.22492559999999,0 -112.24073970000002,35.224567099999994,0 -112.24178220000002,35.224272299999996,0 -112.24335040000003,35.224020499999995,0 -112.24452400000001,35.22397499999999,0 -112.24585000000002,35.224066599999986,0 -112.24918210000003,35.22456019999999,0 -112.25020050000002,35.22459109999999,0 -112.25186630000002,35.22444799999999,0 -112.25290520000001,35.22423419999999,0 -112.25558510000002,35.22331359999999,0 -112.25712620000002,35.222919499999996,0 -112.25869510000001,35.2227183,0 -112.26672860000002,35.22225529999999,0 -112.27025720000002,35.22231489999999,0 -112.27173070000002,35.22223559999999,0 -112.27285260000002,35.22207999999999,0 -112.27424700000002,35.22176579999999,0 -112.27503200000001,35.2215236,0 -112.27806110000002,35.2203454,0 -112.27918540000002,35.2199834,0 -112.2802199,35.2197454,0 -112.2812174,35.2195932,0 -112.2826254,35.2195051,0 -112.2842523,35.21958059999999,0 -112.28535169999999,35.219741,0 -112.2862712,35.2199471,0 -112.2911511,35.221520999999996,0 -112.29193029999999,35.221711199999994,0 -112.2932478,35.2219225,0 -112.29440179999999,35.2219976,0 -112.29551849999999,35.2219755,0 -112.29691039999999,35.22181629999999,0 -112.2980628,35.221564099999995,0 -112.30135779999999,35.220502599999996,0 -112.30223219999999,35.220287799999994,0 -112.30398649999998,35.2200205,0 -112.30561689999999,35.21995329999999,0 -112.30747989999999,35.2200874,0 -112.30855419999999,35.220269699999996,0 -112.32096829999999,35.2229807,0 -112.32220269999999,35.223178399999995,0 -112.32394099999998,35.2232937,0 -112.32552429999998,35.2232244,0 -112.33106009999999,35.22234580000001,0 -112.33227009999999,35.222057,0 -112.33372859999999,35.221578300000004,0 -112.33470729999999,35.221169800000006,0 -112.33739069999999,35.219816400000006,0 -112.33814899999999,35.219508100000006,0 -112.33968669999999,35.2190115,0 -112.34076549999999,35.218766300000006,0 -112.34687929999998,35.21773880000001,0 -112.34792869999998,35.2174982,0 -112.34956499999998,35.216988,0 -112.35236599999998,35.2158973,0 -112.35324769999997,35.2156305,0 -112.35502839999997,35.21523380000001,0 -112.35694349999997,35.215010500000005,0 -112.35817619999997,35.214971500000004,0 -112.35938459999997,35.21500940000001,0 -112.36150499999997,35.215271800000004,0 -112.36854989999996,35.2168747,0 -112.37037359999997,35.217131800000004,0 -112.37200559999997,35.217178800000006,0 -112.37299479999997,35.21711620000001,0 -112.37986929999997,35.21629970000001,0 -112.38168069999996,35.21618700000001,0 -112.38897609999997,35.21601290000001,0 -112.39058059999996,35.21616130000001,0 -112.39366239999997,35.21671200000001,0 -112.39481509999996,35.216816,0 -112.39630329999996,35.21682920000001,0 -112.39730239999996,35.21675420000001,0 -112.39890679999996,35.216499600000006,0 -112.39997389999996,35.216234500000006,0 -112.40130039999997,35.2157853,0 -112.40517149999997,35.214236500000005,0 -112.40674889999998,35.21381160000001,0 -112.40867639999998,35.21350990000001,0 -112.41069749999998,35.21344220000001,0 -112.42328709999997,35.21447640000001,0 -112.42829409999997,35.21467470000001,0 -112.43043589999998,35.214898000000005,0 -112.43212659999998,35.21523200000001,0 -112.44213129999997,35.21823070000001,0 -112.44441049999998,35.21882840000001,0 -112.44724639999997,35.219404000000004,0 -112.45119019999997,35.219893400000004,0 -112.45820469999997,35.22022100000001,0 -112.45995209999998,35.220376800000004,0 -112.46244139999997,35.220714300000004,0 -112.46696859999997,35.22156640000001,0 -112.46913679999997,35.22179210000001,0 -112.47087379999998,35.22178930000001,0 -112.47215379999997,35.22168510000001,0 -112.47346839999997,35.221484300000014,0 -112.47456909999997,35.22124070000001,0 -112.47814669999997,35.220208200000016,0 -112.48072239999998,35.219668100000014,0 -112.48362359999997,35.21929830000001,0 -112.48471149999997,35.21922220000001,0 -112.48727899999997,35.219187200000015,0 -112.49077899999997,35.21943740000002,0 -112.49654269999998,35.22041750000001,0 -112.50024339999997,35.22079520000001,0 -112.51009139999996,35.22108940000001,0 -112.54172089999997,35.221174900000015,0 -112.54326009999997,35.221312900000015,0 -112.58767679999997,35.23005410000001,0 -112.59100539999997,35.23060710000001,0 -112.64669649999998,35.23706650000001,0 -112.65155769999998,35.23781540000001,0 -112.65777689999999,35.23909290000001,0 -112.6627359,35.24037480000001,0 -112.6696478,35.24258190000001,0 -112.7123181,35.25825510000001,0 -112.71364,35.25880670000001,0 -112.7164197,35.26014890000001,0 -112.7196798,35.262082700000015,0 -112.7214977,35.26337000000001,0 -112.7229512,35.26452600000001,0 -112.7271358,35.26822570000001,0 -112.7282646,35.26904570000001,0 -112.7298167,35.2699829,0 -112.73101790000001,35.270587600000006,0 -112.733186,35.271446100000006,0 -112.73479090000001,35.27191930000001,0 -112.7374296,35.272424900000004,0 -112.7387045,35.272557600000006,0 -112.7540703,35.2729003,0 -112.75697380000001,35.2731712,0 -112.75935580000001,35.27353370000001,0 -112.76126380000001,35.273914100000006,0 -112.8141975,35.288934700000006,0 -112.81946110000001,35.29077730000001,0 -112.8230061,35.29224670000001,0 -112.82680710000001,35.294034700000005,0 -112.82894130000001,35.29514650000001,0 -112.85832530000002,35.3119257,0 -112.86100000000002,35.313201600000006,0 -112.86274220000001,35.31391300000001,0 -112.86534700000001,35.31481750000001,0 -112.86759160000001,35.315454300000006,0 -112.86994160000002,35.315982500000004,0 -112.90132850000002,35.3218656,0 -112.90606450000003,35.322414200000004,0 -112.91268410000002,35.32291910000001,0 -112.91962030000003,35.323110500000006,0 -112.92770520000003,35.32290110000001,0 -112.93327460000003,35.32248600000001,0 -112.94029420000004,35.32164280000001,0 -112.94502010000004,35.32086840000001,0 -112.95294580000004,35.319179100000014,0 -112.95792750000004,35.317861000000015,0 -112.96494340000002,35.31565190000001,0 -112.99618270000003,35.304710000000014,0 -112.99834760000003,35.30406220000001,0 -113.00228000000004,35.303182000000014,0 -113.00490180000004,35.30280050000001,0 -113.00690770000004,35.302607900000005,0 -113.01395670000004,35.302272900000006,0 -113.01613650000003,35.30196610000001,0 -113.01762380000002,35.30163330000001,0 -113.01927690000002,35.30113490000001,0 -113.02086630000002,35.30051060000001,0 -113.02292700000002,35.29946930000001,0 -113.02411440000003,35.29872400000001,0 -113.02930350000003,35.29490030000001,0 -113.03021620000003,35.29432750000001,0 -113.03099790000002,35.29391660000001,0 -113.03224480000002,35.293392800000014,0 -113.03402650000002,35.29287010000001,0 -113.03505190000003,35.292674300000016,0 -113.03653320000002,35.292519100000014,0 -113.07496480000002,35.29199470000001,0 -113.07921510000003,35.291553600000015,0 -113.08275770000002,35.290880600000015,0 -113.08555610000002,35.290137500000014,0 -113.08829000000001,35.28921920000002,0 -113.09010050000002,35.288495300000015,0 -113.09404850000001,35.28665400000001,0 -113.09490580000002,35.286334900000014,0 -113.0958147,35.28608410000002,0 -113.09673480000001,35.28591410000002,0 -113.09801110000001,35.28580570000002,0 -113.0988502,35.285813200000014,0 -113.09976470000001,35.28588920000002,0 -113.1083263,35.287533500000016,0 -113.11017960000001,35.28774830000002,0 -113.1115211,35.287796200000024,0 -113.11354630000001,35.28771100000002,0 -113.115432,35.28745320000002,0 -113.1165909,35.28720520000002,0 -113.11785280000001,35.28685430000002,0 -113.1190897,35.28641860000002,0 -113.12085060000001,35.28566250000002,0 -113.12244290000002,35.28484510000002,0 -113.12355970000003,35.284163300000024,0 -113.12450360000001,35.283495700000024,0 -113.12562780000002,35.28257230000003,0 -113.12749490000002,35.28077090000002,0 -113.12881810000002,35.279678000000025,0 -113.12984540000001,35.27896020000002,0 -113.13093580000002,35.278299600000025,0 -113.2097808,35.235719100000026,0 -113.2134656,35.23405380000003,0 -113.23512350000001,35.226538500000025,0 -113.2380698,35.22528820000002,0 -113.26463210000001,35.210850200000024,0 -113.2658813,35.21026750000002,0 -113.26687700000001,35.20989060000003,0 -113.26851380000001,35.209415300000025,0 -113.26970110000002,35.209172200000026,0 -113.27194270000003,35.20893210000003,0 -113.27380130000003,35.208934500000026,0 -113.28061670000002,35.209676700000024,0 -113.28231320000003,35.209726700000026,0 -113.28543470000004,35.209578800000024,0 -113.28750000000004,35.20930370000003,0 -113.28892460000003,35.20903320000002,0 -113.29118560000003,35.20844810000003,0 -113.29250310000003,35.20801760000003,0 -113.29426390000003,35.20733200000003,0 -113.29571850000004,35.206653600000024,0 -113.29709160000003,35.20591390000003,0 -113.29919640000001,35.20456370000002,0 -113.30053080000002,35.203532600000024,0 -113.30161360000001,35.202585400000025,0 -113.30288730000002,35.201291000000026,0 -113.30904080000003,35.19427010000003,0 -113.31024040000003,35.19323120000003,0 -113.31181090000003,35.19216490000003,0 -113.31293120000002,35.191559000000034,0 -113.31420690000002,35.190999800000036,0 -113.31504960000001,35.19069490000003,0 -113.31668860000002,35.19023580000003,0 -113.31787930000002,35.190006300000036,0 -113.31943500000001,35.18983380000003,0 -113.32074290000001,35.189790900000034,0 -113.32251750000002,35.18987880000003,0 -113.32352020000002,35.19000290000003,0 -113.32764190000002,35.19073120000003,0 -113.33070400000003,35.19109640000003,0 -113.33436250000003,35.19126340000003,0 -113.39407520000002,35.19074730000003,0 -113.39596510000001,35.19087090000003,0 -113.39845650000001,35.19119520000003,0 -113.4000668,35.19151740000004,0 -113.40255420000001,35.192207400000036,0 -113.40872180000001,35.19459040000004,0 -113.4092789,35.19475700000004,0 -113.410163,35.194937400000036,0 -113.41119,35.195009100000036,0 -113.41187180000001,35.19498260000003,0 -113.41257200000001,35.19489320000003,0 -113.41318510000002,35.19475800000003,0 -113.41418070000002,35.19441450000003,0 -113.41484370000002,35.19408470000003,0 -113.41547290000003,35.193689700000036,0 -113.41903730000003,35.19103830000003,0 -113.42016660000003,35.190393000000036,0 -113.42102970000002,35.190067100000036,0 -113.42167600000003,35.18990290000003,0 -113.42249840000002,35.18978030000003,0 -113.42374970000003,35.18975880000003,0 -113.43540030000003,35.19105650000003,0 -113.43694340000003,35.19109900000003,0 -113.43821640000003,35.19101710000003,0 -113.43977970000003,35.19076750000003,0 -113.44111760000003,35.190420200000034,0 -113.44234990000004,35.18996860000003,0 -113.45015730000003,35.18661830000003,0 -113.45155890000004,35.18611070000003,0 -113.45378910000004,35.18545120000003,0 -113.45668530000003,35.18483370000003,0 -113.45965210000004,35.18447900000003,0 -113.46248290000004,35.18437130000003,0 -113.46562270000004,35.18448270000003,0 -113.46645670000005,35.184455900000025,0 -113.46717030000003,35.184363600000026,0 -113.46798570000004,35.18417000000002,0 -113.46885870000004,35.18384960000003,0 -113.47224930000003,35.18212440000003,0 -113.47476150000004,35.18111740000003,0 -113.47618760000005,35.18066160000003,0 -113.47852430000003,35.18008030000003,0 -113.48436850000003,35.179064900000036,0 -113.48533230000004,35.17897330000004,0 -113.48664540000003,35.17893120000004,0 -113.49303080000003,35.179063700000036,0 -113.49385940000003,35.17896490000004,0 -113.49449280000003,35.17882790000004,0 -113.49509750000003,35.17863470000003,0 -113.49591770000002,35.17828130000004,0 -113.50135390000003,35.17511830000004,0 -113.50225950000004,35.174696800000035,0 -113.50326490000002,35.17439230000003,0 -113.50569090000002,35.17395950000003,0 -113.50628630000003,35.173793200000034,0 -113.50682620000003,35.17358490000003,0 -113.50749420000002,35.17325640000003,0 -113.50945760000003,35.172088800000026,0 -113.51036740000004,35.17170060000003,0 -113.51149010000003,35.171382800000025,0 -113.51227800000002,35.17124700000003,0 -113.51331700000003,35.17117150000003,0 -113.51456940000003,35.17123920000003,0 -113.51709660000003,35.17162060000003,0 -113.51807980000004,35.171675600000036,0 -113.51892340000003,35.171654300000036,0 -113.52036610000003,35.17147020000003,0 -113.52117740000003,35.17128030000003,0 -113.52216340000004,35.17096360000003,0 -113.52290020000004,35.17065470000003,0 -113.52386860000004,35.17013320000002,0 -113.52795690000004,35.167500000000025,0 -113.53155810000004,35.165587700000025,0 -113.53229990000004,35.16509050000002,0 -113.53427640000004,35.163488200000025,0 -113.53514320000004,35.16293960000002,0 -113.53580470000003,35.16260030000003,0 -113.53688380000004,35.162165800000025,0 -113.53833810000005,35.16177950000003,0 -113.54001060000004,35.16158760000003,0 -113.54324950000003,35.16154890000003,0 -113.54473250000004,35.16145030000003,0 -113.54659040000003,35.16118970000003,0 -113.55642870000003,35.15919270000003,0 -113.55771860000003,35.15900520000003,0 -113.55918130000003,35.15888240000003,0 -113.56113060000004,35.15886230000003,0 -113.56287310000003,35.15898280000003,0 -113.56473810000003,35.159268700000034,0 -113.56564210000003,35.15946420000003,0 -113.57068540000003,35.160840300000025,0 -113.57483090000002,35.16170780000003,0 -113.57770800000003,35.16210170000003,0 -113.58176370000002,35.16237660000003,0 -113.58486250000004,35.16237610000003,0 -113.60698990000004,35.16068740000003,0 -113.61403130000004,35.16042330000003,0 -113.64657400000003,35.160318200000034,0 -113.64843920000004,35.16045390000003,0 -113.65040280000004,35.16070940000003,0 -113.65702340000004,35.16204800000003,0 -113.65848610000005,35.16223920000003,0 -113.66139640000004,35.16245990000003,0 -113.66343350000004,35.16248540000003,0 -113.66654270000004,35.162317100000024,0 -113.69405410000003,35.15943180000002,0 -113.69509860000004,35.15938560000002,0 -113.69754420000002,35.159431500000025,0 -113.69932790000003,35.15959310000002,0 -113.70751710000003,35.16086730000003,0 -113.70761210000002,35.16089900000003,0 -113.77456510000002,35.171335900000024,0 -113.77780220000001,35.17203010000002,0 -113.78140170000002,35.17310990000002,0 -113.78396490000002,35.17410070000002,0 -113.82254360000002,35.191328500000026,0 -113.8245158,35.19203810000002,0 -113.8265197,35.19265420000002,0 -113.8296471,35.19342010000002,0 -113.8332388,35.19401480000002,0 -113.8359059,35.19426710000002,0 -113.91369250000001,35.19834290000002,0 -113.91678270000001,35.19866420000002,0 -113.9208546,35.19942620000001,0 -113.9903134,35.216321100000016,0 -113.9931956,35.21689770000002,0 -113.99595820000002,35.21726980000002,0 -113.997854,35.217429500000016,0 -114.0009543,35.217524300000015,0 -114.02254810000001,35.217149800000016,0 -114.02559860000001,35.21724330000002,0 -114.0286795,35.21745420000002,0 -114.0288998,35.21752210000002,0 -114.0332128,35.21802940000002,0 -114.03547180000001,35.21812240000002,0 -114.0360193,35.22319140000002,0 -114.0357876,35.22319340000002,0 -114.03579170000002,35.223326800000024,0 -114.03542730000001,35.22334200000002,0 -114.03538060000001,35.22331730000002,0 -114.0353458,35.22319710000002,0 -114.0350853,35.22319930000002,0 -114.0350631,35.223301200000016,0 -114.0350715,35.22342610000002,0 -114.0334578,35.223422800000016,0 -114.033454,35.22337850000002,0 </coordinates></LineString><TimeSpan><begin>2020-11-14T16:52:12.003Z</begin><end>2020-11-14T19:11:49.402Z</end></TimeSpan></Placemark><Placemark><name>Walmart Supercenter</name><address>3396 Stockton Hill Rd, Kingman, AZ 86409</address><ExtendedData><Data name="Email"><value>syugen.zhou@gmail.com</value></Data><Data name="Category"><value>Department store</value></Data><Data name="Distance"><value>0</value></Data></ExtendedData><description> Department store from 2020-11-14T19:11:49.402Z to 2020-11-14T19:23:00.000Z. Distance 0m </description><Point><coordinates>-114.0328191,35.2225089,0</coordinates></Point><TimeSpan><begin>2020-11-14T19:11:49.402Z</begin><end>2020-11-14T19:23:00.000Z</end></TimeSpan></Placemark><Placemark><name>Moving</name><address></address><ExtendedData><Data name="Email"><value>syugen.zhou@gmail.com</value></Data><Data name="Category"><value>Moving</value></Data><Data name="Distance"><value>0</value></Data></ExtendedData><description> Moving from 2020-11-14T19:23:00.000Z to 2020-11-14T19:26:22.000Z. Distance 0m </description><LineString><altitudeMode>clampToGround</altitudeMode><extrude>1</extrude><tesselate>1</tesselate><coordinates>-114.03281910000001,35.2225089,0 -114.03281910000001,35.2225089,0 -114.03281910000001,35.2225089,0 -114.03281910000001,35.2225089,0 </coordinates></LineString><TimeSpan><begin>2020-11-14T19:23:00.000Z</begin><end>2020-11-14T19:26:22.000Z</end></TimeSpan></Placemark><Placemark><name>Walmart Supercenter</name><address>3396 Stockton Hill Rd, Kingman, AZ 86409</address><ExtendedData><Data name="Email"><value>syugen.zhou@gmail.com</value></Data><Data name="Category"><value>Department store</value></Data><Data name="Distance"><value>0</value></Data></ExtendedData><description> Department store from 2020-11-14T19:26:22.000Z to 2020-11-14T19:35:38.999Z. Distance 0m </description><Point><coordinates>-114.0328191,35.2225089,0</coordinates></Point><TimeSpan><begin>2020-11-14T19:26:22.000Z</begin><end>2020-11-14T19:35:38.999Z</end></TimeSpan></Placemark><Placemark><name>Driving</name><address></address><ExtendedData><Data name="Email"><value>syugen.zhou@gmail.com</value></Data><Data name="Category"><value>Driving</value></Data><Data name="Distance"><value>2770</value></Data></ExtendedData><description> Driving from 2020-11-14T19:35:38.999Z to 2020-11-14T19:40:02.999Z. Distance 2770m </description><LineString><altitudeMode>clampToGround</altitudeMode><extrude>1</extrude><tesselate>1</tesselate><coordinates>-114.0350036,35.2229197,0 -114.0351233,35.2229199,0 -114.03513009999999,35.222985699999995,0 -114.03512209999998,35.2230448,0 -114.03508449999997,35.2232026,0 -114.03506309999997,35.2233012,0 -114.03507649999997,35.2235006,0 -114.03505769999997,35.2235488,0 -114.03501749999997,35.22357950000001,0 -114.03497189999997,35.22359920000001,0 -114.03345639999998,35.22360570000001,0 -114.03345909999997,35.22368240000001,0 -114.03344969999998,35.223719700000004,0 -114.03343099999998,35.2237482,0 -114.03341759999996,35.2237723,0 -114.03339879999996,35.2237931,0 -114.03336319999997,35.2238155,0 -114.03331159999996,35.2238457,0 -114.03321769999997,35.2238818,0 -114.03311309999997,35.22392790000001,0 -114.03300049999996,35.223990300000004,0 -114.03296159999996,35.2240193,0 -114.03292269999996,35.22406480000001,0 -114.03289049999997,35.224116300000006,0 -114.03287709999995,35.2241513,0 -114.03286459999995,35.22418570000001,0 -114.03288509999996,35.2248426,0 -114.03146759999997,35.2248547,0 -114.03078919999997,35.2248469,0 -114.03055429999996,35.224847700000005,0 -114.03030919999996,35.2248469,0 -114.02919899999996,35.224861000000004,0 -114.02753079999997,35.224859900000006,0 -114.02667789999997,35.224881700000005,0 -114.02582159999997,35.22489170000001,0 -114.02474689999997,35.22488500000001,0 -114.02416039999997,35.22488880000001,0 -114.02332069999997,35.224873800000005,0 -114.02245689999998,35.224851900000004,0 -114.02164219999999,35.22485220000001,0 -114.02077489999998,35.2248475,0 -114.02036509999998,35.2248535,0 -114.01993859999999,35.2248545,0 -114.01909039999998,35.2248584,0 -114.01827089999999,35.224854099999995,0 -114.01744109999998,35.22486129999999,0 -114.01657389999998,35.22488419999999,0 -114.01574079999999,35.22489729999999,0 -114.01485759999998,35.22489239999999,0 -114.01401779999998,35.22488099999998,0 -114.01376909999999,35.22486639999999,0 -114.01317549999997,35.22485859999999,0 -114.01233219999997,35.22484939999999,0 -114.01143419999997,35.22485249999998,0 -114.01147709999996,35.22422039999999,0 -114.01149989999998,35.22391249999999,0 -114.01150389999998,35.22372409999999,0 -114.01150389999998,35.2233022,0 -114.01150929999997,35.223081,0 -114.01150259999999,35.2228564,0 -114.01150789999998,35.222327199999995,0 -114.01150069999998,35.220097599999995,0 -114.01150909999998,35.219749799999995,0 -114.01150659999998,35.21932639999999,0 -114.01151729999998,35.219290199999996,0 -114.01154279999999,35.21924859999999,0 -114.01158299999999,35.21917849999999,0 -114.01148499999998,35.219119199999994,0 -114.01141409999997,35.21908529999999,0 -114.01135099999996,35.21906669999999,0 -114.01128799999998,35.21905689999999,0 -114.01125579999997,35.21905249999999,0 -114.01122769999998,35.21905259999999,0 -114.01115119999999,35.21905579999999,0 -114.01102919999998,35.219087499999986,0 -114.01093389999998,35.21912809999999,0 -114.01078639999999,35.21921789999999,0 -114.01045769999999,35.219434599999985,0 -114.0103723,35.219387799999986,0 -114.01034759999999,35.21937699999999,0 -114.01083019999999,35.21892539999999,0 -114.01087919999999,35.21884809999999,0 -114.0108995,35.21879559999999,0 -114.01090429999999,35.21877379999999,0 -114.01090389999999,35.21876309999999,0 -114.01089919999998,35.21875149999999,0 -114.01088949999999,35.21873409999999,0 -114.0108657,35.21871279999999,0 -114.01083019999999,35.218682399999985,0 -114.01046689999998,35.218428399999986,0 -114.01031609999998,35.21834059999998,0 -114.01028259999998,35.21832359999999,0 -114.01024789999997,35.21831659999999,0 -114.01022729999997,35.21831669999998,0 -114.01020779999998,35.218319999999984,0 -114.01013969999997,35.21834719999998,0 -114.01007149999997,35.21838429999998,0 -114.00974479999996,35.218626999999984,0 -114.00978509999997,35.218689599999976,0 -114.00984129999998,35.21872769999998,0 </coordinates></LineString><TimeSpan><begin>2020-11-14T19:35:38.999Z</begin><end>2020-11-14T19:40:02.999Z</end></TimeSpan></Placemark><Placemark><name>Denny's</name><address>3255 E Andy Devine Ave, Kingman, AZ 86401</address><ExtendedData><Data name="Email"><value>syugen.zhou@gmail.com</value></Data><Data name="Category"><value>Diner</value></Data><Data name="Distance"><value>0</value></Data></ExtendedData><description> Diner from 2020-11-14T19:40:02.999Z to 2020-11-14T20:07:18.001Z. Distance 0m </description><Point><coordinates>-114.009785,35.218939999999996,0</coordinates></Point><TimeSpan><begin>2020-11-14T19:40:02.999Z</begin><end>2020-11-14T20:07:18.001Z</end></TimeSpan></Placemark><Placemark><name>Driving</name><address></address><ExtendedData><Data name="Email"><value>syugen.zhou@gmail.com</value></Data><Data name="Category"><value>Driving</value></Data><Data name="Distance"><value>79822</value></Data></ExtendedData><description> Driving from 2020-11-14T20:07:18.001Z to 2020-11-14T21:03:10.000Z. Distance 79822m </description><LineString><altitudeMode>clampToGround</altitudeMode><extrude>1</extrude><tesselate>1</tesselate><coordinates>-114.0096703,35.218817900000005,0 -114.00978509999999,35.218689600000005,0 -114.00971669999998,35.218589900000005,0 -114.00959789999999,35.2184934,0 -114.00985279999999,35.218224600000006,0 -114.00993049999998,35.218203700000004,0 -114.01015749999998,35.2179888,0 -114.01215729999998,35.2192421,0 -114.01249049999998,35.2193357,0 -114.01268429999998,35.2193445,0 -114.01307059999998,35.2192734,0 -114.01335599999999,35.2191264,0 -114.01350959999998,35.2189841,0 -114.01426889999998,35.2179113,0 -114.01476429999998,35.2175787,0 -114.01536989999998,35.217397899999995,0 -114.01704509999999,35.2173154,0 -114.01725589999998,35.2172388,0 -114.0245935,35.217191199999995,0 -114.03069899999998,35.21757829999999,0 -114.03350719999999,35.21756679999999,0 -114.03526109999999,35.2174311,0 -114.03790929999998,35.217032499999995,0 -114.0452967,35.21540579999999,0 -114.0481928,35.21453609999999,0 -114.0513515,35.213323499999994,0 -114.0546966,35.21170109999999,0 -114.0566464,35.21053519999999,0 -114.05842170000001,35.20917399999999,0 -114.0595562,35.20809379999999,0 -114.0653102,35.20170059999999,0 -114.0662391,35.20036259999999,0 -114.06673210000001,35.19921959999999,0 -114.0669706,35.19824349999999,0 -114.06710650000001,35.19593969999999,0 -114.06717200000001,35.195847599999986,0 -114.06784950000001,35.191456899999984,0 -114.06802530000002,35.191257399999984,0 -114.06813670000001,35.19120989999999,0 -114.06840790000001,35.19116329999999,0 -114.06856060000001,35.19117519999999,0 -114.0697004,35.19162079999999,0 -114.07071370000001,35.19226989999999,0 -114.07837510000002,35.19902709999999,0 -114.07960410000001,35.19994979999999,0 -114.07966760000001,35.20006199999999,0 -114.0810821,35.20104229999999,0 -114.0822026,35.20166839999999,0 -114.0849292,35.20257709999999,0 -114.08736390000001,35.20368399999999,0 -114.09706930000002,35.20678379999999,0 -114.09960670000001,35.20780609999999,0 -114.1039932,35.20925259999999,0 -114.11168020000001,35.21239279999999,0 -114.11257590000001,35.21292739999999,0 -114.11401920000002,35.21413429999999,0 -114.1161428,35.21640069999999,0 -114.11692910000001,35.21701039999999,0 -114.11698990000001,35.21709659999999,0 -114.117444,35.21747429999999,0 -114.11993370000002,35.21902079999999,0 -114.12033360000002,35.21945389999999,0 -114.12139180000003,35.22094699999999,0 -114.12186170000003,35.22138919999999,0 -114.12231430000003,35.22167669999999,0 -114.12276870000004,35.221872199999986,0 -114.12338090000004,35.22203229999999,0 -114.12378190000004,35.222082399999984,0 -114.12472220000002,35.22203539999998,0 -114.12545160000003,35.22183869999998,0 -114.12986060000003,35.21997599999998,0 -114.13128280000002,35.219591399999985,0 -114.14137150000003,35.218478099999984,0 -114.14294020000003,35.21846599999998,0 -114.21822340000003,35.22212079999998,0 -114.21843550000003,35.22219619999998,0 -114.36701870000002,35.22934049999998,0 -114.36968860000002,35.229287299999974,0 -114.37144140000002,35.229084199999974,0 -114.37447560000003,35.22840489999998,0 -114.37681030000002,35.22755909999998,0 -114.38521360000003,35.22357489999998,0 -114.38596300000003,35.22311439999998,0 -114.38695480000003,35.22236389999998,0 -114.38927540000002,35.22025819999998,0 -114.39502760000002,35.21629689999998,0 -114.40228380000002,35.20986579999998,0 -114.40288340000002,35.20907669999998,0 -114.40309380000002,35.208624999999984,0 -114.40323700000002,35.208093499999976,0 -114.40357190000003,35.203665799999975,0 -114.40409140000003,35.200088199999975,0 -114.40491120000003,35.19687159999997,0 -114.40513750000002,35.19640649999997,0 -114.40554770000003,35.195842299999974,0 -114.40642060000003,35.195093899999975,0 -114.40712750000003,35.194715699999975,0 -114.40767480000004,35.19450809999998,0 -114.40826530000004,35.19436209999998,0 -114.40916120000003,35.19426719999998,0 -114.41001120000003,35.194309599999976,0 -114.41076720000004,35.194457999999976,0 -114.41143160000003,35.194683399999974,0 -114.41215840000004,35.195047099999975,0 -114.41374210000004,35.19617279999997,0 -114.41472810000003,35.196756199999975,0 -114.42068840000003,35.199406499999974,0 -114.42152500000003,35.199703399999976,0 -114.42210010000002,35.19982489999997,0 -114.42271170000002,35.199880199999974,0 -114.42340640000002,35.19985279999997,0 -114.42398640000002,35.19975529999997,0 -114.42465020000002,35.199553699999974,0 -114.43080440000003,35.19665889999997,0 -114.43200950000002,35.19626119999997,0 -114.43638320000002,35.19540459999997,0 -114.43764820000003,35.19505139999997,0 -114.43921890000003,35.19437979999997,0 -114.45222590000002,35.18664859999997,0 -114.45371990000002,35.18606439999997,0 -114.45526010000003,35.185727699999966,0 -114.45660870000003,35.18564289999997,0 -114.49132800000002,35.185313099999966,0 -114.49576550000003,35.184731599999964,0 -114.49713330000002,35.18474549999997,0 -114.49823030000002,35.18490149999997,0 -114.49908010000001,35.18513169999997,0 -114.50791480000002,35.188262599999966,0 -114.51715400000002,35.19090229999996,0 -114.51884060000002,35.19106929999997,0 -114.52510990000002,35.190914699999965,0 -114.52526630000001,35.19085159999997,0 -114.53438550000001,35.19004979999997,0 -114.53452240000001,35.190087699999964,0 -114.53975830000002,35.18961259999997,0 -114.54116520000002,35.18932009999997,0 -114.54867920000002,35.18688669999997,0 -114.54968650000004,35.186662899999966,0 -114.55512130000002,35.18636269999997,0 -114.55732020000002,35.186111999999966,0 -114.56050240000002,35.18554079999997,0 -114.56144070000002,35.18526309999997,0 -114.56209060000002,35.18492709999997,0 -114.56241160000002,35.18469859999997,0 -114.56304730000002,35.18405069999997,0 -114.56323390000001,35.18376159999997,0 -114.56349920000001,35.183103499999966,0 -114.56348380000001,35.18288359999997,0 -114.56556030000002,35.17607289999997,0 -114.56573860000002,35.17472219999997,0 -114.56580290000002,35.17462029999997,0 -114.56600310000002,35.17218199999997,0 -114.56300650000001,35.17217639999997,0 -114.56124430000001,35.17189269999997,0 -114.56010640000001,35.17158049999997,0 -114.55896090000002,35.17116069999997,0 -114.55641410000001,35.16994519999998,0 -114.55553610000001,35.16938329999998,0 -114.55435330000002,35.16836549999997,0 -114.55431500000002,35.168278299999976,0 -114.55247270000001,35.16645269999997,0 -114.55210120000001,35.16597339999997,0 -114.55173280000001,35.16531209999997,0 -114.54550250000001,35.14893979999997,0 -114.54523070000002,35.14747299999998,0 -114.54522650000001,35.091257299999974,0 -114.54530580000002,35.090586699999974,0 -114.54572770000003,35.089257599999975,0 -114.54597020000003,35.088801699999976,0 -114.54672950000003,35.08776469999998,0 -114.54931120000003,35.08548449999998,0 -114.54973780000003,35.08499459999998,0 -114.55466130000003,35.075450199999985,0 -114.55523490000004,35.07478639999998,0 -114.55565640000005,35.07443899999998,0 -114.56374330000003,35.06952149999998,0 -114.56689300000002,35.068342299999976,0 -114.56787420000002,35.067840599999975,0 -114.56885720000001,35.06711439999998,0 -114.56964140000002,35.06638079999998,0 -114.57031780000003,35.065399499999984,0 -114.57100030000002,35.06406519999998,0 -114.57165210000002,35.06313989999998,0 -114.57292830000003,35.06186909999998,0 -114.57424680000003,35.060963399999984,0 -114.57530990000004,35.06043059999998,0 -114.57708210000004,35.059838599999985,0 -114.57996930000003,35.059308899999984,0 -114.58139360000004,35.05887699999998,0 -114.58233890000004,35.05844289999998,0 -114.58393810000003,35.05747899999998,0 -114.58465650000004,35.057137699999984,0 -114.58552930000003,35.05683029999998,0 -114.58691390000004,35.056532099999984,0 -114.58799820000004,35.05640819999998,0 -114.58927930000004,35.05642539999998,0 -114.58903970000004,35.04788689999997,0 -114.58924020000003,35.047020699999976,0 -114.59105660000004,35.042515699999974,0 -114.59182620000004,35.04141499999997,0 -114.59689950000003,35.03645219999998,0 -114.59743080000004,35.03580459999998,0 -114.59771770000003,35.035325199999974,0 -114.59801050000003,35.03418119999997,0 -114.59808850000003,35.01787949999997,0 -114.60553850000002,35.01767119999997,0 -114.60595390000003,35.017611499999965,0 -114.61031070000004,35.016487299999966,0 -114.61226970000004,35.016137499999964,0 -114.61412840000006,35.01603399999996,0 -114.62026170000004,35.01615369999996,0 -114.62557980000005,35.01523379999996,0 -114.63073610000005,35.01512969999996,0 -114.63153950000006,35.014992499999956,0 -114.63427580000007,35.01427699999996,0 -114.63537370000006,35.014102399999956,0 -114.63472200000007,35.01074929999996,0 -114.63595960000006,35.010534499999956,0 -114.63513430000006,35.00808559999996,0 -114.63404740000006,35.00561109999995,0 </coordinates></LineString><TimeSpan><begin>2020-11-14T20:07:18.001Z</begin><end>2020-11-14T21:03:10.000Z</end></TimeSpan></Placemark><Placemark><name>CA-AZ-NV</name><address>Dropped pin</address><ExtendedData><Data name="Email"><value>syugen.zhou@gmail.com</value></Data><Data name="Category"><value></value></Data><Data name="Distance"><value>0</value></Data></ExtendedData><description>  from 2020-11-14T21:03:10.000Z to 2020-11-14T21:04:30.000Z. Distance 0m </description><Point><coordinates>-114.634841,35.0053354,0</coordinates></Point><TimeSpan><begin>2020-11-14T21:03:10.000Z</begin><end>2020-11-14T21:04:30.000Z</end></TimeSpan></Placemark><Placemark><name>Driving</name><address></address><ExtendedData><Data name="Email"><value>syugen.zhou@gmail.com</value></Data><Data name="Category"><value>Driving</value></Data><Data name="Distance"><value>16474</value></Data></ExtendedData><description> Driving from 2020-11-14T21:04:30.000Z to 2020-11-14T21:23:00.000Z. Distance 16474m </description><LineString><altitudeMode>clampToGround</altitudeMode><extrude>1</extrude><tesselate>1</tesselate><coordinates>-114.63404740000001,35.005611099999996,0 -114.63390490000002,35.0053358,0 -114.63259330000001,35.005628599999994,0 -114.63180210000002,35.0041574,0 -114.63094220000002,35.002656599999995,0 -114.63024270000003,35.0014675,0 -114.62980880000003,35.00066339999999,0 -114.62920280000003,34.99939249999999,0 -114.62864060000003,34.9980317,0 -114.62816170000004,34.996644399999994,0 -114.62776720000004,34.9953917,0 -114.62756740000003,34.994695799999995,0 -114.62730290000005,34.9936167,0 -114.62709780000004,34.99263559999999,0 -114.62692880000004,34.99160069999999,0 -114.62683620000004,34.99094519999999,0 -114.62671150000006,34.989602099999985,0 -114.62665110000006,34.98842459999999,0 -114.62665210000006,34.98754299999999,0 -114.62666370000007,34.98685999999999,0 -114.62670460000008,34.98620539999999,0 -114.62670500000007,34.98594229999999,0 -114.62674240000008,34.98540209999999,0 -114.62682310000008,34.98453599999999,0 -114.62714780000007,34.98240239999999,0 -114.62737000000008,34.98128679999999,0 -114.62758850000009,34.98043869999999,0 -114.62791780000009,34.97931179999999,0 -114.62791000000007,34.979262,0 -114.62790900000007,34.97923839999999,0 -114.62791530000007,34.9792114,0 -114.62800050000007,34.978917499999994,0 -114.62801670000007,34.9786952,0 -114.62801930000006,34.97849079999999,0 -114.62798700000008,34.97811139999999,0 -114.62785500000008,34.97771529999999,0 -114.62762240000009,34.977168099999986,0 -114.6274081000001,34.976608099999986,0 -114.62723690000009,34.97607589999999,0 -114.6270840000001,34.97552879999999,0 -114.6269298000001,34.974859499999994,0 -114.62679660000009,34.97418169999999,0 -114.62670120000007,34.97348139999999,0 -114.62664370000006,34.97267299999999,0 -114.62663450000005,34.97208189999999,0 -114.62663840000005,34.96932549999999,0 -114.62662990000005,34.96866139999999,0 -114.62667170000005,34.968178999999985,0 -114.62667300000004,34.96800769999999,0 -114.62666810000005,34.96788389999999,0 -114.62076500000005,34.96788259999999,0 -114.61559530000005,34.96785709999999,0 -114.60748190000004,34.967860599999995,0 -114.60730960000002,34.967857499999994,0 -114.60193140000004,34.9678347,0 -114.60048930000004,34.96784689999999,0 -114.59916030000005,34.9678894,0 -114.59854800000005,34.9679153,0 -114.59796050000006,34.9679108,0 -114.59794210000005,34.9534372,0 -114.59799900000004,34.9533547,0 -114.59800420000003,34.9523131,0 -114.59798790000004,34.951467,0 -114.59798390000005,34.9514174,0 -114.59798110000006,34.951399099999996,0 -114.59797220000004,34.951361199999994,0 -114.59796570000005,34.9513392,0 -114.59794310000005,34.9512772,0 -114.59794560000005,34.93867770000001,0 -114.59790210000004,34.933672800000004,0 -114.59794120000004,34.9336132,0 -114.59795460000004,34.9326586,0 -114.59794650000003,34.93229470000001,0 -114.59794000000005,34.931554000000006,0 -114.59791650000004,34.93024280000001,0 -114.59787030000004,34.93011040000001,0 -114.59785160000004,34.926662400000005,0 -114.59789230000003,34.92654450000001,0 -114.59790630000003,34.92542170000001,0 -114.59789900000004,34.92420990000001,0 -114.59783920000002,34.92402880000001,0 -114.59781680000002,34.92316940000001,0 -114.59778090000003,34.91070530000001,0 -114.59779240000003,34.91045400000001,0 -114.59777930000004,34.90969500000001,0 -114.59778220000003,34.909506600000014,0 -114.59788240000003,34.90706890000001,0 -114.59788720000003,34.906674400000014,0 -114.59787960000004,34.895328200000016,0 -114.59793420000004,34.89524720000001,0 -114.59793660000004,34.89515820000001,0 -114.59789280000004,34.89423240000001,0 -114.59781680000005,34.89304870000001,0 -114.59777750000005,34.89292770000001,0 -114.59778350000005,34.88083170000001,0 -114.59778040000003,34.88059260000001,0 -114.59778970000005,34.87396460000001,0 -114.59777600000004,34.868976700000005,0 -114.59774980000003,34.86619450000001,0 -114.59827570000003,34.86617330000001,0 </coordinates></LineString><TimeSpan><begin>2020-11-14T21:04:30.000Z</begin><end>2020-11-14T21:23:00.000Z</end></TimeSpan></Placemark><Placemark><name>ARCO</name><address>10001 Harbor Ave, Mohave Valley, AZ 86440</address><ExtendedData><Data name="Email"><value>syugen.zhou@gmail.com</value></Data><Data name="Category"><value>Gas station</value></Data><Data name="Distance"><value>0</value></Data></ExtendedData><description> Gas station from 2020-11-14T21:23:00.000Z to 2020-11-14T21:26:00.000Z. Distance 0m </description><Point><coordinates>-114.59810379999999,34.8658518,0</coordinates></Point><TimeSpan><begin>2020-11-14T21:23:00.000Z</begin><end>2020-11-14T21:26:00.000Z</end></TimeSpan></Placemark><Placemark><name>Driving</name><address></address><ExtendedData><Data name="Email"><value>syugen.zhou@gmail.com</value></Data><Data name="Category"><value>Driving</value></Data><Data name="Distance"><value>329941</value></Data></ExtendedData><description> Driving from 2020-11-14T21:26:00.000Z to 2020-11-15T00:25:49.000Z. Distance 329941m </description><LineString><altitudeMode>clampToGround</altitudeMode><extrude>1</extrude><tesselate>1</tesselate><coordinates>-114.59814650000001,34.8661785,0 -114.5977498,34.8661945,0 -114.59775060000001,34.865390999999995,0 -114.59776740000001,34.8652095,0 -114.5978376,34.8649661,0 -114.59790570000001,34.864821899999995,0 -114.59811060000001,34.8645655,0 -114.59830200000002,34.8643874,0 -114.59860190000002,34.864198599999995,0 -114.60058970000001,34.86336609999999,0 -114.60113450000001,34.863068299999995,0 -114.60174770000002,34.862609299999995,0 -114.60214630000003,34.86225019999999,0 -114.60332070000003,34.86086219999999,0 -114.60352740000005,34.860558399999995,0 -114.60364430000004,34.8603476,0 -114.60373780000005,34.8601294,0 -114.60422970000003,34.858709499999996,0 -114.60437830000005,34.858426200000004,0 -114.60728610000005,34.8543426,0 -114.61003470000004,34.8502351,0 -114.61020360000005,34.8499481,0 -114.61028880000005,34.849753699999994,0 -114.61037910000005,34.849427799999994,0 -114.61040490000005,34.848427799999996,0 -114.62152410000004,34.848507999999995,0 -114.62164300000003,34.8485338,0 -114.62173100000003,34.8485657,0 -114.62184430000003,34.8486354,0 -114.62198240000004,34.8487673,0 -114.62308650000006,34.8506018,0 -114.62317560000004,34.8507221,0 -114.62327070000003,34.8508211,0 -114.62337480000004,34.8509074,0 -114.62359570000005,34.8510474,0 -114.62408760000004,34.8512705,0 -114.62520630000004,34.8516578,0 -114.62559820000004,34.851845999999995,0 -114.62570490000003,34.851921499999996,0 -114.62597690000004,34.8521539,0 -114.62609270000004,34.85227999999999,0 -114.62624590000004,34.852499099999996,0 -114.62631720000003,34.85262769999999,0 -114.62641630000005,34.85288119999999,0 -114.62646990000003,34.853160499999994,0 -114.62678980000003,34.855846299999996,0 -114.62696900000002,34.85582029999999,0 -114.62801170000003,34.855747599999994,0 -114.62826430000001,34.85576219999999,0 -114.62864290000003,34.85583039999999,0 -114.62880290000003,34.85587589999999,0 -114.62895300000002,34.85593559999999,0 -114.62928500000001,34.85610239999999,0 -114.62987210000001,34.856456099999996,0 -114.62997140000003,34.856484099999996,0 -114.63000860000001,34.85648629999999,0 -114.66527200000003,34.88033219999999,0 -114.66633460000001,34.880992099999986,0 -114.66757960000002,34.88169849999999,0 -114.66893630000003,34.88238969999999,0 -114.67048720000003,34.883093999999986,0 -114.67234520000002,34.88383009999999,0 -114.69500900000003,34.891200799999986,0 -114.69606220000004,34.89145629999999,0 -114.69669970000002,34.89157019999999,0 -114.69750670000003,34.89167269999999,0 -114.69812660000005,34.891720699999986,0 -114.69892870000004,34.89174509999998,0 -114.69989500000003,34.89171649999998,0 -114.70069560000003,34.89164799999998,0 -114.70179470000002,34.89147469999998,0 -114.70288770000002,34.89121679999999,0 -114.71866990000002,34.88642859999998,0 -114.72232880000001,34.88545809999998,0 -114.75321280000003,34.878545299999985,0 -114.75398990000002,34.878412799999985,0 -114.75494170000002,34.878295499999986,0 -114.75604110000003,34.87821419999998,0 -114.75732120000002,34.878204299999986,0 -114.75827470000002,34.87825119999998,0 -114.75938490000003,34.87836379999998,0 -114.76095130000003,34.87864039999997,0 -114.76188830000001,34.87887239999998,0 -114.7736031,34.88220399999998,0 -114.77494100000001,34.88252209999998,0 -114.7768097,34.88286189999998,0 -114.77802229999999,34.88301949999998,0 -114.77948729999999,34.883152899999985,0 -114.78122389999999,34.88322399999998,0 -114.78233689999999,34.88321749999998,0 -114.78378269999999,34.88315389999998,0 -114.78553669999998,34.88298919999998,0 -114.78737429999998,34.88270749999998,0 -114.78966449999997,34.88220459999998,0 -114.79042859999996,34.882000599999984,0 -114.82333159999996,34.87169839999998,0 -114.82425109999997,34.87147689999998,0 -114.82964329999996,34.87058409999999,0 -114.83101589999995,34.87027789999999,0 -114.83264359999995,34.86976439999999,0 -114.83537639999996,34.86871509999999,0 -114.83592039999995,34.86853219999998,0 -114.83669619999993,34.868325099999986,0 -114.83763279999994,34.86814899999998,0 -114.83840349999994,34.86805979999998,0 -114.84485329999995,34.86772269999999,0 -114.84546519999996,34.86765659999999,0 -114.84620889999995,34.86753309999999,0 -114.84692209999994,34.86736879999999,0 -114.84736969999994,34.86723999999999,0 -114.84803359999995,34.86701069999999,0 -114.84890259999995,34.866640799999985,0 -114.84956689999996,34.866291199999985,0 -114.85642219999995,34.86216589999999,0 -114.85710319999994,34.86180419999999,0 -114.85806959999994,34.86136829999998,0 -114.85904209999993,34.860991599999984,0 -114.86060629999993,34.860506999999984,0 -114.86155319999993,34.86028379999998,0 -114.86807379999992,34.85913819999998,0 -114.86874159999992,34.85906009999999,0 -114.86958469999992,34.85900919999998,0 -114.87357689999993,34.85890709999998,0 -114.87431589999993,34.85885849999998,0 -114.87579279999991,34.85870049999998,0 -114.87739379999991,34.85842419999999,0 -114.87851279999991,34.85816899999999,0 -114.8801302999999,34.857702899999985,0 -114.8851854999999,34.85596559999999,0 -114.8856934999999,34.85581889999998,0 -114.8868565999999,34.855549299999986,0 -114.8874672999999,34.85544449999998,0 -114.88825579999991,34.85534359999998,0 -114.8893548999999,34.855274399999985,0 -114.8900058999999,34.855266399999984,0 -114.8907872999999,34.855291499999986,0 -114.9196031999999,34.85830889999998,0 -114.92103349999991,34.85834709999998,0 -114.9221525999999,34.85830759999999,0 -114.9230973999999,34.85822619999998,0 -114.9238845999999,34.85812659999999,0 -114.92466069999989,34.85799669999999,0 -114.9258861999999,34.85772619999999,0 -114.9930619999999,34.839012199999985,0 -114.99367959999991,34.83886169999999,0 -115.0251165999999,34.83008999999999,0 -115.02612969999991,34.82986129999999,0 -115.02697779999991,34.829712399999984,0 -115.02793319999991,34.82959349999999,0 -115.0288228999999,34.82952289999998,0 -115.03018689999989,34.82949679999999,0 -115.03087649999989,34.829517899999985,0 -115.04592549999987,34.83070079999998,0 -115.04684919999987,34.830747699999975,0 -115.04805949999987,34.83075179999998,0 -115.04916099999986,34.83068719999998,0 -115.05070899999984,34.83049999999998,0 -115.05651589999985,34.829351199999984,0 -115.05681409999985,34.82927349999998,0 -115.05854669999985,34.82893739999998,0 -115.06134359999984,34.82853559999999,0 -115.20062819999984,34.811282599999984,0 -115.20509679999984,34.810842399999984,0 -115.31597699999985,34.80147539999998,0 -115.31800829999986,34.801382099999984,0 -115.32024539999985,34.801374299999985,0 -115.32217509999985,34.801451499999985,0 -115.32362489999986,34.801561599999985,0 -115.34474599999986,34.80371429999999,0 -115.34905279999987,34.80396939999999,0 -115.35178259999988,34.804045899999984,0 -115.36570409999987,34.80403369999999,0 -115.36681749999987,34.803982799999986,0 -115.36842159999988,34.80385569999999,0 -115.36910369999987,34.80376689999999,0 -115.37106289999988,34.80342379999999,0 -115.37259029999987,34.80308899999999,0 -115.37354389999987,34.80283969999999,0 -115.37455689999987,34.80253389999999,0 -115.38170939999988,34.800099599999996,0 -115.38396449999989,34.79941349999999,0 -115.38659259999989,34.798742499999996,0 -115.40869219999989,34.7941891,0 -115.4100472999999,34.7938128,0 -115.4116810999999,34.7932142,0 -115.4121071999999,34.7930304,0 -115.41334519999991,34.792420500000006,0 -115.41398299999992,34.7920479,0 -115.4176940999999,34.7896356,0 -115.41941799999991,34.788637599999994,0 -115.42065339999989,34.7880037,0 -115.4219366999999,34.7874048,0 -115.42337789999989,34.786803299999995,0 -115.46297419999989,34.7732231,0 -115.46492539999988,34.7724247,0 -115.46618629999989,34.771834500000004,0 -115.4674218999999,34.771199,0 -115.4686264999999,34.7705173,0 -115.48051789999991,34.763235800000004,0 -115.48232519999989,34.7622737,0 -115.4832568999999,34.76183050000001,0 -115.48472389999989,34.761196600000005,0 -115.5554490999999,34.734458200000006,0 -115.55720449999991,34.7338716,0 -115.5585713999999,34.7334851,0 -115.55998099999991,34.7331506,0 -115.5610518999999,34.732938000000004,0 -115.56245399999989,34.7327105,0 -115.56355909999988,34.7325699,0 -115.56504899999987,34.7324391,0 -115.58040669999987,34.731725,0 -115.58317429999988,34.7314567,0 -115.63759959999989,34.7238839,0 -115.63983399999988,34.7237074,0 -115.64156609999989,34.7236592,0 -115.6427376999999,34.7236694,0 -115.6532220999999,34.724045399999994,0 -115.6541617999999,34.7240164,0 -115.65495539999989,34.72395759999999,0 -115.6563566999999,34.723772399999994,0 -115.6608725999999,34.72292029999999,0 -115.6625424999999,34.72268909999999,0 -115.6854433999999,34.72078669999999,0 -115.7388288999999,34.716960799999995,0 -115.7418966999999,34.7168133,0 -115.7449763999999,34.71680599999999,0 -115.7698060999999,34.7173052,0 -115.7720445999999,34.7174888,0 -115.7734250999999,34.717665499999995,0 -115.7834001999999,34.719318799999996,0 -115.78527979999991,34.7195495,0 -115.78747809999992,34.719743199999996,0 -115.79964339999992,34.720344,0 -115.80074129999991,34.720443499999995,0 -115.80232569999991,34.72064009999999,0 -115.80405629999993,34.720931099999994,0 -115.80527139999991,34.72118259999999,0 -115.80649409999992,34.721476599999995,0 -115.80783389999993,34.72184839999999,0 -115.82153329999994,34.72631849999999,0 -115.82270789999994,34.726665399999995,0 -115.82409129999994,34.72702339999999,0 -115.82561319999992,34.727355499999994,0 -115.82687019999993,34.72758509999999,0 -115.86497929999993,34.73357729999999,0 -115.86747649999992,34.73413609999999,0 -115.87229429999992,34.73551309999999,0 -115.87384269999993,34.73589059999999,0 -115.87563219999991,34.73622609999999,0 -115.87703389999992,34.736406399999986,0 -115.87875059999992,34.73655179999999,0 -115.88018129999992,34.73660129999998,0 -115.88229469999992,34.73655809999998,0 -115.8836319999999,34.73645959999998,0 -115.88522779999991,34.73626689999998,0 -115.88704249999991,34.73594829999998,0 -115.88875129999991,34.73554569999999,0 -115.89091289999992,34.73489039999998,0 -115.89682099999992,34.732637299999986,0 -115.89950969999992,34.731735499999985,0 -115.90258789999992,34.73083299999998,0 -115.91090259999993,34.728700799999984,0 -115.91280729999994,34.728292899999985,0 -115.91415129999993,34.728089899999986,0 -115.91607419999993,34.727923299999986,0 -115.91694539999993,34.72788709999998,0 -115.92394359999994,34.72790299999998,0 -115.92798129999994,34.727748699999985,0 -115.93222179999995,34.72735849999999,0 -115.97877869999995,34.721395199999996,0 -115.98051339999995,34.721212599999994,0 -115.98177779999995,34.72113159999999,0 -115.98883659999996,34.720897099999995,0 -115.99009109999996,34.72092619999999,0 -115.99095879999996,34.72100399999999,0 -115.99163129999997,34.72109899999999,0 -115.99263969999997,34.72129689999999,0 -115.99334879999998,34.72147809999999,0 -115.99688659999997,34.72259139999999,0 -115.99741799999998,34.72273609999999,0 -115.99872069999998,34.72300399999999,0 -115.99966739999998,34.7231294,0 -116.00055949999997,34.7231939,0 -116.00149699999997,34.723209999999995,0 -116.00258709999999,34.72315749999999,0 -116.00336139999999,34.72307729999999,0 -116.00411919999998,34.72296059999999,0 -116.00513729999999,34.722745599999996,0 -116.0060118,34.72250209999999,0 -116.00662419999999,34.7222978,0 -116.01616169999998,34.7187318,0 -116.01719459999997,34.7183986,0 -116.01859529999997,34.7180469,0 -116.01966209999996,34.7178513,0 -116.02023689999996,34.717771,0 -116.02176469999995,34.7176387,0 -116.02256599999996,34.7176161,0 -116.02420859999994,34.717670500000004,0 -116.02537389999993,34.717784800000004,0 -116.02791899999995,34.7181514,0 -116.02937649999994,34.71829040000001,0 -116.03000079999994,34.71831180000001,0 -116.03112309999995,34.718300000000006,0 -116.03220669999993,34.718227600000006,0 -116.03324939999995,34.7181027,0 -116.03398469999995,34.7179788,0 -116.03523039999995,34.7177044,0 -116.04078889999995,34.716319600000006,0 -116.04214929999995,34.716096400000005,0 -116.04310469999996,34.715994900000005,0 -116.04423589999995,34.715933,0 -116.04522789999994,34.715934100000005,0 -116.04666829999995,34.716011900000005,0 -116.04772759999996,34.71614180000001,0 -116.04832839999995,34.71625180000001,0 -116.04969159999995,34.71655700000001,0 -116.06163879999995,34.71989200000001,0 -116.06345469999997,34.72046400000001,0 -116.06475819999996,34.720936300000005,0 -116.06589779999997,34.72139490000001,0 -116.07631559999997,34.72612970000001,0 -116.07704319999999,34.7264288,0 -116.07790519999999,34.7267429,0 -116.07851019999998,34.72693340000001,0 -116.07955139999997,34.727206,0 -116.08077879999999,34.727455400000004,0 -116.08187549999998,34.72761010000001,0 -116.08375789999998,34.72774150000001,0 -116.08456989999999,34.72774840000001,0 -116.14158899999997,34.726617100000006,0 -116.19572089999998,34.72418090000001,0 -116.19690189999996,34.72418030000001,0 -116.24103789999995,34.72654640000001,0 -116.24285069999995,34.726687200000015,0 -116.27320059999997,34.730227100000015,0 -116.27479559999996,34.730453300000015,0 -116.27692649999996,34.73086040000001,0 -116.30813929999995,34.73799810000001,0 -116.30931669999994,34.73830520000001,0 -116.31129669999993,34.73891800000001,0 -116.31286239999993,34.73947860000001,0 -116.3138527999999,34.73988170000001,0 -116.3155058999999,34.74062920000001,0 -116.3356422999999,34.75095150000001,0 -116.33719489999989,34.75184480000001,0 -116.3390910999999,34.753105600000005,0 -116.3616318999999,34.7698509,0 -116.36261899999991,34.7704808,0 -116.3631543999999,34.7707898,0 -116.3641878999999,34.7713301,0 -116.36509309999992,34.7717467,0 -116.3661638999999,34.7721788,0 -116.3672061999999,34.772537899999996,0 -116.36845129999992,34.772898600000005,0 -116.4160834999999,34.7837954,0 -116.41855129999989,34.7842658,0 -116.4194124999999,34.7843894,0 -116.48529729999987,34.79196220000001,0 -116.48679449999989,34.79222060000001,0 -116.4877139999999,34.7924434,0 -116.5098555999999,34.798488000000006,0 -116.51064049999991,34.79866640000001,0 -116.6720799999999,34.82758020000001,0 -116.68884629999991,34.82968200000001,0 -116.7588129999999,34.835719900000015,0 -116.85540789999989,34.84800060000001,0 -116.9520006999999,34.86798350000001,0 -116.9529325999999,34.86823980000001,0 -116.9541694999999,34.86866520000001,0 -116.9550185999999,34.86902180000001,0 -116.9557185999999,34.86935140000001,0 -116.9566565999999,34.869860500000016,0 -116.9575552999999,34.870418000000015,0 -116.95817349999989,34.870852800000016,0 -116.9699785999999,34.87982150000001,0 -116.9704899999999,34.88014910000001,0 -116.9711520999999,34.880527700000016,0 -116.9718354999999,34.88087220000001,0 -116.9727478999999,34.881266300000014,0 -116.97392899999991,34.88167390000001,0 -116.98877049999992,34.88553650000001,0 -116.9917591999999,34.8862426,0 -116.9934785999999,34.8865325,0 -116.9944159999999,34.886648900000004,0 -116.9957087999999,34.8867648,0 -116.99666089999991,34.886816,0 -117.0026224999999,34.8868841,0 -117.0031857999999,34.886914000000004,0 -117.0055398999999,34.8871459,0 -117.0060819999999,34.887173000000004,0 -117.0072375999999,34.887169300000004,0 -117.0077403999999,34.8871277,0 -117.00869569999992,34.8869756,0 -117.00920799999992,34.8868675,0 -117.0111431999999,34.8863541,0 -117.01172759999992,34.8862552,0 -117.01294379999992,34.8861612,0 -117.01304739999992,34.8860896,0 -117.01436199999992,34.886056499999995,0 -117.04435659999993,34.8862824,0 -117.04540679999992,34.8862613,0 -117.04764939999993,34.8861253,0 -117.04944839999992,34.885905,0 -117.05878189999991,34.8844076,0 -117.05937029999991,34.8842855,0 -117.06038509999992,34.8840057,0 -117.06072929999992,34.883886000000004,0 -117.06135129999991,34.8836196,0 -117.0621202999999,34.8832357,0 -117.06292709999988,34.8827477,0 -117.0635439999999,34.882310100000005,0 -117.0713898999999,34.8754355,0 -117.0714439999999,34.8753668,0 -117.07890869999991,34.868763300000005,0 -117.07949799999992,34.8681726,0 -117.0800537999999,34.8675416,0 -117.0806057999999,34.8668242,0 -117.0810828999999,34.8661086,0 -117.0815257999999,34.865351600000004,0 -117.0818798999999,34.86463990000001,0 -117.0822127999999,34.8638429,0 -117.08243089999989,34.8631996,0 -117.0860061999999,34.8507184,0 -117.0860619999999,34.8505881,0 -117.09692159999989,34.8124777,0 -117.0971725999999,34.8117084,0 -117.0977110999999,34.8104593,0 -117.0982712999999,34.809459499999996,0 -117.09886099999989,34.808582799999996,0 -117.09949189999989,34.8077839,0 -117.09985709999988,34.8073753,0 -117.10057039999987,34.8066537,0 -117.10123019999986,34.806068100000005,0 -117.16552859999987,34.7542027,0 -117.16645719999987,34.7533449,0 -117.16766599999987,34.7521185,0 -117.19242629999988,34.7248754,0 -117.19377909999989,34.7231311,0 -117.1943492999999,34.722320100000005,0 -117.19553489999988,34.720396799999996,0 -117.21194409999988,34.6895496,0 -117.21252519999989,34.688265900000005,0 -117.21286969999989,34.6872622,0 -117.2131819999999,34.685746,0 -117.21327339999989,34.6849489,0 -117.2133037999999,34.6838822,0 -117.2132297999999,34.682724300000004,0 -117.21310999999989,34.6819249,0 -117.21295599999989,34.6812215,0 -117.2104775999999,34.6726037,0 -117.2102829999999,34.6717934,0 -117.21017269999992,34.6711603,0 -117.2100993999999,34.670516400000004,0 -117.2100584999999,34.6697099,0 -117.2100641999999,34.6688634,0 -117.21011699999991,34.668248,0 -117.2103078999999,34.667134499999996,0 -117.21050539999992,34.6663743,0 -117.21591469999993,34.6486314,0 -117.21657829999991,34.646963,0 -117.21689809999991,34.646319899999995,0 -117.2176583999999,34.64501719999999,0 -117.2181111999999,34.644341999999995,0 -117.2292686999999,34.6295709,0 -117.26109499999991,34.5893362,0 -117.26249559999991,34.5876575,0 -117.2844863999999,34.563216499999996,0 -117.28515209999989,34.562390099999995,0 -117.28571979999988,34.561551699999995,0 -117.28628749999987,34.5606086,0 -117.29016769999987,34.553085599999996,0 -117.29060499999986,34.5523963,0 -117.29106379999986,34.551812299999995,0 -117.29178369999987,34.5510787,0 -117.29237469999987,34.550584,0 -117.29309009999986,34.5500879,0 -117.30842959999987,34.54076920000001,0 -117.30914259999986,34.540253400000005,0 -117.30951819999986,34.5399307,0 -117.31010699999985,34.5393533,0 -117.31074249999985,34.5386083,0 -117.31101809999986,34.5382249,0 -117.31145879999985,34.5375074,0 -117.31821939999985,34.5244711,0 -117.31893939999985,34.5228461,0 -117.31929699999985,34.521652,0 -117.32048629999983,34.5171537,0 -117.32054709999983,34.5170187,0 -117.32330339999983,34.506451000000006,0 -117.32337739999984,34.506305100000006,0 -117.32366199999983,34.5051544,0 -117.32418559999982,34.503692599999994,0 -117.32452819999982,34.50297019999999,0 -117.32489139999981,34.502322099999994,0 -117.33557179999983,34.48526259999999,0 -117.33565759999982,34.48509979999999,0 -117.33877729999982,34.48016289999999,0 -117.33915819999983,34.479618499999994,0 -117.40503739999983,34.39540859999999,0 -117.40550049999983,34.394874399999985,0 -117.40737299999984,34.39295539999999,0 -117.40814389999984,34.39210229999999,0 -117.42244349999983,34.37443239999999,0 -117.43146319999983,34.36452729999999,0 -117.43183579999983,34.36415339999999,0 -117.43484149999985,34.3608603,0 -117.43582239999984,34.3596921,0 -117.43675809999982,34.3584903,0 -117.43947149999983,34.354756599999995,0 -117.44010029999983,34.354000899999996,0 -117.44083249999981,34.3532635,0 -117.44170969999982,34.352529600000004,0 -117.44266799999981,34.3518666,0 -117.44318559999981,34.3515575,0 -117.44531269999982,34.3504026,0 -117.44606689999982,34.3499288,0 -117.44664779999982,34.349494899999996,0 -117.44718689999982,34.3490231,0 -117.4489749999998,34.3473226,0 -117.4495374999998,34.34687219999999,0 -117.4504183999998,34.346291699999995,0 -117.45093939999981,34.3460051,0 -117.45149069999982,34.3457429,0 -117.45207069999982,34.34550709999999,0 -117.4526523999998,34.34530949999999,0 -117.45326799999981,34.34513659999999,0 -117.4573057999998,34.34424349999999,0 -117.4584902999998,34.34406749999999,0 -117.4589248999998,34.34402839999999,0 -117.45974029999981,34.343994599999995,0 -117.46020389999981,34.343998299999996,0 -117.4611999999998,34.34409699999999,0 -117.46247199999979,34.34435219999999,0 -117.4628626999998,34.34446079999999,0 -117.4635774999998,34.3447013,0 -117.4646683999998,34.3451689,0 -117.46719659999978,34.346596899999994,0 -117.46772469999979,34.346859499999994,0 -117.46846839999978,34.3471626,0 -117.46903959999977,34.3473549,0 -117.46971169999978,34.347540499999994,0 -117.47087469999977,34.3477603,0 -117.47152309999979,34.3478383,0 -117.47216299999977,34.3478804,0 -117.47279909999976,34.3478827,0 -117.47399729999977,34.3478057,0 -117.47479329999976,34.3476782,0 -117.47539389999974,34.3475453,0 -117.47649419999973,34.347215,0 -117.47738789999974,34.3468483,0 -117.47813219999975,34.346472199999994,0 -117.47866379999975,34.3461548,0 -117.47944349999976,34.345592,0 -117.47995169999976,34.345166,0 -117.48083299999975,34.3442579,0 -117.48105249999975,34.3439792,0 -117.48162049999975,34.3431142,0 -117.48193139999977,34.342504600000005,0 -117.48211189999975,34.342074000000004,0 -117.48234919999973,34.3413413,0 -117.48244639999973,34.340887300000006,0 -117.48254949999973,34.3401526,0 -117.48257029999975,34.339600000000004,0 -117.48239259999974,34.3241772,0 -117.48227309999974,34.3231081,0 -117.48211169999975,34.3221988,0 -117.48184199999974,34.3210938,0 -117.48162909999974,34.3204256,0 -117.48130099999975,34.3195614,0 -117.48068039999976,34.3182112,0 -117.48009439999974,34.3171762,0 -117.47947499999975,34.316240699999994,0 -117.47886529999975,34.31543069999999,0 -117.47776449999974,34.31418579999999,0 -117.47728689999975,34.31369469999999,0 -117.47656389999975,34.31303819999999,0 -117.46865399999973,34.30639459999999,0 -117.46797379999975,34.30590859999999,0 -117.46754729999975,34.305640899999986,0 -117.46662699999976,34.30515699999999,0 -117.46587469999977,34.304841299999985,0 -117.46482989999978,34.30448469999998,0 -117.46454729999978,34.30436539999999,0 -117.46386049999978,34.30412699999999,0 -117.46289359999977,34.303708599999986,0 -117.46211939999976,34.303291499999986,0 -117.46138409999976,34.302805099999986,0 -117.46105839999977,34.30255649999999,0 -117.46039069999976,34.30198319999998,0 -117.45979969999978,34.30134559999998,0 -117.45367759999976,34.29363399999998,0 -117.45302179999976,34.29257219999999,0 -117.45257469999976,34.29165639999999,0 -117.45230299999976,34.29091839999999,0 -117.45216719999976,34.29045569999999,0 -117.45198379999975,34.289634599999985,0 -117.45187879999975,34.28864089999999,0 -117.45186439999975,34.288088399999985,0 -117.45189199999975,34.287416499999985,0 -117.45248419999974,34.28169639999999,0 -117.45248339999974,34.28096749999998,0 -117.45234869999972,34.27990999999998,0 -117.45223779999972,34.27944109999998,0 -117.45211609999971,34.27905189999998,0 -117.45188709999972,34.27846999999998,0 -117.45170949999972,34.27810169999998,0 -117.45065049999974,34.27623719999998,0 -117.45037079999973,34.27565399999998,0 -117.45020229999975,34.275220699999984,0 -117.44996119999973,34.27442639999999,0 -117.44983099999973,34.27357649999999,0 -117.44968359999974,34.26385239999999,0 -117.44973229999974,34.26281279999999,0 -117.44976189999974,34.26269349999999,0 -117.45034179999975,34.25854729999999,0 -117.45035349999975,34.25801589999999,0 -117.45028499999975,34.257119999999986,0 -117.45019079999975,34.25659659999999,0 -117.44993879999973,34.255714199999986,0 -117.44968599999972,34.25509579999999,0 -117.44944179999973,34.254612499999986,0 -117.44901149999974,34.25391499999999,0 -117.44868329999974,34.25347439999999,0 -117.44823199999975,34.25294829999999,0 -117.44762619999975,34.252361799999996,0 -117.44705629999974,34.25189519999999,0 -117.44670259999974,34.2516359,0 -117.44608289999975,34.2512414,0 -117.44569539999976,34.251025199999994,0 -117.43960939999977,34.2480256,0 -117.43896959999978,34.247649499999994,0 -117.43834219999977,34.247241499999994,0 -117.43720579999977,34.2463638,0 -117.43669299999978,34.245920999999996,0 -117.43302099999978,34.24244899999999,0 -117.43203979999977,34.241634,0 -117.42395049999978,34.2354499,0 -117.42387869999978,34.235318299999996,0 -117.42379749999976,34.2352347,0 -117.41906849999977,34.231329200000005,0 -117.41847929999976,34.2309111,0 -117.41650509999977,34.229729299999995,0 -117.41127599999976,34.2260205,0 -117.40925689999976,34.224779399999996,0 -117.40842529999978,34.2243616,0 -117.40743689999977,34.2239669,0 -117.40275629999977,34.222309900000006,0 -117.40218069999978,34.2220602,0 -117.40132909999978,34.2216301,0 -117.40077419999977,34.2212794,0 -117.39995839999978,34.220685,0 -117.36502629999977,34.1935221,0 -117.34997499999977,34.18298300000001,0 -117.34935589999978,34.182500100000006,0 -117.34871079999976,34.18194420000001,0 -117.34754289999978,34.18078770000001,0 -117.32689649999978,34.15684300000001,0 -117.32631749999979,34.15604420000001,0 -117.31854279999978,34.14302410000001,0 -117.31749219999978,34.14101650000001,0 -117.31615829999977,34.138943200000014,0 -117.31549069999977,34.138067600000014,0 -117.31491719999977,34.13744670000001,0 -117.31417519999977,34.13678370000002,0 -117.31358229999977,34.13631920000002,0 -117.31303969999976,34.135933500000014,0 -117.30606829999977,34.131373900000014,0 -117.30525449999978,34.130737300000014,0 -117.30469279999978,34.130196200000015,0 -117.30414869999977,34.129583400000016,0 -117.30370159999977,34.12893850000002,0 -117.30344879999976,34.128507200000016,0 -117.30307599999975,34.12771220000001,0 -117.30284559999974,34.127041700000014,0 -117.30272429999975,34.126553600000015,0 -117.30260609999975,34.125761200000014,0 -117.30257799999974,34.12517000000002,0 -117.30264759999974,34.120120200000024,0 -117.30268289999975,34.11992970000002,0 -117.30278539999976,34.11240920000002,0 -117.30287999999976,34.11230140000002,0 -117.30291299999976,34.11224430000002,0 -117.30293569999976,34.11217980000002,0 -117.30301859999976,34.111472200000016,0 -117.30303709999977,34.10850770000002,0 -117.30443759999977,34.108443700000024,0 -117.30496089999978,34.10839640000002,0 -117.30558289999976,34.108370800000024,0 -117.30566409999977,34.10834010000002,0 -117.31971069999979,34.108350700000024,0 -117.3201578999998,34.10833060000002,0 -117.3273573999998,34.10833700000003,0 -117.3279306999998,34.108286900000024,0 -117.3283095999998,34.10820290000002,0 -117.3285718999998,34.10811640000003,0 -117.3288988999998,34.10797000000002,0 -117.3293687999998,34.10768530000002,0 -117.33005419999981,34.10716180000002,0 -117.33036669999981,34.10697090000002,0 -117.33068269999981,34.106823400000025,0 -117.3309637999998,34.106723800000026,0 -117.3312639999998,34.10664430000002,0 -117.33173229999983,34.10658430000002,0 -117.33190939999983,34.10657630000002,0 -117.33520589999983,34.10679230000002,0 -117.33604039999983,34.10681710000002,0 -117.35001319999982,34.10678430000002,0 -117.35000969999982,34.10697160000002,0 -117.34956399999983,34.10697280000002,0 -117.34953389999984,34.106979600000024,0 -117.34950729999986,34.106994800000024,0 -117.34949239999985,34.10701140000002,0 -117.34948649999984,34.107025700000015,0 -117.34948389999985,34.10707020000002,0 -117.34951419999986,34.107179600000016,0 -117.34956629999986,34.107273800000016,0 </coordinates></LineString><TimeSpan><begin>2020-11-14T21:26:00.000Z</begin><end>2020-11-15T00:25:49.000Z</end></TimeSpan></Placemark><Placemark><name>Wigwam Motel</name><address>2728 Foothill Blvd, San Bernardino, CA 92410</address><ExtendedData><Data name="Email"><value>syugen.zhou@gmail.com</value></Data><Data name="Category"><value>Motel</value></Data><Data name="Distance"><value>0</value></Data></ExtendedData><description> Motel from 2020-11-15T00:25:49.000Z to 2020-11-15T01:33:22.000Z. Distance 0m </description><Point><coordinates>-117.35000509999999,34.1069989,0</coordinates></Point><TimeSpan><begin>2020-11-15T00:25:49.000Z</begin><end>2020-11-15T01:33:22.000Z</end></TimeSpan></Placemark><Placemark><name>Driving</name><address></address><ExtendedData><Data name="Email"><value>syugen.zhou@gmail.com</value></Data><Data name="Category"><value>Driving</value></Data><Data name="Distance"><value>1464</value></Data></ExtendedData><description> Driving from 2020-11-15T01:33:22.000Z to 2020-11-15T01:36:32.000Z. Distance 1464m </description><LineString><altitudeMode>clampToGround</altitudeMode><extrude>1</extrude><tesselate>1</tesselate><coordinates>-117.34957709999998,34.1072876,0 -117.34959759999998,34.107309400000005,0 -117.34962769999996,34.1073364,0 -117.34963259999996,34.1073403,0 -117.34966139999995,34.107361999999995,0 -117.34969699999995,34.107387499999994,0 -117.34973449999995,34.1074084,0 -117.34977019999995,34.10742629999999,0 -117.34980309999996,34.107439899999996,0 -117.34983149999996,34.10744939999999,0 -117.34986489999996,34.107458599999994,0 -117.34988159999995,34.1074613,0 -117.34990019999996,34.10746379999999,0 -117.34993219999996,34.107464699999994,0 -117.34997859999996,34.10746499999999,0 -117.35001459999994,34.10746199999999,0 -117.35005589999994,34.10745669999999,0 -117.35011239999996,34.10744849999999,0 -117.35018409999996,34.10743479999999,0 -117.35024589999996,34.10741049999999,0 -117.35029909999996,34.10738359999999,0 -117.35035149999996,34.10734839999999,0 -117.35039149999996,34.10731479999999,0 -117.35043329999995,34.107276199999994,0 -117.35046979999996,34.1072284,0 -117.35049439999996,34.107188199999996,0 -117.35052359999997,34.10713029999999,0 -117.35053179999997,34.10710409999999,0 -117.35053849999998,34.10707969999999,0 -117.35054319999999,34.10704739999999,0 -117.35054389999999,34.10703389999999,0 -117.3505424,34.10702269999999,0 -117.3505375,34.10701369999999,0 -117.3505319,34.10700639999999,0 -117.35052379999999,34.106998799999985,0 -117.35050899999997,34.10698819999998,0 -117.35049779999999,34.10698079999998,0 -117.3504855,34.106976299999985,0 -117.35046630000001,34.106970699999984,0 -117.35043020000002,34.10696919999999,0 -117.35019750000001,34.10697049999998,0 -117.3500097,34.10697159999999,0 -117.3500132,34.10678429999999,0 -117.3502951,34.10678389999999,0 -117.35050759999999,34.106783599999986,0 -117.35174899999997,34.106781799999986,0 -117.35185319999997,34.106781599999984,0 -117.35186349999998,34.106781599999984,0 -117.35193519999999,34.10678139999998,0 -117.35223989999999,34.10678079999998,0 -117.35229599999997,34.10678069999999,0 -117.35289539999997,34.10677949999999,0 -117.35365989999997,34.10677789999999,0 -117.35415849999997,34.10677769999999,0 -117.35438889999998,34.10677759999999,0 -117.3552812,34.106777399999984,0 -117.35558369999998,34.10677729999999,0 -117.35597719999997,34.10677719999999,0 -117.35615209999997,34.106771999999985,0 -117.35644319999997,34.10677709999999,0 -117.35659939999998,34.10677709999999,0 -117.35683569999999,34.10677649999999,0 -117.3572569,34.10677549999999,0 -117.3577341,34.10677469999999,0 -117.35792389999999,34.106774399999985,0 -117.35796539999998,34.10677429999999,0 -117.35828789999998,34.10677339999999,0 -117.35874679999999,34.10677209999999,0 -117.35897899999999,34.106771499999994,0 -117.35909619999998,34.10677119999999,0 -117.35938639999998,34.10677039999999,0 -117.35965499999999,34.10677299999999,0 -117.3607,34.10677129999999,0 -117.3609517,34.106770899999994,0 -117.3610098,34.10677069999999,0 -117.3613347,34.10676979999999,0 -117.3616279,34.10676889999999,0 -117.3620839,34.10676989999999,0 -117.36221809999999,34.106770199999985,0 -117.36233549999999,34.10677039999999,0 -117.36279989999998,34.10676939999999,0 -117.36296469999998,34.106769099999994,0 -117.36327119999999,34.1067675,0 -117.36347159999997,34.10676639999999,0 -117.36361189999997,34.10676639999999,0 -117.36381399999996,34.10676639999999,0 -117.36411459999997,34.10676639999999,0 -117.36462889999996,34.10676639999999,0 -117.36487409999997,34.10676639999999,0 -117.36530039999995,34.10676639999999,0 -117.36560079999997,34.106766699999994,0 -117.36560109999996,34.10661609999999,0 -117.36560399999995,34.1066009,0 -117.36561689999995,34.106580799999996,0 -117.36563469999994,34.1065632,0 -117.36568779999995,34.106531499999996,0 -117.36569049999994,34.106527199999995,0 -117.36569309999994,34.10652209999999,0 -117.36569539999994,34.10648869999999,0 -117.36571319999995,34.10643159999999,0 </coordinates></LineString><TimeSpan><begin>2020-11-15T01:33:22.000Z</begin><end>2020-11-15T01:36:32.000Z</end></TimeSpan></Placemark><Placemark><name>Subway</name><address>303 E Foothill Blvd, Rialto, CA 92376</address><ExtendedData><Data name="Email"><value>syugen.zhou@gmail.com</value></Data><Data name="Category"><value>Sandwich</value></Data><Data name="Distance"><value>0</value></Data></ExtendedData><description> Sandwich from 2020-11-15T01:36:32.000Z to 2020-11-15T01:42:34.000Z. Distance 0m </description><Point><coordinates>-117.3655721,34.1064469,0</coordinates></Point><TimeSpan><begin>2020-11-15T01:36:32.000Z</begin><end>2020-11-15T01:42:34.000Z</end></TimeSpan></Placemark><Placemark><name>Driving</name><address></address><ExtendedData><Data name="Email"><value>syugen.zhou@gmail.com</value></Data><Data name="Category"><value>Driving</value></Data><Data name="Distance"><value>1518</value></Data></ExtendedData><description> Driving from 2020-11-15T01:42:34.999Z to 2020-11-15T01:45:39.998Z. Distance 1518m </description><LineString><altitudeMode>clampToGround</altitudeMode><extrude>1</extrude><tesselate>1</tesselate><coordinates>-117.3657169,34.1064199,0 -117.36569539999999,34.10648869999999,0 -117.36569309999999,34.10652209999999,0 -117.3656905,34.106527199999995,0 -117.3656878,34.106531499999996,0 -117.3656347,34.1065632,0 -117.3656169,34.106580799999996,0 -117.365604,34.1066009,0 -117.3656011,34.10661609999999,0 -117.36560080000001,34.106766699999994,0 -117.36560080000001,34.106766699999994,0 -117.36530040000001,34.10676639999999,0 -117.36487410000001,34.10676639999999,0 -117.36462890000001,34.10676639999999,0 -117.36411460000002,34.10676639999999,0 -117.36406740000002,34.10676639999999,0 -117.36381400000002,34.10676639999999,0 -117.36361190000001,34.10676639999999,0 -117.36347160000003,34.10676639999999,0 -117.36327120000003,34.1067675,0 -117.36296470000003,34.106769099999994,0 -117.36279990000003,34.10676939999999,0 -117.36233550000004,34.10677039999999,0 -117.36221810000005,34.106770199999985,0 -117.36208390000006,34.10676989999999,0 -117.36162790000006,34.10676889999999,0 -117.36133470000004,34.10676979999999,0 -117.36100980000006,34.10677069999999,0 -117.36095170000006,34.106770899999994,0 -117.36070000000005,34.10677129999999,0 -117.35965500000003,34.10677299999999,0 -117.35938640000003,34.10677039999999,0 -117.35909620000004,34.10677119999999,0 -117.35897900000003,34.106771499999994,0 -117.35874680000003,34.10677209999999,0 -117.35828790000004,34.10677339999999,0 -117.35796540000004,34.10677429999999,0 -117.35792390000005,34.106774399999985,0 -117.35773410000004,34.10677469999999,0 -117.35725690000005,34.10677549999999,0 -117.35683570000005,34.10677649999999,0 -117.35659940000004,34.10677709999999,0 -117.35655860000004,34.10677709999999,0 -117.35644320000006,34.10677709999999,0 -117.35615210000005,34.106771999999985,0 -117.35597720000004,34.10677719999999,0 -117.35558370000005,34.10677729999999,0 -117.35528120000006,34.106777399999984,0 -117.35438890000006,34.10677759999999,0 -117.35415850000005,34.10677769999999,0 -117.35365990000005,34.10677789999999,0 -117.35289540000004,34.10677949999999,0 -117.35229600000005,34.10678069999999,0 -117.35223990000006,34.10678079999998,0 -117.35193520000007,34.10678139999998,0 -117.35186350000005,34.106781599999984,0 -117.35185320000005,34.106781599999984,0 -117.35174900000005,34.106781799999986,0 -117.35050760000006,34.106783599999986,0 -117.35029510000007,34.10678389999999,0 -117.35001320000008,34.10678429999999,0 -117.35001320000008,34.10678429999999,0 -117.35000970000007,34.10697159999999,0 -117.34983700000006,34.106969699999986,0 -117.34965590000007,34.106969699999986,0 -117.34961250000006,34.106970099999984,0 -117.34958560000005,34.106970899999986,0 -117.34957130000005,34.10697219999999,0 </coordinates></LineString><TimeSpan><begin>2020-11-15T01:42:34.999Z</begin><end>2020-11-15T01:45:39.998Z</end></TimeSpan></Placemark><Placemark><name>Wigwam Motel</name><address>2728 Foothill Blvd, San Bernardino, CA 92410</address><ExtendedData><Data name="Email"><value>syugen.zhou@gmail.com</value></Data><Data name="Category"><value>Motel</value></Data><Data name="Distance"><value>0</value></Data></ExtendedData><description> Motel from 2020-11-15T01:45:39.998Z to 2020-11-15T17:20:04.000Z. Distance 0m </description><Point><coordinates>-117.35000509999999,34.1069989,0</coordinates></Point><TimeSpan><begin>2020-11-15T01:45:39.998Z</begin><end>2020-11-15T17:20:04.000Z</end></TimeSpan></Placemark></Document></kml>
