<?xml version="1.0" encoding="UTF-8"?><kml xmlns="http://www.opengis.net/kml/2.2" xmlns:gx="http://www.google.com/kml/ext/2.2"><Document><name> Location history from 2020-11-10 to 2020-11-10 </name><open>1</open><description></description><StyleMap id="multiTrack"><Pair><key>normal</key><styleUrl>#multiTrack_n</styleUrl></Pair><Pair><key>highlight</key><styleUrl>#multiTrack_h</styleUrl></Pair></StyleMap><Style id="multiTrack_n"><IconStyle><Icon><href>https://earth.google.com/images/kml-icons/track-directional/track-0.png</href></Icon></IconStyle><LineStyle><color>99ffac59</color><width>6</width></LineStyle></Style><Style id="multiTrack_h"><IconStyle><scale>1.2</scale><Icon><href>https://earth.google.com/images/kml-icons/track-directional/track-0.png</href></Icon></IconStyle><LineStyle><color>99ffac59</color><width>8</width></LineStyle></Style><Placemark><name>Orange Tree Resort</name><address>10601 N 56th St, Scottsdale, AZ 85254</address><ExtendedData><Data name="Email"><value>syugen.zhou@gmail.com</value></Data><Data name="Category"><value>Resort hotel</value></Data><Data name="Distance"><value>0</value></Data></ExtendedData><description> Resort hotel from 2020-11-10T02:25:01.000Z to 2020-11-10T15:12:06.999Z. Distance 0m </description><Point><coordinates>-111.9603712,33.5876027,0</coordinates></Point><TimeSpan><begin>2020-11-10T02:25:01.000Z</begin><end>2020-11-10T15:12:06.999Z</end></TimeSpan></Placemark><Placemark><name>Driving</name><address></address><ExtendedData><Data name="Email"><value>syugen.zhou@gmail.com</value></Data><Data name="Category"><value>Driving</value></Data><Data name="Distance"><value>94932</value></Data></ExtendedData><description> Driving from 2020-11-10T15:12:06.999Z to 2020-11-10T16:22:53.000Z. Distance 94932m </description><LineString><altitudeMode>clampToGround</altitudeMode><extrude>1</extrude><tesselate>1</tesselate><coordinates>-111.96031819999999,33.586418099999996,0 -111.96031759999998,33.585999799999996,0 -111.96057299999998,33.5860031,0 -111.96057129999998,33.5825791,0 -111.94294049999998,33.582006099999994,0 -111.92608919999999,33.582088199999994,0 -111.92609989999998,33.58116089999999,0 -111.92602249999999,33.58107899999999,0 -111.92603109999999,33.58042209999999,0 -111.92611819999999,33.580346799999994,0 -111.92613049999999,33.579087799999996,0 -111.9269722,33.579090099999995,0 -111.9269956,33.578773399999996,0 -111.927027,33.578749499999994,0 -111.9273258,33.5787334,0 -111.9273551,33.578508,0 -111.92662689999999,33.5784969,0 -111.9252745,33.5783917,0 -111.92297980000001,33.578401899999996,0 -111.922798,33.5784305,0 -111.9225507,33.5785063,0 -111.92245340000001,33.5784915,0 -111.92215370000001,33.5786699,0 -111.9219508,33.5788578,0 -111.92185640000001,33.578981500000005,0 -111.92172310000001,33.579230200000005,0 -111.92165920000001,33.579498799999996,0 -111.92165490000002,33.5802092,0 -111.92170500000002,33.580342,0 -111.92169400000002,33.5820536,0 -111.91310120000001,33.582012299999995,0 -111.91289970000003,33.58208129999999,0 -111.91030430000002,33.582066899999994,0 -111.91013770000004,33.58199919999999,0 -111.90357310000003,33.58197139999999,0 -111.90346270000003,33.582035499999996,0 -111.90055950000003,33.5820325,0 -111.90049380000004,33.58196629999999,0 -111.90047800000004,33.58196089999999,0 -111.89412910000003,33.58194819999999,0 -111.89290370000002,33.58201149999999,0 -111.89171550000003,33.582152699999995,0 -111.89142770000002,33.581957499999994,0 -111.89112010000002,33.580188099999994,0 -111.89098550000003,33.57964179999999,0 -111.89075950000003,33.57899749999999,0 -111.89008120000003,33.57757389999999,0 -111.88997520000002,33.57753719999999,0 -111.88942070000002,33.57617309999999,0 -111.88925610000003,33.57563409999999,0 -111.88917590000003,33.57519219999999,0 -111.88914430000003,33.574321899999994,0 -111.88924930000003,33.573560199999996,0 -111.88947040000002,33.572817699999995,0 -111.89076640000002,33.5701761,0 -111.89099580000003,33.5695469,0 -111.89110500000002,33.5690715,0 -111.89116860000001,33.5684482,0 -111.89111800000002,33.567765099999995,0 -111.89094570000002,33.566957599999995,0 -111.89077130000001,33.5664854,0 -111.8904559,33.565873499999995,0 -111.89019680000001,33.565487499999996,0 -111.88965670000002,33.5648587,0 -111.88901030000001,33.564300100000004,0 -111.88859920000002,33.5640196,0 -111.88793360000003,33.563651799999995,0 -111.88378700000003,33.5618295,0 -111.88304600000002,33.561425,0 -111.88242520000001,33.5610286,0 -111.88202190000003,33.5607231,0 -111.88152270000002,33.5602817,0 -111.88105990000003,33.559785500000004,0 -111.88072830000002,33.5593708,0 -111.88008790000002,33.5583554,0 -111.87970700000002,33.557323700000005,0 -111.87956620000003,33.5566845,0 -111.87950510000003,33.556129500000004,0 -111.87927980000002,33.547248800000006,0 -111.87932920000002,33.5463626,0 -111.87949090000001,33.5452749,0 -111.87962200000001,33.5447075,0 -111.8799743,33.543560400000004,0 -111.88709850000001,33.525524000000004,0 -111.88751320000001,33.5241284,0 -111.8877089,33.52314290000001,0 -111.88786330000002,33.521696600000006,0 -111.88810000000002,33.50924680000001,0 -111.88794340000001,33.50173930000001,0 -111.88801660000001,33.49962580000001,0 -111.88800120000002,33.49953020000001,0 -111.88809880000002,33.49505280000001,0 -111.88796310000002,33.48798820000001,0 -111.88806300000003,33.48703420000001,0 -111.88829710000002,33.48610470000001,0 -111.88865590000002,33.48502770000001,0 -111.88875250000001,33.48481300000002,0 -111.88879750000001,33.48459050000001,0 -111.88973700000001,33.48244610000001,0 -111.8899432,33.48180560000001,0 -111.89013710000002,33.480946300000014,0 -111.89022300000002,33.480218000000015,0 -111.89023670000002,33.47915160000001,0 -111.89012340000002,33.47798310000001,0 -111.88997150000002,33.477327400000014,0 -111.8887344,33.473631800000014,0 -111.8884948,33.47266910000002,0 -111.88833550000001,33.47173950000001,0 -111.8882168,33.470127800000014,0 -111.88827690000001,33.468720900000015,0 -111.89090170000001,33.448668900000015,0 -111.89098000000001,33.447299000000015,0 -111.8911757,33.43239920000001,0 -111.89115980000001,33.432315400000014,0 -111.89121970000001,33.427800100000006,0 -111.8912791,33.4275986,0 -111.8915314,33.412781300000006,0 -111.8913473,33.40672950000001,0 -111.8913097,33.38496750000001,0 -111.8913895,33.38403640000001,0 -111.891502,33.38343690000001,0 -111.8916717,33.38286090000001,0 -111.8926805,33.38051970000001,0 -111.8930055,33.379556900000004,0 -111.8931574,33.378961000000004,0 -111.89335900000002,33.37770170000001,0 -111.89423350000001,33.36127150000001,0 -111.89455240000001,33.3573736,0 -111.89458420000001,33.35539620000001,0 -111.89446860000002,33.35344560000001,0 -111.89387830000003,33.348507600000005,0 -111.89309450000002,33.3353808,0 -111.89308510000002,33.33219640000001,0 -111.89328810000002,33.328767400000004,0 -111.89417040000002,33.3216507,0 -111.89436210000002,33.3194852,0 -111.89449410000002,33.316415600000006,0 -111.89434900000002,33.293541100000006,0 -111.89428920000002,33.2932514,0 -111.89412780000002,33.292826100000006,0 -111.89369660000003,33.29216590000001,0 -111.89352490000002,33.29195530000001,0 -111.89315640000002,33.29158150000001,0 -111.89271190000002,33.29125930000001,0 -111.89231990000003,33.291041500000006,0 -111.89190450000002,33.29087620000001,0 -111.89134330000002,33.29075280000001,0 -111.89068980000002,33.29069200000001,0 -111.88912540000001,33.29070710000001,0 -111.88859770000002,33.29066900000001,0 -111.88770050000002,33.29051150000001,0 -111.88708350000002,33.29033380000001,0 -111.88639290000002,33.29005470000001,0 -111.88310550000001,33.28852710000001,0 -111.88147470000001,33.28793240000001,0 -111.88142870000001,33.28792710000001,0 -111.881234,33.287941700000005,0 -111.88019840000001,33.287629200000005,0 -111.87857840000001,33.28728870000001,0 -111.8769082,33.28710280000001,0 -111.87612490000001,33.28707020000001,0 -111.84726400000001,33.287177000000014,0 -111.8471861,33.28712050000001,0 -111.84158920000002,33.28676740000001,0 -111.8415325,33.28279890000001,0 -111.84145500000001,33.28258290000001,0 -111.8414561,33.28086820000001,0 -111.8416213,33.278649400000006,0 -111.8416193,33.278103400000006,0 -111.8416619,33.27805890000001,0 -111.8417125,33.27792180000001,0 -111.84170050000002,33.275183700000014,0 -111.8416028,33.27507250000001,0 -111.8414314,33.269550800000005,0 -111.8415037,33.26941870000001,0 -111.84148379999999,33.268297800000006,0 -111.841461,33.26826450000001,0 -111.8414224,33.2682477,0 -111.8414174,33.2678025,0 -111.8414865,33.2676421,0 -111.8415082,33.2665925,0 -111.8414814,33.266487100000006,0 -111.84140480000002,33.266387400000006,0 -111.84139410000002,33.26599950000001,0 -111.84148340000002,33.26593760000001,0 -111.84133540000002,33.24867830000001,0 -111.84130780000001,33.24864660000001,0 -111.84132590000002,33.246590100000006,0 -111.84131600000002,33.24655870000001,0 -111.84132060000002,33.24400680000001,0 -111.84134010000002,33.24393240000001,0 -111.84131410000002,33.24117050000001,0 -111.84129520000002,33.241071100000006,0 -111.84118570000001,33.20494400000001,0 -111.84109800000002,33.20398410000001,0 -111.84096090000001,33.203987700000006,0 -111.84080080000003,33.20402730000001,0 -111.84029310000001,33.20402620000001,0 -111.84000250000001,33.20372520000001,0 -111.83959220000001,33.20337370000001,0 -111.83897700000001,33.2029994,0 -111.83711460000002,33.202130800000006,0 -111.83706330000001,33.202124600000005,0 -111.82393160000001,33.19592170000001,0 -111.82312850000001,33.195461900000005,0 -111.8225077,33.195031500000006,0 -111.8050077,33.18024630000001,0 -111.8028707,33.17827330000001,0 -111.7948568,33.17151090000001,0 -111.7916924,33.16903980000001,0 -111.75778120000001,33.14043500000001,0 -111.75511360000002,33.137990200000004,0 -111.75435330000002,33.13718800000001,0 -111.75333010000001,33.13590650000001,0 -111.74683850000001,33.12617550000001,0 -111.74621750000001,33.12546280000001,0 -111.7453641,33.12465410000001,0 -111.74453650000001,33.12399740000001,0 -111.7435227,33.12334560000001,0 -111.7427351,33.12292310000001,0 -111.7420431,33.12260650000001,0 -111.740817,33.122152500000006,0 -111.73767980000001,33.12132450000001,0 -111.73590540000002,33.12078570000001,0 -111.73379350000002,33.120033800000016,0 -111.73228320000003,33.119433500000014,0 -111.73040710000002,33.11858750000001,0 -111.72852740000003,33.11765170000001,0 -111.72706250000002,33.11683290000001,0 -111.72479330000003,33.115403700000016,0 -111.72249400000003,33.11373260000001,0 -111.72032280000002,33.11189860000001,0 -111.71887180000002,33.110504700000014,0 -111.71777530000003,33.10934800000001,0 -111.71616340000001,33.10743690000002,0 -111.71427850000002,33.10480550000001,0 -111.71339490000001,33.10334930000001,0 -111.71240250000002,33.10148200000001,0 -111.71157460000002,33.099657900000004,0 -111.71112130000002,33.09850220000001,0 -111.70568780000002,33.08262350000001,0 -111.70477160000002,33.08043610000001,0 -111.70403880000002,33.07888560000001,0 -111.70263150000002,33.07629980000001,0 -111.70172330000003,33.074818400000005,0 -111.69981220000003,33.07205550000001,0 -111.69827190000002,33.07010740000001,0 -111.69656560000003,33.068137700000015,0 -111.69654850000003,33.06808940000001,0 -111.69567920000003,33.067104700000016,0 -111.69359320000002,33.06515500000001,0 -111.69350910000003,33.06511170000002,0 -111.69059130000002,33.06265840000002,0 -111.63828100000002,33.02317340000001,0 -111.63827770000002,33.023145000000014,0 -111.63342030000003,33.019484700000014,0 -111.63336300000002,33.01946640000001,0 -111.61619460000001,33.006499300000016,0 -111.61617190000003,33.006461000000016,0 -111.61243080000003,33.003633000000015,0 -111.61151980000002,33.003142400000016,0 -111.61085410000003,33.00290150000002,0 -111.61001850000002,33.00269510000002,0 -111.60997150000003,33.00270580000002,0 -111.60965540000004,33.00265430000002,0 -111.60891200000003,33.00258890000002,0 -111.56147830000003,33.00242160000002,0 -111.56140680000003,33.002404800000015,0 -111.55565860000003,33.00240510000002,0 -111.55563110000003,33.00242370000002,0 -111.52714450000003,33.002570300000016,0 -111.52710470000004,33.002552000000016,0 -111.52403410000002,33.002535600000016,0 -111.52401890000003,32.99901840000002,0 -111.52400660000002,32.99895880000002,0 -111.52395290000003,32.99890870000002,0 -111.52398150000002,32.99547800000002,0 -111.53515900000001,32.995483900000025,0 -111.53606100000002,32.99526700000002,0 -111.53651430000002,32.995280200000025,0 </coordinates></LineString><TimeSpan><begin>2020-11-10T15:12:06.999Z</begin><end>2020-11-10T16:22:53.000Z</end></TimeSpan></Placemark><Placemark><name>Casa Grande Ruins National Monument</name><address>1100 W Ruins Dr, Coolidge, AZ 85128</address><ExtendedData><Data name="Email"><value>syugen.zhou@gmail.com</value></Data><Data name="Category"><value>National park</value></Data><Data name="Distance"><value>0</value></Data></ExtendedData><description> National park from 2020-11-10T16:22:53.000Z to 2020-11-10T16:52:14.000Z. Distance 0m </description><Point><coordinates>-111.5355282,32.995458899999996,0</coordinates></Point><TimeSpan><begin>2020-11-10T16:22:53.000Z</begin><end>2020-11-10T16:52:14.000Z</end></TimeSpan></Placemark><Placemark><name>Driving</name><address></address><ExtendedData><Data name="Email"><value>syugen.zhou@gmail.com</value></Data><Data name="Category"><value>Driving</value></Data><Data name="Distance"><value>102985</value></Data></ExtendedData><description> Driving from 2020-11-10T16:52:14.000Z to 2020-11-10T17:54:37.000Z. Distance 102985m </description><LineString><altitudeMode>clampToGround</altitudeMode><extrude>1</extrude><tesselate>1</tesselate><coordinates>-111.5364912,32.9952793,0 -111.53606099999999,32.995267,0 -111.535159,32.995483899999996,0 -111.52398149999999,32.995478,0 -111.5239529,32.998908699999994,0 -111.5239029,32.998955499999994,0 -111.52393389999999,33.002614699999995,0 -111.5270919,33.00258949999999,0 -111.5271445,33.002570299999995,0 -111.55563110000001,33.002423699999994,0 -111.5556639,33.002442699999996,0 -111.5614079,33.002444999999994,0 -111.5614783,33.0024216,0 -111.608912,33.00258889999999,0 -111.60965540000001,33.002654299999996,0 -111.6099715,33.002705799999994,0 -111.61001660000001,33.002735099999995,0 -111.6106534,33.0028972,0 -111.6114804,33.0032011,0 -111.61197820000001,33.0034468,0 -111.61242370000002,33.003713899999994,0 -111.61614990000001,33.006477999999994,0 -111.61619460000001,33.006499299999994,0 -111.63336300000002,33.01946639999999,0 -111.63338880000002,33.01951509999999,0 -111.63604410000002,33.021555299999996,0 -111.63708500000001,33.0205929,0 -111.63757360000001,33.0202212,0 -111.63808620000002,33.0199006,0 -111.63842660000002,33.0197298,0 -111.63913520000001,33.0194403,0 -111.63985100000001,33.0192366,0 -111.64037030000001,33.0191361,0 -111.66734000000001,33.016972,0 -111.670045,33.0165541,0 -111.67237200000001,33.0160535,0 -111.7039275,33.0069565,0 -111.7063973,33.006402300000005,0 -111.70775520000001,33.006162100000005,0 -111.70988630000001,33.00587420000001,0 -111.73773530000001,33.0030963,0 -111.73934900000002,33.003004700000005,0 -111.74113630000002,33.003045900000004,0 -111.74252140000002,33.003176100000005,0 -111.74442610000001,33.003503200000004,0 -111.74525430000001,33.00370040000001,0 -111.74685990000002,33.0041895,0 -111.74783280000001,33.00455710000001,0 -111.75121720000001,33.0059949,0 -111.7514489,33.0056116,0 -111.7515008,33.0055654,0 -111.75201270000001,33.0047381,0 -111.7530034,33.0048654,0 -111.7535924,33.0050184,0 -111.75411740000001,33.0052535,0 -111.7545509,33.0055542,0 -111.7548652,33.0058508,0 -111.75590570000001,33.0070842,0 -111.75606900000001,33.0071509,0 -111.76336920000001,33.0162664,0 -111.7673115,33.0218978,0 -111.76830210000001,33.023150599999994,0 -111.7725089,33.027909699999995,0 -111.96650480000001,33.2794348,0 -111.96767700000001,33.281186999999996,0 -111.9688442,33.2831562,0 -111.96936200000002,33.284177799999995,0 -111.97045150000001,33.28684739999999,0 -111.97109560000001,33.28890309999999,0 -111.97155860000001,33.29081649999999,0 -111.97178380000001,33.29227319999999,0 -111.97188430000001,33.29372529999999,0 -111.97191430000001,33.3017402,0 -111.97201140000001,33.303350599999995,0 -111.97205610000002,33.3451912,0 -111.97192020000001,33.3473241,0 -111.97153670000002,33.3506872,0 -111.97103510000001,33.3535487,0 -111.96887720000001,33.362422,0 -111.96822880000002,33.3664575,0 -111.96793710000001,33.369642500000005,0 -111.96784600000001,33.371622800000004,0 -111.96781270000001,33.3783435,0 -111.96725210000001,33.4005933,0 -111.96727740000001,33.4011268,0 -111.96748340000002,33.402497399999994,0 -111.96768050000001,33.403213199999996,0 -111.96790370000002,33.40383429999999,0 -111.96830930000002,33.40472209999999,0 -111.96886630000002,33.40566069999999,0 -111.96949740000002,33.40653039999999,0 -111.97006710000001,33.40716109999999,0 -111.97068240000002,33.407741699999995,0 -111.9712356,33.40820109999999,0 -111.9721052,33.40883259999999,0 -111.9729765,33.40935849999999,0 -111.9740342,33.409875699999986,0 -111.9746092,33.41011179999999,0 -111.97584660000001,33.410534399999996,0 -111.9773776,33.41087819999999,0 -111.9782229,33.41100559999999,0 -111.9799813,33.411109899999985,0 -112.0055665,33.410980899999984,0 -112.00678500000001,33.411095899999985,0 -112.0074369,33.41119949999999,0 -112.00859039999999,33.41145719999999,0 -112.009692,33.41180329999999,0 -112.01033199999999,33.41204979999999,0 -112.0112116,33.41245269999999,0 -112.01275639999999,33.41336669999999,0 -112.01322199999998,33.413698299999986,0 -112.01372559999999,33.41411139999999,0 -112.0146975,33.41504699999999,0 -112.01996179999999,33.42123279999999,0 -112.02120679999999,33.42245019999999,0 -112.02214349999998,33.42321859999999,0 -112.02344269999999,33.424130699999985,0 -112.02453979999999,33.42478039999999,0 -112.02602529999997,33.425517699999986,0 -112.02733149999997,33.42605159999999,0 -112.02852879999996,33.42643109999999,0 -112.03015589999997,33.42677239999999,0 -112.03430369999997,33.42729999999999,0 -112.03481639999997,33.42740729999999,0 -112.03517029999998,33.42751729999999,0 -112.03552159999997,33.42766199999999,0 -112.03606329999997,33.42796899999999,0 -112.03645029999997,33.428309899999995,0 -112.03667119999996,33.42854439999999,0 -112.03692959999997,33.42891679999999,0 -112.03715339999995,33.429366499999986,0 -112.03728899999996,33.42985789999999,0 -112.03733909999997,33.43031829999999,0 -112.03744279999997,33.436891999999986,0 -112.03715389999996,33.44030639999998,0 -112.03712019999996,33.449172799999985,0 -112.03699789999996,33.449296799999985,0 -112.03652939999996,33.45312819999999,0 -112.03650099999996,33.45401119999998,0 -112.03658519999996,33.45628099999998,0 -112.03656279999996,33.456581599999986,0 -112.03655039999995,33.45977949999999,0 -112.03660349999996,33.46034609999998,0 -112.03676009999997,33.46093209999999,0 -112.03776319999996,33.46295039999999,0 -112.03791799999995,33.46337789999998,0 -112.03800189999995,33.46378629999999,0 -112.03803209999995,33.46413219999999,0 -112.03802669999996,33.46524829999999,0 -112.03799969999996,33.465320199999994,0 -112.03800899999996,33.46724389999999,0 -112.03843119999995,33.46913969999999,0 -112.03849399999996,33.46974869999999,0 -112.03846299999995,33.47489149999999,0 -112.03819889999995,33.47825369999999,0 -112.03819439999995,33.47884039999999,0 -112.03829649999994,33.48002479999999,0 -112.03842419999995,33.480634299999984,0 -112.03874289999995,33.48168359999998,0 -112.03924579999995,33.48283039999998,0 -112.04095049999995,33.48563339999998,0 -112.04315329999996,33.489642199999984,0 -112.04346209999996,33.49034129999998,0 -112.04366419999995,33.49096869999999,0 -112.04379779999996,33.49157479999999,0 -112.04386499999997,33.49208939999999,0 -112.04388529999996,33.49300679999999,0 -112.04360809999997,33.498355399999994,0 -112.04358739999996,33.50394099999999,0 -112.04366669999996,33.50467419999999,0 -112.04417839999996,33.506497299999985,0 -112.04428169999996,33.507274399999986,0 -112.04426519999996,33.511956799999986,0 -112.04404449999996,33.51552679999998,0 -112.04414439999995,33.519146699999986,0 -112.04354909999995,33.52532989999999,0 -112.04352029999994,33.52957879999999,0 -112.04345949999994,33.53013939999999,0 -112.04334179999994,33.53064029999999,0 -112.04317409999994,33.53111089999999,0 -112.04288709999994,33.53168199999998,0 -112.04198909999994,33.53312219999999,0 -112.04180179999994,33.53351049999999,0 -112.04161909999993,33.53401199999999,0 -112.04150539999993,33.53446779999999,0 -112.04142219999993,33.53514039999999,0 -112.04147559999993,33.53792009999999,0 -112.04141209999993,33.538837399999984,0 -112.04121489999994,33.53989769999998,0 -112.03783229999993,33.55138199999999,0 -112.03770909999993,33.55227449999999,0 -112.03769319999994,33.552984899999984,0 -112.03810259999995,33.55972269999999,0 -112.03807019999994,33.560380899999984,0 -112.03793269999994,33.560999299999985,0 -112.03773099999994,33.56151419999999,0 -112.03748039999994,33.561965999999984,0 -112.03708899999994,33.562485999999986,0 -112.03677399999994,33.56281119999999,0 -112.03636129999994,33.56315629999999,0 -112.03601389999994,33.56339579999999,0 -112.03550479999994,33.56368609999999,0 -112.03008249999995,33.56630659999999,0 -112.02890429999995,33.56702519999999,0 -112.02794669999994,33.56772829999999,0 -112.02689989999995,33.56865189999999,0 -112.02514339999995,33.57045989999999,0 -112.02435189999996,33.57114009999999,0 -112.02387749999995,33.57148539999999,0 -112.02320539999995,33.57191149999999,0 -112.02243149999997,33.57231839999999,0 -112.02140049999996,33.57275419999999,0 -112.01705289999995,33.57426559999999,0 -112.01691559999996,33.57433289999999,0 -112.01607889999995,33.574634399999994,0 -112.01481499999996,33.57521549999999,0 -112.01401589999996,33.575685699999994,0 -112.01346589999996,33.576069,0 -112.01274399999997,33.5766573,0 -112.01203379999995,33.5773509,0 -112.01163389999995,33.5778209,0 -112.01121659999995,33.578387,0 -112.01084169999996,33.5790205,0 -112.01067469999995,33.5790984,0 -112.01012269999997,33.5800414,0 -112.00981699999997,33.580687999999995,0 -112.00964529999997,33.581181099999995,0 -112.00959619999996,33.581269,0 -112.00948869999996,33.58177429999999,0 -112.00943449999995,33.581879699999995,0 -112.00929919999994,33.58228259999999,0 -112.00919689999995,33.582384399999995,0 -112.00909149999995,33.582434299999996,0 -112.00894459999995,33.58247109999999,0 -112.00869159999995,33.58248149999999,0 -112.00847219999996,33.582539499999996,0 -111.99684469999995,33.5827294,0 -111.99675879999995,33.5826793,0 -111.99157699999995,33.582674399999995,0 -111.98933719999997,33.582605699999995,0 -111.97321479999997,33.582628199999995,0 -111.97290269999996,33.58268509999999,0 -111.96164689999998,33.5826548,0 -111.96151959999997,33.5825704,0 -111.96057129999997,33.5825791,0 -111.96057299999997,33.5860031,0 -111.96031759999998,33.585999799999996,0 -111.96031789999998,33.5862159,0 </coordinates></LineString><TimeSpan><begin>2020-11-10T16:52:14.000Z</begin><end>2020-11-10T17:54:37.000Z</end></TimeSpan></Placemark><Placemark><name>Orange Tree Resort</name><address>10601 N 56th St, Scottsdale, AZ 85254</address><ExtendedData><Data name="Email"><value>syugen.zhou@gmail.com</value></Data><Data name="Category"><value>Resort hotel</value></Data><Data name="Distance"><value>0</value></Data></ExtendedData><description> Resort hotel from 2020-11-10T17:54:37.000Z to 2020-11-10T23:37:56.999Z. Distance 0m </description><Point><coordinates>-111.9603712,33.5876027,0</coordinates></Point><TimeSpan><begin>2020-11-10T17:54:37.000Z</begin><end>2020-11-10T23:37:56.999Z</end></TimeSpan></Placemark><Placemark><name>Driving</name><address></address><ExtendedData><Data name="Email"><value>syugen.zhou@gmail.com</value></Data><Data name="Category"><value>Driving</value></Data><Data name="Distance"><value>2752</value></Data></ExtendedData><description> Driving from 2020-11-10T23:37:56.999Z to 2020-11-10T23:42:37.000Z. Distance 2752m </description><LineString><altitudeMode>clampToGround</altitudeMode><extrude>1</extrude><tesselate>1</tesselate><coordinates>-111.96018409999999,33.587615899999996,0 -111.96018369999999,33.587742199999994,0 -111.96018369999999,33.587742199999994,0 -111.96056569999999,33.5877462,0 -111.96056569999999,33.5877462,0 -111.96056399999999,33.5880904,0 -111.96056599999999,33.588974400000005,0 -111.96056689999999,33.589393400000006,0 -111.96056639999999,33.58962770000001,0 -111.9605673,33.58990010000001,0 -111.9605713,33.58999860000001,0 -111.9605668,33.591074000000006,0 -111.96057309999999,33.59173930000001,0 -111.9605761,33.592860900000005,0 -111.96058159999998,33.59404340000001,0 -111.96059189999998,33.595659000000005,0 -111.9605929,33.59572190000001,0 -111.96059269999999,33.595788600000006,0 -111.96060399999999,33.596320600000006,0 -111.96060059999999,33.5971643,0 -111.96060059999999,33.5971643,0 -111.96122949999999,33.5971724,0 -111.96164269999998,33.5971736,0 -111.96178439999998,33.5971724,0 -111.96260369999997,33.597171100000004,0 -111.96491059999998,33.59715680000001,0 -111.96640519999998,33.5971473,0 -111.96661059999998,33.59714600000001,0 -111.96675399999998,33.59714830000001,0 -111.96840449999998,33.59714100000001,0 -111.96880819999998,33.597140800000005,0 -111.96893319999998,33.597145600000005,0 -111.96922979999998,33.5971569,0 -111.96936769999998,33.5971665,0 -111.97011339999999,33.5972336,0 -111.97055639999998,33.597253900000005,0 -111.97100339999999,33.59725830000001,0 -111.97153359999999,33.59724920000001,0 -111.9720876,33.597242300000005,0 -111.97230409999999,33.59723950000001,0 -111.9735737,33.597223700000015,0 -111.9741632,33.59721730000001,0 -111.9742131,33.59725670000001,0 -111.974248,33.59727260000001,0 -111.9743923,33.59729530000001,0 -111.9751406,33.59731700000001,0 -111.9752411,33.59732370000001,0 -111.9755686,33.59736410000001,0 -111.9758305,33.59739640000001,0 -111.9760833,33.597438300000015,0 -111.9764603,33.59751170000001,0 -111.976832,33.59760150000001,0 -111.9771215,33.59768380000001,0 -111.977317,33.597747300000016,0 -111.977572,33.59783020000001,0 -111.9780631,33.59798870000001,0 -111.9780631,33.59798870000001,0 -111.9779371,33.598269500000015,0 -111.9778864,33.59838260000001,0 -111.97786419999998,33.59850450000001,0 -111.97786199999999,33.59851680000001,0 -111.97785729999998,33.59861570000001,0 -111.97785719999999,33.598744500000016,0 -111.97785849999998,33.59892230000001,0 -111.9778631,33.599548300000016,0 -111.97786419999998,33.599986500000014,0 -111.97785909999999,33.60011120000001,0 -111.97785569999998,33.60019390000001,0 -111.97785839999999,33.600521400000005,0 -111.97786699999999,33.600855200000005,0 -111.9778829,33.60147230000001,0 -111.9778893,33.60163480000001,0 -111.9778893,33.60163480000001,0 -111.9772796,33.601636600000006,0 </coordinates></LineString><TimeSpan><begin>2020-11-10T23:37:56.999Z</begin><end>2020-11-10T23:42:37.000Z</end></TimeSpan></Placemark><Placemark><name>Shogun Restaurant</name><address>12615 N Tatum Blvd, Phoenix, AZ 85032</address><ExtendedData><Data name="Email"><value>syugen.zhou@gmail.com</value></Data><Data name="Category"><value>Authentic Japanese</value></Data><Data name="Distance"><value>0</value></Data></ExtendedData><description> Authentic Japanese from 2020-11-10T23:42:37.000Z to 2020-11-11T00:18:16.000Z. Distance 0m </description><Point><coordinates>-111.9786982,33.6004433,0</coordinates></Point><TimeSpan><begin>2020-11-10T23:42:37.000Z</begin><end>2020-11-11T00:18:16.000Z</end></TimeSpan></Placemark><Placemark><name>Driving</name><address></address><ExtendedData><Data name="Email"><value>syugen.zhou@gmail.com</value></Data><Data name="Category"><value>Driving</value></Data><Data name="Distance"><value>4254</value></Data></ExtendedData><description> Driving from 2020-11-11T00:18:16.999Z to 2020-11-11T00:48:11.523Z. Distance 4254m </description><LineString><altitudeMode>clampToGround</altitudeMode><extrude>1</extrude><tesselate>1</tesselate><coordinates>-111.9778941,33.6021,0 -111.977904,33.6020067,0 -111.9778893,33.6016348,0 -111.9770063,33.6016374,0 -111.97700019999999,33.60139960000001,0 -111.976953,33.6012757,0 -111.97758729999998,33.601248,0 -111.97761119999998,33.601250900000004,0 -111.97763049999999,33.601250900000004,0 -111.9776545,33.6012441,0 -111.9776708,33.6012319,0 -111.9776779,33.601203700000006,0 -111.97766940000001,33.60019460000001,0 -111.97762360000002,33.60019480000001,0 -111.9775757,33.59861800000001,0 -111.97761570000002,33.59850060000001,0 -111.97811850000001,33.59851090000001,0 -111.9781303,33.59846060000001,0 -111.97813780000001,33.59843920000001,0 -111.97814380000001,33.59842840000001,0 -111.97814120000002,33.59840370000001,0 -111.97814360000002,33.598386200000014,0 -111.97816070000002,33.59831680000002,0 -111.97817010000001,33.59830160000002,0 -111.97819100000001,33.59827750000002,0 -111.97820170000001,33.59827020000002,0 -111.9782162,33.598262400000024,0 -111.97824200000001,33.59825860000002,0 -111.97868350000002,33.598381600000025,0 -111.97874940000001,33.598431000000026,0 -111.97875410000002,33.59844320000003,0 -111.97875410000002,33.59846600000002,0 -111.97870650000002,33.598572000000026,0 -111.97884010000003,33.59861430000002,0 -111.97882810000003,33.59867250000003,0 -111.97886280000003,33.599862800000025,0 -111.97948000000004,33.59985990000003,0 -111.97948940000003,33.59985770000003,0 -111.97951350000004,33.59984870000003,0 -111.97953900000005,33.59983640000003,0 -111.97955310000005,33.59982530000002,0 -111.97956780000004,33.59980460000002,0 -111.97959660000005,33.599751000000026,0 -111.97961210000005,33.59973250000002,0 -111.97963420000005,33.59971800000002,0 -111.97966770000005,33.59970740000002,0 -111.97972930000005,33.59969490000002,0 -111.97982400000005,33.59975700000002,0 -111.97966890000005,33.60016020000002,0 -111.97961360000005,33.60025230000002,0 -111.97953320000005,33.60040210000002,0 -111.97807440000005,33.60353050000002,0 -111.97800030000006,33.60372900000002,0 -111.97793130000005,33.60396120000002,0 -111.97786400000004,33.60427300000001,0 -111.97780080000004,33.60492210000002,0 -111.97757730000004,33.60492600000001,0 -111.97739460000004,33.60491240000002,0 -111.97726010000004,33.604893400000016,0 -111.97711320000003,33.60486210000001,0 -111.97685340000004,33.60478180000002,0 -111.97670570000004,33.60472150000002,0 -111.97657190000004,33.60464790000001,0 -111.97645280000005,33.604572200000014,0 -111.97632980000004,33.60448190000001,0 -111.97625400000004,33.60441830000001,0 -111.97611170000005,33.60425370000001,0 -111.97600250000005,33.60411520000001,0 -111.97594050000005,33.60400990000001,0 -111.97588100000004,33.60388170000001,0 -111.97583730000004,33.603764000000005,0 -111.97580320000003,33.60363990000001,0 -111.97576870000003,33.60346450000001,0 -111.97576700000003,33.60317820000001,0 -111.97576550000004,33.60317190000001,0 -111.97576320000003,33.60316710000001,0 -111.97570460000003,33.60308360000001,0 -111.97570840000003,33.60039570000001,0 -111.97570300000002,33.60022660000001,0 -111.97569750000002,33.59852800000001,0 -111.97570350000002,33.598279100000006,0 -111.97570990000003,33.59819230000001,0 -111.97573810000003,33.597952100000015,0 -111.97585220000003,33.59726120000001,0 -111.97563140000004,33.59722050000001,0 -111.97517250000004,33.59717580000001,0 -111.97430900000003,33.597150800000016,0 -111.97426880000003,33.597152500000014,0 -111.97424710000003,33.597157500000016,0 -111.97422350000002,33.59716820000001,0 -111.97416320000002,33.59721730000002,0 -111.97100340000001,33.59725830000002,0 -111.97055640000002,33.59725390000002,0 -111.97011340000003,33.59723360000002,0 -111.96922980000002,33.597156900000016,0 -111.96880820000003,33.59714080000002,0 -111.96661060000002,33.59714600000002,0 -111.96122950000002,33.59717240000002,0 -111.96060060000002,33.597164300000024,0 -111.96060400000003,33.59632060000003,0 -111.96059270000003,33.59578860000003,0 -111.96057130000003,33.58999860000003,0 -111.96056730000004,33.58990010000002,0 -111.96057380000003,33.58547590000003,0 </coordinates></LineString><TimeSpan><begin>2020-11-11T00:18:16.999Z</begin><end>2020-11-11T00:48:11.523Z</end></TimeSpan></Placemark><Placemark><name>Orange Tree Resort</name><address>10601 N 56th St, Scottsdale, AZ 85254</address><ExtendedData><Data name="Email"><value>syugen.zhou@gmail.com</value></Data><Data name="Category"><value>Resort hotel</value></Data><Data name="Distance"><value>0</value></Data></ExtendedData><description> Resort hotel from 2020-11-11T00:48:11.523Z to 2020-11-11T17:43:09.999Z. Distance 0m </description><Point><coordinates>-111.9603712,33.5876027,0</coordinates></Point><TimeSpan><begin>2020-11-11T00:48:11.523Z</begin><end>2020-11-11T17:43:09.999Z</end></TimeSpan></Placemark></Document></kml>
