<?xml version="1.0" encoding="UTF-8"?><kml xmlns="http://www.opengis.net/kml/2.2" xmlns:gx="http://www.google.com/kml/ext/2.2"><Document><name> Location history from 2020-11-12 to 2020-11-12 </name><open>1</open><description></description><StyleMap id="multiTrack"><Pair><key>normal</key><styleUrl>#multiTrack_n</styleUrl></Pair><Pair><key>highlight</key><styleUrl>#multiTrack_h</styleUrl></Pair></StyleMap><Style id="multiTrack_n"><IconStyle><Icon><href>https://earth.google.com/images/kml-icons/track-directional/track-0.png</href></Icon></IconStyle><LineStyle><color>99ffac59</color><width>6</width></LineStyle></Style><Style id="multiTrack_h"><IconStyle><scale>1.2</scale><Icon><href>https://earth.google.com/images/kml-icons/track-directional/track-0.png</href></Icon></IconStyle><LineStyle><color>99ffac59</color><width>8</width></LineStyle></Style><Placemark><name>Country Inn &amp; Suites by Radisson, Flagstaff Downtown, AZ</name><address>224 S Mikes Pike St, Flagstaff, AZ 86001</address><ExtendedData><Data name="Email"><value>syugen.zhou@gmail.com</value></Data><Data name="Category"><value>Hotel</value></Data><Data name="Distance"><value>0</value></Data></ExtendedData><description> Hotel from 2020-11-12T00:05:31.000Z to 2020-11-12T17:07:43.995Z. Distance 0m </description><Point><coordinates>-111.65459369999999,35.1952344,0</coordinates></Point><TimeSpan><begin>2020-11-12T00:05:31.000Z</begin><end>2020-11-12T17:07:43.995Z</end></TimeSpan></Placemark><Placemark><name>Driving</name><address></address><ExtendedData><Data name="Email"><value>syugen.zhou@gmail.com</value></Data><Data name="Category"><value>Driving</value></Data><Data name="Distance"><value>40521</value></Data></ExtendedData><description> Driving from 2020-11-12T17:07:43.995Z to 2020-11-12T17:52:03.999Z. Distance 40521m </description><LineString><altitudeMode>clampToGround</altitudeMode><extrude>1</extrude><tesselate>1</tesselate><coordinates>-111.65437349999999,35.1950103,0 -111.6552912,35.1953119,0 -111.66053029999999,35.1911554,0 -111.6612974,35.1899816,0 -111.66156289999999,35.1888593,0 -111.6612998,35.1791747,0 -111.6619284,35.1730241,0 -111.6623367,35.171904399999995,0 -111.6632471,35.1706143,0 -111.6647519,35.1694436,0 -111.6690163,35.1672807,0 -111.67401469999999,35.1631824,0 -111.67806209999999,35.158094,0 -111.68032629999999,35.15385859999999,0 -111.68579179999999,35.139995199999994,0 -111.68672609999999,35.1399773,0 -111.68704919999999,35.1400987,0 -111.68723519999999,35.1399325,0 -111.6862252,35.1369266,0 -111.68613309999999,35.1353057,0 -111.68651959999998,35.13414770000001,0 -111.693119,35.12560630000001,0 -111.6943659,35.12448050000001,0 -111.6969451,35.12307710000001,0 -111.70655609999999,35.120853300000014,0 -111.70860399999998,35.11956660000001,0 -111.71605819999999,35.110589700000006,0 -111.71760709999998,35.109724500000006,0 -111.72186969999998,35.10863940000001,0 -111.72272349999997,35.10815120000001,0 -111.73236769999998,35.098995000000016,0 -111.73305719999998,35.097391500000015,0 -111.73308489999998,35.09670540000001,0 -111.72964069999998,35.08424080000001,0 -111.72948899999999,35.08198190000002,0 -111.73040189999999,35.075170100000015,0 -111.73293439999999,35.06571980000002,0 -111.73303149999998,35.06404370000001,0 -111.73231569999999,35.05939230000001,0 -111.73373169999999,35.04035540000002,0 -111.73336939999999,35.038757900000014,0 -111.73339809999999,35.03721390000002,0 -111.73442269999998,35.03416380000002,0 -111.73400099999999,35.03072710000002,0 -111.73423469999999,35.03017290000002,0 -111.73455619999999,35.02985920000002,0 -111.73519139999999,35.02958270000002,0 -111.7398757,35.029423600000015,0 -111.7404077,35.02966590000002,0 -111.7407377,35.03017970000002,0 -111.74087209999999,35.030203900000025,0 -111.7410929,35.030110300000025,0 -111.7415176,35.02933490000002,0 -111.7414618,35.02901470000002,0 -111.7407964,35.02840360000002,0 -111.73930689999999,35.02775240000002,0 -111.73924489999999,35.02757260000002,0 -111.73950059999999,35.026828100000024,0 -111.73972509999999,35.02667710000002,0 -111.7408445,35.02692220000002,0 -111.7419549,35.028609100000025,0 -111.7424106,35.028878400000025,0 -111.7426955,35.028913800000026,0 -111.7429179,35.02880280000003,0 -111.7429241,35.02857900000003,0 -111.74228139999998,35.02836740000003,0 -111.74119599999999,35.026513100000024,0 -111.7389036,35.026012100000024,0 -111.73842090000001,35.02618410000002,0 -111.73821600000001,35.02639160000002,0 -111.73800100000001,35.02753170000002,0 -111.7376686,35.02760760000002,0 -111.73746710000002,35.027446900000015,0 -111.73747780000002,35.02723210000001,0 -111.7377598,35.02695790000002,0 -111.73771460000002,35.02610090000002,0 -111.73792410000001,35.02579950000002,0 -111.74117030000001,35.02558870000002,0 -111.74134260000001,35.025460200000026,0 -111.74137460000001,35.025268600000025,0 -111.7412551,35.02514230000003,0 -111.74103070000001,35.02510220000003,0 -111.7404044,35.02542120000003,0 -111.7397828,35.025443800000026,0 -111.73898760000002,35.02512480000002,0 -111.73779490000001,35.025192500000024,0 -111.737077,35.02502780000003,0 -111.736192,35.02527440000003,0 -111.73601190000001,35.02522370000003,0 -111.73576920000001,35.024895400000034,0 -111.7380593,35.01187560000003,0 -111.7378651,35.00991900000003,0 -111.7374095,35.00890370000003,0 -111.7342183,35.00526630000003,0 -111.7340732,35.004748000000035,0 -111.7343181,35.00371710000003,0 -111.7357696,35.00258190000003,0 -111.7385516,34.99883710000004,0 -111.73857659999999,34.998313900000035,0 -111.73735479999999,34.994583700000035,0 -111.73587149999999,34.99249360000003,0 -111.73571229999997,34.99158050000003,0 -111.73598129999998,34.99102350000003,0 -111.73877999999998,34.988937000000035,0 -111.73921209999999,34.98882650000004,0 -111.7402638,34.98897050000003,0 -111.74168879999999,34.99008650000003,0 -111.74231479999997,34.99009320000003,0 -111.74298259999998,34.98983570000003,0 -111.74427659999998,34.98869660000003,0 -111.74606219999998,34.98595140000003,0 -111.74741229999998,34.98168910000003,0 -111.74738589999998,34.98103360000003,0 -111.74615519999998,34.97943920000003,0 -111.74599599999998,34.97852780000003,0 -111.74692489999998,34.97504500000003,0 -111.74801719999998,34.97272960000004,0 -111.75005159999998,34.97115990000003,0 -111.75036819999998,34.970578200000034,0 -111.75024969999998,34.96975830000004,0 -111.74956519999999,34.96875070000004,0 -111.75010149999999,34.967022000000036,0 -111.75119739999998,34.96540520000004,0 -111.75258889999999,34.96465120000004,0 -111.7530541,34.96339580000004,0 -111.7529424,34.96037910000004,0 -111.7546448,34.956578000000036,0 -111.7546309,34.955287000000034,0 -111.75399200000001,34.953958000000036,0 -111.754098,34.95304070000004,0 -111.75368110000001,34.95157920000003,0 -111.7538875,34.94836930000003,0 -111.75293950000001,34.946524200000034,0 -111.75257640000002,34.94357000000004,0 -111.75098960000003,34.94084030000003,0 -111.74689690000002,34.936510600000034,0 -111.74308110000003,34.93469790000003,0 -111.74230530000003,34.93387890000003,0 -111.73961600000003,34.928836700000026,0 -111.73877970000002,34.92827620000003,0 -111.73500110000002,34.92750580000003,0 -111.73446660000002,34.92700130000003,0 -111.73443310000002,34.92653390000003,0 -111.73542000000002,34.924584600000024,0 -111.73539600000001,34.92323570000003,0 -111.73385310000002,34.92073270000002,0 -111.73170460000001,34.919208400000024,0 -111.73038990000002,34.91714280000003,0 -111.72992970000001,34.915593900000026,0 -111.72840250000002,34.91401450000003,0 -111.7281784,34.91352030000002,0 -111.72874300000001,34.908237300000025,0 -111.72850030000001,34.907364300000026,0 -111.7277085,34.90609130000002,0 -111.7276958,34.90561830000002,0 -111.72826220000002,34.90398860000002,0 -111.73155340000002,34.899551000000024,0 -111.73240440000002,34.89463510000002,0 -111.73443510000003,34.89057560000002,0 -111.73442800000002,34.89018440000002,0 -111.73354410000003,34.88896750000002,0 -111.73336460000003,34.888318800000015,0 -111.73347350000003,34.88788380000001,0 -111.73383420000002,34.88741010000002,0 -111.73700270000002,34.885519400000014,0 -111.73799030000002,34.88516910000001,0 -111.74319710000002,34.88529560000001,0 -111.74453970000002,34.88483640000002,0 -111.74975230000001,34.87914490000002,0 -111.75113060000001,34.87852790000002,0 -111.75200890000002,34.87761440000002,0 -111.75458590000001,34.87584080000002,0 -111.75591750000001,34.873796500000026,0 -111.75632770000001,34.873471200000026,0 -111.75661050000001,34.873427900000024,0 -111.7595897,34.87126430000002,0 </coordinates></LineString><TimeSpan><begin>2020-11-12T17:07:43.995Z</begin><end>2020-11-12T17:52:03.999Z</end></TimeSpan></Placemark><Placemark><name>Sedona</name><address>Arizona 86336</address><ExtendedData><Data name="Email"><value>syugen.zhou@gmail.com</value></Data><Data name="Category"><value></value></Data><Data name="Distance"><value>0</value></Data></ExtendedData><description>  from 2020-11-12T17:52:03.999Z to 2020-11-12T18:00:14.401Z. Distance 0m </description><Point><coordinates>-111.7609896,34.8697395,0</coordinates></Point><TimeSpan><begin>2020-11-12T17:52:03.999Z</begin><end>2020-11-12T18:00:14.401Z</end></TimeSpan></Placemark><Placemark><name>Driving</name><address></address><ExtendedData><Data name="Email"><value>syugen.zhou@gmail.com</value></Data><Data name="Category"><value>Driving</value></Data><Data name="Distance"><value>3638</value></Data></ExtendedData><description> Driving from 2020-11-12T18:00:14.401Z to 2020-11-12T18:15:17.000Z. Distance 3638m </description><LineString><altitudeMode>clampToGround</altitudeMode><extrude>1</extrude><tesselate>1</tesselate><coordinates>-111.7603146,34.870540399999996,0 -111.7604597,34.8703874,0 -111.7607593,34.870004099999996,0 -111.7608253,34.8699866,0 -111.76093209999999,34.869896,0 -111.76095239999998,34.869894099999996,0 -111.76097519999999,34.869888499999995,0 -111.7609964,34.8698795,0 -111.7610093,34.8698715,0 -111.76102759999999,34.8698558,0 -111.7610418,34.8698375,0 -111.761053,34.8698121,0 -111.7610563,34.8697851,0 -111.7610544,34.8697689,0 -111.76104740000001,34.869747999999994,0 -111.7610286,34.86972049999999,0 -111.7610734,34.86959409999999,0 -111.7610623,34.869519,0 -111.76123779999999,34.86913959999999,0 -111.76137419999999,34.86881469999999,0 -111.76194259999998,34.86729189999999,0 -111.76199479999998,34.86718889999999,0 -111.76212389999999,34.86697799999998,0 -111.76224019999998,34.86682179999998,0 -111.76240639999999,34.866641399999985,0 -111.76248359999998,34.866625099999986,0 -111.76252649999998,34.866609699999984,0 -111.76255809999996,34.86659189999999,0 -111.76270849999996,34.866485099999984,0 -111.76305049999998,34.86628239999998,0 -111.76318079999997,34.86621709999998,0 -111.76322359999996,34.86620339999998,0 -111.76328689999997,34.866190899999985,0 -111.76338169999997,34.866186599999985,0 -111.76339519999996,34.86619779999998,0 -111.76342769999997,34.86621429999999,0 -111.76348169999997,34.86623019999999,0 -111.76353319999997,34.866235899999985,0 -111.76357119999996,34.86623179999999,0 -111.76360819999996,34.866223799999986,0 -111.76364309999997,34.866210899999984,0 -111.76367479999998,34.866193299999985,0 -111.76370589999998,34.86616859999999,0 -111.76372939999999,34.86614139999999,0 -111.76374359999998,34.866119199999986,0 -111.76396749999998,34.86604029999999,0 -111.76417339999999,34.86600939999999,0 -111.7643964,34.865990299999986,0 -111.76449789999998,34.865997599999986,0 -111.76453659999999,34.866007899999985,0 -111.76466369999999,34.86605919999999,0 -111.76468169999998,34.86608309999999,0 -111.76472779999997,34.86612359999999,0 -111.76476859999998,34.866146599999986,0 -111.76481839999998,34.866161799999986,0 -111.76487619999999,34.86616519999998,0 -111.76491299999998,34.866162199999984,0 -111.76494459999998,34.86615479999998,0 -111.76497199999997,34.86613579999999,0 -111.76506129999997,34.86615279999998,0 -111.76517029999998,34.86616199999998,0 -111.76525599999998,34.86617399999999,0 -111.76535289999998,34.86619559999998,0 -111.76566029999998,34.86628369999999,0 -111.76582349999998,34.86627409999999,0 -111.76964359999998,34.86737539999999,0 -111.77006289999999,34.8674629,0 -111.77026259999997,34.8674894,0 -111.77049689999998,34.8675104,0 -111.77072859999997,34.867518000000004,0 -111.77105739999996,34.8675147,0 -111.77145079999997,34.8674795,0 -111.77182379999996,34.8674173,0 -111.77219459999996,34.867323500000005,0 -111.77234939999997,34.86727690000001,0 -111.77254019999995,34.867205000000006,0 -111.77269969999995,34.8671373,0 -111.77300449999996,34.8669911,0 -111.77317099999995,34.8668967,0 -111.77338909999995,34.8667596,0 -111.77346519999995,34.8667023,0 -111.77354609999996,34.8666561,0 -111.77845359999996,34.8633991,0 -111.77866939999997,34.8632665,0 -111.77909329999996,34.8630449,0 -111.77921409999996,34.8629886,0 -111.77942309999996,34.86290410000001,0 -111.77976899999996,34.862779,0 -111.77992719999996,34.862729800000004,0 -111.78047059999996,34.8625884,0 -111.78102489999995,34.86251130000001,0 -111.78156979999994,34.8624755,0 -111.78198479999995,34.862480600000005,0 -111.78242509999995,34.8625132,0 -111.78533339999996,34.8628833,0 -111.78575189999995,34.8629455,0 -111.78953149999995,34.863438,0 -111.79300329999997,34.863860700000004,0 -111.79296559999996,34.8640525,0 -111.79322019999996,34.8640949,0 </coordinates></LineString><TimeSpan><begin>2020-11-12T18:00:14.401Z</begin><end>2020-11-12T18:15:17.000Z</end></TimeSpan></Placemark><Placemark><name>Domino's Pizza</name><address>1890 W State Rte 89A, Sedona, AZ 86336</address><ExtendedData><Data name="Email"><value>syugen.zhou@gmail.com</value></Data><Data name="Category"><value>Pizza Delivery</value></Data><Data name="Distance"><value>0</value></Data></ExtendedData><description> Pizza Delivery from 2020-11-12T18:15:17.000Z to 2020-11-12T18:29:23.000Z. Distance 0m </description><Point><coordinates>-111.7931414,34.864247399999996,0</coordinates></Point><TimeSpan><begin>2020-11-12T18:15:17.000Z</begin><end>2020-11-12T18:29:23.000Z</end></TimeSpan></Placemark><Placemark><name>Driving</name><address></address><ExtendedData><Data name="Email"><value>syugen.zhou@gmail.com</value></Data><Data name="Category"><value>Driving</value></Data><Data name="Distance"><value>5649</value></Data></ExtendedData><description> Driving from 2020-11-12T18:29:23.000Z to 2020-11-12T18:45:37.000Z. Distance 5649m </description><LineString><altitudeMode>clampToGround</altitudeMode><extrude>1</extrude><tesselate>1</tesselate><coordinates>-111.79318549999999,34.864089299999996,0 -111.79332769999999,34.8641123,0 -111.7933613,34.8637053,0 -111.79336119999999,34.8631667,0 -111.79314509999999,34.8631712,0 -111.7931608,34.8636,0 -111.79311440000001,34.8636406,0 -111.7929234,34.8636335,0 -111.79289349999999,34.8635861,0 -111.792902,34.8634462,0 -111.79289349999999,34.8635861,0 -111.7929234,34.8636335,0 -111.79311440000001,34.8636406,0 -111.7931608,34.8636,0 -111.79314509999999,34.8631712,0 -111.79336119999999,34.8631667,0 -111.79334709999999,34.8638989,0 -111.7941579,34.8639364,0 -111.7950898,34.8639125,0 -111.8130213,34.8619238,0 -111.8143836,34.8616554,0 -111.815254,34.8614172,0 -111.81582189999999,34.861225499999996,0 -111.81590479999998,34.86144709999999,0 -111.81598299999999,34.8619786,0 -111.8161071,34.862180699999996,0 -111.81666299999999,34.8629116,0 -111.81680409999998,34.8631382,0 -111.8168642,34.8634176,0 -111.81692399999999,34.8640502,0 -111.81701069999998,34.8642539,0 -111.81767299999998,34.8653287,0 -111.81786759999999,34.8655231,0 -111.81818039999999,34.8657785,0 -111.81864209999999,34.8663098,0 -111.81875749999999,34.8664056,0 -111.82171089999999,34.8684421,0 -111.82183539999998,34.8685825,0 -111.82199959999998,34.8688509,0 -111.82205759999998,34.8690354,0 -111.82208659999998,34.8692908,0 -111.82211019999998,34.8716066,0 -111.82206449999998,34.87193920000001,0 -111.82141389999998,34.8749818,0 -111.82113689999998,34.8755582,0 -111.82107489999999,34.8757381,0 -111.82105009999998,34.879611600000004,0 -111.82100769999998,34.8802643,0 -111.82091119999997,34.880529100000004,0 -111.82037909999997,34.8810984,0 -111.82033589999998,34.8812318,0 -111.82031589999997,34.8813663,0 -111.82032779999997,34.881528700000004,0 -111.82047319999998,34.881803600000005,0 -111.82107409999998,34.882495500000005,0 -111.82147369999997,34.8832068,0 -111.82165229999998,34.88362480000001,0 -111.82170469999998,34.88382670000001,0 -111.82181119999998,34.88569210000001,0 -111.82196469999998,34.8861362,0 -111.82224009999997,34.8865813,0 -111.82246929999998,34.8873625,0 -111.82249199999997,34.8874968,0 -111.82254849999997,34.8876246,0 -111.82263869999996,34.8877529,0 -111.82147969999995,34.8886175,0 -111.81990289999996,34.8899528,0 -111.82024239999994,34.8901686,0 -111.82036029999995,34.8902205,0 -111.82041249999995,34.890265899999996,0 -111.82045049999994,34.890316,0 -111.82052759999993,34.890468899999995,0 -111.82053769999993,34.890475499999994,0 -111.82059459999994,34.8904844,0 -111.82062259999994,34.8904822,0 -111.82072269999993,34.8904208,0 -111.82086299999993,34.8902972,0 -111.82088899999994,34.890262,0 -111.82091849999993,34.890161799999994,0 -111.82099579999993,34.8900132,0 -111.82098919999994,34.8899487,0 -111.82095209999994,34.889899699999994,0 -111.82083979999993,34.88982269999999,0 -111.82078899999993,34.88980139999999,0 -111.82072549999994,34.88978949999999,0 -111.82060539999993,34.8897956,0 -111.82058049999993,34.88980279999999,0 -111.82053059999994,34.8898332,0 -111.82042739999994,34.889927799999995,0 -111.82029829999995,34.889929599999995,0 -111.82027039999994,34.8899453,0 -111.82012459999994,34.8901013,0 -111.81990289999996,34.889952799999996,0 -111.82147969999995,34.888617499999995,0 -111.82263869999996,34.887752899999995,0 -111.82321889999996,34.888309899999996,0 -111.82340309999996,34.8885447,0 -111.82353159999995,34.8888299,0 -111.82360709999996,34.889231,0 -111.82361089999996,34.8895766,0 </coordinates></LineString><TimeSpan><begin>2020-11-12T18:29:23.000Z</begin><end>2020-11-12T18:45:37.000Z</end></TimeSpan></Placemark><Placemark><name>Chuck Wagon</name><address>Dropped pin</address><ExtendedData><Data name="Email"><value>syugen.zhou@gmail.com</value></Data><Data name="Category"><value></value></Data><Data name="Distance"><value>0</value></Data></ExtendedData><description>  from 2020-11-12T18:45:37.000Z to 2020-11-12T19:05:21.000Z. Distance 0m </description><Point><coordinates>-111.8235914,34.8896314,0</coordinates></Point><TimeSpan><begin>2020-11-12T18:45:37.000Z</begin><end>2020-11-12T19:05:21.000Z</end></TimeSpan></Placemark><Placemark><name>Walking</name><address></address><ExtendedData><Data name="Email"><value>syugen.zhou@gmail.com</value></Data><Data name="Category"><value>Walking</value></Data><Data name="Distance"><value>1758</value></Data></ExtendedData><description> Walking from 2020-11-12T19:05:21.000Z to 2020-11-12T20:17:37.444Z. Distance 1758m </description><LineString><altitudeMode>clampToGround</altitudeMode><extrude>1</extrude><tesselate>1</tesselate><coordinates>-111.8234327,34.889622599999996,0 -111.823217,34.8894424,0 -111.82321970000001,34.889297199999994,0 -111.82318750000002,34.889297199999994,0 -111.82296480000001,34.88961729999999,0 -111.82274890000001,34.88975589999999,0 -111.82263490000001,34.88988679999999,0 -111.82255310000001,34.88990549999999,0 -111.82240430000002,34.890024299999986,0 -111.82191610000001,34.890158499999984,0 -111.82163310000001,34.89017719999998,0 -111.8214092,34.89029599999998,0 -111.82130310000001,34.89031299999998,0 -111.82131220000001,34.890187499999975,0 -111.82140280000002,34.89010949999997,0 -111.8214301,34.89003889999997,0 -111.8213738,34.88986939999997,0 -111.8213987,34.889751999999966,0 -111.8216008,34.889486199999965,0 -111.8216953,34.88945749999996,0 -111.82171160000001,34.88942389999996,0 -111.82168230000002,34.88939779999996,0 -111.82122910000001,34.88944509999997,0 -111.8212412,34.88925499999996,0 -111.8212804,34.889202899999965,0 -111.82127820000001,34.88915499999997,0 -111.8213162,34.88909969999997,0 -111.82123469999999,34.888821699999966,0 -111.8193768,34.89031599999996,0 -111.81887739999999,34.890443299999966,0 -111.81881189999999,34.89052999999996,0 -111.81844499999998,34.89241659999997,0 -111.8187366,34.893685299999966,0 -111.81942889999999,34.89409099999997,0 -111.81962839999998,34.89449049999997,0 -111.81972389999999,34.89521729999996,0 -111.81959789999998,34.89656709999996,0 -111.81940439999998,34.89662539999996,0 -111.81904859999997,34.896412799999965,0 -111.81898649999998,34.89641309999997,0 -111.81892049999999,34.89645389999997,0 -111.81890899999999,34.89650359999997,0 -111.81916589999999,34.89741619999997,0 -111.81877449999999,34.898558499999965,0 -111.81624719999999,34.901624199999965,0 -111.81416359999999,34.90306249999996,0 -111.81384249999999,34.902859599999964,0 -111.8136612,34.90264239999997,0 -111.8124103,34.90238139999997,0 -111.812303,34.902292299999964,0 -111.8123018,34.901776299999966,0 -111.8121811,34.901690499999965,0 -111.8107409,34.90148239999996,0 -111.8103453,34.90163729999996,0 -111.8099471,34.90192979999996,0 -111.80944149999999,34.90198909999996,0 -111.8093288,34.90193739999996,0 -111.8092163,34.90173059999996,0 -111.8091305,34.90124439999995,0 -111.8088905,34.90108369999995,0 -111.80878190000001,34.901068299999956,0 -111.80866520000001,34.901103499999955,0 -111.80855790000001,34.90108139999995,0 -111.80839160000002,34.90088779999995,0 -111.80841310000001,34.90079099999995,0 -111.80829510000001,34.90072489999995,0 -111.80826300000003,34.90057529999996,0 -111.80838630000001,34.90033779999996,0 -111.80850970000002,34.90023649999996,0 -111.80841860000001,34.90010449999996,0 -111.80841860000001,34.89993289999996,0 -111.80857420000001,34.89977439999996,0 -111.8085796,34.89964239999996,0 -111.80863860000001,34.899519199999965,0 -111.80879420000001,34.89941789999996,0 -111.80890960000002,34.89925509999996,0 -111.80890960000002,34.899167199999965,0 -111.80885320000002,34.899063699999964,0 -111.80878350000002,34.89901969999996,0 -111.80886930000001,34.89889209999996,0 -111.80908940000002,34.89882819999996,0 -111.80915110000002,34.89877099999996,0 -111.80910550000002,34.89846959999996,0 -111.80891770000002,34.89829129999996,0 -111.80869790000003,34.898339699999966,0 -111.80846450000003,34.89829339999997,0 -111.80824060000003,34.89791929999997,0 -111.80835330000002,34.89795449999997,0 -111.80846460000002,34.89792589999997,0 -111.80850890000002,34.89799519999997,0 -111.80862960000003,34.89794009999997,0 -111.80856650000003,34.89785099999997,0 -111.80860410000003,34.89782019999997,0 -111.80825150000003,34.89752649999997,0 -111.80790010000003,34.89752319999997,0 -111.80772440000001,34.89745929999997,0 -111.8075689,34.89745489999997,0 -111.80748310000001,34.89749229999997,0 -111.8074603,34.89755059999997,0 -111.8078227,34.897679399999966,0 </coordinates></LineString><TimeSpan><begin>2020-11-12T19:05:21.000Z</begin><end>2020-11-12T20:17:37.444Z</end></TimeSpan></Placemark><Placemark><name>Devil's Bridge</name><address>Devil's Bridge Trail, Sedona, AZ 86336</address><ExtendedData><Data name="Email"><value>syugen.zhou@gmail.com</value></Data><Data name="Category"><value>Tourist attraction</value></Data><Data name="Distance"><value>0</value></Data></ExtendedData><description> Tourist attraction from 2020-11-12T20:17:37.444Z to 2020-11-12T21:15:52.180Z. Distance 0m </description><Point><coordinates>-111.80769839999999,34.8976271,0</coordinates></Point><TimeSpan><begin>2020-11-12T20:17:37.444Z</begin><end>2020-11-12T21:15:52.180Z</end></TimeSpan></Placemark><Placemark><name>Walking</name><address></address><ExtendedData><Data name="Email"><value>syugen.zhou@gmail.com</value></Data><Data name="Category"><value>Walking</value></Data><Data name="Distance"><value>2398</value></Data></ExtendedData><description> Walking from 2020-11-12T21:15:52.180Z to 2020-11-12T22:02:32.000Z. Distance 2398m </description><LineString><altitudeMode>clampToGround</altitudeMode><extrude>1</extrude><tesselate>1</tesselate><coordinates>-111.80782269999999,34.8976794,0 -111.80746029999999,34.8975506,0 -111.8074831,34.8974923,0 -111.80756889999999,34.89745490000001,0 -111.8077244,34.89745930000001,0 -111.80790010000001,34.89752320000001,0 -111.8081737,34.89750890000001,0 -111.8082515,34.897526500000005,0 -111.8083051,34.89760230000001,0 -111.8084539,34.89767830000001,0 -111.80860410000001,34.897820200000005,0 -111.8085665,34.897851,0 -111.8086296,34.89794010000001,0 -111.8085665,34.897983100000005,0 -111.8085089,34.897995200000004,0 -111.8084646,34.897925900000004,0 -111.8083533,34.89795450000001,0 -111.8082406,34.897919300000005,0 -111.8084645,34.89829340000001,0 -111.8085691,34.898330800000004,0 -111.80869790000001,34.89833970000001,0 -111.80891770000001,34.898291300000004,0 -111.8091055,34.8984696,0 -111.80915110000001,34.898770999999996,0 -111.8090894,34.8988282,0 -111.8088693,34.8988921,0 -111.8088103,34.8989471,0 -111.8087835,34.8990197,0 -111.8088532,34.8990637,0 -111.8089096,34.8991672,0 -111.8089096,34.899255100000005,0 -111.80879420000001,34.8994179,0 -111.8086386,34.8995192,0 -111.8085796,34.8996424,0 -111.8085742,34.8997744,0 -111.80849909999999,34.89988,0 -111.8084186,34.8999329,0 -111.8084186,34.900104500000005,0 -111.8085097,34.900236500000005,0 -111.8084614,34.900293700000006,0 -111.8083863,34.9003378,0 -111.808263,34.9005753,0 -111.8082951,34.9007249,0 -111.80841309999998,34.900791,0 -111.8083916,34.9008878,0 -111.8085579,34.901081399999995,0 -111.8086652,34.9011035,0 -111.80878189999999,34.9010683,0 -111.80889049999998,34.901083699999994,0 -111.80904329999998,34.90115959999999,0 -111.80913049999998,34.90124439999999,0 -111.80918139999997,34.9013819,0 -111.80921629999997,34.90173059999999,0 -111.80932879999997,34.901937399999994,0 -111.80944149999998,34.9019891,0 -111.80994709999997,34.9019298,0 -111.81012409999997,34.9018364,0 -111.81034529999998,34.9016373,0 -111.81074089999997,34.9014824,0 -111.81218109999998,34.901690499999994,0 -111.81230179999997,34.901776299999995,0 -111.81230299999997,34.9022923,0 -111.81241029999997,34.902381399999996,0 -111.81333989999997,34.902598999999995,0 -111.81359369999997,34.902617299999996,0 -111.81366119999997,34.9026424,0 -111.81384249999996,34.9028596,0 -111.81416359999996,34.9030625,0 -111.81624719999996,34.90162419999999,0 -111.81695749999997,34.9008815,0 -111.81877449999996,34.8985585,0 -111.81916589999996,34.8974162,0 -111.81913459999997,34.8971837,0 -111.81890899999996,34.8965036,0 -111.81892049999996,34.8964539,0 -111.81898649999995,34.8964131,0 -111.81904859999996,34.8964128,0 -111.81932719999996,34.8966028,0 -111.81940439999995,34.8966254,0 -111.81953119999996,34.8966022,0 -111.81959789999996,34.8965671,0 -111.81961669999995,34.8965372,0 -111.81972389999996,34.8952173,0 -111.81962839999996,34.8944905,0 -111.81942889999996,34.894090999999996,0 -111.81929989999996,34.8939846,0 -111.81884229999996,34.8937691,0 -111.81873659999995,34.8936853,0 -111.81868269999995,34.8935854,0 -111.81844499999995,34.8924166,0 -111.81881189999996,34.89053,0 -111.81887739999996,34.890443299999994,0 -111.81898969999996,34.89039569999999,0 -111.81937679999996,34.890316,0 -111.81990289999996,34.889952799999996,0 -111.82041249999997,34.890265899999996,0 -111.82052759999996,34.890468899999995,0 -111.82059459999996,34.8904844,0 -111.82063909999995,34.890476199999995,0 -111.82082289999995,34.890334599999996,0 </coordinates></LineString><TimeSpan><begin>2020-11-12T21:15:52.180Z</begin><end>2020-11-12T22:02:32.000Z</end></TimeSpan></Placemark><Placemark><name>Dry Creek Trailhead</name><address>Chuck Wagon Trail, Sedona, AZ 86336</address><ExtendedData><Data name="Email"><value>syugen.zhou@gmail.com</value></Data><Data name="Category"><value>Hiking area</value></Data><Data name="Distance"><value>0</value></Data></ExtendedData><description> Hiking area from 2020-11-12T22:02:32.000Z to 2020-11-12T22:09:37.000Z. Distance 0m </description><Point><coordinates>-111.8207453,34.8904285,0</coordinates></Point><TimeSpan><begin>2020-11-12T22:02:32.000Z</begin><end>2020-11-12T22:09:37.000Z</end></TimeSpan></Placemark><Placemark><name>Driving</name><address></address><ExtendedData><Data name="Email"><value>syugen.zhou@gmail.com</value></Data><Data name="Category"><value>Driving</value></Data><Data name="Distance"><value>4083</value></Data></ExtendedData><description> Driving from 2020-11-12T22:09:37.000Z to 2020-11-12T22:31:24.000Z. Distance 4083m </description><LineString><altitudeMode>clampToGround</altitudeMode><extrude>1</extrude><tesselate>1</tesselate><coordinates>-111.82361100000001,34.8895858,0 -111.8236071,34.889231,0 -111.8235316,34.8888299,0 -111.8234031,34.8885447,0 -111.8232189,34.888309899999996,0 -111.82285089999999,34.8879363,0 -111.8226387,34.887752899999995,0 -111.82254850000001,34.8876246,0 -111.82249200000001,34.8874968,0 -111.82246930000001,34.887362499999995,0 -111.82235100000001,34.8869238,0 -111.82224010000002,34.886581299999996,0 -111.82196470000002,34.886136199999996,0 -111.82184450000003,34.885811399999994,0 -111.82181120000003,34.8856921,0 -111.82170470000003,34.8838267,0 -111.82165230000001,34.8836248,0 -111.82147370000001,34.8832068,0 -111.82124100000001,34.8827755,0 -111.82107410000002,34.8824955,0 -111.82089880000001,34.8822826,0 -111.82062610000001,34.881991000000006,0 -111.82047320000001,34.881803600000005,0 -111.82038470000002,34.8816584,0 -111.82032780000002,34.881528700000004,0 -111.82031590000003,34.8813663,0 -111.82033590000002,34.8812318,0 -111.82037910000003,34.8810984,0 -111.82070590000002,34.8807317,0 -111.82091120000003,34.880529100000004,0 -111.82100770000002,34.8802643,0 -111.82105010000004,34.879611600000004,0 -111.82102850000004,34.8777554,0 -111.82107490000003,34.8757381,0 -111.82113690000004,34.8755582,0 -111.82141390000004,34.8749818,0 -111.82162920000005,34.8740256,0 -111.82184990000005,34.8728831,0 -111.82206450000005,34.87193920000001,0 -111.82211020000005,34.8716066,0 -111.82212330000004,34.8709683,0 -111.82208660000005,34.86929080000001,0 -111.82205760000005,34.86903540000001,0 -111.82199960000004,34.868850900000005,0 -111.82183540000005,34.86858250000001,0 -111.82171090000006,34.86844210000001,0 -111.82019210000004,34.86739420000001,0 -111.81983380000005,34.86773600000001,0 -111.81975870000005,34.86779880000001,0 -111.81969030000005,34.867847200000014,0 -111.81957900000005,34.867911000000014,0 -111.81948520000005,34.86795280000001,0 -111.81927720000006,34.868013300000015,0 -111.81910840000006,34.86804480000001,0 -111.81860730000007,34.86808320000001,0 -111.81840640000007,34.86806130000001,0 -111.81792640000006,34.86794110000001,0 -111.81644890000005,34.86752470000001,0 -111.81617950000006,34.86746220000001,0 -111.81596940000006,34.86745970000001,0 -111.81573360000006,34.867503700000015,0 -111.81444890000007,34.86792980000002,0 -111.81406020000006,34.86809660000002,0 -111.81387430000007,34.868248700000024,0 -111.81375590000006,34.86841990000002,0 -111.81366950000006,34.86871320000002,0 -111.81354610000007,34.868986900000024,0 -111.81335060000006,34.86913570000002,0 -111.81319020000007,34.86918840000003,0 -111.81276960000008,34.86921220000002,0 -111.81252440000007,34.86925520000002,0 -111.81215710000008,34.869481300000025,0 -111.81181590000008,34.86974270000002,0 -111.81168520000008,34.86996730000002,0 -111.81156150000008,34.87034560000002,0 -111.81146760000009,34.87053010000002,0 -111.81131460000009,34.87063070000002,0 -111.81118000000009,34.87068670000002,0 -111.81089230000009,34.870730600000016,0 -111.80616780000008,34.87070660000002,0 -111.80622400000009,34.87199360000002,0 -111.80621350000008,34.872721800000015,0 -111.80624170000009,34.87345250000002,0 -111.80627520000009,34.87378200000002,0 -111.80683120000009,34.87378520000002,0 -111.8068340000001,34.87387740000002,0 -111.80686090000009,34.874110600000016,0 -111.80688770000009,34.87418550000002,0 -111.80694940000008,34.87424710000002,0 -111.80704590000008,34.87429330000002,0 -111.80713440000008,34.87429990000001,0 -111.80723370000008,34.87428670000001,0 -111.80738660000007,34.87424710000001,0 -111.80746440000007,34.87423390000001,0 -111.80755020000007,34.87423170000001,0 -111.80777550000008,34.87428230000001,0 -111.80779430000008,34.87431970000001,0 -111.80776480000007,34.87440110000001,0 -111.80773790000008,34.87450230000001,0 -111.80772990000007,34.87471000000001,0 </coordinates></LineString><TimeSpan><begin>2020-11-12T22:09:37.000Z</begin><end>2020-11-12T22:31:24.000Z</end></TimeSpan></Placemark><Placemark><name>Amitabha Stupa and Peace Park</name><address>2650 Pueblo Dr, Sedona, AZ 86336</address><ExtendedData><Data name="Email"><value>syugen.zhou@gmail.com</value></Data><Data name="Category"><value>Park</value></Data><Data name="Distance"><value>0</value></Data></ExtendedData><description> Park from 2020-11-12T22:31:24.000Z to 2020-11-12T22:34:36.000Z. Distance 0m </description><Point><coordinates>-111.8082635,34.875579,0</coordinates></Point><TimeSpan><begin>2020-11-12T22:31:24.000Z</begin><end>2020-11-12T22:34:36.000Z</end></TimeSpan></Placemark><Placemark><name>Walking</name><address></address><ExtendedData><Data name="Email"><value>syugen.zhou@gmail.com</value></Data><Data name="Category"><value>Walking</value></Data><Data name="Distance"><value>182</value></Data></ExtendedData><description> Walking from 2020-11-12T22:34:36.000Z to 2020-11-12T23:00:03.001Z. Distance 182m </description><LineString><altitudeMode>clampToGround</altitudeMode><extrude>1</extrude><tesselate>1</tesselate><coordinates>-111.8070288,34.8743008,0 -111.80706740000001,34.8743483,0 -111.80712100000001,34.874409899999996,0 -111.80718000000002,34.8744253,0 -111.80721760000002,34.8744492,0 -111.80725250000002,34.8744715,0 -111.80728470000001,34.874555099999995,0 -111.80730880000002,34.87463879999999,0 -111.80745360000002,34.87472459999999,0 -111.80745630000003,34.87472699999999,0 -111.80754210000003,34.8748016,0 -111.80763330000003,34.8748302,0 -111.80771650000004,34.8748764,0 -111.80776210000003,34.8749204,0 -111.80779560000003,34.8749449,0 -111.80783720000004,34.874975400000004,0 -111.80792030000003,34.8750349,0 -111.80801960000004,34.8751185,0 -111.80804370000004,34.8751471,0 -111.80793640000005,34.8751823,0 -111.80794720000004,34.8752549,0 -111.80793370000004,34.87535389999999,0 -111.80796590000003,34.875397899999996,0 -111.80802490000004,34.8754881,0 -111.80812690000003,34.875541,0 -111.80812690000003,34.875541,0 -111.80803570000003,34.8754937,0 -111.80803570000003,34.8754937,0 -111.80798740000003,34.8755388,0 -111.80796060000003,34.8755586,0 -111.80791360000003,34.875560799999995,0 -111.80787880000003,34.875544299999994,0 -111.80784390000004,34.8755421,0 -111.80774600000004,34.8755322,0 -111.80778350000003,34.8756026,0 -111.80779120000003,34.8756128,0 -111.80782650000003,34.8756598,0 -111.80794180000004,34.8757236,0 -111.80804370000004,34.875747800000006,0 -111.80815100000004,34.875783000000006,0 -111.80825830000003,34.875811600000006,0 -111.80836020000002,34.875829200000005,0 -111.80843000000003,34.875789600000004,0 -111.80849160000002,34.8757456,0 -111.80852920000004,34.8756598,0 -111.80851040000003,34.8755784,0 -111.80849530000003,34.8755247,0 -111.80848630000003,34.87549260000001,0 -111.80854530000003,34.87544630000001,0 -111.80854360000004,34.875366400000004,0 -111.80853990000003,34.87519330000001,0 -111.80839240000003,34.8750877,0 -111.80835750000004,34.87501280000001,0 -111.80836020000004,34.8749534,0 -111.80851040000005,34.874744400000004,0 -111.80854530000005,34.8746322,0 -111.80853190000005,34.8745375,0 -111.80851040000005,34.8744803,0 -111.80845950000004,34.874453900000006,0 -111.80830660000005,34.8744407,0 -111.80819430000004,34.874411900000005,0 -111.80813490000006,34.874396700000005,0 -111.80781120000005,34.87430160000001,0 </coordinates></LineString><TimeSpan><begin>2020-11-12T22:34:36.000Z</begin><end>2020-11-12T23:00:03.001Z</end></TimeSpan></Placemark><Placemark><name>Driving</name><address></address><ExtendedData><Data name="Email"><value>syugen.zhou@gmail.com</value></Data><Data name="Category"><value>Driving</value></Data><Data name="Distance"><value>45163</value></Data></ExtendedData><description> Driving from 2020-11-12T23:00:03.001Z to 2020-11-13T00:23:01.342Z. Distance 45163m </description><LineString><altitudeMode>clampToGround</altitudeMode><extrude>1</extrude><tesselate>1</tesselate><coordinates>-111.80779249999999,34.874324699999995,0 -111.80777549999999,34.8742823,0 -111.80755019999998,34.874231699999996,0 -111.80704589999998,34.8742933,0 -111.80688769999998,34.874185499999996,0 -111.80683119999999,34.8737852,0 -111.80627519999999,34.873782,0 -111.80610359999999,34.8702379,0 -111.80592279999999,34.8696661,0 -111.8056975,34.8663292,0 -111.8048276,34.8643562,0 -111.8049794,34.8634472,0 -111.80483929999998,34.8628286,0 -111.79508979999999,34.8639125,0 -111.79310299999999,34.863875400000005,0 -111.78156979999999,34.8624755,0 -111.78047059999999,34.8625884,0 -111.77921409999999,34.8629886,0 -111.77300449999998,34.8669911,0 -111.77234939999998,34.86727690000001,0 -111.77105739999999,34.8675147,0 -111.7696436,34.8673754,0 -111.7658235,34.8662741,0 -111.765723,34.8661838,0 -111.7651841,34.8660638,0 -111.76496929999999,34.8658761,0 -111.76488189999999,34.8658477,0 -111.76475319999999,34.8658598,0 -111.76470459999999,34.865897700000005,0 -111.76372799999999,34.8659483,0 -111.76362359999999,34.8658719,0 -111.76349119999999,34.8658616,0 -111.76339019999999,34.8658985,0 -111.76321359999999,34.8660718,0 -111.76243329999998,34.8665463,0 -111.76194259999998,34.8672919,0 -111.76106229999999,34.869519,0 -111.76098419999998,34.869567100000005,0 -111.76090969999998,34.86968720000001,0 -111.76081319999999,34.869742200000005,0 -111.76082689999998,34.86985620000001,0 -111.76075929999999,34.87000410000001,0 -111.75928489999998,34.87151610000001,0 -111.75680129999999,34.87317350000001,0 -111.75652549999998,34.8731797,0 -111.75642599999999,34.873238400000005,0 -111.75632769999999,34.8734712,0 -111.75591749999998,34.8737965,0 -111.7545859,34.8758408,0 -111.7537948,34.8765597,0 -111.75200889999999,34.8776144,0 -111.75113059999998,34.878527899999995,0 -111.74975229999998,34.87914489999999,0 -111.7495632,34.879298999999996,0 -111.7489609,34.88018699999999,0 -111.7483721,34.880657199999995,0 -111.74785969999999,34.881386400000004,0 -111.74453969999999,34.884836400000005,0 -111.74403589999999,34.8850941,0 -111.74319709999999,34.885295600000006,0 -111.74170659999999,34.885365300000004,0 -111.7390112,34.8850617,0 -111.73799029999998,34.885169100000006,0 -111.73700269999999,34.8855194,0 -111.73383419999999,34.887410100000004,0 -111.73347349999999,34.887883800000004,0 -111.73336459999999,34.8883188,0 -111.73339899999999,34.88864840000001,0 -111.73354409999999,34.88896750000001,0 -111.7342834,34.88986160000001,0 -111.73442799999998,34.89018440000001,0 -111.73443509999998,34.89057560000001,0 -111.73345229999998,34.892989100000015,0 -111.7324044,34.894635100000016,0 -111.73227379999999,34.89517350000002,0 -111.73225019999998,34.896296000000014,0 -111.7319699,34.89730280000001,0 -111.7318672,34.89861790000001,0 -111.7315534,34.89955100000001,0 -111.7310852,34.90024260000001,0 -111.7298496,34.90149730000002,0 -111.7282622,34.90398860000002,0 -111.7276958,34.905618300000015,0 -111.72770849999999,34.90609130000002,0 -111.72850030000001,34.90736430000002,0 -111.728743,34.90823730000002,0 -111.7282233,34.911609100000014,0 -111.728321,34.912456200000015,0 -111.72817839999999,34.913520300000016,0 -111.7282138,34.91369790000002,0 -111.7284025,34.91401450000002,0 -111.7299297,34.91559390000002,0 -111.73008630000001,34.91587880000002,0 -111.73038990000002,34.91714280000002,0 -111.73170460000001,34.91920840000002,0 -111.73221830000001,34.919604800000016,0 -111.73306870000002,34.92003200000001,0 -111.73385310000002,34.920732700000016,0 -111.73539600000001,34.92323570000001,0 -111.7354672,34.92350490000001,0 -111.73542,34.92458460000001,0 -111.7344331,34.92653390000002,0 -111.7344666,34.927001300000015,0 -111.73466540000001,34.92728970000001,0 -111.7350011,34.92750580000001,0 -111.73877970000001,34.92827620000001,0 -111.73928190000001,34.928540800000015,0 -111.739616,34.92883670000002,0 -111.74081570000001,34.93063950000002,0 -111.74230530000001,34.93387890000002,0 -111.7430811,34.93469790000002,0 -111.74689690000001,34.93651060000002,0 -111.7497664,34.93983900000002,0 -111.7509896,34.94084030000002,0 -111.7525764,34.94357000000002,0 -111.752977,34.94562750000002,0 -111.7529395,34.94652420000002,0 -111.7535611,34.94749820000002,0 -111.7538875,34.948369300000024,0 -111.7536811,34.95157920000002,0 -111.75409799999998,34.953040700000024,0 -111.753992,34.95395800000002,0 -111.7546309,34.95528700000002,0 -111.75464479999998,34.95657800000003,0 -111.75368579999999,34.95852110000003,0 -111.75329229999998,34.95977520000003,0 -111.75294239999998,34.960379100000026,0 -111.75305409999999,34.96339580000003,0 -111.75277609999998,34.96432220000003,0 -111.75258889999998,34.96465120000003,0 -111.75239839999998,34.96483000000003,0 -111.75119739999998,34.96540520000003,0 -111.75010149999997,34.96702200000003,0 -111.74958919999999,34.96837360000002,0 -111.74956519999998,34.96875070000002,0 -111.74963479999998,34.968940100000026,0 -111.75024969999998,34.969758300000024,0 -111.750401,34.97025680000002,0 -111.7503682,34.97057820000002,0 -111.75005159999999,34.971159900000025,0 -111.748319,34.972416000000024,0 -111.74801719999999,34.97272960000002,0 -111.74692489999998,34.975045000000016,0 -111.74599599999999,34.978527800000016,0 -111.745994,34.97886420000001,0 -111.74615519999999,34.979439200000016,0 -111.74642159999999,34.979883700000016,0 -111.7471082,34.98054980000001,0 -111.7473859,34.98103360000001,0 -111.7474123,34.98168910000002,0 -111.7460622,34.98595140000002,0 -111.74524789999998,34.987477200000015,0 -111.74427659999998,34.98869660000002,0 -111.74298259999998,34.98983570000002,0 -111.74231479999997,34.99009320000002,0 -111.74193639999999,34.99012440000001,0 -111.74168879999999,34.99008650000002,0 -111.74142019999998,34.989963400000015,0 -111.74061259999999,34.989166400000016,0 -111.7402638,34.988970500000015,0 -111.73921209999999,34.988826500000016,0 -111.73877999999998,34.988937000000014,0 -111.73598129999998,34.99102350000001,0 -111.73578909999998,34.99129780000001,0 -111.73571229999997,34.99158050000001,0 -111.73587149999997,34.99249360000002,0 -111.73657459999997,34.99327990000001,0 -111.73735479999998,34.994583700000014,0 -111.73857659999997,34.998313900000014,0 -111.73855159999998,34.99883710000002,0 -111.73832659999998,34.99922520000001,0 -111.73752939999997,34.999966700000016,0 -111.73662319999997,35.00120840000002,0 -111.73624409999998,35.00202500000002,0 -111.73576959999997,35.00258190000001,0 -111.73464289999997,35.00332350000001,0 -111.73431809999997,35.00371710000001,0 -111.73410859999997,35.00425360000001,0 -111.73407319999997,35.00474800000001,0 -111.73421829999997,35.00526630000001,0 -111.73740949999997,35.00890370000001,0 -111.73786509999998,35.00991900000002,0 -111.73805929999997,35.01187560000001,0 -111.73775789999998,35.01431520000001,0 -111.73735059999997,35.01586610000002,0 -111.73716649999997,35.01863770000002,0 -111.73621869999998,35.02207890000002,0 -111.73622119999997,35.02301460000002,0 -111.73600249999998,35.02436500000002,0 -111.73576919999998,35.02489540000002,0 -111.73581719999997,35.02504970000002,0 -111.73601189999998,35.02522370000002,0 -111.73619199999997,35.025274400000015,0 -111.73649089999998,35.02524320000002,0 -111.73707699999997,35.02502780000002,0 -111.73779489999998,35.02519250000002,0 -111.73898759999999,35.025124800000015,0 -111.73978279999999,35.02544380000001,0 -111.74040439999999,35.02542120000002,0 -111.74103069999998,35.02510220000001,0 -111.74125509999998,35.02514230000001,0 -111.74137459999999,35.02526860000001,0 -111.74138759999998,35.02535630000001,0 -111.74134259999998,35.02546020000001,0 -111.74117029999998,35.02558870000001,0 -111.73959239999999,35.02570030000001,0 -111.73902839999998,35.02561690000001,0 -111.73802619999998,35.02575180000001,0 -111.73792409999999,35.02579950000001,0 -111.73771459999999,35.02610090000001,0 -111.73775979999999,35.026957900000006,0 -111.7374778,35.027232100000006,0 -111.73744479999999,35.0273235,0 -111.73746709999999,35.02744690000001,0 -111.73766859999999,35.0276076,0 -111.73781779999999,35.027616800000004,0 -111.73800099999998,35.027531700000004,0 -111.73821599999998,35.026391600000004,0 -111.73842089999998,35.0261841,0 -111.73890359999997,35.0260121,0 -111.74004739999997,35.026154,0 -111.74119599999997,35.026513099999995,0 -111.74144849999998,35.02676769999999,0 -111.74208509999997,35.0281931,0 -111.74228139999997,35.0283674,0 -111.74285979999998,35.0285109,0 -111.74292409999998,35.028579,0 -111.74295149999998,35.0286989,0 -111.74291789999997,35.0288028,0 -111.74281619999996,35.0288804,0 -111.74269549999997,35.0289138,0 -111.74241059999997,35.028878399999996,0 -111.74195489999997,35.0286091,0 -111.74084449999997,35.026922199999994,0 -111.73992559999996,35.0266592,0 -111.73972509999996,35.02667709999999,0 -111.73950059999997,35.02682809999999,0 -111.73924489999996,35.02757259999999,0 -111.73930689999997,35.02775239999998,0 -111.73952679999996,35.027928199999984,0 -111.74079639999997,35.02840359999998,0 -111.74146179999997,35.02901469999999,0 -111.74151759999997,35.02933489999999,0 -111.74109289999997,35.03011029999999,0 -111.74102019999997,35.03016629999999,0 -111.74087209999996,35.03020389999999,0 -111.74073769999997,35.03017969999999,0 -111.74058029999996,35.03003879999999,0 -111.74040769999996,35.02966589999999,0 -111.74015939999997,35.02949789999999,0 -111.73987569999997,35.02942359999999,0 -111.73511609999997,35.02957709999999,0 -111.73468199999998,35.02972769999999,0 -111.73431519999997,35.02998959999999,0 -111.73399809999997,35.03047169999999,0 -111.73391839999996,35.03087399999999,0 -111.73435949999995,35.03391579999999,0 -111.73433009999995,35.034608299999995,0 -111.73339809999996,35.03721389999999,0 -111.73336939999996,35.03875789999999,0 -111.73373169999996,35.04035539999999,0 -111.73231569999996,35.05939229999999,0 -111.73303149999997,35.064043699999985,0 -111.73293439999996,35.06571979999999,0 -111.73040189999996,35.07517009999999,0 -111.72948899999996,35.08198189999999,0 -111.72964069999996,35.08424079999999,0 -111.73308489999995,35.09670539999999,0 -111.73305719999996,35.097391499999986,0 -111.73268219999996,35.09849489999999,0 -111.73236769999997,35.098994999999995,0 -111.72272349999996,35.108151199999995,0 -111.72186969999997,35.10863939999999,0 -111.72099779999996,35.10894289999999,0 -111.71876389999996,35.10936109999999,0 -111.71760709999997,35.10972449999999,0 -111.71605819999996,35.11058969999999,0 -111.71513379999996,35.11147649999999,0 -111.71282169999995,35.11437799999999,0 -111.71274219999995,35.11442259999999,0 -111.70860399999997,35.11956659999999,0 -111.70755429999997,35.12036189999999,0 -111.70655609999997,35.12085329999999,0 -111.70547809999997,35.121196899999994,0 -111.69816519999996,35.12269849999999,0 -111.69694509999997,35.123077099999996,0 -111.69540749999997,35.12379939999999,0 -111.69436589999998,35.12448049999999,0 -111.69311899999998,35.12560629999999,0 -111.68967489999997,35.13053819999999,0 -111.68699019999998,35.13346159999998,0 -111.68651959999997,35.134147699999986,0 -111.68613309999998,35.13530569999998,0 -111.68608839999996,35.13608439999999,0 -111.68622519999997,35.13692659999998,0 -111.68689809999996,35.138541299999986,0 -111.68695789999997,35.13965969999998,0 -111.68692209999998,35.13975879999998,0 -111.68682259999997,35.13983639999998,0 -111.68608169999997,35.13988769999998,0 -111.68581879999998,35.13981739999998,0 -111.68574229999997,35.139747299999975,0 -111.68497639999997,35.13976769999998,0 -111.68319469999997,35.13958769999998,0 -111.68325139999997,35.14041449999998,0 -111.68375979999998,35.14199529999998,0 -111.68376959999998,35.14353859999998,0 -111.68284169999998,35.14632469999998,0 -111.68286679999999,35.146456999999984,0 -111.68033169999998,35.15314749999998,0 -111.67866819999999,35.15660129999998,0 -111.67717849999998,35.15895789999998,0 -111.67509949999999,35.16161779999998,0 -111.67334679999998,35.16346789999998,0 -111.66982439999998,35.16643979999997,0 -111.66413209999999,35.16954109999997,0 -111.66325669999999,35.17024179999997,0 -111.66221579999998,35.17154969999997,0 -111.66167559999998,35.17286049999997,0 -111.66123999999998,35.17909269999997,0 -111.66129979999998,35.17917469999997,0 -111.66156289999998,35.188859299999976,0 -111.66129739999998,35.189981599999975,0 -111.66053029999998,35.19115539999998,0 -111.65535379999999,35.195234299999974,0 -111.65512699999998,35.195514099999976,0 -111.65492849999998,35.195480099999976,0 -111.65464669999999,35.19560099999997,0 </coordinates></LineString><TimeSpan><begin>2020-11-12T23:00:03.001Z</begin><end>2020-11-13T00:23:01.342Z</end></TimeSpan></Placemark><Placemark><name>Country Inn &amp; Suites by Radisson, Flagstaff Downtown, AZ</name><address>224 S Mikes Pike St, Flagstaff, AZ 86001</address><ExtendedData><Data name="Email"><value>syugen.zhou@gmail.com</value></Data><Data name="Category"><value>Hotel</value></Data><Data name="Distance"><value>0</value></Data></ExtendedData><description> Hotel from 2020-11-13T00:23:01.342Z to 2020-11-13T17:17:39.021Z. Distance 0m </description><Point><coordinates>-111.65459369999999,35.1952344,0</coordinates></Point><TimeSpan><begin>2020-11-13T00:23:01.342Z</begin><end>2020-11-13T17:17:39.021Z</end></TimeSpan></Placemark></Document></kml>
