<?xml version="1.0" encoding="UTF-8"?><kml xmlns="http://www.opengis.net/kml/2.2" xmlns:gx="http://www.google.com/kml/ext/2.2"><Document><name> Location history from 2021-08-08 to 2021-08-08 </name><open>1</open><description></description><StyleMap id="multiTrack"><Pair><key>normal</key><styleUrl>#multiTrack_n</styleUrl></Pair><Pair><key>highlight</key><styleUrl>#multiTrack_h</styleUrl></Pair></StyleMap><Style id="multiTrack_n"><IconStyle><Icon><href>https://earth.google.com/images/kml-icons/track-directional/track-0.png</href></Icon></IconStyle><LineStyle><color>99ffac59</color><width>6</width></LineStyle></Style><Style id="multiTrack_h"><IconStyle><scale>1.2</scale><Icon><href>https://earth.google.com/images/kml-icons/track-directional/track-0.png</href></Icon></IconStyle><LineStyle><color>99ffac59</color><width>8</width></LineStyle></Style><Placemark><name>Holiday Inn Express Grants Pass, an IHG Hotel</name><address>105 NE Agness Ave, Grants Pass, OR 97526</address><ExtendedData><Data name="Email"><value>syugen.zhou@gmail.com</value></Data><Data name="Category"><value>Hotel</value></Data><Data name="Distance"><value>0</value></Data></ExtendedData><description> Hotel from 2021-08-08T01:27:11.834Z to 2021-08-08T16:34:33.556Z. Distance 0m </description><Point><coordinates>-123.2972144,42.43813,0</coordinates></Point><TimeSpan><begin>2021-08-08T01:27:11.834Z</begin><end>2021-08-08T16:34:33.556Z</end></TimeSpan></Placemark><Placemark><name>Driving</name><address></address><ExtendedData><Data name="Email"><value>syugen.zhou@gmail.com</value></Data><Data name="Category"><value>Driving</value></Data><Data name="Distance"><value>5520</value></Data></ExtendedData><description> Driving from 2021-08-08T16:34:33.556Z to 2021-08-08T16:47:00.221Z. Distance 5520m </description><LineString><altitudeMode>clampToGround</altitudeMode><extrude>1</extrude><tesselate>1</tesselate><coordinates>-123.2984246,42.4380847,0 -123.2980129,42.438082699999995,0 -123.2978895,42.4380866,0 -123.2978681,42.43804999999999,0 -123.29780860000001,42.43789519999999,0 -123.2977736,42.43770049999999,0 -123.2977787,42.437615599999994,0 -123.2979076,42.436828199999994,0 -123.29793159999998,42.43671349999999,0 -123.2979595,42.43651209999999,0 -123.30505649999999,42.436853299999996,0 -123.3059997,42.43690719999999,0 -123.30855440000002,42.43702639999999,0 -123.30890350000001,42.437033199999995,0 -123.30907120000002,42.43703169999999,0 -123.30927350000003,42.43702439999999,0 -123.30947760000002,42.43700839999999,0 -123.30959860000002,42.436994399999996,0 -123.3097587,42.43696839999999,0 -123.31003760000002,42.43690629999999,0 -123.310122,42.43688329999999,0 -123.3103214,42.43681609999999,0 -123.3105453,42.43672639999999,0 -123.31064310000001,42.43668209999999,0 -123.31087640000001,42.43655409999999,0 -123.31108430000002,42.43641939999999,0 -123.31123280000001,42.43629839999999,0 -123.3113574,42.43618389999999,0 -123.31146600000001,42.43606299999999,0 -123.31158170000002,42.4359146,0 -123.31171780000001,42.435714499999996,0 -123.31183480000003,42.43551849999999,0 -123.31251200000003,42.4343104,0 -123.31262440000002,42.4341325,0 -123.31271770000004,42.4339975,0 -123.31278280000004,42.4339132,0 -123.31297170000005,42.433696,0 -123.31303470000003,42.4336337,0 -123.31316270000003,42.433529899999996,0 -123.31338450000003,42.4333831,0 -123.31362690000003,42.4332561,0 -123.31386620000004,42.4331598,0 -123.31396920000003,42.433123900000005,0 -123.31407940000003,42.4330899,0 -123.31431810000004,42.4330301,0 -123.31440010000003,42.4330136,0 -123.31451110000003,42.4329961,0 -123.31508500000004,42.4329315,0 -123.31533170000003,42.4329093,0 -123.31592840000003,42.4328342,0 -123.31618810000003,42.4327863,0 -123.31628300000003,42.432763599999994,0 -123.31647530000001,42.432705,0 -123.31662280000002,42.4326515,0 -123.31685860000002,42.432548999999995,0 -123.31699250000001,42.4324818,0 -123.31705510000002,42.4324462,0 -123.31735950000002,42.4322337,0 -123.31753060000003,42.4320878,0 -123.31766220000003,42.4319449,0 -123.31782550000003,42.43173039999999,0 -123.31795310000004,42.43150849999999,0 -123.31802630000004,42.431349899999994,0 -123.31822300000003,42.43079249999999,0 -123.31820180000004,42.43066429999999,0 -123.31865170000003,42.429367199999994,0 -123.31875710000003,42.42900459999999,0 -123.31892890000003,42.4284682,0 -123.31909360000003,42.428094099999996,0 -123.31918140000002,42.42792959999999,0 -123.31924240000004,42.427830699999994,0 -123.31927890000004,42.42778419999999,0 -123.31945490000005,42.42758979999999,0 -123.31966780000005,42.4274041,0 -123.31975790000006,42.42739709999999,0 -123.31977540000005,42.42739399999999,0 -123.31981020000005,42.42737929999999,0 -123.31983300000005,42.42736459999999,0 -123.31995850000004,42.427266399999986,0 -123.32037490000005,42.42706119999999,0 -123.32064080000006,42.42695549999999,0 -123.32091180000006,42.42687279999999,0 -123.32118400000006,42.426804,0 -123.32162420000007,42.4267044,0 -123.32747710000007,42.4256448,0 -123.32779510000007,42.4255935,0 -123.32810780000007,42.4255527,0 -123.32824320000006,42.425538700000004,0 -123.32938690000006,42.4254571,0 -123.32967030000005,42.4254289,0 -123.33000610000006,42.4253887,0 -123.33191380000005,42.4250551,0 -123.33250840000005,42.4249612,0 -123.33403690000004,42.4246871,0 -123.33599410000005,42.4243132,0 -123.34300770000006,42.4230516,0 -123.34341070000005,42.4229718,0 -123.34582190000006,42.4224506,0 -123.34669980000005,42.4222741,0 -123.35126540000005,42.4214416,0 </coordinates></LineString><TimeSpan><begin>2021-08-08T16:34:33.556Z</begin><end>2021-08-08T16:47:00.221Z</end></TimeSpan></Placemark><Placemark><name>Speedway Express</name><address>1650 SW Allen Creek Rd, Grants Pass, OR 97527</address><ExtendedData><Data name="Email"><value>syugen.zhou@gmail.com</value></Data><Data name="Category"><value>Gas station</value></Data><Data name="Distance"><value>0</value></Data></ExtendedData><description> Gas station from 2021-08-08T16:47:00.221Z to 2021-08-08T16:59:31.999Z. Distance 0m </description><Point><coordinates>-123.3520265,42.4207949,0</coordinates></Point><TimeSpan><begin>2021-08-08T16:47:00.221Z</begin><end>2021-08-08T16:59:31.999Z</end></TimeSpan></Placemark><Placemark><name>Driving</name><address></address><ExtendedData><Data name="Email"><value>syugen.zhou@gmail.com</value></Data><Data name="Category"><value>Driving</value></Data><Data name="Distance"><value>41002</value></Data></ExtendedData><description> Driving from 2021-08-08T16:59:31.999Z to 2021-08-08T17:32:19.000Z. Distance 41002m </description><LineString><altitudeMode>clampToGround</altitudeMode><extrude>1</extrude><tesselate>1</tesselate><coordinates>-123.3515907,42.421112,0 -123.35158609999999,42.421383000000006,0 -123.37210239999999,42.417700700000005,0 -123.41561549999999,42.41207000000001,0 -123.4157393,42.412018800000006,0 -123.42324969999999,42.41104670000001,0 -123.42338629999998,42.41106680000001,0 -123.43034879999999,42.410138200000006,0 -123.43311389999998,42.409465100000006,0 -123.43490409999998,42.40884330000001,0 -123.43698239999998,42.407932200000005,0 -123.44156419999997,42.40536240000001,0 -123.44161539999998,42.40529130000001,0 -123.44276929999998,42.40464620000001,0 -123.44289979999998,42.40462050000001,0 -123.44980639999997,42.40074030000001,0 -123.44984999999997,42.40068570000001,0 -123.46089619999998,42.39528180000001,0 -123.46098679999999,42.39527260000001,0 -123.46272739999999,42.39420470000001,0 -123.46358559999999,42.39337210000001,0 -123.46421219999999,42.39240820000001,0 -123.46472899999998,42.39098130000001,0 -123.46522049999997,42.38618810000001,0 -123.46556109999999,42.385282300000014,0 -123.4659514,42.38478010000001,0 -123.46663469999999,42.384260800000014,0 -123.46762919999999,42.383851100000015,0 -123.46845619999998,42.38369380000002,0 -123.48184749999997,42.38321890000002,0 -123.48391149999996,42.38294550000001,0 -123.49016129999997,42.38094990000002,0 -123.49142119999996,42.380330700000016,0 -123.49363849999997,42.37849210000001,0 -123.49427599999997,42.37808460000001,0 -123.49807619999997,42.37638830000001,0 -123.49876389999997,42.37590040000001,0 -123.49939469999998,42.37519530000001,0 -123.50027329999998,42.37332000000001,0 -123.50105569999998,42.37235170000001,0 -123.5017147,42.37186580000001,0 -123.5053316,42.36993520000001,0 -123.50611860000001,42.36928590000001,0 -123.50914700000001,42.365669800000006,0 -123.51013420000002,42.364941400000006,0 -123.51121770000002,42.3644764,0 -123.51704610000003,42.362624700000005,0 -123.51786150000004,42.3624622,0 -123.51929380000004,42.362379000000004,0 -123.52234080000005,42.362549400000006,0 -123.53595030000007,42.3642825,0 -123.53684480000005,42.364262700000005,0 -123.53813100000004,42.364021900000004,0 -123.54086010000005,42.3632411,0 -123.54233940000003,42.362490900000005,0 -123.54838370000003,42.3570465,0 -123.55126170000004,42.35504160000001,0 -123.55360600000003,42.352117000000014,0 -123.55490280000002,42.35084930000001,0 -123.55538290000001,42.35011990000001,0 -123.55599580000002,42.34951820000001,0 -123.55654300000002,42.34918220000001,0 -123.56065480000002,42.34726630000001,0 -123.56388020000001,42.34528590000001,0 -123.56510190000002,42.34467730000001,0 -123.57138370000003,42.34273350000001,0 -123.57214410000003,42.34240940000001,0 -123.57782360000003,42.338814000000006,0 -123.57835340000001,42.338584000000004,0 -123.57876780000002,42.33850270000001,0 -123.5802175,42.338474000000005,0 -123.58095240000002,42.338369900000004,0 -123.58147280000003,42.3381538,0 -123.58189930000002,42.3378494,0 -123.58353140000001,42.33550890000001,0 -123.58404230000002,42.33510040000001,0 -123.58463510000003,42.334783200000004,0 -123.58687210000002,42.3342151,0 -123.58765530000001,42.3338899,0 -123.5883929,42.3333516,0 -123.59160209999999,42.3300333,0 -123.59885079999998,42.320450199999996,0 -123.60446869999998,42.31554559999999,0 -123.6086395,42.3101675,0 -123.60898689999999,42.309550599999994,0 -123.61090469999999,42.3039984,0 -123.6121036,42.29878599999999,0 -123.6122967,42.29717999999999,0 -123.61243350000001,42.28958699999999,0 -123.61262530000002,42.28854039999999,0 -123.61630980000001,42.27870649999999,0 -123.61631670000001,42.27855989999999,0 -123.61966740000001,42.26923409999999,0 -123.61968620000002,42.26793599999999,0 -123.61851540000002,42.26358499999999,0 -123.61843900000001,42.2624278,0 -123.61892980000002,42.257465,0 -123.61934160000003,42.256702700000005,0 -123.61985790000001,42.2562233,0 -123.62581910000003,42.252232799999994,0 -123.62897200000003,42.2489907,0 -123.63131900000002,42.2473586,0 -123.6344464,42.2433726,0 -123.6374693,42.2384113,0 -123.6406343,42.2339968,0 -123.64181180000001,42.233077300000005,0 -123.64226910000001,42.2324557,0 -123.64285250000002,42.2309086,0 -123.6436853,42.22993640000001,0 -123.6456808,42.228543200000004,0 -123.6461851,42.2280715,0 -123.64673760000001,42.2271142,0 -123.65010110000001,42.20383330000001,0 -123.65119950000002,42.199220600000004,0 -123.65112440000003,42.1976658,0 -123.65056250000002,42.1962976,0 -123.65006760000001,42.193570300000005,0 -123.64716680000002,42.1878618,0 -123.6458257,42.1863862,0 -123.64540990000002,42.185618000000005,0 -123.64442830000002,42.180920500000006,0 -123.64455570000003,42.1794566,0 -123.64476490000003,42.1786576,0 -123.64471390000004,42.178512500000004,0 -123.64590880000003,42.17037840000001,0 -123.64597860000003,42.170295900000006,0 -123.64691060000003,42.162767200000005,0 -123.64482100000002,42.16215150000001,0 </coordinates></LineString><TimeSpan><begin>2021-08-08T16:59:31.999Z</begin><end>2021-08-08T17:32:19.000Z</end></TimeSpan></Placemark><Placemark><name>Oregon Caves Illinois Valley Visitor Center</name><address>201 Caves Hwy, Cave Junction, OR 97523</address><ExtendedData><Data name="Email"><value>syugen.zhou@gmail.com</value></Data><Data name="Category"><value>Visitor center</value></Data><Data name="Distance"><value>0</value></Data></ExtendedData><description> Visitor center from 2021-08-08T17:32:19.000Z to 2021-08-08T17:43:02.734Z. Distance 0m </description><Point><coordinates>-123.6446769,42.161836699999995,0</coordinates></Point><TimeSpan><begin>2021-08-08T17:32:19.000Z</begin><end>2021-08-08T17:43:02.734Z</end></TimeSpan></Placemark><Placemark><name>Driving</name><address></address><ExtendedData><Data name="Email"><value>syugen.zhou@gmail.com</value></Data><Data name="Category"><value>Driving</value></Data><Data name="Distance"><value>72218</value></Data></ExtendedData><description> Driving from 2021-08-08T17:43:02.734Z to 2021-08-08T19:09:08.000Z. Distance 72218m </description><LineString><altitudeMode>clampToGround</altitudeMode><extrude>1</extrude><tesselate>1</tesselate><coordinates>-123.64579069999999,42.162436199999995,0 -123.6469106,42.16276719999999,0 -123.64710409999999,42.161588599999995,0 -123.65020309999998,42.15355519999999,0 -123.65142349999998,42.151381099999995,0 -123.66635099999999,42.13159159999999,0 -123.6746841,42.11757289999999,0 -123.68355459999998,42.09264969999999,0 -123.70792329999999,42.061088299999994,0 -123.71078619999999,42.05566639999999,0 -123.71662939999999,42.0502846,0 -123.72065509999999,42.04204429999999,0 -123.72090059999998,42.0409875,0 -123.72091759999996,42.035865199999996,0 -123.72147149999996,42.0347282,0 -123.72281529999997,42.032974700000004,0 -123.72596079999998,42.0315803,0 -123.72987159999997,42.027481,0 -123.73003569999999,42.0268402,0 -123.72866749999997,42.0197747,0 -123.72916139999997,42.0156721,0 -123.72895219999997,42.0131438,0 -123.72849569999995,42.0116648,0 -123.72784179999996,42.0105783,0 -123.72741749999997,42.008882899999996,0 -123.72224649999998,42.00131689999999,0 -123.72134959999997,41.998358599999996,0 -123.72129759999997,41.996322199999994,0 -123.71936919999996,41.99274429999999,0 -123.71798839999997,41.99113989999999,0 -123.71779589999996,41.99064739999999,0 -123.71817539999996,41.9843542,0 -123.72031379999996,41.980067399999996,0 -123.72106159999997,41.97934659999999,0 -123.72208489999997,41.97880029999999,0 -123.73242969999995,41.97535609999999,0 -123.73829219999995,41.97516129999999,0 -123.73973229999994,41.974771999999994,0 -123.74142899999994,41.97379949999999,0 -123.74695059999995,41.967870199999986,0 -123.74730209999996,41.967176399999985,0 -123.74738719999995,41.96598559999999,0 -123.74519569999995,41.95887519999999,0 -123.74310169999994,41.95486469999999,0 -123.74329979999993,41.95174879999998,0 -123.74357089999994,41.950898399999986,0 -123.74998229999993,41.94114289999999,0 -123.75094949999993,41.94022189999998,0 -123.75382349999992,41.93878739999998,0 -123.75439609999994,41.93831659999998,0 -123.75551729999994,41.93679019999998,0 -123.75580029999993,41.935309699999976,0 -123.75683429999992,41.93414049999998,0 -123.75696569999992,41.93370849999998,0 -123.75689059999993,41.933415199999985,0 -123.75634739999994,41.93271679999999,0 -123.75655129999993,41.93017059999998,0 -123.75710249999995,41.929447299999985,0 -123.75724999999996,41.92877279999998,0 -123.75759469999994,41.928352699999984,0 -123.75873729999995,41.92786779999999,0 -123.75917179999995,41.92750359999999,0 -123.75969749999994,41.92665849999999,0 -123.76083749999995,41.92594909999998,0 -123.76170379999996,41.924654899999986,0 -123.76194519999996,41.92386769999999,0 -123.76284109999997,41.92266629999999,0 -123.76414329999997,41.92157859999999,0 -123.76432699999997,41.920912999999985,0 -123.76473609999998,41.920340299999985,0 -123.76762139999998,41.91845689999998,0 -123.76830949999999,41.91766459999998,0 -123.76883649999998,41.91456319999998,0 -123.77015059999998,41.912477799999984,0 -123.77004159999998,41.911292299999985,0 -123.76852099999999,41.908710499999984,0 -123.76818769999997,41.90672689999999,0 -123.7687661,41.90263639999999,0 -123.76850189999999,41.90089959999999,0 -123.7686548,41.90049229999999,0 -123.77096279999998,41.898423999999984,0 -123.77278399999997,41.897582499999984,0 -123.77557219999998,41.89714329999998,0 -123.77691459999998,41.896378599999984,0 -123.7777515,41.89553309999999,0 -123.77946139999999,41.89507589999999,0 -123.78178949999997,41.894895199999986,0 -123.78200949999997,41.89480629999999,0 -123.78236799999999,41.89442799999999,0 -123.78290079999998,41.89428329999999,0 -123.78487479999998,41.89451609999999,0 -123.78531299999997,41.89481509999999,0 -123.78562209999997,41.89564969999999,0 -123.78593619999997,41.89588049999999,0 -123.78644989999997,41.89590239999999,0 -123.78725569999997,41.89533569999999,0 -123.78865729999998,41.89475139999999,0 -123.78953259999997,41.89461379999999,0 -123.79023979999997,41.894073599999984,0 -123.79039139999998,41.89356149999999,0 -123.79062739999996,41.89333989999999,0 -123.79152329999997,41.893131199999985,0 -123.79203019999997,41.89288159999999,0 -123.79283619999997,41.89211489999999,0 -123.79294619999997,41.89168759999999,0 -123.79206779999997,41.89000639999998,0 -123.79215359999996,41.889810799999985,0 -123.79236279999996,41.889653999999986,0 -123.79279999999996,41.88952919999998,0 -123.79339549999996,41.88951719999998,0 -123.79463729999996,41.88988859999998,0 -123.79884569999996,41.88948629999998,0 -123.79998699999996,41.88964299999998,0 -123.80151849999997,41.889474299999975,0 -123.80344169999996,41.888905199999975,0 -123.80532989999996,41.88753449999997,0 -123.80622309999995,41.88724089999997,0 -123.80743879999996,41.88635479999997,0 -123.80765539999996,41.88580819999997,0 -123.80836759999998,41.88496649999997,0 -123.80905549999997,41.88466799999997,0 -123.81115009999998,41.884332699999966,0 -123.81383169999998,41.88353749999997,0 -123.81631819999997,41.88339829999997,0 -123.81759659999997,41.88351989999997,0 -123.81835839999997,41.88329459999997,0 -123.81947209999998,41.882340099999965,0 -123.82011429999997,41.88209899999996,0 -123.82405709999996,41.88231959999996,0 -123.82450639999995,41.88251029999996,0 -123.82525209999996,41.88369949999996,0 -123.82558599999996,41.88385729999996,0 -123.82597529999997,41.88388249999996,0 -123.82628599999995,41.883792699999965,0 -123.82737639999995,41.88252029999996,0 -123.82699949999996,41.88037659999996,0 -123.82729859999998,41.879520799999966,0 -123.82718589999998,41.878817899999966,0 -123.82734279999998,41.87851089999997,0 -123.8277749,41.878294999999966,0 -123.82819309999998,41.878307699999965,0 -123.82955569999999,41.87869409999996,0 -123.83053139999998,41.878642099999965,0 -123.83126669999999,41.87833219999996,0 -123.83158919999998,41.87795709999996,0 -123.83135939999998,41.87297519999996,0 -123.83232909999998,41.87139939999996,0 -123.83236929999998,41.87094099999996,0 -123.83160219999998,41.86961679999995,0 -123.83167849999997,41.86919839999995,0 -123.83356819999996,41.86778119999995,0 -123.83430449999997,41.86755049999996,0 -123.83529419999996,41.86752449999995,0 -123.83651729999997,41.86772019999995,0 -123.83838149999998,41.86884179999995,0 -123.83881999999997,41.86932009999995,0 -123.83921969999999,41.87042469999995,0 -123.83930389999998,41.87146759999995,0 -123.84034079999998,41.87394689999995,0 -123.8414687,41.874864599999945,0 -123.84202789999999,41.87507629999995,0 -123.842846,41.875062299999946,0 -123.84378899999997,41.87463219999995,0 -123.84443549999997,41.87410649999995,0 -123.84541289999999,41.872800399999946,0 -123.8460283,41.87252239999995,0 -123.8492578,41.871789799999945,0 -123.8524725,41.871651699999944,0 -123.8531779,41.87133249999995,0 -123.85370220000001,41.87081319999995,0 -123.85416360000002,41.869647699999945,0 -123.8542266,41.86779909999995,0 -123.85661820000001,41.864010299999954,0 -123.8572709,41.86358749999995,0 -123.85771210000001,41.86350959999995,0 -123.85833840000002,41.863594499999955,0 -123.86166970000002,41.86499069999996,0 -123.86243280000004,41.86510959999996,0 -123.86388260000005,41.86495379999996,0 -123.86420580000005,41.86477499999996,0 -123.86543560000005,41.863476599999956,0 -123.86873070000006,41.86199139999996,0 -123.87087780000004,41.86141809999995,0 -123.87485400000004,41.859231299999955,0 -123.87632620000002,41.85888119999995,0 -123.88030480000002,41.85881739999995,0 -123.88538190000001,41.85775269999995,0 -123.88555980000001,41.85777199999995,0 -123.8889427,41.856961399999946,0 -123.8902877,41.85631949999994,0 -123.89331460000001,41.853707799999945,0 -123.89436370000001,41.85323849999995,0 -123.9012906,41.85220549999995,0 -123.90345950000001,41.85156419999994,0 -123.9082123,41.84922629999995,0 -123.9131117,41.84855879999995,0 -123.9141789,41.848020199999944,0 -123.9157804,41.84660589999994,0 -123.9171312,41.845926299999945,0 -123.9248067,41.84449279999995,0 -123.92737110000002,41.843564699999945,0 -123.93299100000002,41.83957759999994,0 -123.93803090000003,41.836951799999945,0 -123.93936260000004,41.836492099999944,0 -123.94075070000002,41.836259299999945,0 -123.94255710000003,41.83626929999995,0 -123.94855190000003,41.83768719999995,0 -123.95258320000003,41.84034189999995,0 -123.95371620000003,41.84085359999995,0 -123.96890450000004,41.84539829999995,0 -123.98070750000004,41.84523249999995,0 -123.98259500000003,41.844888399999945,0 -123.98961590000003,41.84271479999995,0 -123.99106830000004,41.84246209999995,0 -123.99672210000004,41.84236799999995,0 -124.00326090000004,41.84353899999995,0 -124.00567350000006,41.84359799999994,0 -124.00699850000005,41.84331329999994,0 -124.00870170000006,41.84249799999995,0 -124.01015950000006,41.84223819999995,0 -124.01446150000004,41.84283049999994,0 -124.01684760000003,41.84372489999995,0 -124.01817260000003,41.84394769999995,0 -124.02063760000003,41.843755799999954,0 -124.02163540000004,41.843515099999955,0 -124.02203370000002,41.843285299999955,0 -124.02238370000003,41.84274979999996,0 -124.02252480000003,41.841487399999956,0 -124.02322320000003,41.83995619999995,0 -124.02359740000004,41.83964049999995,0 -124.02493580000002,41.83910599999995,0 -124.02844680000001,41.83935279999995,0 -124.03089700000001,41.83894809999995,0 -124.03344910000001,41.83960749999996,0 -124.03462400000001,41.83953959999996,0 -124.0355869,41.83908399999996,0 -124.0361863,41.83815479999996,0 -124.0364251,41.835092299999964,0 -124.0349445,41.83120319999996,0 -124.03429809999999,41.83056669999996,0 -124.03388629999999,41.830371799999966,0 -124.03257209999998,41.830102999999966,0 -124.03215769999998,41.82977119999997,0 -124.03205439999999,41.829376499999974,0 -124.032556,41.82608669999997,0 -124.0324594,41.82562899999998,0 -124.03183039999999,41.82465359999998,0 -124.03168959999999,41.82314949999998,0 -124.0317795,41.82290069999998,0 -124.0323561,41.822496899999976,0 -124.0342458,41.822264099999984,0 -124.03552789999999,41.82175139999998,0 -124.03618769999999,41.821219699999986,0 -124.03669729999999,41.82045909999998,0 -124.0371278,41.81853909999998,0 -124.0390536,41.816459199999976,0 -124.04337470000002,41.81479499999998,0 -124.04403180000001,41.81429419999998,0 -124.0449096,41.81319079999998,0 -124.04477880000002,41.81201229999998,0 -124.04521200000002,41.81006609999998,0 -124.04554190000003,41.809721199999984,0 -124.04632510000002,41.809280399999984,0 -124.04714220000001,41.80910079999998,0 -124.04960810000001,41.809081399999975,0 -124.05140920000001,41.80848769999998,0 -124.0519792,41.80800179999997,0 -124.0522233,41.80744299999997,0 -124.05202609999999,41.80599649999997,0 -124.05230909999999,41.804270099999975,0 -124.05294749999999,41.80313339999998,0 -124.05357109999998,41.802581599999975,0 -124.05579599999999,41.801347899999975,0 -124.05641019999999,41.80077009999998,0 -124.05873569999999,41.79663899999998,0 -124.05874639999999,41.794489299999974,0 -124.05828509999998,41.79327249999997,0 -124.05844689999999,41.79209219999997,0 -124.0589167,41.79160069999997,0 -124.0597335,41.791288699999974,0 -124.06065369999999,41.79113149999997,0 -124.07755539999998,41.79386239999997,0 -124.07926929999999,41.79455629999997,0 -124.08377009999998,41.79783569999997,0 -124.0843405,41.799023999999974,0 -124.0840612,41.80087459999997,0 -124.0836775,41.801502899999974,0 -124.0819301,41.803171399999975,0 -124.08110399999998,41.804634999999976,0 -124.08120449999998,41.80561769999998,0 -124.08146419999997,41.80597869999998,0 -124.08621549999998,41.808942999999985,0 -124.09274159999998,41.81131969999998,0 -124.09575869999998,41.811725599999974,0 -124.11019209999996,41.81138369999998,0 -124.11074739999995,41.81115859999998,0 -124.11204459999996,41.81000479999998,0 -124.11260729999996,41.809891399999984,0 -124.11288269999997,41.80996829999998,0 -124.11382559999996,41.81078559999998,0 -124.11557239999995,41.811529599999986,0 -124.11703069999996,41.81123599999999,0 -124.11822499999997,41.811229699999984,0 -124.11933199999997,41.810693399999984,0 -124.12037509999998,41.81081709999999,0 -124.12114359999997,41.81065369999998,0 -124.12174609999997,41.81036969999999,0 -124.12206969999997,41.810326799999984,0 -124.12241459999996,41.81045379999999,0 -124.12300849999997,41.81093299999999,0 -124.12413679999996,41.811302699999985,0 -124.12442639999998,41.81131539999999,0 -124.12609059999998,41.81065739999999,0 -124.12710379999999,41.81065379999999,0 -124.12762279999998,41.810511899999995,0 -124.128052,41.810103,0 -124.12810699999999,41.8097072,0 -124.12703429999999,41.8082218,0 -124.1270424,41.8080249,0 -124.12727489999997,41.8077799,0 -124.12751839999999,41.807736,0 -124.12783629999997,41.807797,0 -124.12870529999998,41.8084497,0 -124.12898329999999,41.808528499999994,0 -124.12989859999998,41.8084036,0 -124.13112979999998,41.808940899999996,0 -124.13179159999999,41.8089119,0 -124.1321866,41.80875989999999,0 -124.13791849999998,41.80488889999999,0 -124.1395922,41.80435609999999,0 -124.1451057,41.80442569999999,0 -124.1477686,41.80370659999999,0 -124.149367,41.80283759999999,0 -124.15048770000001,41.80190739999999,0 -124.15262390000001,41.79890199999999,0 -124.15488300000001,41.796760799999994,0 -124.18558920000002,41.77575589999999,0 -124.18651880000002,41.774691299999986,0 -124.18828380000002,41.77117349999999,0 -124.18927310000004,41.76990149999999,0 -124.19508340000003,41.76549909999999,0 -124.19641840000004,41.76400989999999,0 -124.19752080000004,41.761886,0 -124.19809720000003,41.76188869999999,0 </coordinates></LineString><TimeSpan><begin>2021-08-08T17:43:02.734Z</begin><end>2021-08-08T19:09:08.000Z</end></TimeSpan></Placemark><Placemark><name>Starbucks</name><address>101 N St, Crescent City, CA 95531</address><ExtendedData><Data name="Email"><value>syugen.zhou@gmail.com</value></Data><Data name="Category"><value>Coffee shop</value></Data><Data name="Distance"><value>0</value></Data></ExtendedData><description> Coffee shop from 2021-08-08T19:09:08.000Z to 2021-08-08T19:21:20.000Z. Distance 0m </description><Point><coordinates>-124.19217119999999,41.7535765,0</coordinates></Point><TimeSpan><begin>2021-08-08T19:09:08.000Z</begin><end>2021-08-08T19:21:20.000Z</end></TimeSpan></Placemark><Placemark><name>Driving</name><address></address><ExtendedData><Data name="Email"><value>syugen.zhou@gmail.com</value></Data><Data name="Category"><value>Driving</value></Data><Data name="Distance"><value>189071</value></Data></ExtendedData><description> Driving from 2021-08-08T19:21:20.463Z to 2021-08-08T22:08:12.149Z. Distance 189071m </description><LineString><altitudeMode>clampToGround</altitudeMode><extrude>1</extrude><tesselate>1</tesselate><coordinates>-124.19801629999999,41.759540699999995,0 -124.19812689999999,41.758193299999995,0 -124.19431039999999,41.75410659999999,0 -124.19339439999999,41.754580999999995,0 -124.19467579999998,41.755927099999994,0 -124.19557499999996,41.7554446,0 -124.19285419999997,41.7526361,0 -124.19264359999997,41.752538,0 -124.19228019999996,41.752504,0 -124.19208169999996,41.752548000000004,0 -124.19112929999996,41.753058300000006,0 -124.19110339999996,41.7531297,0 -124.19063269999995,41.753216,0 -124.19014899999993,41.75319820000001,0 -124.18483109999993,41.75204050000001,0 -124.18443289999993,41.75185330000001,0 -124.17661129999993,41.74614240000001,0 -124.17542999999993,41.74549460000001,0 -124.17036189999992,41.743813,0 -124.1480488999999,41.733211600000004,0 -124.14423009999992,41.730210400000004,0 -124.1430216999999,41.7288063,0 -124.14105399999991,41.7249629,0 -124.1393956999999,41.723702100000004,0 -124.1356581999999,41.715915100000004,0 -124.13548159999989,41.714657200000005,0 -124.1352812999999,41.7143607,0 -124.1350481999999,41.714224200000004,0 -124.1305971999999,41.7131755,0 -124.1301995999999,41.7129135,0 -124.12999279999988,41.7126674,0 -124.1297344999999,41.71200100000001,0 -124.12930049999989,41.711587800000004,0 -124.12883499999988,41.711403600000004,0 -124.12769829999989,41.711256000000006,0 -124.12743779999988,41.71115890000001,0 -124.12706029999988,41.71086040000001,0 -124.12696119999988,41.71048960000001,0 -124.12714399999986,41.710049500000004,0 -124.12756429999986,41.709775500000006,0 -124.12963299999986,41.709428100000004,0 -124.13091319999985,41.7090191,0 -124.13120029999985,41.708815900000005,0 -124.13141749999983,41.708522300000006,0 -124.13143879999983,41.707927500000004,0 -124.13044399999984,41.706313900000005,0 -124.13015809999985,41.706096900000006,0 -124.12942079999983,41.70583630000001,0 -124.12736319999983,41.70582430000001,0 -124.12627699999985,41.70544950000001,0 -124.12174529999986,41.70120020000001,0 -124.11903889999985,41.69666510000001,0 -124.11790439999986,41.695747800000014,0 -124.11671049999987,41.695216400000014,0 -124.11383709999987,41.69455200000001,0 -124.10889369999987,41.692442000000014,0 -124.10770899999986,41.69165070000002,0 -124.10694599999988,41.69086640000001,0 -124.10647739999986,41.689845300000016,0 -124.10653349999986,41.68920820000002,0 -124.10699829999987,41.68824710000001,0 -124.10707379999988,41.68771060000001,0 -124.10688109999987,41.68670610000001,0 -124.10698719999988,41.68607690000001,0 -124.10742479999989,41.68547480000001,0 -124.10797809999988,41.685084100000005,0 -124.10857759999988,41.68483950000001,0 -124.11289039999988,41.68388630000001,0 -124.11313229999988,41.683748600000015,0 -124.11373049999987,41.683090000000014,0 -124.11407449999987,41.68079640000001,0 -124.11392279999988,41.680122300000015,0 -124.11346249999988,41.67921360000001,0 -124.11293309999988,41.67679870000001,0 -124.11396509999989,41.67393040000001,0 -124.1130351999999,41.66675140000001,0 -124.1132520999999,41.66577350000001,0 -124.1155687999999,41.66262390000001,0 -124.11635869999989,41.66021760000001,0 -124.1163870999999,41.65965750000001,0 -124.1161652999999,41.659123500000014,0 -124.1157321999999,41.65857120000001,0 -124.11548169999989,41.657966900000005,0 -124.11547129999988,41.65752140000001,0 -124.11598039999988,41.65533000000001,0 -124.11583479999989,41.65324370000001,0 -124.11468649999988,41.64960520000002,0 -124.11445219999987,41.649237800000016,0 -124.11290329999989,41.64792650000002,0 -124.11256949999988,41.64733980000002,0 -124.11252939999989,41.64676830000002,0 -124.11273539999988,41.64623030000001,0 -124.11546549999989,41.642408300000014,0 -124.11556019999989,41.64204160000001,0 -124.11510679999988,41.64014550000002,0 -124.11531449999987,41.63840920000001,0 -124.11501649999987,41.637665900000016,0 -124.11501869999987,41.63727870000002,0 -124.11536459999986,41.63658260000001,0 -124.11569279999986,41.63448970000001,0 -124.11559329999986,41.63388120000001,0 -124.11477709999987,41.63290010000001,0 -124.11440789999986,41.632217000000004,0 -124.11262289999985,41.6302043,0 -124.11229259999985,41.628416300000005,0 -124.11246259999986,41.6268476,0 -124.11238939999986,41.626452199999996,0 -124.11159659999986,41.625003099999994,0 -124.11121959999986,41.6235624,0 -124.11017559999985,41.6224163,0 -124.10974099999986,41.6215389,0 -124.10933829999986,41.6194081,0 -124.10936369999985,41.61803209999999,0 -124.10917999999985,41.61761799999999,0 -124.10878699999985,41.617199899999996,0 -124.10702079999984,41.61604989999999,0 -124.10632609999983,41.61535909999999,0 -124.10605059999983,41.61475509999999,0 -124.10552759999982,41.61184989999999,0 -124.10508469999982,41.61070039999999,0 -124.10362919999983,41.608347099999996,0 -124.10290509999982,41.6062849,0 -124.10267559999981,41.605943399999994,0 -124.10060059999981,41.60406129999999,0 -124.10026389999982,41.60352859999999,0 -124.10001649999981,41.60265619999999,0 -124.10103979999981,41.59646019999999,0 -124.1008644999998,41.59590599999999,0 -124.1005488999998,41.59549189999999,0 -124.0991158999998,41.59458209999999,0 -124.09715349999982,41.59262889999999,0 -124.09547789999982,41.58978779999999,0 -124.09164969999983,41.58569649999999,0 -124.09075449999983,41.58510949999999,0 -124.08341739999983,41.58325269999999,0 -124.08053399999984,41.58199679999999,0 -124.07504219999984,41.57814049999999,0 -124.07394629999983,41.57698039999999,0 -124.06708579999984,41.56484759999999,0 -124.06655159999985,41.56426059999999,0 -124.06360389999985,41.56232689999999,0 -124.05613789999984,41.555397699999986,0 -124.05551449999983,41.55457819999999,0 -124.05294879999983,41.54965199999998,0 -124.05106459999983,41.543407899999984,0 -124.04887859999984,41.53846929999998,0 -124.03509599999984,41.524607899999985,0 -124.02872709999984,41.51401229999998,0 -124.02850579999985,41.513386699999984,0 -124.02841459999985,41.51243369999998,0 -124.02875129999984,41.51109299999998,0 -124.03156439999984,41.507889699999986,0 -124.03207779999984,41.50697479999998,0 -124.03305499999983,41.50292469999998,0 -124.03356639999984,41.50214689999998,0 -124.03428609999985,41.50149339999998,0 -124.04259679999983,41.49656469999998,0 -124.04305739999984,41.49618079999998,0 -124.04363239999984,41.495409199999976,0 -124.04452809999985,41.49331899999998,0 -124.04748479999985,41.490878199999976,0 -124.05063459999984,41.486945499999976,0 -124.05090559999985,41.48623119999998,0 -124.05095099999984,41.48403929999998,0 -124.05076629999984,41.48338899999998,0 -124.04674329999983,41.476890499999975,0 -124.04411829999984,41.47411349999998,0 -124.04062979999985,41.46878099999998,0 -124.03402909999984,41.460430099999975,0 -124.03215739999983,41.459045699999976,0 -124.03161599999984,41.45834629999998,0 -124.03142469999983,41.457797899999974,0 -124.03142399999983,41.45562079999998,0 -124.03114839999982,41.45474049999998,0 -124.03026069999981,41.45376979999998,0 -124.02702569999983,41.45194439999998,0 -124.02625749999982,41.451117699999976,0 -124.02511029999981,41.449050299999975,0 -124.02443669999981,41.448280599999975,0 -124.0212151999998,41.44632599999998,0 -124.0207619999998,41.445857899999986,0 -124.0203272999998,41.44511939999998,0 -124.0202858999998,41.44401949999998,0 -124.02264279999982,41.43636679999998,0 -124.02265589999982,41.43516899999998,0 -124.0223434999998,41.43427769999998,0 -124.02147719999981,41.43314299999999,0 -124.0158982999998,41.42873969999999,0 -124.01533069999981,41.42845209999998,0 -124.0144900999998,41.42821559999998,0 -124.01100889999981,41.427913299999986,0 -124.00976649999983,41.42745379999999,0 -124.0068745999998,41.42528389999999,0 -124.00606469999981,41.425011799999986,0 -123.99963289999982,41.42380249999999,0 -123.99881699999982,41.423497199999986,0 -123.99820019999981,41.42310519999999,0 -123.99766229999983,41.42253199999999,0 -123.99733319999983,41.42191839999999,0 -123.99724589999983,41.42102039999998,0 -123.99779839999984,41.41776559999999,0 -123.99825809999983,41.41691259999998,0 -123.99880089999981,41.41640549999998,0 -124.00271279999981,41.413991899999985,0 -124.00329009999982,41.41327969999999,0 -124.00352819999982,41.41266479999999,0 -124.00357989999983,41.411996599999995,0 -124.00279329999984,41.408168999999994,0 -124.00240259999984,41.40754719999999,0 -124.00159899999983,41.406850899999995,0 -124.00070969999983,41.406446499999994,0 -123.99793869999985,41.405784,0 -123.99739829999986,41.4055317,0 -123.99399519999986,41.403125100000004,0 -123.99320729999987,41.4021324,0 -123.99296739999987,41.4013852,0 -123.99296009999986,41.4006163,0 -123.99385999999987,41.396799,0 -123.99341889999985,41.39346830000001,0 -123.99490479999986,41.3885542,0 -123.99491329999985,41.37741260000001,0 -123.99443969999984,41.376206200000006,0 -123.99091089999986,41.3720765,0 -123.99063629999986,41.371377700000004,0 -123.99064389999985,41.3706221,0 -123.99164799999984,41.3684472,0 -123.99171719999984,41.3675455,0 -123.99151269999983,41.366858199999996,0 -123.98989089999982,41.364836,0 -123.98956289999983,41.3641004,0 -123.98951869999983,41.3634799,0 -123.99049259999984,41.3606454,0 -123.99117629999984,41.35971970000001,0 -123.99229859999983,41.35897490000001,0 -123.99356569999983,41.3585846,0 -123.99469929999982,41.35850070000001,0 -124.00162279999982,41.359708700000006,0 -124.00323029999984,41.3597425,0 -124.01119489999984,41.3581454,0 -124.01209209999985,41.357776,0 -124.01307179999984,41.35696780000001,0 -124.01411819999984,41.355396400000004,0 -124.01478149999983,41.35473150000001,0 -124.01624099999984,41.3539486,0 -124.01959819999982,41.353114000000005,0 -124.02034769999983,41.3528169,0 -124.02623699999982,41.3494127,0 -124.02790209999982,41.3480357,0 -124.02980409999981,41.3458107,0 -124.0311408999998,41.3433,0 -124.03380309999982,41.340823900000004,0 -124.03385529999981,41.3404759,0 -124.03366269999981,41.3399922,0 -124.03311519999981,41.339396300000004,0 -124.03111169999981,41.3379538,0 -124.03066379999983,41.337253800000006,0 -124.03067809999982,41.335350000000005,0 -124.03114719999982,41.333682,0 -124.03110259999981,41.333286400000006,0 -124.03028229999981,41.331992400000004,0 -124.02982659999981,41.32946510000001,0 -124.02997309999981,41.328645200000004,0 -124.0304195999998,41.3280067,0 -124.03371579999981,41.325771700000004,0 -124.03482129999982,41.3246503,0 -124.03825439999983,41.322935,0 -124.03850299999982,41.3226815,0 -124.04181429999983,41.3149564,0 -124.04424139999983,41.312915,0 -124.04539529999984,41.3106944,0 -124.04521839999985,41.3064052,0 -124.04505829999987,41.305994399999996,0 -124.04430749999986,41.3050776,0 -124.04420269999986,41.3045095,0 -124.04439699999985,41.303423800000004,0 -124.04461789999986,41.3031362,0 -124.04493319999985,41.3029155,0 -124.04709439999985,41.302219599999994,0 -124.04776629999984,41.30172149999999,0 -124.04960099999984,41.3009663,0 -124.05024199999983,41.3004871,0 -124.05125409999984,41.2992796,0 -124.05371799999983,41.2970313,0 -124.05854249999985,41.289754599999995,0 -124.05884999999985,41.2879362,0 -124.05937139999983,41.2868766,0 -124.06151299999985,41.28501599999999,0 -124.06190899999983,41.284794899999994,0 -124.06273479999982,41.2845891,0 -124.07547649999982,41.2847693,0 -124.07739069999984,41.285087499999996,0 -124.07854909999982,41.285492,0 -124.08154619999982,41.2870027,0 -124.08284709999982,41.2872493,0 -124.08377999999982,41.287204800000005,0 -124.08491939999982,41.28687060000001,0 -124.09109519999981,41.2836639,0 -124.09235689999983,41.282492600000005,0 -124.09302639999981,41.2813641,0 -124.0955569999998,41.2712348,0 -124.0978019999998,41.265833900000004,0 -124.09784759999981,41.265336000000005,0 -124.09671309999982,41.2605767,0 -124.09599689999982,41.2590746,0 -124.09364639999981,41.2562791,0 -124.08973879999982,41.2532526,0 -124.08737629999983,41.2500066,0 -124.08713219999984,41.2493593,0 -124.08715979999984,41.2488971,0 -124.08816349999984,41.246299,0 -124.08814489999983,41.2459252,0 -124.08736369999983,41.2446193,0 -124.08707149999982,41.2443841,0 -124.08591989999981,41.2439495,0 -124.08525329999982,41.243425099999996,0 -124.08476379999982,41.242568999999996,0 -124.08458679999984,41.240537999999994,0 -124.08370599999984,41.238541999999995,0 -124.08354069999983,41.2370276,0 -124.08392979999984,41.2359868,0 -124.08388809999984,41.235604499999994,0 -124.08331189999983,41.2345414,0 -124.08319069999985,41.2336592,0 -124.08428909999985,41.2290942,0 -124.08511519999986,41.2277568,0 -124.08580689999985,41.22699720000001,0 -124.08867509999983,41.225526200000004,0 -124.08870089999985,41.22548140000001,0 -124.09398039999984,41.2228335,0 -124.09651339999984,41.220898999999996,0 -124.09839289999982,41.2199647,0 -124.09966759999983,41.2195442,0 -124.10470499999984,41.2187172,0 -124.10602579999986,41.2180995,0 -124.10699029999986,41.2172887,0 -124.10761799999986,41.2165326,0 -124.10799719999986,41.2157774,0 -124.10994049999984,41.20796800000001,0 -124.11037089999985,41.2038457,0 -124.11075169999987,41.2029154,0 -124.11074639999988,41.2021091,0 -124.11040569999987,41.20095880000001,0 -124.11099179999987,41.19941090000001,0 -124.11083359999986,41.19802140000001,0 -124.10995649999985,41.19678730000001,0 -124.10993639999985,41.196491600000016,0 -124.11017779999986,41.196061700000016,0 -124.11098009999986,41.19550330000001,0 -124.11108799999987,41.19521890000001,0 -124.11100399999987,41.19478580000001,0 -124.11029309999988,41.19398790000001,0 -124.11020859999988,41.19351160000001,0 -124.11050099999989,41.192758800000014,0 -124.11051029999989,41.19226730000001,0 -124.1097525999999,41.19028220000002,0 -124.1079795999999,41.188548900000015,0 -124.10771149999991,41.188127500000014,0 -124.1077060999999,41.18790240000002,0 -124.10800129999988,41.18728990000002,0 -124.10796399999988,41.18566450000002,0 -124.10699999999989,41.183532300000024,0 -124.10542489999989,41.17834000000002,0 -124.1047247999999,41.17751640000002,0 -124.1028069999999,41.175982000000026,0 -124.1026299999999,41.175697400000026,0 -124.10189239999991,41.171258700000024,0 -124.10208419999991,41.16899840000003,0 -124.10249719999992,41.168117000000024,0 -124.1030550999999,41.16751230000003,0 -124.1072510999999,41.164524900000025,0 -124.11669169999992,41.16006730000002,0 -124.12189159999993,41.15883190000002,0 -124.13379789999992,41.15197910000001,0 -124.13511669999993,41.15067060000001,0 -124.13581139999992,41.14927680000001,0 -124.13640599999992,41.143058400000015,0 -124.13717129999992,41.141444100000015,0 -124.13864249999993,41.13979820000001,0 -124.14011439999992,41.13876110000001,0 -124.14615279999992,41.13653160000001,0 -124.14772389999992,41.13557880000001,0 -124.14894849999992,41.13445490000001,0 -124.14991369999991,41.13304440000001,0 -124.15049039999991,41.13122810000001,0 -124.15111739999992,41.120289100000015,0 -124.15485479999992,41.10897660000001,0 -124.15497499999994,41.10775560000002,0 -124.15422719999992,41.10099850000002,0 -124.15382469999993,41.09946080000002,0 -124.14189239999993,41.074857000000016,0 -124.14143089999992,41.071860000000015,0 -124.14195269999993,41.06571550000002,0 -124.14160429999994,41.06453280000001,0 -124.14062349999995,41.06315210000001,0 -124.13958019999995,41.06231920000001,0 -124.12806969999994,41.05630380000001,0 -124.12705659999993,41.05558050000001,0 -124.11592139999993,41.04331500000001,0 -124.11197489999994,41.03508540000001,0 -124.10736129999994,41.02778000000001,0 -124.10701759999993,41.026438500000005,0 -124.10733929999995,41.02350570000001,0 -124.10685249999995,41.01795200000001,0 -124.10698689999997,41.016761300000006,0 -124.10809259999996,41.0133758,0 -124.11038769999995,41.0094911,0 -124.11200099999996,41.004240300000006,0 -124.11357909999997,40.993823600000006,0 -124.11523169999997,40.990101,0 -124.11764039999996,40.979142200000005,0 -124.11613109999996,40.97009140000001,0 -124.11631319999996,40.93771330000001,0 -124.11319609999995,40.92901430000001,0 -124.11223669999995,40.92759460000001,0 -124.11118449999995,40.926698500000015,0 -124.09605589999994,40.91972660000002,0 -124.09456959999996,40.91842590000002,0 -124.09172479999995,40.91390060000002,0 -124.08020209999995,40.89073600000002,0 -124.07984829999994,40.88667300000002,0 -124.08276839999994,40.87731990000002,0 -124.08243789999995,40.87325520000002,0 -124.08321729999993,40.869298800000024,0 -124.08202929999995,40.85209870000002,0 -124.08232259999996,40.83212760000002,0 -124.08269159999996,40.830543200000015,0 -124.08346069999997,40.82865910000002,0 -124.08547849999997,40.82577120000001,0 -124.08722549999997,40.824127200000014,0 -124.08997529999996,40.82230610000002,0 -124.12055429999997,40.80656530000002,0 -124.12305569999997,40.80559680000002,0 -124.12595189999996,40.804957500000015,0 -124.12802909999995,40.80480850000002,0 -124.13011949999996,40.804893900000025,0 -124.13668739999996,40.805913600000025,0 -124.13795729999997,40.805905800000026,0 -124.14439079999998,40.80469040000003,0 -124.15471139999998,40.804715900000026,0 -124.15512219999998,40.80464010000002,0 -124.15601549999997,40.80420340000003,0 -124.17493629999998,40.801566300000026,0 -124.17511739999998,40.80139400000003,0 -124.17512549999998,40.80024310000003,0 -124.1750824,40.800197000000026,0 -124.1751082,40.79726870000003,0 -124.18213820000001,40.785066900000025,0 -124.18565810000001,40.78028690000003,0 -124.18580410000001,40.78024150000003,0 -124.1869221,40.77936160000002,0 -124.18918959999999,40.778134900000026,0 -124.18961029999998,40.777672000000024,0 -124.1901771,40.77652200000003,0 -124.19163520000001,40.76816000000003,0 -124.1915773,40.76632720000003,0 -124.19112899999999,40.76405880000003,0 -124.1896233,40.75962150000003,0 -124.18958909999999,40.757986100000025,0 -124.19001059999998,40.75678200000003,0 -124.19324459999997,40.75107880000002,0 -124.20028259999997,40.74471500000002,0 -124.20863809999996,40.73808920000002,0 -124.21348409999996,40.73318670000002,0 -124.21396499999996,40.732427500000014,0 -124.21441509999995,40.73111140000002,0 -124.21574269999995,40.71654350000002,0 -124.21559059999996,40.71564620000002,0 -124.21505629999997,40.714497800000025,0 -124.21038219999997,40.708285000000025,0 -124.21000969999996,40.707284800000025,0 -124.20970109999995,40.704033000000024,0 -124.20937999999995,40.70328360000002,0 -124.20843099999993,40.70219290000002,0 -124.20529499999994,40.69974430000003,0 -124.20432739999994,40.698346800000024,0 -124.20389549999993,40.69721630000003,0 -124.20102929999993,40.68324990000003,0 -124.20086159999991,40.68102250000003,0 -124.20218169999991,40.669893300000034,0 -124.20473779999992,40.66076950000003,0 -124.20519219999993,40.659765900000025,0 -124.20619249999993,40.65839120000003,0 -124.21104679999993,40.65412140000003,0 -124.21154659999992,40.653228000000034,0 -124.21174189999992,40.65163000000003,0 -124.21139749999992,40.65049160000003,0 -124.20875739999993,40.64602140000003,0 -124.20843749999993,40.64467230000003,0 -124.20853609999992,40.64384940000003,0 -124.21639609999993,40.62786100000003,0 -124.21659209999994,40.62695620000003,0 -124.21645289999994,40.62578350000003,0 -124.21582729999994,40.62459720000003,0 -124.21517029999994,40.62392440000003,0 -124.21258159999995,40.62200380000002,0 -124.21132059999995,40.621394700000025,0 -124.20986239999993,40.620982000000026,0 -124.20638849999995,40.62039170000003,0 -124.20523739999994,40.619883900000026,0 -124.20213759999994,40.61778690000002,0 -124.19800829999994,40.61631850000002,0 -124.19321179999994,40.613770200000026,0 -124.18530589999995,40.60760290000002,0 -124.18285419999994,40.60635770000002,0 -124.17779809999995,40.60469310000002,0 -124.16918789999995,40.60054740000002,0 -124.16683359999998,40.59819820000001,0 -124.16577089999996,40.59749680000001,0 -124.16099379999996,40.595551100000016,0 -124.15914239999995,40.594367700000014,0 -124.15822389999994,40.59339930000001,0 -124.15741579999992,40.59193900000002,0 -124.15674719999991,40.58983470000002,0 -124.15627549999994,40.58897860000002,0 -124.15261929999993,40.58472330000002,0 -124.14983939999993,40.57804230000002,0 -124.14920349999993,40.57529260000002,0 -124.14853049999994,40.56650370000001,0 -124.14463199999993,40.54336340000002,0 -124.14475729999994,40.54216570000002,0 -124.14528289999994,40.54072970000002,0 -124.15026109999995,40.533359600000026,0 -124.15147979999995,40.52860810000002,0 -124.15138289999993,40.52700460000002,0 -124.15084079999993,40.52572470000002,0 -124.14701829999994,40.521509700000024,0 -124.14542059999995,40.52043320000002,0 -124.12681489999997,40.51324820000002,0 -124.12577649999997,40.51255810000002,0 -124.12163749999996,40.50897370000002,0 -124.11943179999996,40.50796790000002,0 -124.10857269999995,40.505317400000024,0 -124.10425859999994,40.50470320000002,0 -124.10310869999995,40.504347600000024,0 -124.10207719999995,40.50384350000002,0 -124.10085009999996,40.502881800000026,0 -124.10012779999997,40.50194800000003,0 -124.09977289999996,40.50119110000003,0 -124.09811909999995,40.495135000000026,0 -124.09786759999997,40.49279930000002,0 -124.09824109999995,40.489079600000025,0 -124.09934859999994,40.48558420000002,0 -124.09949279999995,40.48181820000002,0 -124.10040509999996,40.47916920000002,0 -124.10006529999995,40.474664600000025,0 -124.09929359999995,40.47271950000003,0 -124.09759119999995,40.47038120000003,0 -124.09172449999996,40.46393220000003,0 -124.09083509999996,40.463258200000034,0 -124.08916929999995,40.46248830000003,0 -124.07302459999995,40.45888090000003,0 -124.07000689999994,40.458510800000035,0 -124.06870669999995,40.45805990000004,0 -124.06803239999994,40.45761320000004,0 -124.06553439999993,40.45516570000004,0 -124.06440409999992,40.454515600000036,0 -124.06308779999992,40.45417130000004,0 -124.05017209999991,40.45387560000004,0 -124.0487099999999,40.45351530000004,0 -124.0479568999999,40.45320470000004,0 -124.04295349999991,40.450207200000044,0 -124.0403618999999,40.44808760000004,0 -124.0397342999999,40.44715400000004,0 -124.03952089999991,40.44624930000004,0 -124.0396252999999,40.44346500000004,0 -124.03902219999992,40.44191870000004,0 -124.0380931999999,40.440976200000044,0 -124.03727489999991,40.44047450000004,0 -124.03627429999992,40.44008150000004,0 -124.03472229999991,40.439806300000036,0 -124.0270527999999,40.44015050000004,0 -124.02413089999989,40.440787600000036,0 -124.0174680999999,40.44324430000004,0 -124.0159183999999,40.44363470000004,0 -124.0143090999999,40.44384200000004,0 -124.0087351999999,40.443922600000036,0 -124.00735539999991,40.44377320000003,0 -124.0065267999999,40.44355390000003,0 -124.00495539999991,40.44276100000003,0 -123.9988783999999,40.43756590000003,0 -123.9979277999999,40.43699020000003,0 -123.99635369999991,40.43642770000003,0 -123.9883263999999,40.43502150000003,0 -123.98738689999989,40.43457560000004,0 -123.98611599999991,40.43339560000003,0 -123.98300559999991,40.42725980000003,0 -123.98199999999991,40.42109520000003,0 -123.97939039999991,40.416737700000034,0 -123.97876659999991,40.41607030000003,0 -123.97745609999991,40.41522860000003,0 -123.97306819999991,40.41388980000003,0 -123.97152409999991,40.41371800000003,0 -123.96657159999991,40.414010700000034,0 -123.96453879999991,40.413641800000036,0 -123.96314999999991,40.413062200000034,0 -123.9623629999999,40.41254160000003,0 -123.9499196999999,40.39877290000003,0 -123.94847439999988,40.397820900000035,0 -123.94699159999989,40.39714020000004,0 -123.94474949999989,40.396502800000036,0 -123.9363426999999,40.39544500000004,0 -123.93545409999989,40.39507920000003,0 -123.93490469999989,40.394721200000035,0 -123.93429219999989,40.39410870000004,0 -123.93307549999989,40.39229690000004,0 -123.93222159999989,40.38938740000004,0 -123.92999249999988,40.38597060000004,0 -123.92846759999988,40.38154970000004,0 -123.92762079999989,40.37754830000004,0 -123.92622409999987,40.37486010000004,0 -123.92624249999989,40.37381490000004,0 -123.92695109999988,40.37183500000005,0 -123.9269824999999,40.37075470000004,0 -123.9267061999999,40.36999510000005,0 -123.92624039999991,40.36935380000004,0 -123.92332479999989,40.366899400000044,0 -123.9201883999999,40.36280830000004,0 -123.9199270999999,40.36210690000004,0 -123.9198958999999,40.36129770000004,0 -123.92001829999988,40.360781300000035,0 -123.9210786999999,40.358822900000035,0 -123.9216132999999,40.358230800000044,0 -123.92866939999992,40.35240390000004,0 -123.92933239999992,40.35146530000004,0 -123.93009839999992,40.34840990000004,0 -123.93136659999992,40.34555980000004,0 -123.9318974999999,40.34325180000004,0 -123.93223969999991,40.34261820000004,0 -123.9338521999999,40.34061970000004,0 -123.93421799999992,40.33974770000004,0 -123.93424109999992,40.33883330000004,0 -123.93384579999992,40.33781960000004,0 -123.93339979999992,40.33727750000004,0 -123.9290159999999,40.33357450000004,0 -123.92607329999991,40.33020330000004,0 -123.92260649999992,40.32731990000004,0 -123.92188299999991,40.326116400000046,0 -123.92158279999991,40.324570600000044,0 -123.9216420999999,40.32453010000005,0 -123.9215993999999,40.32185510000005,0 -123.9218577999999,40.321654100000046,0 -123.92501119999989,40.321767600000044,0 -123.92542429999989,40.32202100000004,0 -123.9255743999999,40.32227500000004,0 -123.92552059999991,40.32267750000005,0 -123.9245498999999,40.32393510000005,0 -123.9245299999999,40.32428630000005,0 -123.92477799999989,40.324872800000044,0 -123.92616469999989,40.325272300000044,0 -123.92763489999989,40.321854000000044,0 -123.9274985999999,40.32075860000004,0 -123.9272902999999,40.32022850000004,0 -123.92674479999988,40.319474200000045,0 -123.92617809999987,40.319053500000045,0 -123.92505299999988,40.31860770000005,0 -123.92427299999987,40.31800550000005,0 -123.92296749999987,40.317299700000056,0 -123.92131389999986,40.315878600000055,0 -123.91939739999985,40.31505520000005,0 -123.91852479999984,40.314957400000054,0 -123.91808799999984,40.314819500000056,0 -123.91295209999984,40.31208490000005,0 -123.91118349999984,40.309828800000055,0 -123.90866859999984,40.30802880000005,0 </coordinates></LineString><TimeSpan><begin>2021-08-08T19:21:20.463Z</begin><end>2021-08-08T22:08:12.149Z</end></TimeSpan></Placemark><Placemark><name>Humboldt Redwoods State Park Visitor Center</name><address>Avenue of the Giants, Myers Flat, CA 95554</address><ExtendedData><Data name="Email"><value>syugen.zhou@gmail.com</value></Data><Data name="Category"><value>Visitor center</value></Data><Data name="Distance"><value>0</value></Data></ExtendedData><description> Visitor center from 2021-08-08T22:08:12.149Z to 2021-08-08T22:27:27.000Z. Distance 0m </description><Point><coordinates>-123.9082047,40.3084963,0</coordinates></Point><TimeSpan><begin>2021-08-08T22:08:12.149Z</begin><end>2021-08-08T22:27:27.000Z</end></TimeSpan></Placemark><Placemark><name>Driving</name><address></address><ExtendedData><Data name="Email"><value>syugen.zhou@gmail.com</value></Data><Data name="Category"><value>Driving</value></Data><Data name="Distance"><value>350551</value></Data></ExtendedData><description> Driving from 2021-08-08T22:27:27.000Z to 2021-08-09T03:11:00.000Z. Distance 350551m </description><LineString><altitudeMode>clampToGround</altitudeMode><extrude>1</extrude><tesselate>1</tesselate><coordinates>-123.90839159999999,40.3080973,0 -123.90847699999999,40.3078825,0 -123.91118349999999,40.3098288,0 -123.9129521,40.312084899999995,0 -123.918088,40.3148195,0 -123.9193974,40.315055199999996,0 -123.92131390000002,40.3158786,0 -123.92296750000001,40.3172997,0 -123.925053,40.318607699999994,0 -123.9261781,40.319053499999995,0 -123.92674480000001,40.319474199999995,0 -123.92729030000001,40.32022849999999,0 -123.92763490000002,40.321853999999995,0 -123.92616470000002,40.325272299999995,0 -123.92477800000002,40.32487279999999,0 -123.92453000000003,40.32428629999999,0 -123.92454990000003,40.32393509999999,0 -123.92552060000004,40.32267749999999,0 -123.92557440000002,40.32227499999999,0 -123.92542430000002,40.32202099999999,0 -123.92501120000001,40.321767599999994,0 -123.92163160000003,40.32162759999999,0 -123.92066230000002,40.317907299999995,0 -123.92001680000003,40.31712419999999,0 -123.91638080000003,40.314929499999984,0 -123.91015110000001,40.31275619999999,0 -123.90916800000002,40.31223269999999,0 -123.90559550000003,40.30876089999999,0 -123.90194110000002,40.30589779999998,0 -123.90118280000003,40.30556099999998,0 -123.89581830000003,40.30466599999998,0 -123.89410420000002,40.30390409999998,0 -123.8932487,40.30308869999998,0 -123.89278230000001,40.30224689999998,0 -123.8920733,40.29858519999998,0 -123.8936656,40.29420889999998,0 -123.8958027,40.29103499999998,0 -123.8962634,40.28983469999998,0 -123.8962611,40.28891699999998,0 -123.8957892,40.28780589999998,0 -123.89506089999999,40.28706089999998,0 -123.89242469999998,40.28559889999998,0 -123.8900231,40.28499669999998,0 -123.88911279999999,40.284593999999984,0 -123.88817629999998,40.283842499999984,0 -123.88765159999998,40.28301299999999,0 -123.88675689999998,40.279960399999986,0 -123.88258829999998,40.27548139999998,0 -123.87876439999997,40.27298049999999,0 -123.87620939999996,40.271806799999986,0 -123.87507939999998,40.27080909999999,0 -123.87394619999998,40.26861959999999,0 -123.873201,40.26778179999999,0 -123.8717563,40.26693689999999,0 -123.86920509999999,40.266180199999994,0 -123.8674121,40.26623389999999,0 -123.8662278,40.26662229999999,0 -123.8638232,40.26852349999999,0 -123.8600559,40.270717799999986,0 -123.85658009999999,40.27204819999999,0 -123.8551251,40.27204689999999,0 -123.85391,40.27160539999999,0 -123.8531282,40.27094419999999,0 -123.8519941,40.26811619999999,0 -123.8509377,40.26693509999999,0 -123.8485451,40.265398299999994,0 -123.8478584,40.26464589999999,0 -123.84702340000001,40.262376299999985,0 -123.8463856,40.261455599999984,0 -123.8444161,40.25963089999998,0 -123.83497350000002,40.25491189999998,0 -123.83367080000002,40.25384819999998,0 -123.83243240000002,40.25226869999998,0 -123.83159200000001,40.24939719999998,0 -123.83169360000002,40.24091769999998,0 -123.83333410000003,40.23515399999998,0 -123.83319580000003,40.23398409999999,0 -123.83280790000002,40.23306909999999,0 -123.83078690000002,40.230364299999984,0 -123.82853040000002,40.22582259999999,0 -123.8240612,40.221015999999985,0 -123.8169128,40.21677939999998,0 -123.8152763,40.216320799999984,0 -123.81438409999998,40.216294799999986,0 -123.81305599999997,40.216512899999984,0 -123.80909349999997,40.217861499999984,0 -123.80548929999998,40.219891099999984,0 -123.80324929999998,40.22054619999999,0 -123.80156759999998,40.220588499999984,0 -123.79989929999998,40.220254199999985,0 -123.79540399999998,40.21860539999999,0 -123.79363499999998,40.217200699999985,0 -123.79283029999998,40.215623999999984,0 -123.79198469999997,40.20866309999998,0 -123.79129449999998,40.207178099999986,0 -123.78959459999997,40.20518719999998,0 -123.78530839999998,40.20234439999999,0 -123.78346339999997,40.20160029999998,0 -123.77890999999998,40.200369999999985,0 -123.77765009999997,40.199697599999986,0 -123.77689599999998,40.198978099999984,0 -123.77552429999996,40.19686659999998,0 -123.77446799999997,40.195824799999976,0 -123.77202669999997,40.194190499999976,0 -123.77125409999995,40.19315799999998,0 -123.77088949999995,40.19189699999998,0 -123.77115799999996,40.19035969999998,0 -123.77674189999995,40.18108949999998,0 -123.78026809999994,40.17866409999998,0 -123.78113909999996,40.17721999999998,0 -123.78148629999995,40.172801899999975,0 -123.78120699999995,40.16948599999998,0 -123.78137259999995,40.16869489999998,0 -123.78224539999995,40.167298199999976,0 -123.78520469999994,40.16507349999998,0 -123.78673279999994,40.16325089999998,0 -123.78785119999995,40.16233789999998,0 -123.79057549999996,40.16092879999998,0 -123.79268749999996,40.15850039999998,0 -123.79457789999996,40.15706849999997,0 -123.79529369999999,40.15610359999997,0 -123.79551119999999,40.15486919999998,0 -123.79535029999998,40.152107299999976,0 -123.79620969999999,40.150770099999974,0 -123.80119289999999,40.14757519999997,0 -123.80851049999998,40.14094759999997,0 -123.80902899999998,40.13964339999997,0 -123.8090758,40.13870979999997,0 -123.80879549999999,40.13761719999997,0 -123.80706909999999,40.13446909999997,0 -123.8063321,40.13365289999997,0 -123.7997563,40.128615599999975,0 -123.79905600000002,40.12780639999997,0 -123.79288210000003,40.11384699999997,0 -123.79268940000003,40.11276149999997,0 -123.79294140000003,40.110764499999966,0 -123.79689100000003,40.10065959999997,0 -123.79681620000004,40.098692299999975,0 -123.79627680000003,40.09726119999997,0 -123.79450030000004,40.09460909999997,0 -123.79149530000004,40.09205469999997,0 -123.79105130000003,40.09143279999997,0 -123.78987580000003,40.08669629999997,0 -123.79070170000004,40.082082099999965,0 -123.79059180000004,40.08118429999997,0 -123.78955130000003,40.07861529999997,0 -123.78962850000003,40.07746849999997,0 -123.79099720000004,40.074551899999975,0 -123.79115430000003,40.073254499999976,0 -123.79045310000004,40.070934199999975,0 -123.78844680000003,40.06717189999997,0 -123.78771930000005,40.066401999999975,0 -123.78413610000005,40.06387289999997,0 -123.78346490000006,40.06277589999998,0 -123.78335750000004,40.061681899999975,0 -123.78360120000005,40.060910299999975,0 -123.78450390000003,40.059820699999975,0 -123.79099910000004,40.05623239999997,0 -123.79231740000003,40.05486259999997,0 -123.79279490000002,40.053787399999976,0 -123.79284010000002,40.052058599999974,0 -123.79241170000002,40.05094039999997,0 -123.79100650000001,40.04937789999997,0 -123.78944130000001,40.04854669999997,0 -123.78484220000001,40.04695369999997,0 -123.78334020000001,40.04592249999997,0 -123.77609140000001,40.03709149999997,0 -123.77570380000003,40.03610419999996,0 -123.77589860000003,40.03438759999997,0 -123.77663160000003,40.033319199999966,0 -123.77802980000004,40.03236949999997,0 -123.77928990000002,40.03193099999997,0 -123.78054750000003,40.03184269999998,0 -123.78184510000003,40.032070499999975,0 -123.78369230000003,40.03289169999998,0 -123.78542870000004,40.034258299999976,0 -123.78773270000003,40.03526649999998,0 -123.78865220000004,40.03546499999998,0 -123.79019270000005,40.03549259999998,0 -123.79124240000006,40.03522209999998,0 -123.79298070000004,40.03412499999998,0 -123.79323180000004,40.03262159999998,0 -123.79348400000005,40.03213789999998,0 -123.79395470000006,40.02843699999998,0 -123.79351350000005,40.02766369999998,0 -123.79408610000006,40.02406839999998,0 -123.79319140000005,40.02115799999998,0 -123.79135810000005,40.01914379999997,0 -123.79139200000007,40.01555339999997,0 -123.79161480000006,40.015026899999974,0 -123.79160560000005,40.01436709999997,0 -123.79097580000006,40.013194399999975,0 -123.79095460000005,40.01289329999997,0 -123.79122090000006,40.01218169999998,0 -123.78996450000005,40.00881159999997,0 -123.78745700000006,40.00577939999997,0 -123.78657200000006,40.005311299999974,0 -123.78427110000008,40.004760599999976,0 -123.78378870000009,40.00444659999998,0 -123.7833127000001,40.00360369999998,0 -123.78335970000009,40.001780499999974,0 -123.7837704000001,40.00116659999997,0 -123.78781660000008,39.997523099999974,0 -123.78843590000008,39.996311499999976,0 -123.78872830000009,39.99173529999998,0 -123.78935860000009,39.990755299999975,0 -123.79031160000008,39.99002579999998,0 -123.79409060000009,39.988356699999976,0 -123.79657500000008,39.98595579999997,0 -123.80095580000008,39.98361599999997,0 -123.80190640000008,39.982528199999976,0 -123.80234290000008,39.98153759999997,0 -123.8023873000001,39.97992379999997,0 -123.8009497000001,39.97615909999997,0 -123.7957638000001,39.96678599999997,0 -123.7948241000001,39.96558609999997,0 -123.79326290000009,39.96432089999997,0 -123.7915884000001,39.96345279999997,0 -123.78820420000011,39.96238939999997,0 -123.7825518000001,39.95910669999997,0 -123.78075420000012,39.95722599999997,0 -123.77998380000011,39.95491889999997,0 -123.7800667000001,39.95362819999997,0 -123.7810002000001,39.95121489999997,0 -123.78123760000011,39.948880399999965,0 -123.77800010000011,39.940903799999965,0 -123.7771790000001,39.93976769999997,0 -123.77085320000009,39.934524599999975,0 -123.7691213000001,39.93355099999997,0 -123.76491470000009,39.93194449999998,0 -123.76167300000009,39.92938059999997,0 -123.7611432000001,39.92871209999998,0 -123.76072620000011,39.92749759999998,0 -123.76103240000012,39.92388739999998,0 -123.7615799000001,39.922848799999976,0 -123.7647671000001,39.91981509999998,0 -123.76681240000009,39.91903439999997,0 -123.7671900000001,39.91871079999998,0 -123.76740840000008,39.91827969999998,0 -123.76720120000009,39.91714699999998,0 -123.76662810000009,39.916646999999976,0 -123.7634178000001,39.91531249999998,0 -123.7612597000001,39.91485969999998,0 -123.7586393000001,39.91305469999998,0 -123.7577912000001,39.91153109999998,0 -123.7575806000001,39.90974889999998,0 -123.75897520000011,39.90773589999998,0 -123.75899800000009,39.90703629999998,0 -123.7586531000001,39.90657699999998,0 -123.7577750000001,39.90621819999998,0 -123.75712160000009,39.906250799999974,0 -123.75471130000008,39.90725569999997,0 -123.7537186000001,39.90731569999998,0 -123.7502602000001,39.90665789999998,0 -123.74976940000008,39.90634309999998,0 -123.7495332000001,39.90603159999998,0 -123.74936690000011,39.90467269999998,0 -123.74993150000012,39.90366119999998,0 -123.75097520000013,39.90284899999998,0 -123.75242310000013,39.90237769999998,0 -123.75388470000011,39.90225349999998,0 -123.7543370000001,39.902085999999976,0 -123.75469310000013,39.90172679999998,0 -123.75474500000013,39.90112679999997,0 -123.75440490000013,39.90069199999997,0 -123.75193590000013,39.89952169999997,0 -123.75128730000013,39.89899289999997,0 -123.75063470000013,39.897858699999965,0 -123.75059900000014,39.897437299999964,0 -123.75076220000014,39.89696749999997,0 -123.75121370000014,39.896509999999964,0 -123.75335980000014,39.89555779999996,0 -123.75384520000014,39.89492589999996,0 -123.75400500000015,39.89291139999996,0 -123.75378800000016,39.892454599999965,0 -123.75302290000016,39.89194539999997,0 -123.74944850000016,39.89134149999997,0 -123.74840500000016,39.89073349999997,0 -123.74814100000017,39.890335699999966,0 -123.74771760000016,39.88795859999997,0 -123.74749320000015,39.88754689999997,0 -123.74664530000015,39.88704859999997,0 -123.74512010000015,39.88682259999997,0 -123.73977490000014,39.88750139999996,0 -123.73920660000014,39.88742879999997,0 -123.73770270000014,39.88678369999997,0 -123.73635320000014,39.88558039999997,0 -123.73276340000014,39.87905429999997,0 -123.73136240000015,39.87823759999997,0 -123.73018230000014,39.87805329999997,0 -123.72388240000014,39.87805589999997,0 -123.72271420000013,39.87780819999997,0 -123.72116570000013,39.87712579999997,0 -123.72031670000013,39.877072399999975,0 -123.71980670000012,39.877211099999975,0 -123.71810370000013,39.87858199999997,0 -123.71702070000012,39.87888519999997,0 -123.71560280000011,39.87888279999997,0 -123.7150279000001,39.87874099999997,0 -123.7136242000001,39.87769979999997,0 -123.71246750000009,39.87720459999997,0 -123.7117629000001,39.87610339999997,0 -123.7104789000001,39.87485929999997,0 -123.7103593000001,39.87448669999997,0 -123.71074390000011,39.87285719999997,0 -123.71355460000011,39.868377999999964,0 -123.71351030000012,39.86730159999996,0 -123.71297360000013,39.86610209999997,0 -123.71290180000013,39.864555899999964,0 -123.71477770000011,39.860490799999965,0 -123.71484600000012,39.85788879999996,0 -123.71682680000012,39.85431529999996,0 -123.71686580000012,39.853614999999955,0 -123.71648800000013,39.85241769999996,0 -123.71561880000013,39.85146969999995,0 -123.71478860000013,39.85096779999996,0 -123.69865510000014,39.84534979999995,0 -123.69497120000015,39.84372829999995,0 -123.68897830000014,39.83918559999995,0 -123.68426570000015,39.83709999999996,0 -123.67488710000015,39.83064419999996,0 -123.67438770000015,39.82992719999996,0 -123.67350470000014,39.82722259999996,0 -123.67256040000014,39.82642029999996,0 -123.67149780000014,39.82599769999996,0 -123.66966230000016,39.82590349999996,0 -123.66895630000016,39.82607259999996,0 -123.66559850000016,39.82771339999996,0 -123.66080480000015,39.82918809999996,0 -123.66002560000015,39.82924499999996,0 -123.65604850000015,39.828361399999956,0 -123.65406170000016,39.82851339999996,0 -123.65265480000016,39.82916819999996,0 -123.65036970000017,39.831404599999956,0 -123.64844260000015,39.832501899999954,0 -123.64722220000014,39.83289009999995,0 -123.63192690000017,39.83463199999996,0 -123.63071140000015,39.834431099999954,0 -123.62625410000014,39.83296609999996,0 -123.62091490000013,39.83265679999995,0 -123.61679920000013,39.830794699999956,0 -123.61438730000013,39.83039739999995,0 -123.61340460000014,39.82999799999996,0 -123.61147500000013,39.82820099999996,0 -123.60999450000014,39.82756889999996,0 -123.60691140000014,39.827647199999966,0 -123.60583910000013,39.827907299999964,0 -123.60398430000012,39.828838199999964,0 -123.60292950000012,39.82907449999996,0 -123.59988940000011,39.82914189999997,0 -123.59850740000012,39.828653999999965,0 -123.59471540000011,39.82613209999997,0 -123.59337980000011,39.82591579999997,0 -123.59242320000011,39.82604899999997,0 -123.5917453000001,39.82631219999996,0 -123.59020630000009,39.82742539999997,0 -123.58937980000009,39.82778309999996,0 -123.58767290000009,39.82810259999996,0 -123.58679260000007,39.82810149999996,0 -123.58598040000007,39.82789409999996,0 -123.58359810000007,39.82661179999996,0 -123.58206150000007,39.826493999999954,0 -123.58103220000008,39.82676479999996,0 -123.57866450000007,39.82807939999996,0 -123.57767070000008,39.828195399999956,0 -123.57112140000007,39.82723479999996,0 -123.56972910000007,39.82665189999996,0 -123.56449820000007,39.821704799999964,0 -123.56410320000006,39.818355199999964,0 -123.56377390000006,39.817677999999965,0 -123.56315680000007,39.81699439999997,0 -123.55987390000006,39.81509899999997,0 -123.55886970000006,39.81373589999997,0 -123.55494900000008,39.81012159999997,0 -123.55378050000007,39.80955349999997,0 -123.55118010000008,39.80936749999997,0 -123.55008110000009,39.80910489999997,0 -123.54905920000009,39.80858019999997,0 -123.54674620000009,39.80575509999997,0 -123.54423920000009,39.80416899999997,0 -123.5437202000001,39.80344479999997,0 -123.5421777000001,39.79724019999997,0 -123.5426275000001,39.79351019999997,0 -123.54245480000009,39.791760599999975,0 -123.54264430000009,39.790966599999976,0 -123.5436613000001,39.789172899999976,0 -123.5446142000001,39.78636399999997,0 -123.54460140000009,39.78580089999998,0 -123.5434418000001,39.78322739999998,0 -123.54280330000012,39.78246569999998,0 -123.54267960000013,39.78172449999998,0 -123.54377080000013,39.780003499999985,0 -123.54385310000015,39.77713559999998,0 -123.54441060000015,39.77631339999998,0 -123.54533970000016,39.77550619999998,0 -123.54584840000017,39.77475589999998,0 -123.54641110000016,39.772218699999975,0 -123.54625410000014,39.771567599999976,0 -123.54545660000014,39.77051049999998,0 -123.54538390000015,39.76912709999998,0 -123.54499360000014,39.768404499999974,0 -123.54390460000013,39.767616599999975,0 -123.54365150000012,39.76686289999998,0 -123.54380920000013,39.765589299999974,0 -123.54303720000011,39.76367639999997,0 -123.54245780000014,39.76306449999998,0 -123.54110960000013,39.762225799999975,0 -123.53923520000012,39.759556599999975,0 -123.53789100000013,39.75854179999998,0 -123.53710240000014,39.75745519999998,0 -123.53682640000014,39.75443269999998,0 -123.53504290000015,39.75155909999998,0 -123.53383810000014,39.75036989999998,0 -123.53247630000014,39.74958449999998,0 -123.52649360000014,39.74731569999998,0 -123.51594280000015,39.74080699999998,0 -123.51493980000015,39.73984679999998,0 -123.51430820000016,39.73888399999998,0 -123.51389020000016,39.73765079999998,0 -123.51363990000017,39.73523219999998,0 -123.51318160000018,39.73432949999998,0 -123.51197860000018,39.733029799999976,0 -123.50557620000019,39.72816589999998,0 -123.5042615000002,39.72641499999998,0 -123.4988836000002,39.71578679999998,0 -123.49737630000021,39.71440099999998,0 -123.49240880000019,39.71121849999998,0 -123.4899186000002,39.70849929999998,0 -123.48882630000018,39.70673869999998,0 -123.48325800000019,39.691554199999985,0 -123.48299440000018,39.69010239999998,0 -123.48307160000017,39.68768219999998,0 -123.48280730000018,39.687288299999985,0 -123.4788500000002,39.68458099999999,0 -123.4776894000002,39.68339419999999,0 -123.47618240000018,39.680842699999985,0 -123.47559420000019,39.67255929999999,0 -123.47645370000019,39.66192119999999,0 -123.4776846000002,39.659524099999985,0 -123.4776383000002,39.65843439999999,0 -123.47645920000019,39.65612989999999,0 -123.47634460000019,39.64828679999999,0 -123.47610070000019,39.64727579999999,0 -123.47312090000018,39.64212329999999,0 -123.47126060000019,39.640261999999986,0 -123.46804020000019,39.63404139999999,0 -123.46723540000018,39.63320669999999,0 -123.46391450000017,39.63141549999999,0 -123.46297210000017,39.63031819999999,0 -123.46231470000018,39.62841989999999,0 -123.46237000000019,39.62742219999999,0 -123.46467790000018,39.623502999999985,0 -123.46512240000017,39.620050499999984,0 -123.46483320000019,39.61933279999999,0 -123.46426410000016,39.61863779999999,0 -123.45962450000016,39.61518139999998,0 -123.45893420000016,39.61410459999998,0 -123.45876770000015,39.612966499999985,0 -123.45907770000015,39.61056049999999,0 -123.45855300000017,39.609621099999984,0 -123.45709080000016,39.608485999999985,0 -123.45647290000015,39.60775409999998,0 -123.45378910000015,39.601779399999984,0 -123.45385470000014,39.60103559999998,0 -123.45464830000013,39.598879699999976,0 -123.45418490000014,39.59629989999998,0 -123.45431250000014,39.59431189999998,0 -123.45404710000015,39.59329899999998,0 -123.45123130000016,39.58887589999998,0 -123.44507700000015,39.583522799999976,0 -123.44416570000016,39.581043799999975,0 -123.44349780000016,39.58025179999998,0 -123.44163430000015,39.57923689999998,0 -123.44096140000016,39.578661499999974,0 -123.43895100000016,39.575528399999975,0 -123.43808260000017,39.57267269999997,0 -123.43759680000018,39.57194999999997,0 -123.43622720000018,39.57072509999997,0 -123.43593850000016,39.57027249999997,0 -123.43485240000018,39.56519669999997,0 -123.43318940000016,39.56227309999997,0 -123.43275880000016,39.557823899999974,0 -123.43237020000016,39.55718999999997,0 -123.42536310000017,39.55127419999997,0 -123.42482810000017,39.55034149999997,0 -123.42492480000017,39.54785709999997,0 -123.42418990000016,39.54498409999997,0 -123.42379230000016,39.544325899999976,0 -123.42138510000017,39.54252269999997,0 -123.41889390000017,39.54123809999997,0 -123.41793240000017,39.54010409999997,0 -123.41714500000018,39.53715199999998,0 -123.41651000000017,39.53650799999998,0 -123.41427010000017,39.53513169999997,0 -123.41305550000017,39.53465729999997,0 -123.41191870000017,39.534549299999966,0 -123.41056330000016,39.53484629999996,0 -123.40881400000018,39.535874599999964,0 -123.40767070000017,39.536190299999966,0 -123.40680580000019,39.53618379999997,0 -123.40571210000017,39.53586899999996,0 -123.40467480000018,39.53502729999996,0 -123.40436600000017,39.534383099999964,0 -123.40462800000016,39.53168189999997,0 -123.40427900000016,39.530426899999966,0 -123.40310750000017,39.528740199999966,0 -123.40122200000019,39.527061999999965,0 -123.39836460000019,39.52371489999996,0 -123.39783110000019,39.52332059999996,0 -123.39661810000017,39.522905499999965,0 -123.39441970000017,39.52256949999997,0 -123.39375760000017,39.522246999999965,0 -123.39303480000018,39.52153049999996,0 -123.39015650000019,39.515320999999965,0 -123.38514120000018,39.50979849999997,0 -123.38159130000018,39.50709999999996,0 -123.3779776000002,39.502289199999964,0 -123.3761366000002,39.50074509999996,0 -123.37390890000017,39.49939989999996,0 -123.36925230000017,39.49741299999995,0 -123.36515700000017,39.494285099999956,0 -123.36352980000018,39.492119899999956,0 -123.36286950000017,39.48997239999996,0 -123.36064370000017,39.48621629999995,0 -123.36055790000019,39.484933599999955,0 -123.36371430000018,39.476805599999956,0 -123.36340430000018,39.47405889999996,0 -123.3634867000002,39.47395069999995,0 -123.3635719000002,39.472943399999956,0 -123.3633819000002,39.47231679999995,0 -123.3628023000002,39.471507899999956,0 -123.3619011000002,39.470908899999955,0 -123.35610950000019,39.469156499999954,0 -123.35513980000019,39.46851909999996,0 -123.35359610000019,39.46649609999995,0 -123.35153690000018,39.46536509999995,0 -123.3507099000002,39.464187299999956,0 -123.3485983000002,39.45665879999996,0 -123.3479853000002,39.45077699999996,0 -123.3480912000002,39.45006019999995,0 -123.34860080000018,39.44900329999995,0 -123.35581140000018,39.43993969999995,0 -123.35732150000017,39.43591479999995,0 -123.35730820000018,39.43227859999995,0 -123.35671620000018,39.43037999999995,0 -123.35571210000018,39.42855699999995,0 -123.35372550000018,39.42635649999995,0 -123.35183230000017,39.42496859999994,0 -123.34919830000017,39.423606899999946,0 -123.34394270000017,39.42209199999995,0 -123.34222860000015,39.421339599999946,0 -123.34092590000016,39.42036119999995,0 -123.34002270000016,39.419315499999946,0 -123.33919810000017,39.41750479999995,0 -123.33883080000018,39.41404389999995,0 -123.33959800000018,39.41161459999996,0 -123.34375110000019,39.404775299999955,0 -123.34403380000019,39.40332899999996,0 -123.34390850000018,39.40144859999995,0 -123.34306220000018,39.399334099999955,0 -123.3413248000002,39.39728039999995,0 -123.33794940000018,39.39496309999995,0 -123.3365189000002,39.393410799999955,0 -123.33588850000021,39.39229939999995,0 -123.3343840000002,39.386468999999956,0 -123.3333429000002,39.38416599999996,0 -123.33180420000019,39.38189219999996,0 -123.31684730000019,39.36731599999996,0 -123.3159328000002,39.36597529999996,0 -123.31539080000019,39.36413729999996,0 -123.31538020000019,39.363228999999954,0 -123.31584480000018,39.361442799999956,0 -123.32201740000016,39.351676699999956,0 -123.32240060000018,39.35010749999996,0 -123.32221440000018,39.34879789999996,0 -123.32122730000017,39.34712279999996,0 -123.31186130000016,39.33844859999996,0 -123.30455790000018,39.33495619999996,0 -123.30412060000019,39.33440649999996,0 -123.30397410000018,39.33388849999996,0 -123.30453390000018,39.33157409999996,0 -123.30442390000019,39.33094089999996,0 -123.3039711000002,39.33031639999996,0 -123.30280410000019,39.32946029999996,0 -123.30235710000017,39.32883779999996,0 -123.30086660000016,39.32115789999996,0 -123.30150990000016,39.31822159999996,0 -123.30120940000016,39.31688339999996,0 -123.30080080000016,39.31632349999996,0 -123.29881190000016,39.31481429999995,0 -123.29798190000015,39.31375339999995,0 -123.29775220000016,39.31287159999996,0 -123.29781840000015,39.312103299999954,0 -123.30053220000015,39.308036199999954,0 -123.30072000000017,39.307144299999955,0 -123.30052640000015,39.30611419999996,0 -123.29968740000014,39.30468479999996,0 -123.29606920000015,39.30129879999996,0 -123.29466060000013,39.30056309999996,0 -123.29273860000013,39.29995449999996,0 -123.28935880000013,39.300085999999965,0 -123.28648980000014,39.29947589999996,0 -123.28260780000014,39.297163799999964,0 -123.27955250000012,39.29634209999997,0 -123.27897660000012,39.296028699999965,0 -123.27701090000014,39.29423109999996,0 -123.27554630000013,39.29368729999997,0 -123.27348990000013,39.29345639999997,0 -123.27153830000013,39.292811499999964,0 -123.26468600000015,39.28856679999997,0 -123.25916970000016,39.282077499999964,0 -123.25810900000015,39.278631999999966,0 -123.25763520000015,39.277955099999964,0 -123.25659600000014,39.27707739999997,0 -123.24866920000015,39.27277079999997,0 -123.23714640000016,39.269178999999966,0 -123.23483890000014,39.268193299999965,0 -123.22974240000013,39.26520479999997,0 -123.22551790000014,39.26356829999997,0 -123.22387040000015,39.26263019999997,0 -123.22023360000014,39.259277599999976,0 -123.21535390000015,39.25605159999997,0 -123.21321780000015,39.25386799999997,0 -123.20776900000016,39.244380199999966,0 -123.20736100000015,39.24162789999997,0 -123.20838470000015,39.23376149999997,0 -123.20668640000017,39.21773799999997,0 -123.20466000000015,39.212181799999975,0 -123.20475140000015,39.21047949999997,0 -123.20948670000014,39.19826559999997,0 -123.21302240000013,39.17392999999997,0 -123.21277420000013,39.17275689999997,0 -123.21228030000012,39.17189239999997,0 -123.21136410000013,39.170990299999964,0 -123.20195440000013,39.165104699999965,0 -123.20032880000014,39.16340619999997,0 -123.19915240000012,39.16156849999996,0 -123.19853110000011,39.16000849999996,0 -123.19707950000011,39.152751399999964,0 -123.19477150000013,39.121033899999965,0 -123.19602620000013,39.11651189999996,0 -123.19610590000012,39.114903299999966,0 -123.19430990000012,39.10473749999996,0 -123.17855300000012,39.077598599999966,0 -123.17020810000012,39.07079549999997,0 -123.16734670000012,39.06663079999996,0 -123.16380760000013,39.06340279999996,0 -123.13909020000014,39.02787049999996,0 -123.12429240000014,39.01014559999996,0 -123.11875460000014,39.00237549999996,0 -123.11784100000014,39.000098199999954,0 -123.11762340000014,38.998257899999956,0 -123.11868650000014,38.99245519999996,0 -123.11660640000014,38.980916999999955,0 -123.11476880000014,38.977628099999954,0 -123.11481620000013,38.976336099999955,0 -123.11650450000013,38.97282519999996,0 -123.11656190000012,38.97058319999996,0 -123.11416340000012,38.96350669999996,0 -123.11323430000012,38.961966899999965,0 -123.10820600000011,38.95669259999996,0 -123.1068035000001,38.95575289999996,0 -123.10359760000009,38.95448029999996,0 -123.0850321000001,38.94894389999996,0 -123.0831465000001,38.94786539999996,0 -123.0807827000001,38.94491429999996,0 -123.0795811000001,38.94232349999996,0 -123.0782493000001,38.941129899999964,0 -123.07712820000009,38.94056359999996,0 -123.07507430000008,38.94008749999997,0 -123.0720984000001,38.94012869999997,0 -123.0699799000001,38.93962369999996,0 -123.06656530000011,38.93775549999996,0 -123.06351760000011,38.93508869999996,0 -123.06146400000011,38.932418099999964,0 -123.05717270000012,38.92862019999996,0 -123.05645400000013,38.92745039999996,0 -123.05621970000013,38.92639129999996,0 -123.05632160000013,38.92518129999996,0 -123.05793100000012,38.92190609999996,0 -123.05857490000012,38.919693999999964,0 -123.05864340000012,38.91850629999996,0 -123.05841100000013,38.91756519999996,0 -123.05738890000013,38.91603999999996,0 -123.05428980000013,38.91387849999997,0 -123.05352040000012,38.91282369999996,0 -123.05330720000012,38.91179369999996,0 -123.05416880000013,38.909028699999965,0 -123.05465610000014,38.908384799999965,0 -123.05686920000014,38.906794199999965,0 -123.05734580000015,38.906081099999966,0 -123.05760360000016,38.90500509999996,0 -123.05746610000016,38.90415039999996,0 -123.05594500000015,38.90155019999996,0 -123.05587860000016,38.90045519999996,0 -123.05721900000016,38.89716799999996,0 -123.05702070000017,38.89602319999995,0 -123.05633540000017,38.89511459999995,0 -123.05498770000017,38.89409469999995,0 -123.05450010000017,38.89347099999995,0 -123.05333350000016,38.89022609999995,0 -123.05325260000018,38.88905619999995,0 -123.05454130000017,38.883422099999954,0 -123.05417110000016,38.882148899999954,0 -123.05345300000015,38.88138319999995,0 -123.05235220000014,38.880804099999956,0 -123.04991560000013,38.88031059999996,0 -123.04829830000014,38.87963029999996,0 -123.04581690000013,38.87761079999996,0 -123.04539430000013,38.876767299999955,0 -123.04525170000014,38.87502799999996,0 -123.04469080000014,38.87352679999996,0 -123.04432930000014,38.87023759999995,0 -123.04369960000014,38.86842019999995,0 -123.03765570000013,38.857043599999955,0 -123.03632560000014,38.85551249999995,0 -123.03170750000015,38.852378199999954,0 -123.02980310000017,38.84955709999995,0 -123.02777470000017,38.84790719999995,0 -123.02727660000016,38.84723299999995,0 -123.02696000000017,38.84612299999995,0 -123.02701390000018,38.84337549999995,0 -123.0265766000002,38.84249929999995,0 -123.02558600000019,38.84158669999995,0 -123.02224740000018,38.840194799999956,0 -123.02137850000018,38.83943239999996,0 -123.02077820000018,38.838059899999955,0 -123.02072280000017,38.83622709999995,0 -123.02007250000018,38.834771599999954,0 -123.01924890000016,38.83405269999995,0 -123.01631840000017,38.832496599999956,0 -123.01512480000018,38.831318699999954,0 -123.01441160000019,38.82978629999996,0 -123.01432530000018,38.82853209999996,0 -123.01524430000018,38.822162699999964,0 -123.01490600000017,38.81999789999996,0 -123.01191820000015,38.810322999999954,0 -123.01326630000017,38.80028199999995,0 -123.01304680000018,38.797473699999955,0 -123.00984160000019,38.78398129999995,0 -123.00876830000017,38.78153279999995,0 -123.00749990000017,38.77982499999995,0 -123.00040300000018,38.77395739999995,0 -122.99444780000017,38.76723199999995,0 -122.99231020000018,38.76572069999995,0 -122.98573500000019,38.76227319999995,0 -122.9752315000002,38.75872429999995,0 -122.97427320000021,38.758186599999945,0 -122.96518820000021,38.74953919999995,0 -122.94983970000023,38.741464699999945,0 -122.94793300000023,38.74009149999995,0 -122.94720740000022,38.73924969999995,0 -122.94280620000023,38.73072979999995,0 -122.94104200000024,38.72863259999995,0 -122.93800740000025,38.72637389999995,0 -122.92802010000025,38.722012199999945,0 -122.92415570000024,38.719102799999945,0 -122.91602760000025,38.71007099999995,0 -122.90457490000024,38.704138099999945,0 -122.89963490000025,38.70259649999995,0 -122.89670620000024,38.701162999999944,0 -122.89022310000023,38.69634949999995,0 -122.88514240000023,38.69363589999994,0 -122.88365900000024,38.69233369999995,0 -122.88222140000023,38.68992239999995,0 -122.88093490000023,38.68362089999995,0 -122.88077930000024,38.675256999999945,0 -122.87958370000024,38.67070249999995,0 -122.87710000000023,38.666937499999946,0 -122.87591080000024,38.66242719999994,0 -122.87205180000025,38.65413829999994,0 -122.87169600000023,38.652544899999945,0 -122.87179360000022,38.65071929999994,0 -122.87748640000022,38.63665599999994,0 -122.87888320000023,38.61569289999994,0 -122.87866230000022,38.61433959999994,0 -122.87768000000021,38.61238249999994,0 -122.8727064000002,38.60687939999994,0 -122.86218370000022,38.59963039999994,0 -122.84896880000022,38.592673599999934,0 -122.84759050000022,38.591700899999935,0 -122.84607910000021,38.59019249999994,0 -122.8319073000002,38.57111799999994,0 -122.80821590000019,38.54688379999994,0 -122.80520430000018,38.54226539999994,0 -122.77976050000018,38.514545099999935,0 -122.76053600000019,38.49913149999994,0 -122.73508440000019,38.48102039999994,0 -122.73306980000018,38.47876609999994,0 -122.72686610000018,38.464227999999935,0 -122.72613910000018,38.456245799999934,0 -122.72626700000018,38.45070299999993,0 -122.72590940000018,38.448902199999935,0 -122.71722640000017,38.435556599999934,0 -122.71543300000016,38.430821399999935,0 -122.71510890000016,38.424294199999935,0 -122.71606530000015,38.41848909999994,0 -122.71627950000016,38.37572449999994,0 -122.71545370000017,38.373383799999935,0 -122.71280450000016,38.36924819999994,0 -122.71237650000018,38.36718899999993,0 -122.71321690000018,38.36034239999993,0 -122.71299810000018,38.32439529999993,0 -122.71515490000019,38.31572209999993,0 -122.71508390000018,38.31307699999993,0 -122.71428940000018,38.31100259999993,0 -122.70119710000017,38.29524509999993,0 -122.69063060000019,38.28785829999993,0 -122.6613833000002,38.26502779999993,0 -122.6261548000002,38.245989699999924,0 -122.62454050000021,38.244829699999926,0 -122.6230053000002,38.24302429999993,0 -122.61416880000021,38.22589519999993,0 -122.61209860000022,38.223807299999926,0 -122.60679810000022,38.22016979999993,0 -122.6051824000002,38.21870189999993,0 -122.6033913000002,38.216206399999926,0 -122.5992949000002,38.20707639999993,0 -122.59863390000021,38.202777399999924,0 -122.5996289000002,38.19669499999993,0 -122.60191640000019,38.188314399999925,0 -122.6015230000002,38.18457399999992,0 -122.59995240000019,38.18148569999992,0 -122.59846690000018,38.17983849999992,0 -122.58615770000019,38.17056839999992,0 -122.57906570000019,38.16602609999992,0 -122.57083210000019,38.15963129999992,0 -122.5694795000002,38.15797549999992,0 -122.5647796000002,38.14493499999992,0 -122.56391060000018,38.13231829999992,0 -122.56452320000018,38.129404199999925,0 -122.56574240000019,38.12672599999993,0 -122.56622940000018,38.12410429999993,0 -122.56413710000018,38.110471599999926,0 -122.56182890000017,38.102748399999925,0 -122.56199060000019,38.09773669999992,0 -122.56151250000018,38.09553009999992,0 -122.56050060000017,38.09360219999992,0 -122.54326320000015,38.07706279999992,0 -122.54218200000017,38.07566679999992,0 -122.53927470000015,38.07028219999992,0 -122.53798320000014,38.066825799999926,0 -122.53194400000014,38.05973799999993,0 -122.53091720000015,38.05728359999993,0 -122.53074690000014,38.05519759999993,0 -122.53129290000014,38.05131839999993,0 -122.53197660000012,38.04919209999993,0 -122.53656800000013,38.04197679999993,0 -122.53705040000011,38.04080999999993,0 -122.53712150000011,38.039808699999924,0 -122.5366994000001,38.03754719999993,0 -122.5391650000001,38.02153339999993,0 -122.5420704000001,38.01383409999993,0 -122.5420345000001,38.008399799999935,0 -122.5413597000001,38.00653599999993,0 -122.5308424000001,37.992135699999935,0 -122.52347060000011,37.98427649999993,0 -122.5210436000001,37.97950279999993,0 -122.52069990000011,37.97671529999993,0 -122.52195160000011,37.97092319999993,0 -122.52177160000011,37.969879299999924,0 -122.5210969000001,37.968842699999925,0 -122.5205491000001,37.968361699999924,0 -122.51128490000008,37.96309489999993,0 -122.51037150000009,37.962265399999936,0 -122.50981520000009,37.96113539999993,0 -122.5085659000001,37.95405309999993,0 -122.5087930000001,37.95317309999993,0 -122.50928090000009,37.95241379999993,0 -122.5121438000001,37.94965129999993,0 -122.51483170000009,37.94503639999993,0 -122.51692420000009,37.93704809999993,0 -122.51494560000009,37.926460399999925,0 -122.51155010000008,37.91972059999993,0 -122.5112796000001,37.91741649999992,0 -122.51155830000009,37.915891699999925,0 -122.5155801000001,37.90510129999993,0 -122.5168515000001,37.88937309999993,0 -122.51666120000009,37.88089429999993,0 -122.51602200000008,37.87955249999993,0 -122.51498890000008,37.87854089999993,0 -122.51236870000007,37.87709759999993,0 -122.50888730000008,37.874429899999924,0 -122.50791680000007,37.873233299999924,0 -122.50743060000006,37.872102999999925,0 -122.50707810000006,37.86473209999992,0 -122.50661780000006,37.86361529999992,0 -122.50577540000006,37.86250379999992,0 -122.50482410000008,37.861710599999924,0 -122.50158710000008,37.86003039999992,0 -122.49898170000007,37.857582799999925,0 -122.49811630000006,37.85710549999992,0 -122.49504330000008,37.85625009999992,0 -122.49430150000006,37.855743199999914,0 -122.49287810000007,37.853216299999914,0 -122.49221230000008,37.85250839999991,0 -122.49054580000006,37.851336899999914,0 -122.49014890000007,37.850835999999916,0 -122.48958840000009,37.84911679999991,0 -122.48890830000009,37.84825099999991,0 -122.4870883000001,37.84690309999991,0 -122.48672660000011,37.846256999999916,0 -122.4858458000001,37.84287089999991,0 -122.4858650000001,37.84201479999991,0 -122.4868311000001,37.840248299999914,0 -122.48696660000009,37.839580699999914,0 -122.4867240000001,37.838576999999916,0 -122.4841022000001,37.83450279999992,0 -122.4828529000001,37.83345939999992,0 -122.48075130000011,37.83222519999991,0 -122.47995650000011,37.83094889999991,0 -122.4773936000001,37.80940129999991,0 -122.47686960000009,37.80838539999991,0 -122.47282760000009,37.80463799999991,0 -122.47152450000007,37.803794999999916,0 -122.47150180000008,37.803701999999916,0 -122.4698071000001,37.80272919999991,0 -122.4695510000001,37.80227989999991,0 -122.4697607000001,37.791667199999914,0 -122.4699982000001,37.791039099999914,0 -122.47208150000012,37.78809919999991,0 -122.47263180000012,37.78684229999991,0 -122.47184950000012,37.77293019999991,0 -122.47211900000012,37.77254689999991,0 -122.47249300000013,37.772422799999916,0 -122.47485190000012,37.772620999999916,0 -122.47893580000012,37.772269999999914,0 -122.47935010000012,37.771960699999916,0 -122.4795718000001,37.771414699999916,0 -122.47852700000011,37.769245899999916,0 -122.47818280000011,37.76745069999991,0 -122.4775771000001,37.76650219999991,0 -122.47487770000009,37.73022359999992,0 -122.47531300000011,37.72000179999992,0 -122.47267520000011,37.717105999999916,0 -122.47143670000011,37.71315649999992,0 -122.4712667000001,37.708747399999915,0 -122.4718265000001,37.70393929999992,0 -122.47172080000011,37.70025789999992,0 -122.4718521000001,37.70012899999992,0 -122.47143380000011,37.69735339999992,0 -122.47075150000012,37.69541819999992,0 -122.47054600000011,37.689992999999916,0 -122.47135990000011,37.68699709999992,0 -122.47185830000011,37.67925139999992,0 -122.4717151000001,37.67835589999992,0 -122.47110490000011,37.676960099999924,0 -122.46778480000012,37.672716099999924,0 -122.4663965000001,37.670080399999925,0 -122.46606560000012,37.66888909999992,0 -122.46570770000012,37.66238349999992,0 -122.46523290000013,37.66119589999992,0 -122.46424730000014,37.65993649999992,0 -122.45366550000014,37.65154459999992,0 -122.44980840000014,37.645541599999916,0 -122.44878250000015,37.64461179999992,0 -122.44438410000015,37.64191879999992,0 -122.44027970000013,37.63739619999992,0 -122.43854540000014,37.63391029999992,0 -122.43698280000012,37.63190399999992,0 -122.43451850000014,37.629923399999925,0 -122.43448880000014,37.62975779999992,0 -122.43229560000015,37.62773689999993,0 -122.43138840000016,37.62729779999993,0 -122.43057280000015,37.62723479999993,0 -122.42949490000017,37.62757069999993,0 -122.42785690000017,37.62875609999993,0 -122.41736280000018,37.63362669999994,0 -122.41621690000018,37.63396679999993,0 -122.41414260000018,37.63419889999993,0 -122.41121200000018,37.633909999999936,0 -122.41106850000018,37.633819299999935,0 -122.40938490000019,37.63361099999993,0 -122.4057921000002,37.633842899999934,0 -122.4044243000002,37.63343849999993,0 -122.4038006000002,37.63296399999993,0 -122.4032890000002,37.63214039999993,0 -122.4026233000002,37.62786949999993,0 -122.40186280000022,37.625649799999934,0 -122.40171900000023,37.62559549999994,0 -122.39812000000022,37.61541819999994,0 -122.39579890000023,37.61257519999994,0 -122.35919070000024,37.588695999999935,0 -122.35612270000024,37.58759299999994,0 -122.35433720000024,37.58725719999994,0 -122.33326690000025,37.58655419999994,0 -122.33167360000024,37.58617959999994,0 -122.32992760000023,37.585283699999934,0 -122.30135800000023,37.55882359999994,0 -122.30137860000022,37.55865759999993,0 -122.29835250000022,37.554696499999935,0 -122.29824710000021,37.554292299999936,0 -122.29835340000022,37.55381209999994,0 -122.29892740000022,37.553236099999936,0 -122.30055880000023,37.55282189999994,0 -122.30067730000023,37.55272999999994,0 -122.30496750000025,37.55264089999994,0 -122.30502860000026,37.55268989999995,0 -122.30634910000025,37.55281649999995,0 -122.30741470000024,37.55398269999995,0 </coordinates></LineString><TimeSpan><begin>2021-08-08T22:27:27.000Z</begin><end>2021-08-09T03:11:00.000Z</end></TimeSpan></Placemark><Placemark><name>430 Station Park Cir</name><address>430 Station Park Cir, San Mateo, CA 94402</address><ExtendedData><Data name="Email"><value>syugen.zhou@gmail.com</value></Data><Data name="Category"><value></value></Data><Data name="Distance"><value>0</value></Data></ExtendedData><description>  from 2021-08-09T03:11:00.000Z to 2021-08-10T07:00:00.000Z. Distance 0m </description><Point><coordinates>-122.3074042,37.5543082,0</coordinates></Point><TimeSpan><begin>2021-08-09T03:11:00.000Z</begin><end>2021-08-10T07:00:00.000Z</end></TimeSpan></Placemark></Document></kml>
