<?xml version="1.0" encoding="UTF-8"?><kml xmlns="http://www.opengis.net/kml/2.2" xmlns:gx="http://www.google.com/kml/ext/2.2"><Document><name> Location history from 2021-08-06 to 2021-08-06 </name><open>1</open><description></description><StyleMap id="multiTrack"><Pair><key>normal</key><styleUrl>#multiTrack_n</styleUrl></Pair><Pair><key>highlight</key><styleUrl>#multiTrack_h</styleUrl></Pair></StyleMap><Style id="multiTrack_n"><IconStyle><Icon><href>https://earth.google.com/images/kml-icons/track-directional/track-0.png</href></Icon></IconStyle><LineStyle><color>99ffac59</color><width>6</width></LineStyle></Style><Style id="multiTrack_h"><IconStyle><scale>1.2</scale><Icon><href>https://earth.google.com/images/kml-icons/track-directional/track-0.png</href></Icon></IconStyle><LineStyle><color>99ffac59</color><width>8</width></LineStyle></Style><Placemark><name>430 Station Park Cir</name><address>430 Station Park Cir, San Mateo, CA 94402</address><ExtendedData><Data name="Email"><value>syugen.zhou@gmail.com</value></Data><Data name="Category"><value></value></Data><Data name="Distance"><value>0</value></Data></ExtendedData><description>  from 2021-08-06T00:58:35.999Z to 2021-08-06T22:32:46.000Z. Distance 0m </description><Point><coordinates>-122.3074042,37.5543082,0</coordinates></Point><TimeSpan><begin>2021-08-06T00:58:35.999Z</begin><end>2021-08-06T22:32:46.000Z</end></TimeSpan></Placemark><Placemark><name>Driving</name><address></address><ExtendedData><Data name="Email"><value>syugen.zhou@gmail.com</value></Data><Data name="Category"><value>Driving</value></Data><Data name="Distance"><value>2401</value></Data></ExtendedData><description> Driving from 2021-08-06T22:32:46.000Z to 2021-08-06T22:37:47.999Z. Distance 2401m </description><LineString><altitudeMode>clampToGround</altitudeMode><extrude>1</extrude><tesselate>1</tesselate><coordinates>-122.30568339999999,37.553765899999995,0 -122.3057495,37.55390419999999,0 -122.30580669999999,37.55398749999999,0 -122.30611569999999,37.554327599999986,0 -122.3066054,37.55480059999999,0 -122.3067438,37.55492759999999,0 -122.30707490000002,37.555251299999995,0 -122.30716260000001,37.55533189999999,0 -122.30745210000002,37.55559179999999,0 -122.30768340000002,37.55580109999999,0 -122.30781970000001,37.55591999999999,0 -122.3079632,37.556056899999994,0 -122.3081099,37.5561903,0 -122.3083494,37.5564081,0 -122.3086098,37.5566475,0 -122.3086689,37.5567033,0 -122.30881629999999,37.5568389,0 -122.3089247,37.5569387,0 -122.3090181,37.55702470000001,0 -122.30935780000002,37.557341900000004,0 -122.30957560000002,37.55753920000001,0 -122.3096661,37.55762120000001,0 -122.3097184,37.557666600000005,0 -122.3098249,37.557764000000006,0 -122.31071130000001,37.5585852,0 -122.3116977,37.5594831,0 -122.3122085,37.559952,0 -122.3127329,37.5604327,0 -122.3133546,37.5609998,0 -122.31401179999999,37.5615993,0 -122.3143701,37.561926099999994,0 -122.3143837,37.5619385,0 -122.31572299999998,37.5631729,0 -122.3171374,37.564468999999995,0 -122.31747519999999,37.5647841,0 -122.31856369999997,37.5657716,0 -122.31885699999998,37.5660383,0 -122.31896559999998,37.5661371,0 -122.31920459999999,37.5663668,0 -122.31953560000001,37.5666776,0 -122.319821,37.566938,0 -122.3200547,37.567144500000005,0 -122.3200547,37.567144500000005,0 -122.32025349999999,37.567002200000005,0 -122.32031899999998,37.566955300000004,0 -122.32081849999999,37.5666091,0 -122.32112989999999,37.566391,0 -122.32137539999998,37.5662191,0 -122.32150679999998,37.566121,0 -122.32157559999997,37.566079200000004,0 -122.32162309999998,37.5660479,0 -122.32169879999998,37.5660019,0 -122.32186129999997,37.56589050000001,0 -122.32198919999998,37.56580130000001,0 -122.32241499999998,37.56550580000001,0 -122.32288889999998,37.565169100000006,0 </coordinates></LineString><TimeSpan><begin>2021-08-06T22:32:46.000Z</begin><end>2021-08-06T22:37:47.999Z</end></TimeSpan></Placemark><Placemark><name>Cha Express</name><address>212 E 3rd Ave, San Mateo, CA 94401</address><ExtendedData><Data name="Email"><value>syugen.zhou@gmail.com</value></Data><Data name="Category"><value>Bubble Tea</value></Data><Data name="Distance"><value>0</value></Data></ExtendedData><description> Bubble Tea from 2021-08-06T22:37:47.999Z to 2021-08-06T22:47:52.999Z. Distance 0m </description><Point><coordinates>-122.32281739999999,37.5651052,0</coordinates></Point><TimeSpan><begin>2021-08-06T22:37:47.999Z</begin><end>2021-08-06T22:47:52.999Z</end></TimeSpan></Placemark><Placemark><name>Driving</name><address></address><ExtendedData><Data name="Email"><value>syugen.zhou@gmail.com</value></Data><Data name="Category"><value>Driving</value></Data><Data name="Distance"><value>92637</value></Data></ExtendedData><description> Driving from 2021-08-06T22:47:52.999Z to 2021-08-07T00:22:54.999Z. Distance 92637m </description><LineString><altitudeMode>clampToGround</altitudeMode><extrude>1</extrude><tesselate>1</tesselate><coordinates>-122.32288620000001,37.565171,0 -122.32315830000002,37.5649776,0 -122.32234170000001,37.5642257,0 -122.3149288,37.569310900000005,0 -122.3149348,37.569363800000005,0 -122.31492850000001,37.56938680000001,0 -122.31484980000002,37.56947730000001,0 -122.31478640000002,37.56958580000001,0 -122.31466750000003,37.56989010000001,0 -122.31448680000001,37.570211000000015,0 -122.31356400000003,37.57119610000001,0 -122.31334490000002,37.57132890000001,0 -122.31326440000002,37.571352300000015,0 -122.31317710000002,37.57136160000001,0 -122.31303840000002,37.57134020000001,0 -122.31292380000001,37.57129170000001,0 -122.3128389,37.571220900000014,0 -122.3127825,37.571122500000016,0 -122.31276879999999,37.57103510000002,0 -122.31280239999998,37.57090450000002,0 -122.31285969999996,37.570823400000016,0 -122.31294179999996,37.57076700000002,0 -122.31305379999996,37.57071850000001,0 -122.31311929999995,37.570708400000015,0 -122.31331059999997,37.570726000000015,0 -122.31349659999997,37.57079180000001,0 -122.31420589999996,37.571434800000006,0 -122.31428739999997,37.571488200000005,0 -122.31515039999998,37.57226950000001,0 -122.31561299999998,37.57263420000001,0 -122.31585669999998,37.572719000000006,0 -122.32958339999999,37.585313500000005,0 -122.33033,37.5858069,0 -122.33102680000002,37.586155000000005,0 -122.33201090000001,37.586513100000005,0 -122.3326626,37.58667340000001,0 -122.3334584,37.586789100000004,0 -122.3342279,37.5868431,0 -122.35326500000001,37.587336,0 -122.35481840000001,37.587515700000004,0 -122.35577470000001,37.5877031,0 -122.35717520000001,37.5880961,0 -122.35806900000001,37.5884239,0 -122.35903670000002,37.5888605,0 -122.35997760000002,37.5893613,0 -122.36564050000003,37.593012900000005,0 -122.36623190000002,37.593439800000006,0 -122.39258850000002,37.6106258,0 -122.39270800000001,37.6107236,0 -122.39432240000002,37.6117628,0 -122.39479460000003,37.612110200000004,0 -122.39585380000004,37.613018000000004,0 -122.39688840000005,37.6141447,0 -122.39769670000005,37.6152883,0 -122.39822510000005,37.6163368,0 -122.40187060000005,37.62713,0 -122.40214200000004,37.6281683,0 -122.40276680000005,37.6332305,0 -122.40309350000005,37.6347229,0 -122.40355210000004,37.636023,0 -122.40506920000003,37.639064399999995,0 -122.40550710000004,37.6402578,0 -122.40582510000004,37.641623700000004,0 -122.40690760000004,37.653244300000004,0 -122.40691730000003,37.653913800000005,0 -122.40686380000004,37.654530900000005,0 -122.40659290000004,37.65577100000001,0 -122.40636550000004,37.65639790000001,0 -122.40518560000002,37.6587157,0 -122.40463060000002,37.659574600000006,0 -122.40389580000002,37.6603999,0 -122.4032866,37.6609189,0 -122.3986584,37.6639497,0 -122.39782029999999,37.6645671,0 -122.39671489999998,37.6655589,0 -122.39258539999997,37.6698435,0 -122.39112859999999,37.67156490000001,0 -122.39056269999999,37.672374500000004,0 -122.3898483,37.6735357,0 -122.3891,37.6749806,0 -122.3887269,37.6758702,0 -122.3885164,37.6765129,0 -122.3883953,37.677032999999994,0 -122.3882735,37.67820989999999,0 -122.38836839999999,37.679396,0 -122.3938051,37.703742399999996,0 -122.3938008,37.703800599999994,0 -122.39559369999998,37.7116116,0 -122.39583259999999,37.712216999999995,0 -122.39614399999999,37.712804299999995,0 -122.39655989999999,37.713427499999995,0 -122.39791139999997,37.71506289999999,0 -122.39841549999997,37.71582069999999,0 -122.39878299999997,37.71660829999999,0 -122.39964709999997,37.719724699999986,0 -122.40026029999997,37.721581599999986,0 -122.40190929999999,37.725815199999985,0 -122.40184949999997,37.72596899999999,0 -122.40279369999996,37.72875409999999,0 -122.40303249999997,37.729303299999984,0 -122.40450439999996,37.73215179999998,0 -122.40454559999996,37.73232879999998,0 -122.40492979999995,37.73308609999998,0 -122.40508499999994,37.73369579999998,0 -122.40508389999995,37.734277699999986,0 -122.40500299999995,37.734673299999976,0 -122.40484979999997,37.73509239999998,0 -122.40464469999998,37.73546179999998,0 -122.40439059999996,37.73579839999998,0 -122.40398559999996,37.73619489999998,0 -122.40355929999997,37.73650739999999,0 -122.40341699999996,37.736656199999985,0 -122.40248619999997,37.737267199999984,0 -122.40188919999999,37.73771869999998,0 -122.40073789999998,37.73878019999998,0 -122.39673399999998,37.74320649999998,0 -122.39614259999999,37.74373569999998,0 -122.39510469999999,37.74477709999998,0 -122.39450809999998,37.74546129999998,0 -122.39374299999999,37.746532899999984,0 -122.39171339999999,37.750165899999985,0 -122.39154669999999,37.75054069999998,0 -122.39130659999998,37.75146109999998,0 -122.39124149999998,37.75213939999998,0 -122.39126099999997,37.75273709999998,0 -122.39135749999998,37.753356699999976,0 -122.39198629999999,37.755238999999975,0 -122.39220509999998,37.75648829999998,0 -122.39223919999999,37.75965689999998,0 -122.39266199999999,37.763640199999976,0 -122.39280289999999,37.76422479999998,0 -122.3930439,37.76486789999998,0 -122.393342,37.76537229999998,0 -122.39371909999998,37.76586709999998,0 -122.39425219999998,37.76641079999998,0 -122.39663399999999,37.76827359999998,0 -122.3971716,37.76878949999998,0 -122.39736629999997,37.76907079999998,0 -122.39753529999999,37.76941739999998,0 -122.39765399999997,37.76978359999998,0 -122.39794739999998,37.77189379999998,0 -122.39794759999998,37.77229139999998,0 -122.39782799999998,37.77279449999998,0 -122.39770839999998,37.77305779999998,0 -122.39739249999998,37.77349769999998,0 -122.39717259999998,37.773717199999986,0 -122.39400379999998,37.77618979999998,0 -122.39340549999999,37.77572449999998,0 -122.39112629999998,37.777551899999985,0 -122.39741769999999,37.782557199999985,0 -122.39732260000001,37.78260479999999,0 -122.39403159999999,37.78521689999999,0 -122.39345619999999,37.78518169999999,0 -122.39295699999998,37.785187499999985,0 -122.3928428,37.78520669999999,0 -122.39232030000001,37.78538249999999,0 -122.39153120000002,37.78553899999999,0 -122.39113190000002,37.785773299999995,0 -122.38417090000003,37.79219969999999,0 -122.38301640000003,37.7933428,0 -122.38178290000002,37.794425499999996,0 -122.36315910000002,37.811952999999995,0 -122.36166210000003,37.813134899999994,0 -122.36046520000002,37.81391349999999,0 -122.35430290000002,37.817420399999996,0 -122.35342720000001,37.817830099999995,0 -122.3526033,37.81814239999999,0 -122.3514427,37.8184907,0 -122.35002970000002,37.81877479999999,0 -122.33093710000001,37.821539699999995,0 -122.32295430000002,37.8222758,0 -122.31084750000004,37.82436259999999,0 -122.30678600000005,37.824813199999994,0 -122.30558430000004,37.8250102,0 -122.30366640000004,37.8254101,0 -122.30351280000002,37.825486,0 -122.29592560000003,37.8271509,0 -122.29545650000004,37.8273077,0 -122.29484390000005,37.8276489,0 -122.29451910000006,37.8279138,0 -122.29425480000006,37.8282066,0 -122.29393810000008,37.828673,0 -122.29368270000006,37.8292567,0 -122.29340320000007,37.8306204,0 -122.29334230000008,37.830691300000005,0 -122.29331080000007,37.8311999,0 -122.29334440000007,37.8317775,0 -122.29348910000006,37.832421,0 -122.29372720000005,37.832992,0 -122.29575920000005,37.8364585,0 -122.29588690000006,37.8365515,0 -122.29626140000005,37.8373692,0 -122.29642290000004,37.8378631,0 -122.29707510000003,37.8413876,0 -122.29981310000005,37.8531075,0 -122.30306520000005,37.864790400000004,0 -122.30724280000004,37.878438900000006,0 -122.30818330000004,37.8827866,0 -122.30842610000003,37.8836433,0 -122.30886040000004,37.885634100000004,0 -122.30895450000003,37.8862826,0 -122.30899920000003,37.8875389,0 -122.30892740000003,37.888035,0 -122.30870540000001,37.8887838,0 -122.30749949999999,37.891356200000004,0 -122.30739819999998,37.89174010000001,0 -122.30731549999999,37.892705600000006,0 -122.3074027,37.89340860000001,0 -122.3074981,37.89379950000001,0 -122.3097586,37.89935760000001,0 -122.3101566,37.90009890000001,0 -122.3167533,37.90981440000001,0 -122.3170424,37.91043100000001,0 -122.31723530000001,37.91106050000001,0 -122.317342,37.91183440000001,0 -122.31736269999999,37.91901740000001,0 -122.3174604,37.91983350000001,0 -122.3176755,37.92063040000001,0 -122.3179731,37.92133980000001,0 -122.3181763,37.92171350000002,0 -122.32104530000001,37.92602690000001,0 -122.32106599999999,37.92609550000002,0 -122.32491619999999,37.93131080000001,0 -122.32499390000001,37.93138020000001,0 -122.3263538,37.93333720000001,0 -122.32663170000002,37.933951000000015,0 -122.32675450000002,37.93442670000001,0 -122.32680000000002,37.93480360000001,0 -122.32678900000002,37.93532780000001,0 -122.32664850000002,37.936011400000005,0 -122.32649900000003,37.936404,0 -122.32399270000002,37.94133670000001,0 -122.32379630000001,37.94192460000001,0 -122.32371040000001,37.94232080000001,0 -122.32366660000001,37.94293960000001,0 -122.32369000000001,37.94337140000001,0 -122.32375329999999,37.94375280000001,0 -122.3239201,37.94433450000002,0 -122.32779590000001,37.95251260000001,0 -122.32997490000001,37.95626810000002,0 -122.3302922,37.95693330000002,0 -122.33047420000001,37.95747210000001,0 -122.3305808,37.95797570000001,0 -122.33063080000001,37.95873620000001,0 -122.33054860000001,37.95952850000001,0 -122.33032480000001,37.96030780000001,0 -122.33003580000002,37.96092630000002,0 -122.32982760000002,37.961274900000014,0 -122.32939370000003,37.96185280000002,0 -122.32875850000003,37.962500100000014,0 -122.32820680000003,37.96293280000002,0 -122.32772500000003,37.96323700000002,0 -122.32382650000002,37.96530040000002,0 -122.32302970000002,37.96576880000001,0 -122.32249880000003,37.96616930000002,0 -122.32203140000003,37.96661850000002,0 -122.32145720000003,37.96737090000002,0 -122.32109340000004,37.96807330000002,0 -122.32066010000004,37.96935610000002,0 -122.32061350000005,37.96943200000002,0 -122.31541000000004,37.98487520000001,0 -122.31502930000003,37.98566310000002,0 -122.31382970000004,37.987498500000015,0 -122.31375480000004,37.987560400000014,0 -122.31304910000004,37.98840350000001,0 -122.31209330000006,37.989312100000014,0 -122.31073390000006,37.99034450000002,0 -122.31069580000006,37.99040350000001,0 -122.30912890000008,37.99132250000002,0 -122.30836750000007,37.991689600000015,0 -122.30714130000007,37.992188100000014,0 -122.30562290000007,37.99266410000001,0 -122.30386710000008,37.99303790000001,0 -122.29087020000007,37.99487540000001,0 -122.28999980000007,37.995092600000014,0 -122.28886050000008,37.995478900000016,0 -122.28817270000009,37.99577830000001,0 -122.2869990000001,37.99642350000001,0 -122.28630680000009,37.996899100000014,0 -122.28551350000008,37.99757020000001,0 -122.24784830000009,38.038058600000014,0 -122.24709550000009,38.038727500000014,0 -122.2291461000001,38.051390200000014,0 -122.2289989000001,38.05151820000001,0 -122.22595510000009,38.05367230000001,0 -122.22555750000008,38.05402950000001,0 -122.22531270000007,38.05431690000001,0 -122.22500040000007,38.05478910000001,0 -122.22489630000007,38.05502460000001,0 -122.22475750000008,38.05557470000001,0 -122.22473130000009,38.05594930000001,0 -122.22569670000007,38.06661430000001,0 -122.22577780000006,38.066983000000015,0 -122.22598290000005,38.06761440000002,0 -122.22734890000005,38.07034210000001,0 -122.22777840000006,38.070995400000015,0 -122.22930760000007,38.07284430000001,0 -122.23129500000009,38.075490900000005,0 -122.23163010000009,38.07599840000001,0 -122.23207660000008,38.076846900000014,0 -122.23254550000009,38.07793990000002,0 -122.23284040000009,38.07887990000002,0 -122.23313200000007,38.080248400000016,0 -122.23322460000007,38.081050900000015,0 -122.23327900000007,38.08230790000002,0 -122.23309510000007,38.084147600000016,0 -122.23288340000008,38.08506710000001,0 -122.23254720000007,38.08615910000001,0 -122.23059250000007,38.09078740000001,0 -122.23015760000008,38.09221130000001,0 -122.2297888000001,38.09475920000001,0 -122.22956320000007,38.11066450000001,0 -122.23029530000007,38.120485600000016,0 -122.23020720000008,38.12155760000002,0 -122.23006700000009,38.122310900000016,0 -122.2298479000001,38.12309470000002,0 -122.2294143000001,38.12417900000002,0 -122.22876130000009,38.12533910000002,0 -122.22863010000007,38.12550730000002,0 -122.21994950000007,38.13912770000001,0 -122.21983650000008,38.13926470000001,0 -122.21765850000007,38.14271710000001,0 -122.21731100000008,38.143438400000015,0 -122.2169024000001,38.14457020000002,0 -122.21669570000007,38.145457800000024,0 -122.21658540000008,38.146252400000016,0 -122.21655870000006,38.14680490000002,0 -122.21670150000008,38.14966610000002,0 -122.21660790000008,38.150756000000015,0 -122.21644610000007,38.15150460000002,0 -122.21609950000007,38.152525900000015,0 -122.21577920000006,38.15322070000001,0 -122.21519960000005,38.154200400000015,0 -122.21426160000004,38.155495600000016,0 -122.21421550000005,38.15559060000002,0 -122.20952590000005,38.16220370000002,0 -122.20879400000004,38.163095400000024,0 -122.20793550000005,38.16389530000002,0 -122.20736070000007,38.16434640000002,0 -122.20328790000006,38.16702780000002,0 -122.19456750000006,38.17305680000002,0 -122.19395720000007,38.173533700000014,0 -122.19320750000009,38.17423160000002,0 -122.19043370000007,38.17741860000002,0 -122.18955110000009,38.17826070000002,0 -122.18861040000007,38.17899170000002,0 -122.18796120000009,38.17942410000002,0 -122.18577990000009,38.18072850000002,0 -122.18518090000009,38.181143300000016,0 -122.1842346000001,38.18190650000002,0 -122.18243150000009,38.18359210000002,0 -122.18181010000009,38.18408400000002,0 -122.1804329000001,38.18497900000002,0 -122.17946670000009,38.18545830000002,0 -122.1780426000001,38.18599690000002,0 -122.17695270000007,38.18630660000002,0 -122.17655020000008,38.18639390000002,0 -122.17428430000007,38.18702750000003,0 -122.17322770000008,38.187456000000026,0 -122.17193070000009,38.188093200000026,0 -122.17138190000009,38.18841700000003,0 -122.17031230000009,38.189158300000024,0 -122.1692855000001,38.19002160000003,0 -122.1687610000001,38.190556300000026,0 -122.16470990000009,38.19522540000003,0 -122.1505325000001,38.20766830000002,0 -122.14938210000008,38.20860040000002,0 -122.13171250000008,38.22080450000002,0 -122.13142690000008,38.22086950000002,0 -122.1299014000001,38.22172980000002,0 -122.1297331000001,38.22178750000002,0 -122.1295934000001,38.22181070000002,0 -122.12940340000011,38.22181560000002,0 -122.12912170000011,38.221772900000026,0 -122.1285752000001,38.221603100000024,0 -122.1283428000001,38.22158150000002,0 -122.12814370000011,38.22161700000002,0 -122.1277877000001,38.22177980000002,0 -122.1271954000001,38.221164100000024,0 -122.1271541000001,38.22108360000002,0 </coordinates></LineString><TimeSpan><begin>2021-08-06T22:47:52.999Z</begin><end>2021-08-07T00:22:54.999Z</end></TimeSpan></Placemark><Placemark><name>McDonald's</name><address>4400 Central Pl, Fairfield, CA 94534</address><ExtendedData><Data name="Email"><value>syugen.zhou@gmail.com</value></Data><Data name="Category"><value>Fast Food</value></Data><Data name="Distance"><value>0</value></Data></ExtendedData><description> Fast Food from 2021-08-07T00:22:54.999Z to 2021-08-07T00:49:45.098Z. Distance 0m </description><Point><coordinates>-122.12625639999999,38.2221335,0</coordinates></Point><TimeSpan><begin>2021-08-07T00:22:54.999Z</begin><end>2021-08-07T00:49:45.098Z</end></TimeSpan></Placemark><Placemark><name>Driving</name><address></address><ExtendedData><Data name="Email"><value>syugen.zhou@gmail.com</value></Data><Data name="Category"><value>Driving</value></Data><Data name="Distance"><value>274558</value></Data></ExtendedData><description> Driving from 2021-08-07T00:49:45.098Z to 2021-08-07T03:18:53.225Z. Distance 274558m </description><LineString><altitudeMode>clampToGround</altitudeMode><extrude>1</extrude><tesselate>1</tesselate><coordinates>-122.1274195,38.2220882,0 -122.12731360000001,38.22223820000001,0 -122.1272501,38.2223795,0 -122.12692770000001,38.2234576,0 -122.12686350000001,38.2235978,0 -122.12678100000001,38.2237338,0 -122.126618,38.223939200000004,0 -122.12644460000001,38.2240888,0 -122.1260044,38.224396999999996,0 -122.12595999999999,38.224445599999996,0 -122.12591479999999,38.2245911,0 -122.12521299999999,38.225007299999994,0 -122.1225378,38.22648209999999,0 -122.1195317,38.227964199999995,0 -122.11562149999999,38.229669599999994,0 -122.11365049999998,38.230488599999994,0 -122.10667659999999,38.233528199999995,0 -122.10656619999999,38.2335954,0 -122.07793129999999,38.24611109999999,0 -122.0769521,38.24650309999999,0 -122.0757976,38.2468952,0 -122.07447669999999,38.24725819999999,0 -122.07416749999999,38.24732079999999,0 -122.0731726,38.24760709999999,0 -122.07293770000001,38.24768979999999,0 -122.07210210000001,38.248031099999984,0 -122.0714206,38.248378899999985,0 -122.07076719999999,38.24878309999999,0 -122.07044209999998,38.24901389999999,0 -122.06992399999997,38.24943859999999,0 -122.06958139999998,38.24975209999999,0 -122.06248869999996,38.258059499999995,0 -122.06032409999997,38.26067919999999,0 -122.03539719999998,38.290069999999986,0 -122.03498249999998,38.29063749999999,0 -122.0347894,38.290938899999986,0 -122.03465299999999,38.29118549999998,0 -122.0343721,38.29179029999998,0 -122.0341686,38.292356599999984,0 -122.0341072,38.29257629999998,0 -122.03401629999999,38.29304059999998,0 -122.03394679999998,38.293811699999985,0 -122.03367139999997,38.30676959999998,0 -122.03349199999995,38.30844099999998,0 -122.03278799999995,38.312713399999986,0 -122.03268819999995,38.313188199999985,0 -122.03245989999995,38.31396049999998,0 -122.03221489999994,38.31456189999999,0 -122.03180609999995,38.31536779999998,0 -122.03137519999996,38.316036699999984,0 -122.03103919999995,38.31649079999998,0 -122.02562039999994,38.32256929999999,0 -122.02533459999995,38.32292429999998,0 -122.02465629999995,38.323886999999985,0 -122.01619059999996,38.337162099999986,0 -122.01560029999995,38.33793129999999,0 -122.01523059999995,38.33835419999999,0 -122.01483539999994,38.338764899999994,0 -122.01440419999994,38.33917169999999,0 -122.01388409999996,38.339605699999986,0 -122.01306529999994,38.34020679999999,0 -122.01244059999993,38.34060499999999,0 -122.01201079999993,38.340854599999986,0 -122.01131469999993,38.341217599999986,0 -122.01075049999992,38.341478399999986,0 -122.01000659999993,38.341784699999984,0 -122.00956459999993,38.341944699999985,0 -122.00895259999993,38.342140499999985,0 -122.00520479999994,38.34321029999998,0 -122.00396019999995,38.343617899999984,0 -122.00283379999996,38.34403089999998,0 -121.98151779999995,38.352350999999985,0 -121.98072779999995,38.352722499999985,0 -121.98020499999994,38.35301159999999,0 -121.97944149999994,38.353506399999986,0 -121.97883619999995,38.35397119999998,0 -121.97417849999994,38.35827649999999,0 -121.97375989999993,38.35861389999999,0 -121.97306859999992,38.359097599999984,0 -121.96478899999993,38.36418159999999,0 -121.96414359999993,38.364619799999986,0 -121.95908659999994,38.368465399999984,0 -121.95882399999992,38.36853119999998,0 -121.95880429999991,38.368540299999985,0 -121.95742369999992,38.36949089999999,0 -121.95718249999992,38.36964259999999,0 -121.95651909999992,38.369988199999995,0 -121.95524399999992,38.370591899999994,0 -121.95494229999991,38.3707632,0 -121.9546750999999,38.370944699999995,0 -121.95433629999991,38.371232799999994,0 -121.9541389999999,38.371437799999995,0 -121.95394319999991,38.37168299999999,0 -121.95376629999993,38.371958199999995,0 -121.95361159999992,38.37228089999999,0 -121.9535113999999,38.372569399999996,0 -121.95346969999991,38.3727404,0 -121.95344199999992,38.37330409999999,0 -121.95348839999991,38.37380149999999,0 -121.9537966999999,38.37541699999999,0 -121.9538251999999,38.375793699999996,0 -121.95379499999989,38.3764347,0 -121.95373829999988,38.376775099999996,0 -121.95281369999988,38.3807369,0 -121.95243279999988,38.382197500000004,0 -121.94892849999987,38.3971893,0 -121.94885339999988,38.3974371,0 -121.94282469999987,38.4231864,0 -121.94255879999987,38.4247577,0 -121.94241049999987,38.4263335,0 -121.94237859999987,38.4271261,0 -121.94229469999986,38.448522000000004,0 -121.94223639999987,38.449327700000005,0 -121.94179159999986,38.4520251,0 -121.94172379999988,38.4528131,0 -121.94171179999988,38.4534485,0 -121.94173379999988,38.45399950000001,0 -121.94195279999988,38.45622200000001,0 -121.94198039999988,38.45688930000001,0 -121.94197969999986,38.46256020000001,0 -121.94201349999987,38.462967700000014,0 -121.94206839999987,38.463344700000015,0 -121.95244479999987,38.50826720000001,0 -121.95259199999987,38.509207400000015,0 -121.95267279999986,38.50995510000001,0 -121.95272669999987,38.51089290000001,0 -121.95326729999988,38.62154770000001,0 -121.95324639999987,38.62231280000001,0 -121.95317369999988,38.62335990000001,0 -121.95214259999987,38.63251870000001,0 -121.95209319999987,38.63343430000001,0 -121.95164219999987,38.66611380000001,0 -121.95199139999987,38.682934400000015,0 -121.95204099999988,38.68352000000001,0 -121.95215729999987,38.684416800000015,0 -121.95832429999987,38.71637710000001,0 -121.95848589999986,38.71735130000001,0 -121.95857649999988,38.71810680000001,0 -121.95863889999988,38.719196100000005,0 -121.9586326999999,38.72015510000001,0 -121.95858559999988,38.72092920000001,0 -121.95844739999988,38.72205660000001,0 -121.95827909999988,38.72297220000001,0 -121.95122309999986,38.754173400000006,0 -121.95016439999988,38.75818520000001,0 -121.94668259999986,38.77358410000001,0 -121.94633879999988,38.77481150000001,0 -121.94506369999988,38.77872930000001,0 -121.94465269999988,38.78042280000001,0 -121.94449289999987,38.78131600000001,0 -121.94431079999987,38.78279760000001,0 -121.94387619999988,38.78918070000001,0 -121.94376589999987,38.790256500000005,0 -121.94365889999989,38.790989200000006,0 -121.93906049999988,38.8136503,0 -121.93883899999989,38.8151773,0 -121.9386537999999,38.817347000000005,0 -121.9386105999999,38.818681600000005,0 -121.93861309999991,38.8196273,0 -121.93990929999991,38.8484779,0 -121.93993839999992,38.8487463,0 -121.94001509999993,38.849160000000005,0 -121.94008409999992,38.8494084,0 -121.94021799999992,38.84979310000001,0 -121.94032599999991,38.850046000000006,0 -121.94047929999991,38.850343200000005,0 -121.9408049999999,38.85085290000001,0 -121.94102199999989,38.85113820000001,0 -121.94148369999989,38.85163070000001,0 -121.9418291999999,38.85193970000001,0 -121.94243369999991,38.852382600000006,0 -121.94287709999989,38.852650000000004,0 -121.9450422999999,38.8537401,0 -121.94597159999991,38.854294200000005,0 -121.94655959999992,38.8547324,0 -121.94693189999991,38.8550472,0 -121.9469748999999,38.8550771,0 -121.9470244999999,38.8551006,0 -121.9470656999999,38.8551127,0 -121.9471345999999,38.8551213,0 -121.94719559999992,38.855181300000005,0 -121.94728039999993,38.85529220000001,0 -121.95614999999991,38.8638484,0 -121.95635799999992,38.8640329,0 -121.97004569999993,38.8772726,0 -121.97071979999993,38.8778709,0 -121.97151069999993,38.8786639,0 -121.97240399999991,38.8796955,0 -121.97301229999991,38.8805085,0 -121.97342639999992,38.8811543,0 -121.97367529999991,38.8815906,0 -121.97405039999992,38.8823307,0 -121.97783469999992,38.8912422,0 -121.97844549999992,38.892488300000004,0 -121.97902829999991,38.89353010000001,0 -121.9797661999999,38.8947106,0 -122.00051749999992,38.926290800000004,0 -122.00093739999993,38.9270124,0 -122.00130719999991,38.9277679,0 -122.0018959999999,38.9293936,0 -122.00211339999991,38.930315,0 -122.00243989999993,38.9326175,0 -122.00264279999992,38.9335273,0 -122.00284719999992,38.9341907,0 -122.00307939999992,38.934818500000006,0 -122.00329439999993,38.9353247,0 -122.00366419999992,38.936063100000005,0 -122.00401479999992,38.936668600000004,0 -122.01090089999992,38.94714470000001,0 -122.01145759999991,38.947878400000015,0 -122.01197419999991,38.94848660000001,0 -122.01240809999989,38.948946000000014,0 -122.01315659999989,38.949655000000014,0 -122.01361639999988,38.95004710000001,0 -122.01502959999989,38.95115270000001,0 -122.01571679999988,38.95172620000002,0 -122.01625279999989,38.95221880000001,0 -122.0163646999999,38.95234330000002,0 -122.0165887999999,38.95255750000002,0 -122.01704729999989,38.95305540000002,0 -122.01779939999989,38.953972100000016,0 -122.01804679999988,38.95431580000002,0 -122.02606989999987,38.966526000000016,0 -122.02642869999987,38.967118100000015,0 -122.02678479999987,38.967789300000014,0 -122.02716269999988,38.96865010000001,0 -122.02744039999989,38.96944400000002,0 -122.02759219999989,38.96998350000002,0 -122.02810539999987,38.97229390000001,0 -122.02830009999985,38.97293000000001,0 -122.02868639999986,38.973925000000015,0 -122.02892449999985,38.974427100000014,0 -122.02939849999984,38.97527700000001,0 -122.05330629999985,39.01158430000002,0 -122.05364269999984,39.01199910000001,0 -122.05408069999984,39.012431700000015,0 -122.05454299999984,39.01280060000001,0 -122.05622039999984,39.01389170000001,0 -122.05655709999984,39.014150000000015,0 -122.05690469999985,39.01447660000001,0 -122.05716879999984,39.01478180000001,0 -122.05735159999983,39.01503280000001,0 -122.06102279999985,39.02061390000001,0 -122.06141649999985,39.021312400000014,0 -122.06182559999986,39.02218320000001,0 -122.06207359999985,39.02281390000001,0 -122.06290249999985,39.025555200000014,0 -122.06312519999985,39.02616440000001,0 -122.06354479999983,39.02709530000001,0 -122.06393779999983,39.02781930000001,0 -122.07809359999985,39.04930990000001,0 -122.07842339999985,39.049738000000005,0 -122.07897409999985,39.05038640000001,0 -122.07947519999985,39.05091430000001,0 -122.08006819999984,39.051482400000005,0 -122.08074449999984,39.052056300000004,0 -122.08242749999982,39.0533135,0 -122.08320539999983,39.053927300000005,0 -122.08365269999983,39.05431700000001,0 -122.08434659999983,39.054979800000005,0 -122.08483659999983,39.055508900000014,0 -122.08554829999983,39.05639250000001,0 -122.08602549999983,39.057081100000005,0 -122.08631939999982,39.05755750000001,0 -122.08658119999983,39.058034500000005,0 -122.09420799999984,39.07369710000001,0 -122.09455429999981,39.07429730000001,0 -122.10715149999983,39.093440500000014,0 -122.10765019999982,39.09411830000001,0 -122.10810719999982,39.09466980000001,0 -122.10886019999982,39.095475700000016,0 -122.10971759999983,39.09625980000002,0 -122.11025379999982,39.09669250000002,0 -122.11147809999983,39.09759820000002,0 -122.11204289999982,39.09806110000002,0 -122.11286739999981,39.09878930000002,0 -122.11318029999981,39.09910000000002,0 -122.11393409999981,39.099965900000015,0 -122.11433699999981,39.10047190000002,0 -122.11490279999981,39.10128550000002,0 -122.1154072999998,39.102154900000016,0 -122.11570279999982,39.10275690000002,0 -122.11600309999983,39.10347680000002,0 -122.11619189999982,39.10401700000001,0 -122.11634609999982,39.104538200000015,0 -122.11679719999981,39.10658160000001,0 -122.11695799999981,39.10716350000001,0 -122.11725509999982,39.10804670000002,0 -122.11748479999981,39.10861430000002,0 -122.11776229999981,39.10916750000002,0 -122.1181888999998,39.10990390000002,0 -122.12351409999981,39.11799680000002,0 -122.1238980999998,39.11861950000002,0 -122.1273571999998,39.123796300000016,0 -122.12769159999979,39.12425740000002,0 -122.1282442999998,39.12492620000002,0 -122.1287358999998,39.12546130000002,0 -122.12936509999979,39.126076200000014,0 -122.12990279999978,39.126550000000016,0 -122.13145759999978,39.12780290000002,0 -122.13198569999977,39.12826420000002,0 -122.13274139999977,39.129009300000014,0 -122.13331559999978,39.12966030000001,0 -122.13381149999978,39.13029760000001,0 -122.13406909999979,39.13065990000001,0 -122.13457019999979,39.13144840000001,0 -122.1348514999998,39.13196720000001,0 -122.1352252999998,39.13275510000002,0 -122.1354646999998,39.133366500000015,0 -122.1356843999998,39.13403790000002,0 -122.13585109999981,39.13468730000002,0 -122.13595469999983,39.135194700000014,0 -122.13605379999983,39.13588400000002,0 -122.13609309999983,39.136305000000014,0 -122.13611909999983,39.13717420000002,0 -122.13596039999983,39.14070570000002,0 -122.13598099999982,39.141279400000016,0 -122.1360915999998,39.142279400000014,0 -122.13630499999981,39.143298600000016,0 -122.13653389999979,39.144081700000015,0 -122.13673569999979,39.144645300000015,0 -122.13717499999979,39.145628400000014,0 -122.13755279999978,39.14632330000001,0 -122.15319329999978,39.17233100000002,0 -122.15352999999978,39.17282470000002,0 -122.15420399999977,39.17369250000002,0 -122.15468949999976,39.17423180000002,0 -122.15533479999976,39.17488410000002,0 -122.16369059999975,39.182499200000024,0 -122.16399249999975,39.182800400000026,0 -122.16446849999976,39.183317600000024,0 -122.16492949999974,39.183871000000025,0 -122.16538649999974,39.184492300000024,0 -122.16892069999975,39.18984810000003,0 -122.16907139999974,39.190045600000026,0 -122.17153029999974,39.19378040000002,0 -122.17255679999974,39.195553700000026,0 -122.17948519999975,39.20835090000003,0 -122.17975739999976,39.20897120000003,0 -122.17999129999976,39.209601500000026,0 -122.18015199999977,39.21011340000002,0 -122.18031399999977,39.21075320000003,0 -122.18045599999978,39.211528200000025,0 -122.18128349999978,39.220852200000024,0 -122.18135219999978,39.222160100000025,0 -122.18215029999978,39.26553320000002,0 -122.18223769999977,39.27535890000002,0 -122.18230849999979,39.27653500000002,0 -122.18241479999979,39.277456900000026,0 -122.18652759999979,39.303973300000024,0 -122.1866888999998,39.30462110000003,0 -122.1868850999998,39.30525770000003,0 -122.1871748999998,39.306012000000024,0 -122.18751669999982,39.306750800000025,0 -122.18770919999983,39.30711480000002,0 -122.18813579999981,39.30783220000003,0 -122.18869239999981,39.30863530000003,0 -122.19253299999981,39.31375500000002,0 -122.1928330999998,39.31422270000002,0 -122.19324389999981,39.31494740000002,0 -122.19348299999982,39.31543450000002,0 -122.19379809999981,39.316183100000025,0 -122.19393289999981,39.31656050000002,0 -122.19416119999981,39.317327300000024,0 -122.19435269999983,39.318230400000026,0 -122.19443149999984,39.318750100000024,0 -122.19450269999983,39.31966490000003,0 -122.19476609999981,39.34986280000003,0 -122.19471659999981,39.350584100000034,0 -122.1945749999998,39.35155540000003,0 -122.19440529999981,39.35230870000003,0 -122.19428309999982,39.35273000000003,0 -122.19309079999982,39.35622120000003,0 -122.19292799999981,39.35684830000003,0 -122.1927211999998,39.35801790000003,0 -122.1926560999998,39.35890560000003,0 -122.1929316999998,39.39360390000003,0 -122.1929823999998,39.39430530000003,0 -122.1931261999998,39.395268900000026,0 -122.1954521999998,39.40520250000003,0 -122.1955564999998,39.40582400000003,0 -122.19563069999981,39.40673320000003,0 -122.19563489999982,39.40747130000003,0 -122.19558359999984,39.40826050000003,0 -122.19541999999984,39.40930490000003,0 -122.19326499999984,39.419036100000035,0 -122.19319119999984,39.41958080000003,0 -122.19315159999987,39.42007480000003,0 -122.19312959999985,39.42086690000003,0 -122.19341189999983,39.45617190000003,0 -122.19345419999985,39.45669990000003,0 -122.19358479999984,39.45758680000003,0 -122.19378989999983,39.45849150000003,0 -122.19408329999983,39.459389900000026,0 -122.19505259999984,39.461882600000024,0 -122.19525689999986,39.462557500000024,0 -122.19540859999985,39.46320310000002,0 -122.19550379999984,39.463724500000026,0 -122.19560799999984,39.46476340000003,0 -122.19564449999984,39.46804860000003,0 -122.19561679999985,39.47030830000003,0 -122.19569269999985,39.47299290000003,0 -122.19584079999986,39.49084160000003,0 -122.19588359999985,39.491481900000025,0 -122.19601109999985,39.492420000000024,0 -122.19612099999986,39.492950400000026,0 -122.19632179999986,39.493712100000025,0 -122.19663949999986,39.49459050000003,0 -122.19686349999985,39.49511050000003,0 -122.20002269999985,39.501139800000026,0 -122.20051949999986,39.50196330000003,0 -122.20092729999985,39.50253620000002,0 -122.20127209999984,39.50298110000002,0 -122.20846409999983,39.51148790000002,0 -122.20946079999983,39.51260960000002,0 -122.21194749999984,39.51557130000002,0 -122.21221619999983,39.51591810000002,0 -122.21262229999984,39.516492900000024,0 -122.21299659999983,39.517087600000025,0 -122.21341269999982,39.51784500000002,0 -122.21384359999982,39.51880940000002,0 -122.21413699999982,39.51964750000002,0 -122.21429049999983,39.52020760000002,0 -122.21448459999984,39.521186600000014,0 -122.21457719999984,39.52208560000002,0 -122.21457699999984,39.536088800000016,0 -122.21458449999983,39.53614470000002,0 -122.21462279999982,39.53805840000002,0 -122.21461259999981,39.538114700000015,0 -122.21459969999981,39.54015920000002,0 -122.21465369999981,39.54230970000001,0 -122.21461339999982,39.54879910000002,0 -122.21463679999982,39.54887140000001,0 -122.21463669999983,39.553959700000014,0 -122.21459889999983,39.55457110000001,0 -122.21444879999981,39.55575630000001,0 -122.20962609999982,39.58657510000002,0 -122.20865689999981,39.59996360000002,0 -122.20850299999981,39.60147900000002,0 -122.20849199999982,39.60246220000002,0 -122.20840839999981,39.60362810000002,0 -122.20577289999981,39.61983340000002,0 -122.20572629999982,39.62022210000002,0 -122.20406709999983,39.63041680000002,0 -122.20401439999982,39.631210500000016,0 -122.20434309999982,39.663465000000016,0 -122.20433159999982,39.66355830000002,0 -122.20455189999981,39.68564540000001,0 -122.20595809999982,39.71024170000001,0 -122.20597299999983,39.71123260000002,0 -122.20517099999984,39.76154660000002,0 -122.20410689999984,39.78587830000001,0 -122.20398549999983,39.786748900000006,0 -122.20388509999982,39.78724060000001,0 -122.20373009999982,39.78784910000001,0 -122.20190449999981,39.79400940000001,0 -122.2019057999998,39.79406980000001,0 -122.20006179999983,39.80030380000001,0 -122.19984009999983,39.801405400000014,0 -122.19976729999985,39.80203640000001,0 -122.19973379999985,39.80256930000001,0 -122.20008759999986,39.96430860000001,0 -122.20012159999986,39.96538110000001,0 -122.20022329999986,39.966577700000016,0 -122.21540059999987,40.059675300000016,0 -122.21546639999988,40.06043000000002,0 -122.2184283999999,40.11895250000001,0 -122.2184159999999,40.11913710000002,0 -122.21886769999992,40.12764340000002,0 -122.2191463999999,40.12989700000002,0 -122.2214832999999,40.142458400000024,0 -122.2215186999999,40.142524200000025,0 -122.22340669999993,40.152614400000026,0 -122.22350549999992,40.15335770000002,0 -122.22354249999991,40.15393400000002,0 -122.2235462999999,40.154611000000024,0 -122.2235225999999,40.155114500000025,0 -122.22125629999991,40.17308190000002,0 -122.2212210999999,40.17376290000002,0 -122.2212660999999,40.174560300000024,0 -122.22130639999989,40.17483430000002,0 -122.22151409999988,40.17568960000003,0 -122.22171119999987,40.17624290000003,0 -122.22201659999988,40.176906800000026,0 -122.22220459999988,40.177237600000026,0 -122.22249989999987,40.17769790000003,0 -122.22277529999988,40.17807330000003,0 -122.24138849999989,40.200169800000026,0 -122.2427269999999,40.20190220000003,0 -122.2433010999999,40.20274730000003,0 -122.24444079999991,40.20456600000003,0 -122.24499589999992,40.205550600000024,0 -122.24581279999991,40.20719580000002,0 -122.24636119999991,40.208416400000026,0 -122.24794499999992,40.21232560000003,0 -122.24859829999993,40.213822800000024,0 -122.24919059999992,40.21502820000002,0 -122.25310799999993,40.22237350000002,0 -122.25347779999991,40.22326110000002,0 -122.25367079999992,40.22385960000002,0 -122.25389719999991,40.224749500000016,0 -122.25408519999992,40.22578960000002,0 -122.25441409999992,40.22932170000002,0 -122.25466769999991,40.23116080000002,0 -122.25474269999991,40.23154690000002,0 -122.25513309999991,40.23311740000002,0 -122.26028049999992,40.248426000000016,0 -122.26927519999992,40.27218740000002,0 -122.27008859999994,40.27418420000002,0 -122.27106079999993,40.27636100000002,0 -122.27122179999992,40.276667500000016,0 -122.27363259999993,40.281914100000016,0 -122.27388569999992,40.28234260000002,0 -122.27411859999994,40.28269460000001,0 -122.27433739999994,40.282988500000016,0 -122.27718569999995,40.286368900000014,0 -122.27760539999994,40.28697120000002,0 -122.27792449999995,40.287545500000014,0 -122.27816579999995,40.288086700000015,0 -122.27845039999994,40.288940900000014,0 -122.27853269999996,40.28931520000002,0 -122.27860209999997,40.28977860000002,0 -122.27894339999996,40.29488340000002,0 -122.27895599999997,40.29548540000002,0 -122.28107259999997,40.32860130000002,0 -122.28197939999998,40.34865970000001,0 -122.28350959999997,40.36226710000001,0 -122.28397229999997,40.36833820000002,0 -122.28435379999998,40.37215560000002,0 -122.28472339999996,40.379269100000016,0 -122.28476009999997,40.38125380000002,0 -122.28478519999996,40.38135790000002,0 -122.28481979999995,40.38357070000002,0 -122.28515479999996,40.39089390000002,0 -122.28508969999996,40.39168300000002,0 -122.28502189999996,40.39208770000002,0 -122.28489209999995,40.39257520000002,0 -122.28137599999995,40.40324180000002,0 -122.28112549999993,40.40422030000002,0 -122.28083749999995,40.405664700000024,0 -122.28066029999994,40.40697910000002,0 -122.28056519999994,40.40850100000003,0 -122.28056619999994,40.40977050000003,0 -122.28063429999996,40.41092180000003,0 -122.28074439999996,40.411873600000035,0 -122.28275509999995,40.425633200000036,0 -122.28292909999995,40.426446700000035,0 -122.28305919999995,40.426928900000036,0 -122.28669399999995,40.437259800000035,0 -122.28672599999996,40.43738270000003,0 -122.28723219999996,40.438810800000034,0 -122.28736849999997,40.43925510000003,0 -122.28750949999996,40.43985760000003,0 -122.28752439999997,40.43997560000003,0 -122.28902569999997,40.446957800000035,0 -122.28921629999998,40.44770720000003,0 -122.28947889999998,40.44850410000004,0 -122.28984999999997,40.44938460000004,0 -122.29023539999999,40.45014660000003,0 -122.29064469999999,40.450827900000036,0 -122.2909416,40.451272400000036,0 -122.2914943,40.45200650000004,0 -122.2919109,40.45249300000004,0 -122.295046,40.45569620000004,0 -122.2953354,40.45602500000004,0 -122.29842740000001,40.45918960000004,0 -122.29886959999999,40.45961580000004,0 -122.324922,40.48625570000004,0 -122.325589,40.48704330000004,0 -122.32597509999998,40.48757190000004,0 -122.34205289999997,40.51189790000004,0 -122.34254949999996,40.51273300000003,0 -122.34279719999996,40.513220300000036,0 -122.34307529999997,40.51384440000003,0 -122.34335109999996,40.51460210000003,0 -122.35985299999997,40.56682330000003,0 -122.36008879999997,40.567785600000036,0 -122.36017819999998,40.56829870000003,0 -122.36027439999998,40.569294500000034,0 -122.36032699999997,40.577856700000034,0 -122.36023569999998,40.578003300000034,0 -122.36002589999997,40.58025500000003,0 -122.35998429999998,40.58034080000003,0 -122.35961069999996,40.581956000000034,0 -122.35942409999996,40.582298900000026,0 -122.35930069999996,40.58249330000003,0 -122.35909279999996,40.58274770000003,0 -122.35902079999995,40.58281470000003,0 -122.35887989999995,40.582916600000026,0 -122.35880409999994,40.58295810000002,0 -122.35865609999995,40.583023500000024,0 -122.35843309999996,40.58309260000002,0 -122.35810429999995,40.58314640000002,0 -122.35785449999995,40.58317360000002,0 -122.35775039999994,40.58186450000002,0 -122.35780059999993,40.58042130000002,0 </coordinates></LineString><TimeSpan><begin>2021-08-07T00:49:45.098Z</begin><end>2021-08-07T03:18:53.225Z</end></TimeSpan></Placemark><Placemark><name>Holiday Inn Redding, an IHG Hotel</name><address>1900 Hilltop Dr, Redding, CA 96002</address><ExtendedData><Data name="Email"><value>syugen.zhou@gmail.com</value></Data><Data name="Category"><value>Hotel</value></Data><Data name="Distance"><value>0</value></Data></ExtendedData><description> Hotel from 2021-08-07T03:18:53.225Z to 2021-08-07T16:01:33.999Z. Distance 0m </description><Point><coordinates>-122.35897999999999,40.579823999999995,0</coordinates></Point><TimeSpan><begin>2021-08-07T03:18:53.225Z</begin><end>2021-08-07T16:01:33.999Z</end></TimeSpan></Placemark></Document></kml>
