<?xml version="1.0" encoding="UTF-8"?><kml xmlns="http://www.opengis.net/kml/2.2" xmlns:gx="http://www.google.com/kml/ext/2.2"><Document><name> Location history from 2021-08-07 to 2021-08-07 </name><open>1</open><description></description><StyleMap id="multiTrack"><Pair><key>normal</key><styleUrl>#multiTrack_n</styleUrl></Pair><Pair><key>highlight</key><styleUrl>#multiTrack_h</styleUrl></Pair></StyleMap><Style id="multiTrack_n"><IconStyle><Icon><href>https://earth.google.com/images/kml-icons/track-directional/track-0.png</href></Icon></IconStyle><LineStyle><color>99ffac59</color><width>6</width></LineStyle></Style><Style id="multiTrack_h"><IconStyle><scale>1.2</scale><Icon><href>https://earth.google.com/images/kml-icons/track-directional/track-0.png</href></Icon></IconStyle><LineStyle><color>99ffac59</color><width>8</width></LineStyle></Style><Placemark><name>Holiday Inn Redding, an IHG Hotel</name><address>1900 Hilltop Dr, Redding, CA 96002</address><ExtendedData><Data name="Email"><value>syugen.zhou@gmail.com</value></Data><Data name="Category"><value>Hotel</value></Data><Data name="Distance"><value>0</value></Data></ExtendedData><description> Hotel from 2021-08-07T03:18:53.225Z to 2021-08-07T16:01:33.999Z. Distance 0m </description><Point><coordinates>-122.35897999999999,40.579823999999995,0</coordinates></Point><TimeSpan><begin>2021-08-07T03:18:53.225Z</begin><end>2021-08-07T16:01:33.999Z</end></TimeSpan></Placemark><Placemark><name>Driving</name><address></address><ExtendedData><Data name="Email"><value>syugen.zhou@gmail.com</value></Data><Data name="Category"><value>Driving</value></Data><Data name="Distance"><value>15557</value></Data></ExtendedData><description> Driving from 2021-08-07T16:01:33.999Z to 2021-08-07T16:16:21.000Z. Distance 15557m </description><LineString><altitudeMode>clampToGround</altitudeMode><extrude>1</extrude><tesselate>1</tesselate><coordinates>-122.35780529999998,40.5802955,0 -122.3577504,40.5818645,0 -122.35793600000001,40.585503599999996,0 -122.35806799999999,40.586482499999995,0 -122.35865749999999,40.5866277,0 -122.36005399999998,40.587133800000004,0 -122.36081449999998,40.5872399,0 -122.36117279999998,40.5872443,0 -122.36169769999998,40.5871904,0 -122.36218419999997,40.5870565,0 -122.36249309999998,40.586919800000004,0 -122.36353359999998,40.5863184,0 -122.36411249999999,40.5860709,0 -122.36470229999998,40.5859394,0 -122.36540009999997,40.585897100000004,0 -122.36739059999996,40.5859874,0 -122.36755619999997,40.585929400000005,0 -122.38222309999998,40.5869516,0 -122.38295799999999,40.5869208,0 -122.38470849999997,40.5865294,0 -122.38515789999998,40.586490500000004,0 -122.38549549999998,40.5865086,0 -122.38584359999999,40.5865706,0 -122.3874889,40.587187,0 -122.3877468,40.587252199999995,0 -122.38798320000001,40.58725689999999,0 -122.3904285,40.58667799999999,0 -122.3909893,40.587982999999994,0 -122.39783980000001,40.586283599999994,0 -122.39863510000002,40.5862001,0 -122.3989978,40.58621769999999,0 -122.40088690000002,40.586514599999994,0 -122.40151940000001,40.586572999999994,0 -122.40279650000002,40.586607699999995,0 -122.41915520000003,40.58527209999999,0 -122.42122570000004,40.5849585,0 -122.42804900000004,40.5835076,0 -122.43309140000004,40.58214099999999,0 -122.43411450000004,40.581980599999994,0 -122.43476550000004,40.58197129999999,0 -122.43570730000003,40.5820569,0 -122.43630980000003,40.5821779,0 -122.43702660000002,40.582415399999995,0 -122.43912570000003,40.583355499999996,0 -122.43994190000002,40.58359979999999,0 -122.44042060000001,40.58368659999999,0 -122.4451488,40.584158599999995,0 -122.44583150000001,40.58428589999999,0 -122.44588130000001,40.58432739999999,0 -122.4546845,40.58663649999999,0 -122.45540849999999,40.58689709999999,0 -122.45597459999999,40.587178899999984,0 -122.45658169999999,40.587585899999986,0 -122.4579475,40.588753699999984,0 -122.45832370000001,40.589003799999986,0 -122.45836990000001,40.58907519999998,0 -122.45931200000001,40.58952449999998,0 -122.46031150000002,40.58981269999999,0 -122.46087130000002,40.58991259999999,0 -122.46181680000002,40.589951099999986,0 -122.46191320000001,40.58991729999999,0 -122.46413770000002,40.58988149999999,0 -122.46486960000001,40.589926799999986,0 -122.46597880000003,40.59009579999999,0 -122.46658720000002,40.590245999999986,0 -122.46759450000003,40.59058859999998,0 -122.46899270000003,40.59092479999999,0 -122.46992220000003,40.59107189999999,0 -122.47090300000002,40.591147499999984,0 -122.47185040000002,40.59115649999998,0 -122.47897790000002,40.59065049999998,0 -122.47943700000003,40.59065589999998,0 -122.48043160000003,40.59075429999998,0 -122.48145780000003,40.59097449999998,0 -122.48266960000002,40.59144769999998,0 -122.48358350000002,40.59195229999998,0 -122.48464750000004,40.59289289999999,0 -122.48629720000002,40.594790899999985,0 -122.48691980000002,40.595369199999986,0 -122.48816490000004,40.59635239999999,0 -122.49729390000003,40.602741899999984,0 -122.49801540000001,40.603180999999985,0 -122.4992342,40.60372169999999,0 -122.50015330000001,40.60399959999999,0 -122.50184120000002,40.60433599999998,0 -122.50950660000001,40.60555119999998,0 -122.51004970000001,40.605722499999985,0 -122.51075040000002,40.60604839999998,0 -122.51115440000001,40.60629979999998,0 -122.51719990000001,40.61137599999998,0 -122.51755580000003,40.61174389999998,0 -122.51774460000001,40.612004499999976,0 -122.5179602,40.61241999999998,0 -122.51839840000001,40.613687999999975,0 -122.5186391,40.614140499999976,0 -122.5194026,40.61510189999998,0 -122.52072950000002,40.614214699999984,0 -122.52075,40.61442099999998,0 -122.5204137,40.61467669999998,0 -122.5201556,40.614828799999984,0 </coordinates></LineString><TimeSpan><begin>2021-08-07T16:01:33.999Z</begin><end>2021-08-07T16:16:21.000Z</end></TimeSpan></Placemark><Placemark><name>Whiskeytown National Recreation Area Visitor Center</name><address>14412 J.F. Kennedy Memorial Drive, Whiskeytown, CA 96095</address><ExtendedData><Data name="Email"><value>syugen.zhou@gmail.com</value></Data><Data name="Category"><value>Visitor center</value></Data><Data name="Distance"><value>0</value></Data></ExtendedData><description> Visitor center from 2021-08-07T16:16:21.000Z to 2021-08-07T16:27:42.000Z. Distance 0m </description><Point><coordinates>-122.52016789999999,40.6150137,0</coordinates></Point><TimeSpan><begin>2021-08-07T16:16:21.000Z</begin><end>2021-08-07T16:27:42.000Z</end></TimeSpan></Placemark><Placemark><name>Driving</name><address></address><ExtendedData><Data name="Email"><value>syugen.zhou@gmail.com</value></Data><Data name="Category"><value>Driving</value></Data><Data name="Distance"><value>221094</value></Data></ExtendedData><description> Driving from 2021-08-07T16:27:42.999Z to 2021-08-07T19:22:57.200Z. Distance 221094m </description><LineString><altitudeMode>clampToGround</altitudeMode><extrude>1</extrude><tesselate>1</tesselate><coordinates>-122.5203333,40.6147241,0 -122.52015420000001,40.6148296,0 -122.5200228,40.6148319,0 -122.5199173,40.6147771,0 -122.51968910000001,40.6149268,0 -122.5191738,40.6148511,0 -122.51839840000001,40.613688,0 -122.5179602,40.61242,0 -122.5175558,40.6117439,0 -122.51115439999998,40.6062998,0 -122.51004969999998,40.605722500000006,0 -122.50950659999998,40.60555120000001,0 -122.50015329999998,40.6039996,0 -122.49923419999999,40.6037217,0 -122.4980154,40.603181,0 -122.48816489999999,40.5963524,0 -122.4862972,40.5947909,0 -122.48464750000001,40.5928929,0 -122.4835835,40.5919523,0 -122.4826696,40.5914477,0 -122.4814578,40.5909745,0 -122.4804316,40.5907543,0 -122.47897789999999,40.590650499999995,0 -122.4718504,40.5911565,0 -122.46992219999998,40.59107189999999,0 -122.46899269999999,40.59092479999999,0 -122.46597879999997,40.59009579999999,0 -122.46486959999997,40.589926799999986,0 -122.46087939999997,40.58982929999999,0 -122.45954359999998,40.58952609999999,0 -122.45832369999998,40.58900379999999,0 -122.45597459999999,40.58717889999999,0 -122.45468449999997,40.5866365,0 -122.44589099999997,40.5842601,0 -122.44583149999998,40.5842859,0 -122.4399419,40.583599799999995,0 -122.4391257,40.583355499999996,0 -122.43630980000002,40.582177900000005,0 -122.43476550000003,40.5819713,0 -122.43411450000002,40.5819806,0 -122.43309140000002,40.582141,0 -122.42804900000002,40.5835076,0 -122.4191552,40.5852721,0 -122.4027965,40.586607699999995,0 -122.40088689999999,40.586514599999994,0 -122.39863509999999,40.58620009999999,0 -122.39783979999999,40.586283599999994,0 -122.39228069999999,40.587661399999995,0 -122.39324499999998,40.589959099999994,0 -122.39319099999997,40.590070999999995,0 -122.39320499999997,40.59038399999999,0 -122.39292769999997,40.59094549999999,0 -122.37791009999998,40.60555709999999,0 -122.37707019999998,40.60695489999999,0 -122.37671089999999,40.60802179999999,0 -122.3765074,40.60935349999999,0 -122.3739358,40.61012789999999,0 -122.36906169999999,40.61121449999999,0 -122.33625579999998,40.61698829999998,0 -122.30395949999998,40.62382479999998,0 -122.30216959999997,40.624407799999986,0 -122.25209809999996,40.63500959999998,0 -122.25093929999994,40.63537129999998,0 -122.25021879999993,40.635701799999985,0 -122.24755929999993,40.63741969999999,0 -122.24654309999994,40.63778709999998,0 -122.23531729999995,40.63948169999998,0 -122.23429599999994,40.63973569999998,0 -122.23331359999993,40.64011389999999,0 -122.22646149999994,40.64419439999999,0 -122.22182289999994,40.64781529999999,0 -122.21827019999994,40.65159049999999,0 -122.21653549999994,40.65429239999999,0 -122.21513989999993,40.656015199999985,0 -122.21131879999993,40.659172599999984,0 -122.20970719999994,40.660094399999984,0 -122.20759359999994,40.66096429999998,0 -122.20599589999995,40.661407799999985,0 -122.20334299999995,40.66181739999998,0 -122.20173309999994,40.66187859999999,0 -122.19958399999994,40.661742299999986,0 -122.19410719999993,40.66086129999999,0 -122.19248679999993,40.66097719999999,0 -122.19133389999992,40.6613249,0 -122.1872425999999,40.66334129999999,0 -122.1849522999999,40.66505459999999,0 -122.18265869999992,40.665954899999996,0 -122.18175329999991,40.666430899999995,0 -122.18057509999991,40.667296,0 -122.17950249999991,40.667892099999996,0 -122.17492649999991,40.6696559,0 -122.1741264999999,40.6700629,0 -122.1706301999999,40.6725543,0 -122.16636979999991,40.6764596,0 -122.1651218999999,40.6774014,0 -122.1635131999999,40.6782941,0 -122.1593314999999,40.679786400000005,0 -122.15396849999989,40.682120600000005,0 -122.15325809999989,40.682553000000006,0 -122.1518262999999,40.68371970000001,0 -122.15096569999989,40.684160300000016,0 -122.14391879999988,40.68632460000001,0 -122.13266359999989,40.687669200000016,0 -122.1182159999999,40.689975300000015,0 -122.11143869999991,40.69203910000002,0 -122.1088956999999,40.693200800000014,0 -122.1009891999999,40.69811340000002,0 -122.09993779999989,40.699025700000014,0 -122.09794229999991,40.70158270000002,0 -122.09533219999992,40.70412000000002,0 -122.09106029999992,40.70724620000002,0 -122.09079009999994,40.707526100000024,0 -122.09059399999992,40.707867300000025,0 -122.09049279999994,40.70940790000003,0 -122.09029749999993,40.709975400000026,0 -122.08979459999992,40.71075650000002,0 -122.08899249999993,40.711443600000024,0 -122.08814979999993,40.71188250000002,0 -122.08734189999994,40.712112000000026,0 -122.08509669999995,40.712215300000025,0 -122.08457279999996,40.712398200000024,0 -122.08416359999995,40.71268300000002,0 -122.08390969999996,40.71298920000002,0 -122.08376029999997,40.71344780000002,0 -122.08399669999997,40.71547130000002,0 -122.08338109999997,40.71772490000002,0 -122.08314369999997,40.718183000000025,0 -122.08245769999996,40.71901370000002,0 -122.08193949999996,40.719972800000015,0 -122.08175619999996,40.720893500000024,0 -122.08194369999994,40.723616200000016,0 -122.08162369999995,40.72429490000002,0 -122.08112109999996,40.72484830000002,0 -122.07954989999996,40.72576470000002,0 -122.07654809999998,40.72829460000002,0 -122.07621489999998,40.728913900000016,0 -122.07619529999998,40.72935040000002,0 -122.07642509999997,40.73032400000002,0 -122.07636409999996,40.73095530000002,0 -122.07611009999995,40.73138630000002,0 -122.07575619999994,40.73170210000002,0 -122.07442309999995,40.73237730000002,0 -122.07398529999993,40.73275150000002,0 -122.07362609999994,40.73349250000002,0 -122.07361689999995,40.73392550000002,0 -122.07388219999994,40.735302200000014,0 -122.07377029999992,40.735796000000015,0 -122.07292839999992,40.737091800000016,0 -122.07118119999993,40.74121390000002,0 -122.07063209999991,40.74171710000002,0 -122.0700440999999,40.74202260000001,0 -122.06878859999992,40.74241960000001,0 -122.06364319999992,40.74468750000001,0 -122.06326559999991,40.744955300000015,0 -122.0625024999999,40.74613450000002,0 -122.06210779999991,40.74644190000002,0 -122.06172879999991,40.74661370000002,0 -122.06131509999992,40.746705800000015,0 -122.06064289999992,40.74671230000002,0 -122.05819239999991,40.746174900000014,0 -122.05705189999992,40.746207800000015,0 -122.05560499999991,40.74648460000001,0 -122.05504359999992,40.746751900000014,0 -122.05471299999992,40.747045700000015,0 -122.05450609999991,40.74738290000001,0 -122.05426379999992,40.74821570000002,0 -122.0538474999999,40.74883420000002,0 -122.05354839999988,40.749057700000016,0 -122.0526504999999,40.74942120000002,0 -122.0499851999999,40.749609000000014,0 -122.0491740999999,40.74989940000002,0 -122.0473439999999,40.75103640000001,0 -122.0460142999999,40.75151450000001,0 -122.0448518999999,40.751723800000015,0 -122.0430316999999,40.75170840000001,0 -122.04177119999989,40.75145370000001,0 -122.04060539999988,40.751016100000015,0 -122.03981109999988,40.75085170000002,0 -122.03919099999987,40.75086380000002,0 -122.03338529999986,40.75270130000002,0 -122.03072279999985,40.754085600000025,0 -122.02964159999986,40.755080400000026,0 -122.02916239999985,40.75529060000002,0 -122.02710429999986,40.755641000000026,0 -122.02568689999985,40.755667800000026,0 -122.02493749999987,40.755576400000024,0 -122.02385079999985,40.75528920000003,0 -122.02264329999986,40.75480050000003,0 -122.02194149999984,40.75462110000003,0 -122.02129229999986,40.754567400000035,0 -122.02054249999986,40.75466380000003,0 -122.01994799999986,40.754849500000034,0 -122.01920419999986,40.755277500000034,0 -122.01870589999986,40.755793100000034,0 -122.01844499999987,40.75629430000003,0 -122.01795359999987,40.757967500000035,0 -122.01745499999988,40.75885530000003,0 -122.01686499999988,40.75936590000003,0 -122.01634699999987,40.75964090000003,0 -122.01309419999988,40.76073310000003,0 -122.01256269999988,40.761258600000026,0 -122.01171569999988,40.763374400000025,0 -122.01165069999989,40.76375720000003,0 -122.01181309999988,40.76489610000003,0 -122.01170919999987,40.76531740000003,0 -122.01135109999989,40.76582140000003,0 -122.01021759999989,40.766747100000025,0 -122.0098570999999,40.76718330000003,0 -122.00956059999992,40.76798400000003,0 -122.00963369999992,40.76962730000003,0 -122.00941189999993,40.77036640000003,0 -122.00909969999992,40.77080440000003,0 -122.00869949999992,40.77115370000003,0 -122.00807259999993,40.77150170000003,0 -122.00589449999993,40.77236310000003,0 -122.00506369999992,40.773066000000036,0 -122.00477379999992,40.77352640000003,0 -122.00459029999992,40.774287800000025,0 -122.00529859999992,40.77734350000002,0 -122.0052076999999,40.77771980000002,0 -122.00506679999991,40.777926900000026,0 -122.00470669999991,40.778207700000024,0 -122.00415929999991,40.77836800000003,0 -122.00285139999991,40.77833060000003,0 -122.0023066999999,40.77839910000003,0 -122.00102759999992,40.77893110000003,0 -121.99992039999992,40.77918950000003,0 -121.99907769999992,40.77925740000003,0 -121.99116959999992,40.77874660000003,0 -121.98857389999993,40.77822740000003,0 -121.98637169999994,40.77743420000002,0 -121.98508549999994,40.77724440000002,0 -121.98409259999993,40.77724740000002,0 -121.98213849999993,40.77748190000002,0 -121.98083599999994,40.77746070000002,0 -121.98047689999994,40.77751350000002,0 -121.97957359999995,40.777881100000016,0 -121.97754419999995,40.779762900000016,0 -121.97610589999994,40.780270500000015,0 -121.97568469999993,40.780512600000016,0 -121.97548219999993,40.78070140000002,0 -121.97522789999994,40.78113780000002,0 -121.97517209999994,40.78137000000001,0 -121.97546089999993,40.78315600000001,0 -121.97528849999993,40.78422180000001,0 -121.97502489999992,40.78480730000001,0 -121.9745577999999,40.78544440000001,0 -121.9733429999999,40.786666300000014,0 -121.9729346999999,40.786936400000016,0 -121.9722465999999,40.78723510000001,0 -121.9714917999999,40.78739390000001,0 -121.9703005999999,40.78733890000001,0 -121.9689850999999,40.78702330000001,0 -121.96537439999989,40.78698210000001,0 -121.9644822999999,40.78683490000002,0 -121.96291169999989,40.786358800000016,0 -121.96183089999988,40.786217700000016,0 -121.95429639999988,40.785927500000014,0 -121.95337369999989,40.78605480000002,0 -121.95271269999989,40.78625790000002,0 -121.9518798999999,40.786654200000015,0 -121.9504114999999,40.787670300000016,0 -121.9478257999999,40.78906090000002,0 -121.9419449999999,40.79437330000002,0 -121.94100339999991,40.795459500000014,0 -121.9405360999999,40.796237300000016,0 -121.93891469999991,40.80006400000002,0 -121.9389151999999,40.80083080000002,0 -121.94015789999992,40.805371900000026,0 -121.94014959999991,40.80703760000002,0 -121.93856309999991,40.813943000000016,0 -121.93800409999992,40.81491480000002,0 -121.92832889999991,40.827585100000015,0 -121.9278250999999,40.828892400000015,0 -121.92602459999989,40.838396500000016,0 -121.92546739999987,40.83964110000002,0 -121.92382759999988,40.841805900000026,0 -121.92040139999988,40.845057000000025,0 -121.91978979999986,40.845428500000025,0 -121.91902459999987,40.845712900000024,0 -121.91795159999987,40.84586150000003,0 -121.91469649999988,40.845470300000024,0 -121.91361719999988,40.84551640000002,0 -121.90947109999986,40.84670370000003,0 -121.90834349999987,40.846778800000024,0 -121.90763319999988,40.84668550000003,0 -121.90384239999986,40.845346500000026,0 -121.90324459999987,40.84530600000002,0 -121.90268799999987,40.84538510000002,0 -121.90234709999986,40.84550030000002,0 -121.90161449999985,40.846003100000026,0 -121.90126349999987,40.846640900000025,0 -121.90129149999987,40.847385000000024,0 -121.90153899999987,40.847829600000026,0 -121.90366999999988,40.84943070000003,0 -121.90414119999988,40.850068800000024,0 -121.90431799999988,40.85046920000003,0 -121.90446779999988,40.85125370000002,0 -121.90413029999989,40.85367750000003,0 -121.90425359999988,40.85436050000003,0 -121.90461469999988,40.85519370000003,0 -121.90963759999987,40.86064200000003,0 -121.91028389999988,40.86097620000003,0 -121.91266359999987,40.86173350000003,0 -121.91348349999987,40.862250600000024,0 -121.91385379999987,40.862716400000025,0 -121.91410719999988,40.86344520000003,0 -121.91407809999987,40.864012800000026,0 -121.91380469999986,40.86461210000003,0 -121.91332209999985,40.86513740000003,0 -121.91273309999987,40.865493400000034,0 -121.91218719999986,40.865697100000034,0 -121.91157059999986,40.86580890000003,0 -121.90733249999984,40.86558200000003,0 -121.90712029999985,40.86561540000003,0 -121.89205449999984,40.86437880000003,0 -121.89056869999985,40.864569300000035,0 -121.87608879999983,40.869789900000036,0 -121.87529979999984,40.86993610000003,0 -121.87072459999985,40.87030990000003,0 -121.86882399999986,40.87062310000003,0 -121.86489939999984,40.871833400000035,0 -121.86314889999986,40.87208840000003,0 -121.86233239999986,40.87206930000003,0 -121.86096689999985,40.871830700000025,0 -121.85982279999986,40.871396000000026,0 -121.85660669999987,40.869625400000025,0 -121.85582549999987,40.869036100000024,0 -121.85465329999987,40.86770570000002,0 -121.85389559999987,40.867209200000026,0 -121.85329089999986,40.86698820000002,0 -121.84933269999986,40.86603210000002,0 -121.84794289999986,40.86586990000002,0 -121.82670499999985,40.86505630000002,0 -121.82187509999986,40.86513180000002,0 -121.81213379999984,40.864744800000025,0 -121.81117349999985,40.86457830000002,0 -121.80830439999986,40.86342600000002,0 -121.80694739999986,40.86310670000002,0 -121.79834089999986,40.86259750000002,0 -121.79727569999986,40.86240240000002,0 -121.78983969999986,40.860078600000016,0 -121.78894229999986,40.85961370000002,0 -121.78751299999986,40.85859300000002,0 -121.78504639999987,40.85581500000002,0 -121.78430249999988,40.85526710000002,0 -121.78330869999989,40.85472390000002,0 -121.77761249999989,40.85277830000002,0 -121.77603769999989,40.85245150000002,0 -121.77458799999991,40.85232440000002,0 -121.7593857999999,40.852356300000025,0 -121.7584728999999,40.85255740000002,0 -121.75648209999991,40.853457300000024,0 -121.75594359999991,40.853599500000016,0 -121.75515089999989,40.85366370000002,0 -121.7491457999999,40.853377000000016,0 -121.74859699999988,40.85342450000002,0 -121.7477049999999,40.85369160000001,0 -121.74724119999989,40.853957000000015,0 -121.74459019999989,40.856126900000014,0 -121.74380129999989,40.856522100000014,0 -121.74073589999989,40.85734020000002,0 -121.7399221999999,40.85781810000002,0 -121.7394155999999,40.85826850000002,0 -121.7381138999999,40.86019690000002,0 -121.73798789999992,40.860580400000025,0 -121.73797949999992,40.86112840000002,0 -121.73876289999993,40.862931000000025,0 -121.73883459999995,40.86850920000002,0 -121.74085009999993,40.87521070000002,0 -121.74083399999992,40.87575500000002,0 -121.74070649999992,40.87611560000001,0 -121.74018719999991,40.87675160000002,0 -121.73965269999992,40.87708360000002,0 -121.73919799999992,40.877245000000016,0 -121.73487759999992,40.87807640000002,0 -121.73341109999991,40.87819730000002,0 -121.73250009999992,40.87817500000002,0 -121.69182149999993,40.87210460000002,0 -121.68895879999992,40.87206800000002,0 -121.68673309999991,40.872346000000014,0 -121.68429199999991,40.872985700000015,0 -121.68178089999991,40.87405300000002,0 -121.6803839999999,40.874862000000014,0 -121.67696869999989,40.877629100000014,0 -121.6769598999999,40.87766770000001,0 -121.67270879999991,40.88109880000001,0 -121.67211489999991,40.88141250000002,0 -121.67066529999991,40.88178350000001,0 -121.6630524999999,40.88214720000001,0 -121.66193899999992,40.88230870000002,0 -121.66087699999991,40.88260050000002,0 -121.65977689999993,40.883096000000016,0 -121.65856999999993,40.88391100000001,0 -121.61504599999995,40.93085270000001,0 -121.57743469999994,40.96332070000001,0 -121.57743369999993,40.96334240000001,0 -121.57083219999993,40.96885050000001,0 -121.56715759999992,40.97123950000001,0 -121.56645859999992,40.97147610000001,0 -121.56512109999991,40.9717083,0 -121.56412179999991,40.97213450000001,0 -121.56368789999992,40.972514600000004,0 -121.56333419999991,40.973015800000006,0 -121.56318449999993,40.973601800000004,0 -121.56314369999994,40.97468090000001,0 -121.56281099999994,40.97532540000001,0 -121.56235219999992,40.975779,0 -121.56169179999992,40.9761176,0 -121.56106709999992,40.976291700000004,0 -121.55608959999991,40.976732500000004,0 -121.5545035999999,40.9770942,0 -121.55321699999989,40.977544,0 -121.5441960999999,40.982189600000005,0 -121.54149479999988,40.9830741,0 -121.53944879999989,40.9834213,0 -121.52430249999988,40.9832843,0 -121.52221649999987,40.9835172,0 -121.52064109999986,40.983943100000005,0 -121.51831129999985,40.98502130000001,0 -121.51424559999985,40.988167900000015,0 -121.51370189999986,40.98873220000001,0 -121.51276949999985,40.990266500000004,0 -121.51232619999985,40.99238940000001,0 -121.51150169999987,40.99401280000001,0 -121.51141979999987,40.994520200000004,0 -121.51150789999986,40.99618800000001,0 -121.51124769999986,40.99695530000001,0 -121.50725139999986,41.00151240000001,0 -121.50663849999985,41.00186740000001,0 -121.50568999999986,41.00215350000001,0 -121.50499549999984,41.00222520000001,0 -121.50396069999984,41.00211920000001,0 -121.50315989999984,41.00184980000001,0 -121.50246149999985,41.00141700000001,0 -121.49993939999985,40.99910250000001,0 -121.49936449999984,40.99872760000001,0 -121.49744219999982,40.99813560000001,0 -121.49674589999984,40.99759120000001,0 -121.49609089999984,40.99654330000001,0 -121.49342889999984,40.99411480000002,0 -121.49300249999985,40.99385390000002,0 -121.49251289999984,40.99369880000002,0 -121.49199259999985,40.99364660000002,0 -121.49066769999985,40.99381800000002,0 -121.49011529999984,40.993806400000025,0 -121.48737749999985,40.99334750000003,0 -121.48612939999985,40.99339520000002,0 -121.48400789999985,40.99282720000002,0 -121.48299019999983,40.99276440000003,0 -121.48072789999983,40.99315910000002,0 -121.47955969999983,40.993146500000016,0 -121.47652569999981,40.99251630000002,0 -121.4732897999998,40.99237210000002,0 -121.47208329999981,40.99244160000002,0 -121.47096399999982,40.99265120000002,0 -121.43892839999982,41.003935300000016,0 -121.43858829999984,41.00412350000002,0 -121.43825699999982,41.00442020000002,0 -121.43252749999984,41.01510300000002,0 -121.42017439999985,41.029012100000024,0 -121.40634539999985,41.048100400000024,0 -121.40553789999984,41.048827500000016,0 -121.40443239999983,41.04944370000002,0 -121.40327179999984,41.04980920000002,0 -121.39676939999984,41.05025650000002,0 -121.39614959999986,41.05037720000002,0 -121.39574659999987,41.05053470000002,0 -121.38896669999987,41.054636800000026,0 -121.38787019999988,41.05509260000002,0 -121.37791809999986,41.05819560000002,0 -121.37783579999986,41.058261200000025,0 -121.32252189999986,41.07577310000002,0 -121.31870869999985,41.07653720000002,0 -121.31790749999985,41.076910400000024,0 -121.31747359999986,41.077261000000014,0 -121.31708029999986,41.077771100000014,0 -121.31684069999987,41.078422900000014,0 -121.31682609999987,41.078834100000016,0 -121.31695459999989,41.079392900000016,0 -121.31814449999989,41.08105310000001,0 -121.31835189999988,41.081870000000016,0 -121.3173793999999,41.08586430000001,0 -121.31701609999989,41.08641100000001,0 -121.31641639999988,41.08696550000001,0 -121.29649389999986,41.09850100000001,0 -121.29495859999986,41.09906560000001,0 -121.29407099999985,41.09925060000001,0 -121.29275209999984,41.09936980000001,0 -121.29073259999984,41.09918990000001,0 -121.28980219999984,41.09895440000001,0 -121.28034429999984,41.09523170000001,0 -121.28029709999984,41.09518510000001,0 -121.27290779999984,41.092253000000014,0 -121.27284949999985,41.09225680000001,0 -121.27116679999985,41.09152990000001,0 -121.26945359999985,41.09042670000001,0 -121.26846139999985,41.089500500000014,0 -121.26752009999984,41.08824520000001,0 -121.26710579999985,41.087453800000006,0 -121.26644709999985,41.08511350000001,0 -121.26620809999986,41.084728300000016,0 -121.26464689999985,41.08321440000001,0 -121.26430999999982,41.08273380000001,0 -121.26378979999984,41.08129670000001,0 -121.26347109999985,41.08076890000001,0 -121.26267089999985,41.07996350000001,0 -121.26235419999985,41.07935440000001,0 -121.26221759999986,41.07741320000001,0 -121.26030989999987,41.072213300000016,0 -121.25964989999989,41.07150220000001,0 -121.25916799999987,41.071227000000015,0 -121.25852429999988,41.07100630000001,0 -121.23142029999987,41.06657660000001,0 -121.22686719999986,41.06532940000001,0 -121.22282889999985,41.06350080000001,0 -121.21747499999985,41.06023680000001,0 -121.21628529999985,41.059859300000014,0 -121.21482889999986,41.05969380000001,0 -121.21359489999986,41.05978970000001,0 -121.21228069999985,41.06015390000001,0 -121.21107689999985,41.06078990000001,0 -121.21028159999985,41.061487000000014,0 -121.20699169999983,41.06556410000001,0 -121.20600909999983,41.067167200000014,0 -121.20555739999982,41.06824000000001,0 -121.2048356999998,41.07106980000001,0 -121.20396179999982,41.072435600000006,0 -121.2006388999998,41.0759089,0 -121.19387449999981,41.086843800000004,0 -121.1927791999998,41.08797030000001,0 -121.1684414999998,41.10620230000001,0 -121.1448608999998,41.121547400000004,0 -121.1425802999998,41.123809200000004,0 -121.1317034999998,41.1320342,0 -121.13284669999982,41.1324294,0 -121.13348319999982,41.132870600000004,0 -121.13372529999981,41.13329790000001,0 -121.1338222999998,41.1681067,0 -121.13406249999981,41.16943530000001,0 -121.13835989999983,41.18071300000001,0 -121.13862229999984,41.182046500000006,0 -121.13852269999984,41.204285500000005,0 -121.13865759999985,41.205032,0 -121.13908119999985,41.2059068,0 -121.13997089999984,41.206896400000005,0 -121.14132849999984,41.207685500000004,0 -121.14487179999985,41.208959899999996,0 -121.14616319999986,41.2097784,0 -121.14718959999986,41.210802199999996,0 -121.14762479999987,41.2114164,0 -121.14806439999987,41.2124409,0 -121.14822359999985,41.213203799999995,0 -121.14824269999986,41.2167318,0 -121.14806729999985,41.217705599999995,0 -121.14773969999985,41.2185084,0 -121.14682069999985,41.2197435,0 -121.13560249999985,41.2285104,0 -121.13455059999986,41.2299462,0 -121.13405749999987,41.2313675,0 -121.13401339999987,41.2331387,0 -121.14303849999989,41.2664381,0 -121.1430725999999,41.2673859,0 -121.1427101999999,41.2688023,0 -121.1348055999999,41.2832821,0 -121.1344192999999,41.2845439,0 -121.13415269999992,41.3055498,0 -121.13501309999992,41.3102894,0 -121.13455449999992,41.3194766,0 -121.13314879999993,41.323239900000004,0 -121.13298899999994,41.3241846,0 -121.13308319999994,41.325204400000004,0 -121.13366429999995,41.3265423,0 -121.13412379999994,41.3271304,0 -121.15043789999994,41.34177950000001,0 -121.15184229999994,41.34272270000001,0 -121.15642799999995,41.34480880000001,0 -121.18474449999994,41.36358830000001,0 -121.18546089999994,41.36421740000001,0 -121.19216159999992,41.37226890000001,0 -121.19255999999992,41.37302840000001,0 -121.19471389999991,41.38076660000001,0 -121.1938321999999,41.38580920000001,0 -121.16898559999991,41.42724940000001,0 -121.15731859999991,41.48964330000001,0 -121.1596984999999,41.51338940000001,0 -121.15955239999992,41.51460530000001,0 -121.15929299999992,41.515411400000005,0 -121.15311909999994,41.52649500000001,0 -121.15283349999994,41.527474700000006,0 -121.15281119999993,41.52868090000001,0 -121.15483509999993,41.53723250000001,0 -121.15468179999993,41.53810410000001,0 -121.15433859999993,41.53873750000001,0 -121.15395509999993,41.539184700000014,0 -121.15303369999994,41.539958100000014,0 -121.16015769999994,41.549814800000014,0 -121.18887479999995,41.580000200000015,0 -121.25718689999997,41.67072760000001,0 -121.28048019999997,41.655869400000014,0 -121.29586369999997,41.64881560000001,0 -121.29713189999997,41.64868420000001,0 -121.29740459999996,41.64911780000001,0 -121.29760329999996,41.649286900000014,0 -121.30098449999997,41.65063820000001,0 -121.30479199999998,41.65288270000001,0 -121.30706309999998,41.65469920000001,0 -121.31479889999999,41.658663800000014,0 -121.31819599999997,41.661401800000014,0 -121.32124269999997,41.66439480000001,0 -121.33535099999997,41.671557600000014,0 -121.33931429999996,41.672814400000014,0 -121.34709119999995,41.67460220000002,0 -121.36386509999994,41.67758840000002,0 -121.36442009999995,41.677534600000016,0 -121.36498699999996,41.677269400000014,0 -121.37094979999995,41.67332630000002,0 -121.37312029999994,41.67230090000002,0 -121.38957739999995,41.66710520000002,0 -121.39498899999997,41.66620620000002,0 -121.39552929999995,41.66618800000003,0 -121.40048869999995,41.666887100000025,0 -121.40460449999996,41.66771230000003,0 -121.40546999999995,41.66770350000002,0 -121.40766299999996,41.667349200000025,0 -121.41372769999994,41.66548090000003,0 -121.41893579999994,41.66447520000002,0 -121.42280199999993,41.66432830000002,0 -121.43135399999994,41.66525800000002,0 -121.43187699999994,41.665429000000024,0 -121.43255379999995,41.665851700000026,0 -121.43607989999995,41.66905640000003,0 -121.43681019999995,41.66993590000003,0 -121.44268309999995,41.682606900000025,0 -121.44690609999995,41.68882230000003,0 -121.45001629999996,41.691300400000024,0 -121.45056309999997,41.69160650000003,0 -121.45128389999996,41.69184630000002,0 -121.45274489999997,41.69207900000002,0 -121.45550239999997,41.69366280000003,0 -121.45586239999997,41.69375900000002,0 -121.45682789999995,41.69381310000003,0 -121.45744219999996,41.69396990000003,0 -121.46111519999995,41.695751800000025,0 -121.46282019999995,41.69701300000003,0 -121.47009619999994,41.70053700000003,0 -121.47105209999994,41.701203600000035,0 -121.47286609999993,41.70202150000003,0 -121.47420799999992,41.70339800000003,0 -121.47469549999992,41.70369570000003,0 -121.47524499999993,41.70381150000003,0 -121.47634499999992,41.70373190000003,0 -121.47698079999992,41.703877500000026,0 -121.48059689999992,41.70554000000003,0 -121.48084139999993,41.70579280000003,0 -121.48128769999994,41.706808300000034,0 -121.48174429999995,41.70714700000003,0 -121.48217149999995,41.70726780000003,0 -121.48444579999995,41.707348700000026,0 -121.48512859999995,41.707218500000025,0 -121.48640109999997,41.70674920000003,0 -121.48690929999997,41.70670030000003,0 -121.48855189999995,41.706932900000034,0 -121.48881079999995,41.70703450000003,0 -121.48928599999995,41.70754660000003,0 -121.49004859999995,41.70797970000003,0 -121.49035589999995,41.70808000000003,0 -121.49080169999998,41.70809100000003,0 -121.49159589999998,41.70792750000003,0 -121.49204619999998,41.70796430000003,0 -121.49385809999995,41.708662700000026,0 -121.49441129999995,41.70877410000002,0 -121.49485039999996,41.70876430000003,0 -121.49601209999996,41.70848660000003,0 -121.49672689999996,41.708426800000026,0 -121.49716849999996,41.708466900000026,0 -121.49954329999997,41.70908420000002,0 -121.50029559999996,41.709723400000016,0 -121.50076629999997,41.709939300000016,0 -121.50251729999997,41.71025380000002,0 -121.50333269999997,41.710499200000015,0 -121.50388299999999,41.710565500000016,0 -121.50512599999999,41.710474300000016,0 -121.50573209999999,41.71052870000002,0 -121.5064745,41.71076370000002,0 -121.506864,41.71099950000002,0 -121.50731979999999,41.71146090000002,0 -121.50753169999999,41.71187620000002,0 -121.5076164,41.71303100000002,0 -121.5079222,41.71371710000002,0 -121.5093485,41.71484570000002,0 -121.50978070000001,41.71501590000002,0 -121.51016530000001,41.71508910000002,0 -121.51066360000002,41.71509540000002,0 -121.51171740000001,41.71495630000002,0 -121.5114738,41.714610600000015,0 -121.5112419,41.71443400000001,0 -121.51102809999999,41.71459510000001,0 -121.5109482,41.714563300000016,0 -121.5106581,41.714571000000014,0 </coordinates></LineString><TimeSpan><begin>2021-08-07T16:27:42.999Z</begin><end>2021-08-07T19:22:57.200Z</end></TimeSpan></Placemark><Placemark><name>Lava Beds National Monument</name><address>1 Indian Well, Tulelake, CA 96134</address><ExtendedData><Data name="Email"><value>syugen.zhou@gmail.com</value></Data><Data name="Category"><value>Monument</value></Data><Data name="Distance"><value>0</value></Data></ExtendedData><description> Monument from 2021-08-07T19:22:57.200Z to 2021-08-07T20:47:28.188Z. Distance 0m </description><Point><coordinates>-121.5067874,41.7750276,0</coordinates></Point><TimeSpan><begin>2021-08-07T19:22:57.200Z</begin><end>2021-08-07T20:47:28.188Z</end></TimeSpan></Placemark><Placemark><name>Driving</name><address></address><ExtendedData><Data name="Email"><value>syugen.zhou@gmail.com</value></Data><Data name="Category"><value>Driving</value></Data><Data name="Distance"><value>289037</value></Data></ExtendedData><description> Driving from 2021-08-07T20:47:28.188Z to 2021-08-08T01:27:11.834Z. Distance 289037m </description><LineString><altitudeMode>clampToGround</altitudeMode><extrude>1</extrude><tesselate>1</tesselate><coordinates>-121.51191709999999,41.714928,0 -121.51515409999999,41.7144723,0 -121.51595239999999,41.7145506,0 -121.51635639999998,41.7147038,0 -121.52232739999998,41.7194535,0 -121.52342609999998,41.720005900000004,0 -121.52562249999998,41.7205557,0 -121.52607529999997,41.7208039,0 -121.52707399999998,41.721621400000004,0 -121.52994029999998,41.7263394,0 -121.53153129999998,41.728076699999995,0 -121.53571449999998,41.734870799999996,0 -121.53802199999998,41.73664889999999,0 -121.54133519999998,41.740105899999996,0 -121.54929119999998,41.7459529,0 -121.55125519999999,41.74841299999999,0 -121.55512149999998,41.7521262,0 -121.55525949999999,41.7524212,0 -121.5551115,41.75439119999999,0 -121.5562583,41.761630999999994,0 -121.55681560000001,41.7633703,0 -121.55689860000001,41.7642367,0 -121.55607230000001,41.767065599999995,0 -121.5561253,41.767395799999996,0 -121.55645890000001,41.767908299999995,0 -121.55816370000002,41.7691982,0 -121.55960920000003,41.77159199999999,0 -121.55950880000002,41.77322449999999,0 -121.5598027,41.77383689999999,0 -121.56039460000001,41.774261599999996,0 -121.56311640000001,41.7752698,0 -121.5639647,41.77575219999999,0 -121.56611550000002,41.7774328,0 -121.56709610000001,41.779106199999994,0 -121.56722250000001,41.78064609999999,0 -121.5676694,41.7819229,0 -121.5676802,41.782352599999996,0 -121.5671877,41.783960199999996,0 -121.56431010000001,41.78974519999999,0 -121.56276580000002,41.7921833,0 -121.56230940000003,41.794204199999996,0 -121.56235290000004,41.795248099999995,0 -121.56183030000005,41.7977309,0 -121.56078420000004,41.7989556,0 -121.56066920000004,41.7994548,0 -121.56071180000004,41.799748900000004,0 -121.56093850000003,41.8001653,0 -121.56231370000002,41.801735300000004,0 -121.56258760000001,41.80226830000001,0 -121.5627124,41.8029743,0 -121.56240509999999,41.8069362,0 -121.56113269999997,41.81082250000001,0 -121.56102909999997,41.81278940000001,0 -121.55861759999996,41.81749670000001,0 -121.55652879999997,41.82327370000001,0 -121.55615129999995,41.823676400000004,0 -121.55579299999995,41.82387020000001,0 -121.55517059999994,41.824023800000006,0 -121.55136689999993,41.82410990000001,0 -121.55019609999992,41.823917400000006,0 -121.54941709999993,41.824963000000004,0 -121.54935709999992,41.82551880000001,0 -121.54948229999992,41.82580540000001,0 -121.55010079999991,41.826380300000004,0 -121.5515741999999,41.8272327,0 -121.55409549999989,41.82778460000001,0 -121.5548610999999,41.828206400000006,0 -121.5556358999999,41.82900340000001,0 -121.55586319999989,41.82944480000001,0 -121.5559908999999,41.83005250000001,0 -121.55572369999989,41.83283490000001,0 -121.55598169999989,41.83763260000001,0 -121.55683209999988,41.83998910000001,0 -121.55744899999988,41.84286200000001,0 -121.55848889999987,41.84571110000001,0 -121.55865339999988,41.84761700000001,0 -121.55879429999987,41.84799610000001,0 -121.55980499999988,41.84940420000001,0 -121.5601051999999,41.85004770000001,0 -121.5606852999999,41.852583900000006,0 -121.5607881999999,41.85472810000001,0 -121.5590072999999,41.85856000000001,0 -121.5589112999999,41.85933190000001,0 -121.55937719999991,41.86080510000001,0 -121.55923669999991,41.86158590000001,0 -121.55854859999991,41.86271480000001,0 -121.55820919999991,41.86370400000001,0 -121.55805469999991,41.86672380000001,0 -121.55683829999992,41.874163400000015,0 -121.55783919999992,41.87886370000002,0 -121.55822699999993,41.879418700000016,0 -121.56005359999993,41.881273600000014,0 -121.56217929999993,41.88394240000002,0 -121.56338479999992,41.88825290000002,0 -121.56432349999993,41.89033710000002,0 -121.56465259999993,41.89161880000002,0 -121.56470639999992,41.892961200000016,0 -121.56379249999992,41.897997400000015,0 -121.56377799999993,41.89889110000001,0 -121.56410609999992,41.90028510000001,0 -121.56587779999991,41.904253200000014,0 -121.56589649999991,41.90490290000002,0 -121.5653117999999,41.90668850000001,0 -121.56537199999991,41.911835900000014,0 -121.5648242999999,41.91417720000001,0 -121.56474669999989,41.91786550000001,0 -121.56496959999988,41.91942990000001,0 -121.56679279999989,41.924077400000016,0 -121.5668004999999,41.92497560000001,0 -121.5659447999999,41.92708810000001,0 -121.5659197999999,41.927561900000015,0 -121.5665778999999,41.930983200000014,0 -121.5666380999999,41.932700900000015,0 -121.56637969999991,41.934421100000016,0 -121.56541699999991,41.93708950000002,0 -121.56457019999992,41.94346210000002,0 -121.56495159999992,41.94846200000002,0 -121.56582289999992,41.95208050000002,0 -121.56538859999992,41.95709760000002,0 -121.56599239999991,41.960652100000026,0 -121.56521769999992,41.97050830000002,0 -121.56494489999993,41.97106350000002,0 -121.56457709999992,41.97137740000002,0 -121.56394709999992,41.97164790000002,0 -121.55993139999991,41.971779500000025,0 -121.5588531999999,41.97210890000002,0 -121.5578117999999,41.972900700000025,0 -121.55748309999989,41.97342100000002,0 -121.55733799999987,41.974310000000024,0 -121.55888039999988,41.98018500000002,0 -121.55851469999988,41.98267570000002,0 -121.5589805999999,41.98617840000003,0 -121.5588623999999,41.98934220000003,0 -121.5594455999999,41.99166530000003,0 -121.55940929999988,41.99869100000003,0 -121.59916579999988,41.99906810000003,0 -121.59930829999988,41.99913370000003,0 -121.60003029999987,41.999234500000036,0 -121.60026389999987,41.999357300000035,0 -121.60035389999987,41.99954380000003,0 -121.60021339999986,42.02400200000004,0 -121.60676589999986,42.02406610000004,0 -121.60761079999986,42.02435360000004,0 -121.62470409999986,42.041070100000034,0 -121.66554289999988,42.070284000000036,0 -121.66807119999986,42.07241980000004,0 -121.67266239999987,42.07561100000004,0 -121.67470639999986,42.07752710000004,0 -121.69783859999987,42.10351860000004,0 -121.69826519999987,42.104290000000034,0 -121.69846389999987,42.10527790000004,0 -121.69810039999987,42.17010110000004,0 -121.70064339999988,42.17009830000004,0 -121.70130989999987,42.170201300000045,0 -121.70246789999987,42.170557000000045,0 -121.70725209999988,42.17305570000005,0 -121.70852029999988,42.173393400000045,0 -121.71545059999987,42.17344670000005,0 -121.71829229999987,42.17375430000005,0 -121.72251059999988,42.17364060000005,0 -121.72265389999987,42.17374040000004,0 -121.72286199999988,42.17373730000005,0 -121.72297109999987,42.173671400000046,0 -121.72369899999988,42.17362550000004,0 -121.72449619999988,42.173740000000045,0 -121.74456209999988,42.17363860000005,0 -121.75201979999989,42.17396650000005,0 -121.75457819999988,42.17454740000005,0 -121.75502269999988,42.17478130000005,0 -121.75615359999988,42.17594380000004,0 -121.75680229999988,42.17623140000005,0 -121.75709069999989,42.176580100000045,0 -121.7571599999999,42.21091790000005,0 -121.7567858999999,42.21111540000005,0 -121.7550439999999,42.21026000000004,0 -121.7523540999999,42.21355800000004,0 -121.7523042999999,42.21742740000004,0 -121.7519443999999,42.21778940000004,0 -121.75144419999991,42.21789540000004,0 -121.7513449999999,42.217968200000044,0 -121.75202519999989,42.21856260000004,0 -121.7546035999999,42.22279310000004,0 -121.7546154999999,42.22305330000004,0 -121.75427989999991,42.223461500000035,0 -121.75522329999991,42.224179000000035,0 -121.75615939999993,42.22466410000004,0 -121.75730559999992,42.22504210000004,0 -121.76096349999992,42.22553340000004,0 -121.7626036999999,42.22600070000004,0 -121.7643622999999,42.22687900000004,0 -121.76693319999988,42.22909960000004,0 -121.76768379999989,42.22944600000004,0 -121.76961149999988,42.22995240000004,0 -121.77051519999988,42.23035310000004,0 -121.77193639999987,42.23144900000003,0 -121.77257369999987,42.23177670000003,0 -121.77432569999986,42.23222420000004,0 -121.77644389999986,42.23375210000004,0 -121.77873929999987,42.23707220000004,0 -121.77878069999987,42.237271700000036,0 -121.78231889999986,42.24255170000004,0 -121.78466429999987,42.244567600000046,0 -121.79031159999988,42.24790890000004,0 -121.79972999999988,42.25608620000004,0 -121.79988379999988,42.25614240000004,0 -121.8029130999999,42.25882420000004,0 -121.80860959999988,42.262186500000034,0 -121.80961009999989,42.26311710000004,0 -121.8103935999999,42.26438430000004,0 -121.8106668999999,42.26579020000004,0 -121.8106903999999,42.270765300000036,0 -121.8170482999999,42.29470820000004,0 -121.8174009999999,42.29881290000004,0 -121.8171606999999,42.30377440000004,0 -121.81777109999992,42.32865730000004,0 -121.81838369999991,42.33076650000004,0 -121.81992039999992,42.33318060000004,0 -121.82453219999991,42.33773040000004,0 -121.8282464999999,42.34233490000004,0 -121.8286728999999,42.34317470000004,0 -121.8289569999999,42.34482550000004,0 -121.8287934999999,42.34592160000004,0 -121.8148132999999,42.378890800000036,0 -121.81474509999988,42.378935800000036,0 -121.81335619999989,42.38273740000003,0 -121.81334509999989,42.38365860000003,0 -121.8137464999999,42.38504130000003,0 -121.81423919999989,42.38581740000003,0 -121.8142933999999,42.38584310000003,0 -121.81836009999991,42.391451300000035,0 -121.82457809999991,42.401534700000035,0 -121.83942209999991,42.41570460000003,0 -121.8469038999999,42.42129660000003,0 -121.84959679999989,42.42301700000004,0 -121.8517157999999,42.42543020000004,0 -121.85436249999988,42.42777060000004,0 -121.85676469999989,42.43050820000004,0 -121.85873409999988,42.43192310000004,0 -121.86312179999989,42.43396650000003,0 -121.86385719999988,42.43445900000004,0 -121.86538029999987,42.43595300000003,0 -121.86654319999987,42.43760490000004,0 -121.86710139999985,42.438905600000034,0 -121.86760009999985,42.442039500000035,0 -121.86757429999984,42.44207800000004,0 -121.86799209999985,42.44599060000003,0 -121.86803799999986,42.44605650000003,0 -121.86831459999986,42.44861360000004,0 -121.86827659999986,42.44870550000003,0 -121.86913909999986,42.45515010000003,0 -121.88595559999985,42.529128000000036,0 -121.88611519999985,42.53145320000003,0 -121.88606609999987,42.53158660000003,0 -121.88662149999986,42.53159140000003,0 -121.88698499999985,42.531707700000034,0 -121.88713249999986,42.53181290000003,0 -121.92134889999987,42.57805630000003,0 -121.92206659999987,42.579630800000025,0 -121.93659159999986,42.631488600000026,0 -121.93789729999988,42.63427650000003,0 -121.94292099999987,42.641379300000025,0 -121.94401239999988,42.64258660000003,0 -121.94490039999987,42.64332110000002,0 -121.94667739999987,42.64437120000003,0 -121.95195189999988,42.646390700000026,0 -121.95313039999986,42.64708320000003,0 -121.95402359999986,42.647872600000035,0 -121.96582559999986,42.66477470000003,0 -121.96849449999986,42.67200850000003,0 -121.97336849999986,42.68238120000003,0 -121.97325959999986,42.68727090000003,0 -121.97215269999987,42.69408440000003,0 -121.97225199999987,42.69465120000003,0 -121.97240079999987,42.69492810000003,0 -121.97278039999989,42.695281800000025,0 -121.9727704999999,42.69526480000003,0 -121.98756099999989,42.70059340000003,0 -121.9890701999999,42.700906800000034,0 -121.99588179999989,42.70095370000003,0 -121.99590959999989,42.70404450000003,0 -122.0081339999999,42.73191800000003,0 -122.00859799999989,42.73247350000003,0 -122.0097022999999,42.73323420000003,0 -122.0108532999999,42.73363400000003,0 -122.0119902999999,42.73378290000003,0 -122.0287684999999,42.733822800000034,0 -122.03036119999989,42.734070300000035,0 -122.03136409999989,42.73447440000003,0 -122.04708579999989,42.74375730000003,0 -122.04765129999991,42.74427620000003,0 -122.05494339999991,42.75520480000002,0 -122.0604228999999,42.761987600000026,0 -122.0610490999999,42.763172000000026,0 -122.0628702999999,42.77264450000002,0 -122.06368809999991,42.773994200000026,0 -122.06462879999992,42.774933000000026,0 -122.06698789999994,42.776581400000026,0 -122.06795329999993,42.777706200000026,0 -122.07164709999994,42.78968140000003,0 -122.07271199999992,42.795751200000026,0 -122.07345549999992,42.79707440000002,0 -122.07498819999994,42.79870440000002,0 -122.07670929999995,42.80220000000003,0 -122.07831509999994,42.803804400000026,0 -122.07967799999993,42.80465820000002,0 -122.09014959999993,42.80890590000002,0 -122.09331069999993,42.81139540000002,0 -122.09466809999992,42.81218220000002,0 -122.09566599999992,42.812433400000025,0 -122.09781819999994,42.81264300000002,0 -122.09866189999994,42.81283740000002,0 -122.10069019999993,42.81411970000002,0 -122.10194039999995,42.81464440000002,0 -122.10276709999994,42.81484410000002,0 -122.10389379999994,42.814945100000024,0 -122.10541139999995,42.814795600000025,0 -122.10848709999996,42.813956500000025,0 -122.10953599999996,42.81381500000003,0 -122.11058589999996,42.813854400000025,0 -122.11174299999996,42.814142700000026,0 -122.11552289999997,42.81572440000003,0 -122.11724969999996,42.81675300000003,0 -122.11849819999995,42.81772060000002,0 -122.12297829999994,42.822381900000025,0 -122.12339089999993,42.823296300000024,0 -122.12404399999994,42.827595000000024,0 -122.12477119999994,42.828879300000025,0 -122.12573929999995,42.829784500000024,0 -122.13133739999995,42.833050900000025,0 -122.13240989999996,42.83348950000003,0 -122.13625379999996,42.83408660000003,0 -122.14108359999996,42.835457500000025,0 -122.14226569999994,42.83605730000002,0 -122.14288759999994,42.83655830000002,0 -122.14649309999993,42.840961800000024,0 -122.14690759999993,42.841854400000024,0 -122.14710189999992,42.84303210000003,0 -122.14630409999992,42.84635830000003,0 -122.14633219999993,42.847123000000025,0 -122.14655119999993,42.84772940000003,0 -122.14707669999993,42.84844220000002,0 -122.15237109999994,42.853793000000024,0 -122.15351199999995,42.85725960000003,0 -122.15452259999996,42.85861680000002,0 -122.15551929999997,42.859361900000025,0 -122.15689409999996,42.85995460000002,0 -122.15836679999997,42.86025530000002,0 -122.16338449999996,42.86040320000002,0 -122.16423039999995,42.86056120000003,0 -122.16521639999996,42.860989500000024,0 -122.16588039999996,42.86156510000003,0 -122.16908009999996,42.86579040000003,0 -122.16860549999996,42.86601720000003,0 -122.16840309999995,42.86620620000003,0 -122.16829549999994,42.86644040000003,0 -122.17003479999995,42.87124720000003,0 -122.16994499999994,42.87147680000003,0 -122.16967409999994,42.87167580000003,0 -122.16918419999993,42.87171390000003,0 -122.16849249999994,42.87163330000003,0 -122.16737849999994,42.87128280000003,0 -122.16493669999994,42.87089510000003,0 -122.16441289999996,42.87093960000003,0 -122.16337699999995,42.87135270000003,0 -122.16292909999996,42.87139050000003,0 -122.16171909999996,42.87105970000003,0 -122.15218169999997,42.86949920000003,0 -122.15127029999996,42.86920340000003,0 -122.14769559999996,42.86720240000003,0 -122.14680629999997,42.86710330000003,0 -122.14628659999997,42.86714800000003,0 -122.14525649999997,42.86749700000003,0 -122.14430429999997,42.86866150000003,0 -122.14413119999998,42.86923210000003,0 -122.14429559999998,42.87070390000003,0 -122.14411379999997,42.87128560000003,0 -122.14254959999998,42.87348850000003,0 -122.14232679999998,42.88554480000003,0 -122.13929689999998,42.892609800000024,0 -122.13869849999999,42.89329680000002,0 -122.1353918,42.89520340000002,0 -122.13446819999999,42.89537730000002,0 -122.13345989999998,42.89628210000003,0 -122.13321089999998,42.89662550000003,0 -122.13291779999997,42.89738740000003,0 -122.13277109999997,42.89912750000003,0 -122.13347099999997,42.90191860000002,0 -122.13466159999999,42.90305420000003,0 -122.13565669999997,42.904987400000024,0 -122.13585739999998,42.905135700000024,0 -122.13607419999998,42.90516610000003,0 -122.13622649999999,42.90511600000003,0 -122.13686149999998,42.903913800000026,0 -122.13671519999997,42.903139000000024,0 -122.13690339999997,42.90296480000002,0 -122.13722089999996,42.902922900000014,0 -122.13753819999997,42.90307820000002,0 -122.13797969999997,42.903601700000024,0 -122.13820099999997,42.90364040000002,0 -122.13833069999998,42.90361550000002,0 -122.13847719999998,42.903488700000025,0 -122.13851899999999,42.903306800000024,0 -122.13839969999998,42.90283120000002,0 -122.13817709999998,42.90247880000002,0 -122.13817959999997,42.90230020000002,0 -122.13826949999998,42.902199600000024,0 -122.13842999999999,42.90214580000002,0 -122.13882789999998,42.90220950000002,0 -122.13896849999999,42.90244030000002,0 -122.1390569,42.90294000000002,0 -122.13936100000001,42.90308920000002,0 -122.1399708,42.90315620000002,0 -122.14013870000001,42.903245300000016,0 -122.1402948,42.90347310000002,0 -122.14030630000002,42.90359290000002,0 -122.14022750000001,42.903725000000016,0 -122.1393041,42.90420260000002,0 -122.1392866,42.90435830000002,0 -122.1394545,42.90451420000002,0 -122.1396756,42.904553900000025,0 -122.14142980000003,42.90394370000002,0 -122.14156970000002,42.90378420000002,0 -122.1416731,42.90307130000002,0 -122.14218600000001,42.90274370000002,0 -122.14385380000002,42.90101320000002,0 -122.14424170000002,42.90075170000002,0 -122.14470910000003,42.90061480000002,0 -122.14507030000003,42.900624200000024,0 -122.14745050000002,42.90125870000003,0 -122.14792530000001,42.90152010000003,0 -122.14854100000002,42.90227120000003,0 -122.14864190000002,42.90269420000003,0 -122.14848980000002,42.90323460000003,0 -122.14830030000003,42.90350060000003,0 -122.14723970000001,42.90438610000003,0 -122.14692210000003,42.904853400000036,0 -122.14626160000002,42.90740110000004,0 -122.14680820000002,42.90913730000004,0 -122.14699750000004,42.90937600000004,0 -122.14757470000005,42.909796600000035,0 -122.14903160000006,42.91016110000003,0 -122.14916480000007,42.91034000000003,0 -122.14916220000008,42.91050870000003,0 -122.14836220000007,42.91158550000003,0 -122.14780380000006,42.91190580000003,0 -122.14745440000006,42.91198010000003,0 -122.14720150000005,42.91195280000003,0 -122.14705130000004,42.911806000000034,0 -122.14708560000005,42.911623600000034,0 -122.14725720000006,42.91151240000003,0 -122.14758940000006,42.91143300000003,0 -122.14729810000006,42.910986400000034,0 -122.14726190000005,42.91075350000003,0 -122.14686880000005,42.91073220000003,0 -122.14640890000007,42.91079770000003,0 -122.14605820000007,42.91095670000003,0 -122.14564230000008,42.911300600000025,0 -122.14540900000007,42.91133190000003,0 -122.14383150000009,42.91092050000003,0 -122.14293000000009,42.91055120000003,0 -122.14127880000008,42.90947500000003,0 -122.14115300000009,42.909476000000026,0 -122.1410152000001,42.90954370000003,0 -122.1409677000001,42.90962930000003,0 -122.1410943000001,42.90977780000003,0 -122.1419200000001,42.90990800000003,0 -122.14293000000009,42.91055120000003,0 -122.14383150000009,42.91092050000003,0 -122.14540900000007,42.91133190000003,0 -122.14564230000008,42.911300600000025,0 -122.14605820000007,42.91095670000003,0 -122.14640890000007,42.91079770000003,0 -122.14686880000005,42.91073220000003,0 -122.14726190000005,42.91075350000003,0 -122.14729810000006,42.910986400000034,0 -122.14758940000006,42.91143300000003,0 -122.14725720000006,42.91151240000003,0 -122.14708560000005,42.911623600000034,0 -122.14705130000004,42.911806000000034,0 -122.14720150000005,42.91195280000003,0 -122.14745440000006,42.91198010000003,0 -122.14780380000006,42.91190580000003,0 -122.14836220000007,42.91158550000003,0 -122.14916220000008,42.91050870000003,0 -122.14916480000007,42.91034000000003,0 -122.14903160000006,42.91016110000003,0 -122.14757470000005,42.909796600000035,0 -122.14699750000004,42.90937600000004,0 -122.14680820000002,42.90913730000004,0 -122.14626160000002,42.90740110000004,0 -122.14692210000003,42.904853400000036,0 -122.14723970000001,42.90438610000003,0 -122.14830030000003,42.90350060000003,0 -122.14848980000002,42.90323460000003,0 -122.14864190000002,42.90269420000003,0 -122.14854100000002,42.90227120000003,0 -122.14792530000001,42.90152010000003,0 -122.14745050000002,42.90125870000003,0 -122.14507030000003,42.900624200000024,0 -122.14470910000003,42.90061480000002,0 -122.14424170000002,42.90075170000002,0 -122.14385380000002,42.90101320000002,0 -122.14218600000001,42.90274370000002,0 -122.1416731,42.90307130000002,0 -122.14156970000002,42.90378420000002,0 -122.14142980000003,42.90394370000002,0 -122.1396756,42.904553900000025,0 -122.1394545,42.90451420000002,0 -122.1392866,42.90435830000002,0 -122.1393041,42.90420260000002,0 -122.14022750000001,42.903725000000016,0 -122.14030630000002,42.90359290000002,0 -122.1402948,42.90347310000002,0 -122.14013870000001,42.903245300000016,0 -122.1399708,42.90315620000002,0 -122.13936100000001,42.90308920000002,0 -122.1390569,42.90294000000002,0 -122.13896849999999,42.90244030000002,0 -122.13882789999998,42.90220950000002,0 -122.13842999999999,42.90214580000002,0 -122.13826949999998,42.902199600000024,0 -122.13817959999997,42.90230020000002,0 -122.13817709999998,42.90247880000002,0 -122.13839969999998,42.90283120000002,0 -122.13851899999999,42.903306800000024,0 -122.13847719999998,42.903488700000025,0 -122.13833069999998,42.90361550000002,0 -122.13820099999997,42.90364040000002,0 -122.13797969999997,42.903601700000024,0 -122.13753819999997,42.90307820000002,0 -122.13722089999996,42.902922900000014,0 -122.13690339999997,42.90296480000002,0 -122.13671519999997,42.903139000000024,0 -122.13686149999998,42.903913800000026,0 -122.13622649999999,42.90511600000003,0 -122.13607419999998,42.90516610000003,0 -122.13585739999998,42.905135700000024,0 -122.13565669999997,42.904987400000024,0 -122.13466159999999,42.90305420000003,0 -122.13347099999997,42.90191860000002,0 -122.13277109999997,42.89912750000003,0 -122.13291779999997,42.89738740000003,0 -122.13321089999998,42.89662550000003,0 -122.13345989999998,42.89628210000003,0 -122.13446819999999,42.89537730000002,0 -122.1353918,42.89520340000002,0 -122.13869849999999,42.89329680000002,0 -122.13929689999998,42.892609800000024,0 -122.14232679999998,42.88554480000003,0 -122.14254959999998,42.87348850000003,0 -122.14411379999997,42.87128560000003,0 -122.14429559999998,42.87070390000003,0 -122.14413119999998,42.86923210000003,0 -122.14430429999997,42.86866150000003,0 -122.14525649999997,42.86749700000003,0 -122.14628659999997,42.86714800000003,0 -122.14680629999997,42.86710330000003,0 -122.14769559999996,42.86720240000003,0 -122.15127029999996,42.86920340000003,0 -122.15218169999997,42.86949920000003,0 -122.16171909999996,42.87105970000003,0 -122.16292909999996,42.87139050000003,0 -122.16337699999995,42.87135270000003,0 -122.16441289999996,42.87093960000003,0 -122.16493669999994,42.87089510000003,0 -122.16737849999994,42.87128280000003,0 -122.16849249999994,42.87163330000003,0 -122.16918419999993,42.87171390000003,0 -122.16967409999994,42.87167580000003,0 -122.16994499999994,42.87147680000003,0 -122.17003479999995,42.87124720000003,0 -122.16829549999994,42.86644040000003,0 -122.16840309999995,42.86620620000003,0 -122.16860549999996,42.86601720000003,0 -122.16908009999996,42.86579040000003,0 -122.17110419999997,42.86850110000003,0 -122.17158949999997,42.87062800000003,0 -122.17219339999997,42.87130160000004,0 -122.17293039999996,42.87159780000004,0 -122.17345059999995,42.87166690000004,0 -122.18241439999996,42.871250800000034,0 -122.18303129999995,42.87134610000003,0 -122.18466579999996,42.87191520000003,0 -122.18505269999997,42.87218160000003,0 -122.18606739999997,42.87365950000004,0 -122.18619989999998,42.875122200000035,0 -122.18652609999998,42.87566730000004,0 -122.18728199999997,42.87647620000004,0 -122.18793449999997,42.87697050000004,0 -122.18973639999997,42.87795680000004,0 -122.19002059999997,42.87888310000004,0 -122.19069099999997,42.879685500000036,0 -122.19067279999997,42.88004090000004,0 -122.19042099999997,42.88024480000004,0 -122.18770579999997,42.88059620000004,0 -122.18670809999996,42.880601400000046,0 -122.18637069999997,42.880792800000044,0 -122.18628159999997,42.88094100000005,0 -122.18632199999996,42.88134510000005,0 -122.18670199999997,42.88190560000005,0 -122.18765559999996,42.88257870000005,0 -122.18847929999997,42.88371180000005,0 -122.18964199999996,42.884105900000044,0 -122.19302199999997,42.884501900000046,0 -122.19604479999997,42.88566600000005,0 -122.19877349999997,42.887107800000045,0 -122.20005839999997,42.88740180000005,0 -122.20304059999998,42.88745510000005,0 -122.20343019999997,42.88736770000005,0 -122.20400229999997,42.887071800000044,0 -122.20664849999997,42.884922000000046,0 -122.20762339999996,42.884482400000046,0 -122.20904439999995,42.88436980000005,0 -122.21113609999996,42.88307470000005,0 -122.21185789999997,42.88284170000005,0 -122.21222039999998,42.88282590000006,0 -122.21597789999998,42.88341090000005,0 -122.21837709999997,42.88271360000005,0 -122.22178749999996,42.88220660000005,0 -122.22577489999996,42.88240320000005,0 -122.22737369999996,42.882918000000046,0 -122.23193159999997,42.883439000000045,0 -122.23679609999998,42.885298400000046,0 -122.23886109999998,42.886440200000045,0 -122.24248019999999,42.88768020000004,0 -122.244374,42.888033800000045,0 -122.2449397,42.88825250000005,0 -122.2468686,42.89019890000005,0 -122.2471221,42.89082370000005,0 -122.24732389999998,42.89103800000005,0 -122.24824519999999,42.89154490000005,0 -122.2492724,42.89249050000006,0 -122.25102279999999,42.89364170000005,0 -122.25522829999998,42.89565290000006,0 -122.25734709999999,42.89624450000006,0 -122.2599863,42.89756990000006,0 -122.26430349999998,42.89879220000006,0 -122.26677259999997,42.90027560000006,0 -122.26830509999996,42.900689000000064,0 -122.27162559999998,42.90038420000006,0 -122.27325919999998,42.900473100000056,0 -122.2746298,42.90092440000006,0 -122.2751651,42.90100900000006,0 -122.27619409999998,42.90094950000006,0 -122.27717739999997,42.901043500000064,0 -122.27955139999997,42.90082670000007,0 -122.28001559999997,42.900891600000065,0 -122.28175839999997,42.90186160000007,0 -122.28218949999997,42.90196150000007,0 -122.28354399999996,42.90178640000006,0 -122.28464619999997,42.90142950000006,0 -122.28677729999997,42.901863900000066,0 -122.29347939999998,42.90194070000006,0 -122.29522559999998,42.901004600000064,0 -122.2958751,42.900784600000065,0 -122.2964423,42.900721900000065,0 -122.2984195,42.901181500000064,0 -122.3012009,42.90314580000006,0 -122.30169279999998,42.90336900000006,0 -122.30370409999999,42.90376060000006,0 -122.3041678,42.903954100000064,0 -122.30877310000001,42.907963600000066,0 -122.3142539,42.91148900000006,0 -122.3155305,42.91203820000006,0 -122.3165738,42.91227710000006,0 -122.31761489999998,42.912353300000056,0 -122.3187442,42.91226540000006,0 -122.3211661,42.91245370000006,0 -122.3447952,42.91861020000005,0 -122.34728669999998,42.919658100000056,0 -122.34835279999997,42.91979330000005,0 -122.35076799999997,42.919595900000054,0 -122.35530139999999,42.92050240000006,0 -122.36998779999998,42.92532370000006,0 -122.37243479999998,42.927013200000054,0 -122.37328609999999,42.92745430000006,0 -122.37422129999999,42.927600700000056,0 -122.37475099999997,42.92754130000006,0 -122.37541129999998,42.927169600000056,0 -122.37636569999998,42.925995300000054,0 -122.37733039999999,42.925420800000055,0 -122.37801849999998,42.92529390000006,0 -122.38098629999999,42.92568880000005,0 -122.3830827,42.92630370000005,0 -122.3852084,42.92669660000005,0 -122.3890553,42.92668390000005,0 -122.39786949999998,42.92569400000005,0 -122.41144069999997,42.926604900000044,0 -122.41315229999998,42.92657750000004,0 -122.41459419999998,42.926196500000046,0 -122.42873349999998,42.921114000000046,0 -122.42914489999997,42.92109410000005,0 -122.42930289999997,42.92102230000004,0 -122.43025519999995,42.91990110000004,0 -122.43148969999996,42.918984600000044,0 -122.43811829999997,42.911288300000045,0 -122.44027059999998,42.91015600000005,0 -122.44223889999996,42.90957840000005,0 -122.44299269999998,42.90921730000005,0 -122.44355889999997,42.90876560000005,0 -122.45909569999996,42.88547690000005,0 -122.45986549999995,42.88343980000005,0 -122.46056689999995,42.87814390000005,0 -122.46543649999995,42.86523490000005,0 -122.46616329999995,42.863979700000044,0 -122.47786719999995,42.851627200000046,0 -122.47875489999996,42.85033310000004,0 -122.48442249999995,42.83485270000004,0 -122.48472689999996,42.83285720000004,0 -122.48397449999997,42.82583380000004,0 -122.47699679999998,42.80067710000004,0 -122.47671649999997,42.79854180000004,0 -122.47688279999996,42.795925200000035,0 -122.47785639999995,42.79291280000004,0 -122.48694379999995,42.77614900000004,0 -122.48775379999994,42.77311110000004,0 -122.48831279999993,42.76168430000004,0 -122.48890579999994,42.759951800000046,0 -122.48986869999993,42.758598800000044,0 -122.53176899999993,42.72274100000004,0 -122.53390449999995,42.72145150000005,0 -122.53575759999994,42.720844800000044,0 -122.56529049999995,42.71706140000005,0 -122.56670389999995,42.716720700000046,0 -122.58069589999997,42.70988500000004,0 -122.58141979999995,42.70964950000004,0 -122.58310359999994,42.709334100000035,0 -122.58634939999995,42.70926720000004,0 -122.58704169999994,42.70907780000004,0 -122.58820299999995,42.70844500000004,0 -122.58881489999996,42.70780590000004,0 -122.58913399999997,42.707219300000034,0 -122.58951989999997,42.705381400000036,0 -122.58988469999997,42.704963500000034,0 -122.59043079999996,42.70466190000003,0 -122.59104169999996,42.70451960000003,0 -122.59745109999996,42.703900300000036,0 -122.59782389999995,42.70374050000004,0 -122.60075939999994,42.701069900000036,0 -122.60123139999996,42.70044350000004,0 -122.60136779999995,42.699564400000035,0 -122.60095019999994,42.69717640000004,0 -122.60069269999995,42.692530100000035,0 -122.60054919999996,42.69239600000004,0 -122.60047559999997,42.69111200000004,0 -122.60059159999996,42.69058340000004,0 -122.60093509999996,42.68998240000004,0 -122.60157209999996,42.689383600000035,0 -122.60199189999997,42.68913220000004,0 -122.60858879999998,42.68652920000004,0 -122.61039899999999,42.68537660000004,0 -122.62127269999998,42.67603430000004,0 -122.62272479999997,42.67515440000004,0 -122.62366849999997,42.67478420000003,0 -122.62501529999999,42.67446900000004,0 -122.63293789999997,42.673623700000036,0 -122.63465319999997,42.673170100000036,0 -122.64259469999996,42.669181300000034,0 -122.64310199999996,42.66868430000004,0 -122.64357439999995,42.66761110000004,0 -122.64374549999997,42.66547530000003,0 -122.64422559999996,42.66436630000003,0 -122.64457429999997,42.66399140000003,0 -122.64540439999996,42.663459000000024,0 -122.64643999999997,42.66312660000003,0 -122.65253499999997,42.662759300000026,0 -122.65483439999997,42.663048600000025,0 -122.66277919999997,42.66461170000002,0 -122.66358329999997,42.664608100000024,0 -122.66818259999998,42.663805700000026,0 -122.66946989999997,42.66376020000002,0 -122.67329489999999,42.664117300000015,0 -122.67416959999998,42.66409400000002,0 -122.67515829999998,42.663871100000016,0 -122.6761595,42.663384500000014,0 -122.6846104,42.657309800000014,0 -122.6855886,42.65682310000002,0 -122.68666230000001,42.65650960000002,0 -122.68770310000001,42.65638180000002,0 -122.68917090000001,42.656459300000016,0 -122.69030400000001,42.656732800000015,0 -122.6997775,42.66011610000002,0 -122.7019319,42.66037650000002,0 -122.7029009,42.66018080000002,0 -122.7042001,42.65944740000002,0 -122.70613719999999,42.65885680000002,0 -122.7067169,42.65885400000002,0 -122.70823200000001,42.65914060000002,0 -122.71054070000001,42.66000110000002,0 -122.7111485,42.660117800000016,0 -122.7118561,42.66012350000002,0 -122.71628850000002,42.65946180000002,0 -122.7177369,42.65873960000002,0 -122.72001130000001,42.65797950000002,0 -122.72144840000001,42.657298400000016,0 -122.72203920000001,42.65724340000002,0 -122.7228103,42.65737930000002,0 -122.72844740000001,42.65979700000002,0 -122.73017370000001,42.66086900000002,0 -122.7306784,42.66103420000002,0 -122.7313301,42.66108460000002,0 -122.7318368,42.661012100000015,0 -122.73338219999998,42.66047990000001,0 -122.73434049999997,42.660426100000016,0 -122.73514859999999,42.660668500000014,0 -122.73690329999998,42.66211660000001,0 -122.73931779999998,42.66319680000001,0 -122.73980849999997,42.66328050000001,0 -122.74228489999997,42.66325460000001,0 -122.74318889999999,42.66294700000001,0 -122.74442879999998,42.66186660000001,0 -122.74557529999997,42.66145590000001,0 -122.74815909999997,42.66143190000001,0 -122.75109069999996,42.66202760000001,0 -122.75178969999996,42.66233500000001,0 -122.75333899999997,42.66334710000001,0 -122.75437829999997,42.66356250000001,0 -122.75507399999998,42.66349200000001,0 -122.75546349999999,42.66336120000002,0 -122.75702299999998,42.66243110000001,0 -122.76568079999997,42.65974840000002,0 -122.77537989999998,42.658069400000024,0 -122.77910869999997,42.65844010000002,0 -122.78011619999997,42.65833720000001,0 -122.78081029999996,42.65807700000001,0 -122.78130239999997,42.65774960000002,0 -122.78325269999996,42.65546670000001,0 -122.78438999999997,42.65335000000002,0 -122.78497649999997,42.65270910000002,0 -122.78557709999995,42.652321100000016,0 -122.78569459999996,42.65230250000001,0 -122.78885409999997,42.650747500000016,0 -122.79093809999996,42.64914800000002,0 -122.79192249999996,42.64879480000002,0 -122.79487469999994,42.648536100000015,0 -122.79560119999995,42.648581700000015,0 -122.79816869999996,42.649070600000016,0 -122.79900479999996,42.64903560000002,0 -122.80114009999994,42.64862810000002,0 -122.80722049999996,42.64805590000002,0 -122.80793339999995,42.64788690000002,0 -122.80844559999997,42.64766330000002,0 -122.80912659999996,42.64712490000002,0 -122.80945979999996,42.64659050000002,0 -122.80954979999996,42.64581890000002,0 -122.80779269999995,42.636131400000025,0 -122.80764979999994,42.63298630000003,0 -122.80731129999994,42.631691000000025,0 -122.80722819999994,42.630362400000024,0 -122.80678969999995,42.62873510000002,0 -122.80814399999996,42.62337580000002,0 -122.81183759999996,42.615256200000026,0 -122.81220419999998,42.612701800000025,0 -122.81260569999998,42.61148800000002,0 -122.81615509999997,42.60605040000002,0 -122.81905109999998,42.599485200000025,0 -122.81908709999998,42.59921840000003,0 -122.81832099999997,42.596915600000024,0 -122.81834879999995,42.595643000000024,0 -122.81662879999995,42.590741100000024,0 -122.81652809999996,42.57548070000002,0 -122.81626519999995,42.57404390000002,0 -122.81075969999995,42.558615100000026,0 -122.81008259999994,42.54858030000002,0 -122.81047959999994,42.54268460000002,0 -122.81181139999994,42.53809190000002,0 -122.81352789999995,42.535140900000016,0 -122.81402099999994,42.53380660000002,0 -122.81438339999994,42.52546590000002,0 -122.81411929999994,42.52430530000002,0 -122.81414289999994,42.52403530000002,0 -122.81425649999994,42.52387320000002,0 -122.81443539999994,42.523775000000015,0 -122.83419079999993,42.52378380000002,0 -122.83691989999993,42.52412010000002,0 -122.84459499999991,42.52568820000002,0 -122.84624049999992,42.52587290000002,0 -122.84826929999994,42.525734800000016,0 -122.84983119999993,42.52533230000002,0 -122.93295089999992,42.49183540000002,0 -122.93502289999992,42.49125390000002,0 -122.93638569999993,42.49106070000001,0 -122.94369849999991,42.490958200000016,0 -122.94484239999991,42.49077430000002,0 -122.94636589999992,42.49027000000002,0 -122.94779019999991,42.48946100000001,0 -122.96306799999992,42.47749970000002,0 -122.96383649999993,42.477092200000016,0 -122.96475249999993,42.47677070000002,0 -122.96640199999993,42.47653240000002,0 -122.99789379999993,42.47636220000002,0 -122.99976469999993,42.47609420000002,0 -123.00104679999993,42.47569850000002,0 -123.00217999999992,42.475125800000015,0 -123.00320599999993,42.47435230000002,0 -123.00741299999993,42.46872860000002,0 -123.00934019999994,42.46671640000002,0 -123.01166829999993,42.46493760000001,0 -123.01428209999995,42.463485300000016,0 -123.02674899999995,42.458673900000015,0 -123.02905569999994,42.457543000000015,0 -123.03132889999995,42.45595990000002,0 -123.03192839999994,42.45581740000002,0 -123.03398299999994,42.45589650000002,0 -123.03485199999993,42.455819400000024,0 -123.03794589999993,42.45473290000002,0 -123.03819539999994,42.45457260000002,0 -123.04042029999992,42.451445800000016,0 -123.04227099999993,42.449624000000014,0 -123.04296169999992,42.44843260000001,0 -123.04358259999991,42.44680670000001,0 -123.04442079999991,42.445426200000014,0 -123.0448069999999,42.44368640000001,0 -123.04567199999991,42.44147540000001,0 -123.04569889999992,42.440448100000005,0 -123.04280069999992,42.43366430000001,0 -123.04283189999991,42.43334020000001,0 -123.0433693999999,42.43206180000001,0 -123.04360809999991,42.43179450000001,0 -123.04403189999992,42.43159160000001,0 -123.04425449999992,42.43155890000001,0 -123.04858219999991,42.43224290000002,0 -123.04889869999991,42.43118970000002,0 -123.0464055999999,42.430831400000024,0 -123.04451199999991,42.431034300000015,0 -123.04129599999992,42.43039090000001,0 -123.04141799999991,42.43009690000002,0 -123.04183779999993,42.42966340000002,0 -123.04183649999993,42.427569700000014,0 -123.04200679999992,42.42677480000002,0 -123.04257189999993,42.42685120000002,0 -123.04373039999992,42.42659060000002,0 -123.04495839999991,42.42681400000002,0 -123.04512139999991,42.42680140000002,0 -123.05376449999991,42.42900760000002,0 -123.06491489999992,42.43074460000002,0 -123.07305109999993,42.43240440000001,0 -123.07467739999994,42.43257040000002,0 -123.08563789999994,42.43247070000001,0 -123.08750549999992,42.43229550000001,0 -123.08962939999992,42.43180620000001,0 -123.09121019999992,42.43121040000001,0 -123.09508059999992,42.42918910000001,0 -123.09753109999993,42.42836830000001,0 -123.11282109999993,42.42572540000001,0 -123.11418309999992,42.425220300000014,0 -123.11493249999992,42.42481310000001,0 -123.13412139999993,42.409518800000015,0 -123.13586429999992,42.40871850000001,0 -123.13673499999992,42.408518600000015,0 -123.1378896999999,42.40841040000001,0 -123.1389268999999,42.40846100000001,0 -123.14012139999991,42.40869090000001,0 -123.1531824999999,42.413211200000006,0 -123.1547333999999,42.41405550000001,0 -123.1557566999999,42.41498240000001,0 -123.1687151999999,42.4311632,0 -123.16982179999991,42.4320625,0 -123.1734143999999,42.4338107,0 -123.17434909999989,42.434069,0 -123.17566619999988,42.4342382,0 -123.17748849999988,42.43415230000001,0 -123.18495839999987,42.432664900000006,0 -123.18747149999989,42.43168250000001,0 -123.1892480999999,42.430499000000005,0 -123.1938499999999,42.42624450000001,0 -123.19497179999989,42.425446700000016,0 -123.19660349999988,42.424625200000015,0 -123.19784279999989,42.42419610000001,0 -123.2074055999999,42.421916400000015,0 -123.20906469999989,42.42180500000001,0 -123.22467929999989,42.422743900000015,0 -123.22631969999988,42.422983400000014,0 -123.22730709999988,42.42327250000002,0 -123.22845089999987,42.42379250000002,0 -123.23243789999987,42.426463900000016,0 -123.23385419999985,42.427115000000015,0 -123.23531339999985,42.42748670000002,0 -123.23636889999983,42.427605800000016,0 -123.24503869999985,42.42747390000002,0 -123.24652959999985,42.42767580000002,0 -123.24853119999986,42.42822210000001,0 -123.24959169999987,42.42866300000002,0 -123.26212239999985,42.43582170000002,0 -123.26317399999985,42.43628560000002,0 -123.26514919999984,42.43686430000002,0 -123.26693379999983,42.437122600000016,0 -123.28749979999984,42.43798850000002,0 -123.28760939999984,42.43804910000002,0 -123.28920589999983,42.43827660000002,0 -123.29084149999981,42.43894600000002,0 -123.29145629999981,42.43906210000002,0 -123.2925031999998,42.438945100000026,0 -123.29674489999982,42.43671030000002,0 -123.29732579999983,42.43655990000003,0 -123.29795949999982,42.43651210000003,0 -123.29777359999983,42.43770050000003,0 -123.29784839999982,42.438003100000024,0 -123.29744329999983,42.437932700000026,0 -123.29747549999982,42.43804180000003,0 </coordinates></LineString><TimeSpan><begin>2021-08-07T20:47:28.188Z</begin><end>2021-08-08T01:27:11.834Z</end></TimeSpan></Placemark><Placemark><name>Holiday Inn Express Grants Pass, an IHG Hotel</name><address>105 NE Agness Ave, Grants Pass, OR 97526</address><ExtendedData><Data name="Email"><value>syugen.zhou@gmail.com</value></Data><Data name="Category"><value>Hotel</value></Data><Data name="Distance"><value>0</value></Data></ExtendedData><description> Hotel from 2021-08-08T01:27:11.834Z to 2021-08-08T16:34:33.556Z. Distance 0m </description><Point><coordinates>-123.2972144,42.43813,0</coordinates></Point><TimeSpan><begin>2021-08-08T01:27:11.834Z</begin><end>2021-08-08T16:34:33.556Z</end></TimeSpan></Placemark></Document></kml>
