<?xml version="1.0" encoding="UTF-8"?><kml xmlns="http://www.opengis.net/kml/2.2" xmlns:gx="http://www.google.com/kml/ext/2.2"><Document><name> Location history from 2019-12-01 to 2019-12-01 </name><open>1</open><description></description><StyleMap id="multiTrack"><Pair><key>normal</key><styleUrl>#multiTrack_n</styleUrl></Pair><Pair><key>highlight</key><styleUrl>#multiTrack_h</styleUrl></Pair></StyleMap><Style id="multiTrack_n"><IconStyle><Icon><href>https://earth.google.com/images/kml-icons/track-directional/track-0.png</href></Icon></IconStyle><LineStyle><color>99ffac59</color><width>6</width></LineStyle></Style><Style id="multiTrack_h"><IconStyle><scale>1.2</scale><Icon><href>https://earth.google.com/images/kml-icons/track-directional/track-0.png</href></Icon></IconStyle><LineStyle><color>99ffac59</color><width>8</width></LineStyle></Style><Placemark><name>Wild Rivers Motorlodge</name><address>437 Chetco Ave, Brookings, OR 97415</address><ExtendedData><Data name="Email"><value>syugen.zhou@gmail.com</value></Data><Data name="Category"><value>Motel</value></Data><Data name="Distance"><value>0</value></Data></ExtendedData><description> Motel from 2019-12-01T02:14:33.000Z to 2019-12-01T16:16:28.000Z. Distance 0m </description><Point><coordinates>-124.27771949999999,42.0531796,0</coordinates></Point><TimeSpan><begin>2019-12-01T02:14:33.000Z</begin><end>2019-12-01T16:16:28.000Z</end></TimeSpan></Placemark><Placemark><name>Driving</name><address></address><ExtendedData><Data name="Email"><value>syugen.zhou@gmail.com</value></Data><Data name="Category"><value>Driving</value></Data><Data name="Distance"><value>101337</value></Data></ExtendedData><description> Driving from 2019-12-01T16:16:28.144Z to 2019-12-01T18:15:07.000Z. Distance 101337m </description><LineString><altitudeMode>clampToGround</altitudeMode><extrude>1</extrude><tesselate>1</tesselate><coordinates>-124.27921359999998,42.0532429,0 -124.28239159999998,42.0523491,0 -124.28306009999999,42.0522975,0 -124.28384329999997,42.052355299999995,0 -124.28471289999996,42.052597399999996,0 -124.28580269999995,42.053135,0 -124.28474149999997,42.0539833,0 -124.28208499999995,42.05456349999999,0 -124.28186659999997,42.05469349999999,0 -124.27981959999997,42.05645019999999,0 -124.27825309999996,42.05353229999999,0 -124.27341819999995,42.0549432,0 -124.27237279999996,42.0550613,0 -124.27121439999996,42.0550613,0 -124.27106649999996,42.055007,0 -124.26648849999995,42.054687200000004,0 -124.26468019999996,42.0542165,0 -124.26359519999997,42.053519400000006,0 -124.22073979999996,42.017895300000006,0 -124.21954479999997,42.0167644,0 -124.21155179999997,42.0075154,0 -124.21055409999995,42.0059618,0 -124.20965819999995,42.00421789999999,0 -124.20902649999994,42.0025615,0 -124.20827149999992,41.99855109999999,0 -124.20776989999992,41.99097009999999,0 -124.20747219999993,41.989943399999994,0 -124.20710879999993,41.98923769999999,0 -124.20369309999992,41.98460039999999,0 -124.20339019999993,41.98376779999999,0 -124.20318199999991,41.97862279999999,0 -124.20312029999992,41.97847929999999,0 -124.20260799999991,41.964332699999986,0 -124.20288029999992,41.96195129999999,0 -124.20463709999991,41.955658499999984,0 -124.20470149999991,41.95486859999998,0 -124.2045512999999,41.95395699999998,0 -124.20429649999991,41.95334159999999,0 -124.2038726999999,41.952688399999985,0 -124.20337779999991,41.95214979999998,0 -124.20286009999991,41.95172289999998,0 -124.19097529999992,41.94402859999998,0 -124.18865919999992,41.94275269999998,0 -124.17245059999992,41.93566689999998,0 -124.16971879999993,41.93481589999998,0 -124.14803979999992,41.93078519999998,0 -124.14694409999994,41.93045999999998,0 -124.14462239999993,41.92934209999998,0 -124.14401299999993,41.928933899999976,0 -124.14303849999993,41.92809049999998,0 -124.13754569999993,41.921983699999984,0 -124.13723589999992,41.92153569999998,0 -124.13672219999992,41.92034229999998,0 -124.13658139999993,41.91946309999998,0 -124.13670899999993,41.881611999999976,0 -124.14202209999992,41.857396799999975,0 -124.1449775999999,41.82617149999997,0 -124.14690029999991,41.811404099999976,0 -124.14741269999992,41.80968749999998,0 -124.14801019999993,41.80551419999998,0 -124.14890579999991,41.80294669999998,0 -124.15007749999992,41.801014399999985,0 -124.15119739999993,41.79967819999998,0 -124.15309309999992,41.79800559999998,0 -124.18452619999991,41.776645999999985,0 -124.18558919999992,41.775755899999986,0 -124.18651879999992,41.774691299999986,0 -124.18720629999993,41.773564599999986,0 -124.18828379999992,41.77117349999999,0 -124.18864079999993,41.77062399999999,0 -124.18927309999994,41.76990149999999,0 -124.19090389999992,41.76852179999999,0 -124.19094729999993,41.768420799999994,0 -124.19508339999992,41.76549909999999,0 -124.19641839999993,41.76400989999999,0 -124.19730179999993,41.76253019999999,0 -124.19768549999993,41.76128289999999,0 -124.19786919999993,41.760014099999985,0 -124.19797459999992,41.759899899999986,0 -124.19812689999993,41.75819329999998,0 -124.19285419999994,41.75263609999999,0 -124.19264359999994,41.75253799999999,0 -124.19228019999994,41.75250399999999,0 -124.19208169999993,41.75254799999999,0 -124.19112929999994,41.75305829999999,0 -124.19110339999993,41.75312969999999,0 -124.19063269999992,41.753215999999995,0 -124.1901489999999,41.75319819999999,0 -124.1848310999999,41.75204049999999,0 -124.1844328999999,41.7518533,0 -124.1766112999999,41.7461424,0 -124.1754299999999,41.745494599999994,0 -124.17036189999989,41.743812999999996,0 -124.16076599999988,41.739300799999995,0 -124.1607015999999,41.739291099999996,0 -124.14804889999988,41.73321159999999,0 -124.14423009999989,41.7302104,0 -124.14302169999988,41.728806299999995,0 -124.14229649999987,41.72763599999999,0 -124.14126189999986,41.72521909999999,0 -124.14105399999985,41.72496289999999,0 -124.13939569999985,41.72370209999999,0 -124.13632479999984,41.71696589999999,0 -124.13591069999983,41.716443799999986,0 -124.13565819999984,41.71591509999999,0 -124.13558369999984,41.71501249999999,0 -124.13548159999984,41.7146572,0 -124.13528129999985,41.71436069999999,0 -124.13504819999984,41.7142242,0 -124.13337309999984,41.713726199999996,0 -124.13059719999983,41.7131755,0 -124.13019959999983,41.7129135,0 -124.12999279999981,41.7126674,0 -124.12973449999981,41.71200100000001,0 -124.1295230999998,41.7117548,0 -124.1293004999998,41.711587800000004,0 -124.12883499999981,41.711403600000004,0 -124.1276982999998,41.711256000000006,0 -124.12743779999981,41.71115890000001,0 -124.12706029999981,41.71086040000001,0 -124.1269611999998,41.71048960000001,0 -124.12703089999981,41.71020620000001,0 -124.12714399999982,41.71004950000001,0 -124.12743599999982,41.70982960000001,0 -124.12756429999982,41.70977550000001,0 -124.12963299999981,41.70942810000001,0 -124.13091319999981,41.709019100000006,0 -124.13120029999979,41.70881590000001,0 -124.13141749999978,41.708522300000006,0 -124.13148239999978,41.70827250000001,0 -124.13143879999978,41.707927500000004,0 -124.13044399999978,41.706313900000005,0 -124.1301580999998,41.706096900000006,0 -124.12972539999981,41.705906600000006,0 -124.12942079999982,41.70583630000001,0 -124.1273631999998,41.7058243,0 -124.12674259999982,41.705662000000004,0 -124.12627699999982,41.7054495,0 -124.12553899999983,41.704871000000004,0 -124.12174529999983,41.70120020000001,0 -124.11950899999982,41.69730060000001,0 -124.11903889999984,41.69666510000001,0 -124.11790439999983,41.695747800000014,0 -124.11671049999984,41.695216400000014,0 -124.11383709999984,41.69455200000001,0 -124.10889369999985,41.692442000000014,0 -124.10770899999984,41.69165070000002,0 -124.10694599999985,41.69086640000001,0 -124.10647739999985,41.689845300000016,0 -124.10653349999983,41.68920820000002,0 -124.10699829999984,41.68824710000001,0 -124.10707379999985,41.68771060000001,0 -124.10688109999984,41.68670610000001,0 -124.10698719999985,41.68607690000001,0 -124.10742479999986,41.68547480000001,0 -124.10797809999985,41.685084100000005,0 -124.10857759999985,41.68483950000001,0 -124.11289039999986,41.68388630000001,0 -124.11313229999985,41.683748600000015,0 -124.11351929999985,41.68338890000002,0 -124.11373049999985,41.683090000000014,0 -124.11386109999984,41.682752500000014,0 -124.11407449999983,41.68079640000001,0 -124.11392279999983,41.680122300000015,0 -124.11346249999983,41.67921360000001,0 -124.11299859999983,41.67758640000002,0 -124.11293309999984,41.67679870000002,0 -124.11320359999982,41.67571500000002,0 -124.11396509999982,41.67393040000002,0 -124.11395339999982,41.672680300000025,0 -124.1130351999998,41.666751400000024,0 -124.1132520999998,41.66577350000002,0 -124.1139634999998,41.66462770000002,0 -124.1155687999998,41.66262390000002,0 -124.1163586999998,41.660217600000024,0 -124.1163870999998,41.65965750000002,0 -124.1161652999998,41.65912350000002,0 -124.1157321999998,41.658571200000026,0 -124.11548169999979,41.65796690000002,0 -124.11547129999978,41.65752140000002,0 -124.11598039999978,41.65533000000003,0 -124.1160107999998,41.65434510000003,0 -124.11583479999979,41.653243700000026,0 -124.11468649999978,41.64960520000003,0 -124.11445219999977,41.64923780000003,0 -124.11290329999979,41.64792650000003,0 -124.11256949999978,41.64733980000003,0 -124.11252939999977,41.64676830000003,0 -124.11273539999978,41.64623030000003,0 -124.11546549999979,41.64240830000003,0 -124.11556019999978,41.64204160000003,0 -124.11553299999979,41.64167080000003,0 -124.11510679999978,41.640145500000024,0 -124.1150945999998,41.639520500000025,0 -124.1153144999998,41.63840920000003,0 -124.11501649999978,41.63766590000003,0 -124.1150186999998,41.63727870000003,0 -124.1153645999998,41.636582600000025,0 -124.11539149999979,41.635966100000026,0 -124.11569279999978,41.634489700000024,0 -124.11559329999979,41.633881200000026,0 -124.11544769999978,41.633638400000024,0 -124.1147770999998,41.63290010000003,0 -124.11440789999979,41.632217000000026,0 -124.11262289999978,41.630204300000024,0 -124.11253569999977,41.629366500000025,0 -124.11229259999978,41.628416300000026,0 -124.11246259999979,41.626847600000026,0 -124.11238939999978,41.626452200000024,0 -124.11159659999977,41.62500310000002,0 -124.11121959999979,41.623562400000026,0 -124.11017559999978,41.622416300000026,0 -124.10974099999979,41.621538900000026,0 -124.10933829999978,41.61940810000002,0 -124.10942139999977,41.61870580000002,0 -124.10936369999978,41.61803210000002,0 -124.10917999999978,41.61761800000002,0 -124.10878699999978,41.61719990000002,0 -124.10702079999977,41.61604990000002,0 -124.10654339999978,41.61563680000002,0 -124.10632609999976,41.61535910000002,0 -124.10605059999975,41.61475510000002,0 -124.10552759999975,41.61184990000002,0 -124.10508469999975,41.61070040000002,0 -124.10362919999976,41.608347100000024,0 -124.10290509999975,41.60628490000002,0 -124.10267559999974,41.60594340000002,0 -124.10060059999972,41.60406130000002,0 -124.10026389999975,41.60352860000001,0 -124.10001649999974,41.60265620000001,0 -124.10003889999975,41.601917000000014,0 -124.10103119999974,41.596897200000015,0 -124.10103979999973,41.59646020000002,0 -124.10086449999973,41.59590600000002,0 -124.10054889999972,41.59549190000002,0 -124.10013569999973,41.59516000000002,0 -124.09911589999973,41.594582100000025,0 -124.09768189999973,41.593269900000024,0 -124.09715349999973,41.59262890000002,0 -124.09547789999975,41.589787800000025,0 -124.09164969999975,41.585696500000026,0 -124.09126219999976,41.58539320000003,0 -124.09075449999976,41.58510950000003,0 -124.08984529999975,41.584807600000026,0 -124.08341739999976,41.58325270000003,0 -124.08196099999975,41.58270860000003,0 -124.08053399999976,41.58199680000003,0 -124.07504219999977,41.57814050000003,0 -124.07394629999976,41.57698040000003,0 -124.06708579999977,41.56484760000003,0 -124.06655159999978,41.564260600000026,0 -124.06585429999977,41.56372570000003,0 -124.06360389999976,41.56232690000003,0 -124.05613789999977,41.55539770000003,0 -124.05551449999975,41.55457820000002,0 -124.05400289999974,41.551423400000026,0 -124.05294879999975,41.54965200000002,0 -124.05106459999976,41.54340790000002,0 -124.04887859999977,41.53846930000002,0 -124.04854859999976,41.538003500000016,0 -124.03545679999976,41.52505770000002,0 -124.03509599999977,41.524607900000014,0 -124.02872709999977,41.51401230000002,0 -124.02850579999976,41.51338670000001,0 -124.02841459999976,41.51243370000001,0 -124.02875129999975,41.51109300000002,0 -124.03156439999975,41.507889700000014,0 -124.03207779999977,41.506974800000016,0 -124.03290769999977,41.50328490000002,0 -124.03305499999976,41.502924700000015,0 -124.03356639999976,41.502146900000014,0 -124.03428609999976,41.501493400000015,0 -124.04259679999976,41.496564700000015,0 -124.04305739999975,41.49618080000001,0 -124.04363239999977,41.49540920000001,0 -124.04452809999978,41.49331900000001,0 -124.04471209999977,41.493096200000004,0 -124.04748479999978,41.49087820000001,0 -124.05063459999977,41.48694550000001,0 -124.05090559999977,41.48623120000001,0 -124.05099689999976,41.48551830000002,0 -124.05095099999976,41.48403930000001,0 -124.05076629999976,41.48338900000001,0 -124.04674329999976,41.47689050000001,0 -124.04411829999975,41.47411350000001,0 -124.04062979999976,41.468781000000014,0 -124.03460459999977,41.461001900000014,0 -124.03402909999977,41.46043010000001,0 -124.03215739999976,41.45904570000001,0 -124.03161599999977,41.45834630000001,0 -124.03142469999976,41.45779790000001,0 -124.03142399999975,41.455620800000005,0 -124.03114839999974,41.45474050000001,0 -124.03074019999974,41.454193200000006,0 -124.03026069999973,41.45376980000001,0 -124.02737469999973,41.45220170000001,0 -124.02702569999971,41.45194440000001,0 -124.02625749999972,41.45111770000001,0 -124.02511029999971,41.44905030000001,0 -124.02443669999971,41.44828060000001,0 -124.0235795999997,41.44765660000001,0 -124.0212151999997,41.44632600000001,0 -124.0207619999997,41.445857900000014,0 -124.0203272999997,41.44511940000002,0 -124.02025099999972,41.44474240000001,0 -124.0202858999997,41.44401950000002,0 -124.02264279999972,41.436366800000016,0 -124.0226558999997,41.43516900000001,0 -124.0223434999997,41.43427770000001,0 -124.0219574999997,41.43367450000001,0 -124.0214771999997,41.43314300000001,0 -124.01589829999969,41.42873970000001,0 -124.01533069999971,41.42845210000001,0 -124.0144900999997,41.42821560000001,0 -124.01100889999971,41.42791330000001,0 -124.01053499999972,41.427786700000006,0 -124.00976649999973,41.42745380000001,0 -124.00755369999972,41.42568130000001,0 -124.0068745999997,41.425283900000004,0 -124.00606469999971,41.42501180000001,0 -123.99963289999972,41.4238025,0 -123.99881699999972,41.42349720000001,0 -123.99820019999972,41.42310520000001,0 -123.99766229999973,41.422532000000004,0 -123.99733319999973,41.4219184,0 -123.99724459999972,41.42153210000001,0 -123.99724589999973,41.4210204,0 -123.99779839999972,41.4177656,0 -123.99825809999972,41.4169126,0 -123.99880089999971,41.4164055,0 -124.00237129999972,41.4142632,0 -124.00271279999971,41.4139919,0 -124.00329009999972,41.4132797,0 -124.00352819999972,41.4126648,0 -124.00357989999972,41.4119966,0 -124.00279329999974,41.40816900000001,0 -124.00240259999974,41.4075472,0 -124.00209639999973,41.4072211,0 -124.00159899999973,41.4068509,0 -124.00070969999973,41.4064465,0 -123.99793869999974,41.405784000000004,0 -123.99739829999976,41.405531700000004,0 -123.99399519999976,41.40312510000001,0 -123.99349229999976,41.40259340000001,0 -123.99320729999974,41.40213240000001,0 -123.99296739999974,41.401385200000014,0 -123.99296009999973,41.40061630000001,0 -123.99385999999974,41.396799000000016,0 -123.99385549999974,41.39640950000002,0 -123.99339609999973,41.39411180000001,0 -123.99341889999972,41.39346830000001,0 -123.99461469999973,41.39001420000002,0 -123.99490479999973,41.388554200000016,0 -123.99504219999973,41.37830800000002,0 -123.99491329999972,41.377412600000014,0 -123.99443969999972,41.37620620000001,0 -123.99378519999972,41.37524530000002,0 -123.99116069999971,41.37244530000002,0 -123.9909108999997,41.37207650000001,0 -123.99063629999971,41.37137770000001,0 -123.9906438999997,41.37062210000001,0 -123.9916479999997,41.36844720000001,0 -123.9917199999997,41.368127300000005,0 -123.99171719999971,41.367545500000006,0 -123.9915126999997,41.3668582,0 -123.9911907999997,41.366361100000006,0 -123.9898908999997,41.36483600000001,0 -123.9895628999997,41.36410040000001,0 -123.9895186999997,41.363479900000016,0 -123.9896112999997,41.36302040000002,0 -123.9904925999997,41.36064540000002,0 -123.99117629999968,41.359719700000014,0 -123.99157019999969,41.35939600000001,0 -123.99229859999969,41.358974900000014,0 -123.9927479999997,41.35879600000001,0 -123.9935656999997,41.358584600000015,0 -123.9946992999997,41.358500700000015,0 -123.9953751999997,41.35856350000002,0 -124.0016227999997,41.35970870000002,0 -124.00323029999971,41.35974250000002,0 -124.00392409999971,41.35967010000002,0 -124.01119489999971,41.35814540000001,0 -124.01209209999972,41.357776000000015,0 -124.01261509999972,41.357419600000014,0 -124.01307179999974,41.356967800000014,0 -124.01411819999973,41.35539640000002,0 -124.01478149999973,41.354731500000014,0 -124.01566169999973,41.35418840000002,0 -124.01624099999971,41.35394860000002,0 -124.0195981999997,41.35311400000001,0 -124.0203476999997,41.352816900000015,0 -124.0262369999997,41.34941270000001,0 -124.0279020999997,41.34803570000001,0 -124.0290712999997,41.34680220000001,0 -124.0298040999997,41.34581070000001,0 -124.0311408999997,41.34330000000001,0 -124.0315114999997,41.34287950000001,0 -124.0335623999997,41.34114380000001,0 -124.03380309999969,41.34082390000001,0 -124.03385529999969,41.34047590000001,0 -124.03366269999968,41.339992200000005,0 -124.03311519999968,41.33939630000001,0 -124.03111169999968,41.33795380000001,0 -124.0306637999997,41.33725380000001,0 -124.0305804999997,41.33684880000001,0 -124.03067809999969,41.335350000000005,0 -124.0311471999997,41.33368200000001,0 -124.03110259999968,41.33328640000001,0 -124.03028229999968,41.33199240000001,0 -124.02982659999968,41.329465100000014,0 -124.02984079999968,41.32908280000001,0 -124.02997309999968,41.32864520000001,0 -124.03018789999967,41.328265400000014,0 -124.03041959999968,41.32800670000001,0 -124.03371579999968,41.32577170000001,0 -124.03449289999968,41.32491550000001,0 -124.03482129999966,41.32465030000001,0 -124.03825439999967,41.32293500000001,0 -124.03850299999968,41.32268150000001,0 -124.04181429999969,41.31495640000001,0 -124.04222689999966,41.31450140000001,0 -124.04424139999965,41.312915000000004,0 -124.04463009999965,41.3123628,0 -124.04539529999964,41.3106944,0 -124.04521839999965,41.3064052,0 -124.04505829999965,41.305994399999996,0 -124.04430749999966,41.3050776,0 -124.04420269999964,41.3045095,0 -124.04427249999965,41.303797,0 -124.04439699999965,41.303423800000004,0 -124.04461789999965,41.3031362,0 -124.04493319999965,41.3029155,0 -124.04709439999964,41.302219599999994,0 -124.04776629999962,41.30172149999999,0 -124.04960099999964,41.3009663,0 -124.05024199999963,41.3004871,0 -124.05125409999962,41.2992796,0 -124.05371799999963,41.2970313,0 -124.05838429999963,41.2901114,0 -124.05854249999963,41.2897546,0 -124.05884999999964,41.287936200000004,0 -124.05937139999963,41.2868766,0 -124.06151299999964,41.285016,0 -124.06190899999963,41.2847949,0 -124.06273479999962,41.284589100000005,0 -124.07547649999962,41.28476930000001,0 -124.07644229999963,41.28487930000001,0 -124.07739069999963,41.2850875,0 -124.07854909999962,41.285492000000005,0 -124.08154619999961,41.28700270000001,0 -124.08229889999961,41.287190200000005,0 -124.08284709999961,41.287249300000006,0 -124.08377999999962,41.28720480000001,0 -124.08435749999963,41.28707870000001,0 -124.08491939999963,41.28687060000001,0 -124.08960489999963,41.28445840000001,0 -124.08966059999963,41.28445420000001,0 -124.09109519999963,41.283663900000015,0 -124.09145209999963,41.28406660000001,0 -124.09143919999963,41.284504900000016,0 -124.09132419999962,41.284761900000014,0 -124.09092659999962,41.28518480000001,0 -124.08981859999962,41.285907600000016,0 -124.08966299999963,41.28614850000002,0 -124.08961709999961,41.28641670000001,0 -124.08965039999961,41.286541000000014,0 -124.08975909999963,41.28665210000001,0 -124.08992689999963,41.28672260000001,0 -124.09001749999965,41.28673060000001,0 -124.09001209999963,41.286949600000014,0 -124.09013449999962,41.28707340000001,0 -124.09085509999963,41.28720520000001,0 </coordinates></LineString><TimeSpan><begin>2019-12-01T16:16:28.144Z</begin><end>2019-12-01T18:15:07.000Z</end></TimeSpan></Placemark><Placemark><name>Thomas H. Kuchel Visitor Center</name><address>US-101 &amp; Redwood Hwy, US-101, Orick, CA 95555</address><ExtendedData><Data name="Email"><value>syugen.zhou@gmail.com</value></Data><Data name="Category"><value>Visitor center</value></Data><Data name="Distance"><value>0</value></Data></ExtendedData><description> Visitor center from 2019-12-01T18:15:07.000Z to 2019-12-01T18:24:03.000Z. Distance 0m </description><Point><coordinates>-124.0909971,41.286851899999995,0</coordinates></Point><TimeSpan><begin>2019-12-01T18:15:07.000Z</begin><end>2019-12-01T18:24:03.000Z</end></TimeSpan></Placemark><Placemark><name>Driving</name><address></address><ExtendedData><Data name="Email"><value>syugen.zhou@gmail.com</value></Data><Data name="Category"><value>Driving</value></Data><Data name="Distance"><value>190468</value></Data></ExtendedData><description> Driving from 2019-12-01T18:24:03.000Z to 2019-12-01T20:49:08.999Z. Distance 190468m </description><LineString><altitudeMode>clampToGround</altitudeMode><extrude>1</extrude><tesselate>1</tesselate><coordinates>-124.09085510000001,41.287205199999995,0 -124.0901345,41.2870734,0 -124.09001210000001,41.2869496,0 -124.09001750000002,41.2867306,0 -124.08965040000002,41.28654099999999,0 -124.08966300000003,41.286148499999996,0 -124.08981860000002,41.285907599999994,0 -124.09092660000003,41.285184799999996,0 -124.09143920000002,41.284504899999995,0 -124.09145210000003,41.28406659999999,0 -124.09109520000004,41.28366389999999,0 -124.09235690000006,41.2824926,0 -124.09302640000004,41.28136409999999,0 -124.09555700000003,41.271234799999995,0 -124.09784760000004,41.26533599999999,0 -124.09671310000004,41.26057669999999,0 -124.09599690000005,41.259074599999984,0 -124.09364640000005,41.256279099999986,0 -124.08973880000006,41.25325259999999,0 -124.08737630000007,41.25000659999999,0 -124.08713220000007,41.24935929999999,0 -124.08816350000006,41.246298999999986,0 -124.08814490000006,41.24592519999999,0 -124.08736370000005,41.24461929999999,0 -124.08707150000005,41.244384099999984,0 -124.08591990000005,41.243949499999985,0 -124.08525330000005,41.24342509999998,0 -124.08476380000006,41.24256899999998,0 -124.08458680000007,41.24053799999998,0 -124.08370600000006,41.23854199999998,0 -124.08354070000006,41.23702759999998,0 -124.08392980000006,41.235986799999985,0 -124.08388810000007,41.23560449999999,0 -124.08331190000006,41.23454139999998,0 -124.08319070000007,41.233659199999984,0 -124.08428910000008,41.229094199999984,0 -124.08580690000008,41.226997199999985,0 -124.09398040000008,41.22283349999998,0 -124.09651340000006,41.22089899999998,0 -124.09966760000006,41.21954419999998,0 -124.10470500000007,41.21871719999998,0 -124.10602580000008,41.21809949999998,0 -124.10761800000009,41.21653259999998,0 -124.10994050000009,41.20796799999997,0 -124.1103709000001,41.203845699999974,0 -124.11075170000012,41.20291539999997,0 -124.11040570000013,41.200958799999974,0 -124.11099180000012,41.199410899999975,0 -124.11083360000012,41.19802139999998,0 -124.10995650000011,41.19678729999998,0 -124.10993640000011,41.19649159999998,0 -124.11017780000012,41.19606169999998,0 -124.11098010000012,41.19550329999998,0 -124.11108800000012,41.19521889999998,0 -124.11100400000012,41.19478579999998,0 -124.11029310000013,41.193987899999975,0 -124.11020860000013,41.19351159999998,0 -124.11051030000014,41.192267299999976,0 -124.10975260000014,41.19028219999998,0 -124.10771150000014,41.188127499999986,0 -124.10800130000014,41.18728989999998,0 -124.10796400000014,41.18566449999998,0 -124.10542490000012,41.178339999999984,0 -124.1026300000001,41.17569739999998,0 -124.10189240000011,41.17125869999998,0 -124.1020842000001,41.168998399999985,0 -124.10249720000012,41.16811699999998,0 -124.1030551000001,41.16751229999998,0 -124.10725110000011,41.164524899999975,0 -124.11669170000012,41.16006729999997,0 -124.12189160000013,41.158831899999974,0 -124.13379790000012,41.15197909999997,0 -124.13511670000013,41.15067059999997,0 -124.13581140000014,41.14927679999997,0 -124.13640600000012,41.14305839999997,0 -124.13717130000012,41.141444099999966,0 -124.13864250000013,41.139798199999966,0 -124.14011440000013,41.13876109999996,0 -124.14615280000012,41.13653159999996,0 -124.14772390000013,41.13557879999996,0 -124.14894850000012,41.134454899999966,0 -124.14991370000011,41.13304439999997,0 -124.15049040000011,41.131228099999966,0 -124.15111740000012,41.12028909999997,0 -124.15485480000014,41.10897659999997,0 -124.15497500000015,41.10775559999997,0 -124.15382470000013,41.099460799999974,0 -124.14189240000013,41.07485699999997,0 -124.14143090000013,41.07185999999997,0 -124.14195270000013,41.06571549999997,0 -124.14160430000014,41.06453279999997,0 -124.14062350000015,41.06315209999997,0 -124.13958020000015,41.06231919999996,0 -124.12705660000017,41.05558049999996,0 -124.11592140000016,41.043314999999964,0 -124.11197490000016,41.035085399999964,0 -124.10736130000016,41.027779999999964,0 -124.10701760000016,41.02643849999996,0 -124.10733930000018,41.023505699999966,0 -124.10685250000017,41.01795199999996,0 -124.10809260000016,41.01337579999996,0 -124.11038770000016,41.00949109999996,0 -124.11200100000016,41.004240299999964,0 -124.11357910000017,40.99382359999996,0 -124.11523170000018,40.99010099999997,0 -124.11764040000017,40.97914219999997,0 -124.11613110000016,40.97009139999997,0 -124.11631320000016,40.93771329999998,0 -124.11319610000015,40.92901429999997,0 -124.11223670000017,40.92759459999998,0 -124.11118450000016,40.92669849999998,0 -124.09605590000015,40.919726599999976,0 -124.09456960000016,40.91842589999998,0 -124.09172480000015,40.913900599999984,0 -124.08020210000015,40.890735999999976,0 -124.07984830000015,40.88667299999998,0 -124.08276840000013,40.87731989999998,0 -124.08243790000014,40.87325519999998,0 -124.08321730000013,40.86929879999998,0 -124.08202930000014,40.852098699999985,0 -124.08232260000015,40.83212759999998,0 -124.08346070000015,40.82865909999998,0 -124.08547850000014,40.82577119999998,0 -124.08722550000016,40.82412719999998,0 -124.08997530000013,40.82230609999998,0 -124.12055430000014,40.80656529999998,0 -124.12305570000015,40.80559679999998,0 -124.12595190000015,40.80495749999998,0 -124.13011950000015,40.804893899999975,0 -124.13668740000014,40.805913599999975,0 -124.13795730000015,40.80590579999998,0 -124.14439080000015,40.80469039999998,0 -124.15512220000016,40.80464009999998,0 -124.15601550000015,40.804203399999984,0 -124.17493630000016,40.80156629999998,0 -124.17511740000016,40.80139399999999,0 -124.17510820000015,40.79726869999998,0 -124.18213820000017,40.78506689999998,0 -124.18565810000017,40.78028689999998,0 -124.18918960000018,40.77813489999998,0 -124.19017710000017,40.776521999999986,0 -124.19163520000019,40.76815999999999,0 -124.19112900000017,40.76405879999998,0 -124.18962330000016,40.75962149999998,0 -124.18958910000016,40.75798609999998,0 -124.19324460000016,40.75107879999998,0 -124.20863810000014,40.73808919999998,0 -124.21348410000014,40.733186699999976,0 -124.21441510000014,40.73111139999998,0 -124.21574270000013,40.716543499999986,0 -124.21505630000013,40.71449779999998,0 -124.21038220000011,40.70828499999999,0 -124.2100097000001,40.70728479999999,0 -124.2097011000001,40.70403299999999,0 -124.2093800000001,40.703283599999985,0 -124.20843100000009,40.702192899999986,0 -124.20529500000008,40.699744299999985,0 -124.20432740000008,40.69834679999999,0 -124.2008616000001,40.68102249999998,0 -124.2021817000001,40.669893299999984,0 -124.2051922000001,40.65976589999998,0 -124.2061925000001,40.65839119999998,0 -124.2110468000001,40.65412139999999,0 -124.2115466000001,40.653227999999984,0 -124.2117419000001,40.65162999999998,0 -124.2113975000001,40.65049159999999,0 -124.2087574000001,40.64602139999999,0 -124.2084375000001,40.64467229999998,0 -124.2085361000001,40.643849399999986,0 -124.21639610000011,40.62786099999999,0 -124.21659210000011,40.62695619999999,0 -124.2164529000001,40.62578349999998,0 -124.21582730000011,40.62459719999998,0 -124.21258160000012,40.62200379999998,0 -124.21132060000012,40.62139469999998,0 -124.20638850000012,40.62039169999998,0 -124.20523740000013,40.61988389999998,0 -124.20213760000013,40.61778689999997,0 -124.19800830000011,40.61631849999997,0 -124.19321180000011,40.61377019999997,0 -124.18530590000013,40.60760289999997,0 -124.18285420000012,40.60635769999997,0 -124.17779810000013,40.60469309999997,0 -124.16918790000014,40.60054739999997,0 -124.16683360000015,40.59819819999996,0 -124.16577090000014,40.59749679999996,0 -124.16099380000013,40.595551099999966,0 -124.15914240000012,40.594367699999964,0 -124.15822390000011,40.59339929999996,0 -124.1562755000001,40.58897859999996,0 -124.15261930000011,40.584723299999965,0 -124.1498394000001,40.578042299999964,0 -124.14920350000011,40.57529259999996,0 -124.14853050000012,40.566503699999956,0 -124.14463200000012,40.54336339999996,0 -124.14528290000011,40.54072969999996,0 -124.15026110000012,40.53335959999996,0 -124.15147980000012,40.52860809999996,0 -124.15138290000012,40.527004599999955,0 -124.15084080000011,40.525724699999955,0 -124.14701830000013,40.52150969999996,0 -124.14542060000014,40.52043319999996,0 -124.12681490000014,40.51324819999996,0 -124.12163750000015,40.508973699999956,0 -124.11943180000014,40.507967899999954,0 -124.10857270000012,40.50531739999996,0 -124.10425860000012,40.50470319999996,0 -124.10207720000014,40.50384349999996,0 -124.10085010000014,40.50288179999996,0 -124.10012780000014,40.50194799999996,0 -124.09811910000013,40.49513499999996,0 -124.09786760000014,40.49279929999996,0 -124.09824110000014,40.48907959999996,0 -124.09934860000013,40.485584199999956,0 -124.09949280000012,40.48181819999996,0 -124.10040510000015,40.47916919999996,0 -124.10006530000014,40.47466459999996,0 -124.09929360000014,40.47271949999997,0 -124.09172450000013,40.46393219999997,0 -124.09083510000013,40.46325819999997,0 -124.08916930000014,40.46248829999997,0 -124.07302460000012,40.45888089999997,0 -124.07000690000012,40.45851079999997,0 -124.06870670000012,40.458059899999974,0 -124.06553440000013,40.455165699999974,0 -124.06440410000013,40.45451559999997,0 -124.06308780000012,40.45417129999998,0 -124.05017210000011,40.453875599999975,0 -124.04795690000012,40.45320469999997,0 -124.04295350000011,40.45020719999997,0 -124.04036190000011,40.44808759999997,0 -124.0397343000001,40.44715399999997,0 -124.03952090000011,40.44624929999998,0 -124.03962530000011,40.44346499999997,0 -124.03902220000012,40.441918699999974,0 -124.0380932000001,40.44097619999997,0 -124.03627430000012,40.44008149999997,0 -124.03472230000011,40.439806299999965,0 -124.0270528000001,40.440150499999966,0 -124.0241309000001,40.440787599999965,0 -124.0174681000001,40.44324429999997,0 -124.0143091000001,40.44384199999997,0 -124.0087352000001,40.443922599999965,0 -124.00652680000012,40.44355389999996,0 -124.00495540000011,40.44276099999996,0 -123.9979278000001,40.43699019999996,0 -123.99635370000011,40.43642769999996,0 -123.98832640000012,40.43502149999996,0 -123.9873869000001,40.43457559999997,0 -123.98611600000011,40.43339559999996,0 -123.98300560000011,40.427259799999966,0 -123.98200000000011,40.42109519999996,0 -123.97876660000011,40.41607029999996,0 -123.97745610000011,40.415228599999956,0 -123.97306820000011,40.41388979999996,0 -123.97152410000012,40.41371799999996,0 -123.96657160000012,40.41401069999996,0 -123.96453880000011,40.413641799999965,0 -123.96236300000011,40.41254159999996,0 -123.9499197000001,40.39877289999997,0 -123.9469916000001,40.39714019999997,0 -123.94474950000009,40.396502799999965,0 -123.9363427000001,40.39544499999997,0 -123.93490470000009,40.39472119999997,0 -123.93307550000009,40.39229689999997,0 -123.93222160000009,40.389387399999976,0 -123.92999250000008,40.38597059999997,0 -123.92762080000008,40.37754829999997,0 -123.92622410000008,40.37486009999997,0 -123.92624250000009,40.37381489999997,0 -123.92695110000008,40.371834999999976,0 -123.9269825000001,40.37075469999997,0 -123.92624040000008,40.36935379999997,0 -123.92332480000007,40.36689939999997,0 -123.92018840000007,40.362808299999976,0 -123.91992710000007,40.36210689999997,0 -123.92001830000007,40.36078129999997,0 -123.92107870000008,40.35882289999998,0 -123.92866940000008,40.35240389999998,0 -123.92933240000008,40.35146529999997,0 -123.93009840000008,40.34840989999998,0 -123.93136660000008,40.345559799999975,0 -123.93189750000006,40.343251799999976,0 -123.93385220000006,40.34061969999998,0 -123.93421800000006,40.33974769999998,0 -123.93424110000008,40.33883329999998,0 -123.93384580000007,40.33781959999998,0 -123.92901600000008,40.333574499999976,0 -123.92607330000008,40.33020329999998,0 -123.92260650000009,40.327319899999985,0 -123.9218830000001,40.32611639999998,0 -123.92093010000009,40.31850799999998,0 -123.9200168000001,40.31712419999998,0 -123.9163808000001,40.314929499999984,0 -123.9091680000001,40.31223269999998,0 -123.90194110000009,40.30589779999998,0 -123.9011828000001,40.305560999999976,0 -123.8958183000001,40.304665999999976,0 -123.8941042000001,40.303904099999976,0 -123.89324870000009,40.303088699999975,0 -123.89278230000008,40.30224689999997,0 -123.89207330000008,40.29858519999997,0 -123.89366560000008,40.29420889999997,0 -123.89580270000008,40.29103499999997,0 -123.89626340000008,40.28983469999997,0 -123.89626110000007,40.28891699999998,0 -123.89578920000007,40.287805899999974,0 -123.89506090000008,40.28706089999997,0 -123.89242470000006,40.285598899999975,0 -123.88911280000006,40.28459399999997,0 -123.88817630000007,40.28384249999997,0 -123.88765160000007,40.283012999999976,0 -123.88675690000005,40.27996039999997,0 -123.88258830000005,40.275481399999975,0 -123.87876440000005,40.272980499999974,0 -123.87620940000005,40.27180679999997,0 -123.87507940000005,40.27080909999997,0 -123.87394620000006,40.26861959999997,0 -123.87320100000007,40.26778179999997,0 -123.87175630000007,40.266936899999976,0 -123.86920510000006,40.26618019999998,0 -123.86741210000008,40.26623389999998,0 -123.86622780000008,40.26662229999998,0 -123.86382320000008,40.26852349999998,0 -123.86005590000008,40.27071779999998,0 -123.85658010000007,40.27204819999998,0 -123.85512510000007,40.27204689999998,0 -123.85391000000007,40.27160539999998,0 -123.85312820000009,40.270944199999974,0 -123.85199410000007,40.26811619999998,0 -123.85093770000009,40.266935099999976,0 -123.84854510000008,40.26539829999998,0 -123.84785840000008,40.26464589999998,0 -123.84702340000008,40.26237629999998,0 -123.84638560000008,40.26145559999997,0 -123.84441610000009,40.25963089999997,0 -123.83497350000009,40.25491189999997,0 -123.8336708000001,40.253848199999965,0 -123.8324324000001,40.252268699999966,0 -123.8315920000001,40.24939719999997,0 -123.8316936000001,40.24091769999997,0 -123.83333410000012,40.23515399999997,0 -123.8331958000001,40.23398409999997,0 -123.83280790000009,40.23306909999997,0 -123.83078690000009,40.23036429999998,0 -123.82853040000009,40.22582259999997,0 -123.82406120000009,40.22101599999997,0 -123.81691280000007,40.21677939999997,0 -123.81527630000008,40.21632079999997,0 -123.81438410000007,40.21629479999997,0 -123.81305600000006,40.21651289999997,0 -123.80909350000005,40.21786149999997,0 -123.80548930000005,40.21989109999997,0 -123.80324930000005,40.22054619999997,0 -123.80156760000006,40.22058849999997,0 -123.79989930000006,40.22025419999997,0 -123.79540400000006,40.21860539999997,0 -123.79363500000005,40.21720069999997,0 -123.79283030000005,40.21562399999997,0 -123.79198470000006,40.208663099999974,0 -123.79129450000005,40.20717809999997,0 -123.78959460000004,40.20518719999997,0 -123.78530840000005,40.20234439999997,0 -123.77891000000005,40.20036999999997,0 -123.77765010000006,40.19969759999997,0 -123.77689600000005,40.19897809999997,0 -123.77552430000004,40.196866599999964,0 -123.77446800000004,40.19582479999996,0 -123.77202670000004,40.19419049999997,0 -123.77125410000004,40.19315799999997,0 -123.77088950000002,40.19189699999997,0 -123.77115800000003,40.190359699999966,0 -123.77674190000003,40.18108949999996,0 -123.78026810000003,40.17866409999996,0 -123.78113910000003,40.17721999999996,0 -123.78148630000003,40.17280189999996,0 -123.78120700000002,40.169485999999964,0 -123.78137260000003,40.16869489999996,0 -123.78224540000002,40.16729819999996,0 -123.78520470000001,40.16507349999996,0 -123.78673280000002,40.163250899999966,0 -123.78785120000003,40.16233789999997,0 -123.79057550000003,40.160928799999965,0 -123.79268750000004,40.158500399999966,0 -123.79457790000005,40.157068499999966,0 -123.79529370000006,40.15610359999996,0 -123.79551120000006,40.154869199999965,0 -123.79535030000007,40.15210729999996,0 -123.79620970000006,40.15077009999996,0 -123.80119290000007,40.147575199999956,0 -123.80851050000005,40.140947599999954,0 -123.80902900000007,40.139643399999954,0 -123.80907580000007,40.13870979999996,0 -123.80879550000007,40.13761719999996,0 -123.80706910000006,40.134469099999954,0 -123.80633210000008,40.13365289999996,0 -123.79975630000008,40.12861559999996,0 -123.79905600000009,40.12780639999996,0 -123.7928821000001,40.11384699999996,0 -123.7926894000001,40.112761499999955,0 -123.7929414000001,40.11076449999995,0 -123.7968910000001,40.10065959999996,0 -123.79681620000011,40.09869229999996,0 -123.7962768000001,40.09726119999996,0 -123.79450030000011,40.09460909999996,0 -123.79149530000011,40.092054699999956,0 -123.79105130000012,40.09143279999996,0 -123.7898758000001,40.08669629999996,0 -123.79070170000011,40.08208209999996,0 -123.79059180000012,40.081184299999954,0 -123.78955130000011,40.07861529999995,0 -123.7896285000001,40.07746849999996,0 -123.7909972000001,40.07455189999996,0 -123.79115430000012,40.07325449999996,0 -123.79045310000012,40.07093419999996,0 -123.7884468000001,40.06717189999996,0 -123.78771930000012,40.06640199999996,0 -123.78413610000013,40.063872899999964,0 -123.78346490000013,40.06277589999996,0 -123.78335750000012,40.06168189999996,0 -123.78360120000012,40.06091029999996,0 -123.78450390000012,40.05982069999996,0 -123.79099910000012,40.05623239999996,0 -123.7923174000001,40.05486259999996,0 -123.7927949000001,40.05378739999996,0 -123.79284010000009,40.05205859999996,0 -123.79241170000009,40.05094039999996,0 -123.79100650000008,40.04937789999995,0 -123.78944130000008,40.04854669999996,0 -123.7848422000001,40.04695369999995,0 -123.78334020000008,40.04592249999995,0 -123.7760914000001,40.03709149999995,0 -123.7757038000001,40.03610419999995,0 -123.77589860000012,40.03438759999995,0 -123.77663160000012,40.03331919999996,0 -123.77802980000011,40.03236949999996,0 -123.77928990000011,40.03193099999996,0 -123.7805475000001,40.03184269999996,0 -123.7818451000001,40.03207049999997,0 -123.7836923000001,40.032891699999965,0 -123.78542870000011,40.03425829999996,0 -123.7877327000001,40.03526649999996,0 -123.78865220000012,40.03546499999997,0 -123.79019270000012,40.03549259999996,0 -123.79124240000013,40.03522209999996,0 -123.79298070000013,40.03412499999997,0 -123.79395470000013,40.02843699999997,0 -123.79351350000013,40.02766369999996,0 -123.79408610000013,40.02406839999997,0 -123.79319140000013,40.021157999999964,0 -123.79135810000014,40.019143799999966,0 -123.79139200000014,40.01555339999996,0 -123.79161480000015,40.01502689999996,0 -123.79160560000014,40.01436709999996,0 -123.79097580000013,40.01319439999996,0 -123.79122090000013,40.012181699999964,0 -123.78996450000014,40.00881159999996,0 -123.78745700000013,40.00577939999996,0 -123.78657200000015,40.00531129999996,0 -123.78427110000015,40.00476059999997,0 -123.78378870000016,40.004446599999966,0 -123.78331270000017,40.003603699999964,0 -123.78335970000018,40.00178049999996,0 -123.78377040000018,40.00116659999996,0 -123.78781660000017,39.99752309999996,0 -123.78843590000017,39.99631149999996,0 -123.78872830000016,39.99173529999997,0 -123.78935860000016,39.99075529999996,0 -123.79031160000015,39.99002579999996,0 -123.79409060000016,39.98835669999996,0 -123.79657500000016,39.985955799999964,0 -123.80095580000015,39.98361599999996,0 -123.80190640000016,39.98252819999996,0 -123.80234290000017,39.98153759999996,0 -123.80238730000018,39.97992379999996,0 -123.80094970000019,39.976159099999954,0 -123.79482410000017,39.96558609999995,0 -123.79326290000017,39.96432089999996,0 -123.79158840000018,39.963452799999956,0 -123.78820420000018,39.96238939999996,0 -123.78255180000018,39.95910669999996,0 -123.78075420000019,39.957225999999956,0 -123.77998380000018,39.95491889999996,0 -123.78006670000018,39.953628199999955,0 -123.78100020000016,39.951214899999954,0 -123.78123760000018,39.94888039999996,0 -123.77800010000018,39.94090379999996,0 -123.77717900000017,39.939767699999955,0 -123.77085320000018,39.93452459999996,0 -123.76912130000017,39.93355099999996,0 -123.76491470000016,39.931944499999965,0 -123.76167300000016,39.92938059999996,0 -123.76114320000018,39.92871209999996,0 -123.76072620000018,39.92749759999997,0 -123.76103240000019,39.92388739999996,0 -123.76157990000019,39.92284879999996,0 -123.76476710000018,39.919815099999965,0 -123.76681240000018,39.91903439999996,0 -123.76719000000017,39.918710799999964,0 -123.76740840000016,39.918279699999964,0 -123.76720120000016,39.917146999999964,0 -123.76662810000016,39.91664699999996,0 -123.76341780000017,39.91531249999997,0 -123.76125970000017,39.914859699999965,0 -123.75863930000017,39.91305469999997,0 -123.75779120000018,39.91153109999997,0 -123.75758060000018,39.90974889999997,0 -123.75897520000018,39.90773589999997,0 -123.75899800000018,39.907036299999966,0 -123.75865310000017,39.90657699999996,0 -123.75777500000017,39.90621819999996,0 -123.75712160000016,39.90625079999996,0 -123.75471130000017,39.907255699999965,0 -123.75371860000017,39.90731569999996,0 -123.75026020000017,39.90665789999996,0 -123.74953320000017,39.90603159999996,0 -123.74936690000018,39.90467269999996,0 -123.74993150000019,39.903661199999966,0 -123.7509752000002,39.90284899999997,0 -123.7524231000002,39.90237769999997,0 -123.75388470000019,39.902253499999965,0 -123.75433700000019,39.90208599999996,0 -123.7546931000002,39.90172679999996,0 -123.7547450000002,39.901126799999965,0 -123.75440490000021,39.900691999999964,0 -123.75193590000022,39.89952169999996,0 -123.75128730000021,39.89899289999995,0 -123.75063470000022,39.89785869999996,0 -123.75076220000022,39.89696749999995,0 -123.7512137000002,39.89650999999995,0 -123.75335980000023,39.89555779999995,0 -123.75384520000023,39.89492589999995,0 -123.75400500000022,39.892911399999946,0 -123.75378800000023,39.89245459999995,0 -123.75302290000023,39.891945399999955,0 -123.74944850000024,39.89134149999995,0 -123.74840500000025,39.89073349999995,0 -123.74814100000025,39.89033569999995,0 -123.74749320000025,39.887546899999954,0 -123.74664530000025,39.88704859999996,0 -123.74512010000025,39.88682259999995,0 -123.73977490000024,39.88750139999995,0 -123.73920660000024,39.88742879999995,0 -123.73770270000026,39.88678369999995,0 -123.73635320000024,39.88558039999996,0 -123.73276340000024,39.87905429999996,0 -123.73136240000025,39.878237599999956,0 -123.73018230000024,39.878053299999955,0 -123.72388240000024,39.87805589999996,0 -123.72271420000023,39.877808199999954,0 -123.72116570000023,39.87712579999996,0 -123.72031670000023,39.87707239999996,0 -123.71980670000022,39.87721109999996,0 -123.71810370000023,39.87858199999996,0 -123.71702070000022,39.87888519999996,0 -123.71560280000021,39.87888279999996,0 -123.71502790000021,39.878740999999955,0 -123.7136242000002,39.87769979999995,0 -123.71246750000019,39.877204599999956,0 -123.7117629000002,39.876103399999955,0 -123.71047890000021,39.87485929999996,0 -123.7103593000002,39.874486699999956,0 -123.71074390000021,39.872857199999956,0 -123.7135967000002,39.86815699999996,0 -123.7147759000002,39.868219599999954,0 -123.7144373000002,39.867145999999956,0 -123.71475310000021,39.86572049999996,0 -123.71460210000019,39.862609599999956,0 -123.71582330000018,39.860499099999956,0 -123.71622840000018,39.860393299999956,0 -123.71639910000017,39.86005789999996,0 -123.71731310000017,39.85943069999996,0 -123.71739420000016,39.85917509999996,0 -123.71713690000017,39.858866999999954,0 -123.71649830000018,39.85877809999996,0 -123.71637110000019,39.85868629999996,0 -123.7164025000002,39.858504799999956,0 -123.7169101000002,39.85840029999996,0 -123.71880300000022,39.858659699999954,0 -123.71901000000022,39.85857429999995,0 </coordinates></LineString><TimeSpan><begin>2019-12-01T18:24:03.000Z</begin><end>2019-12-01T20:49:08.999Z</end></TimeSpan></Placemark><Placemark><name>Drive-Thru Tree Park</name><address>67402 Drive Thru Tree Rd, Leggett, CA 95585</address><ExtendedData><Data name="Email"><value>syugen.zhou@gmail.com</value></Data><Data name="Category"><value>Tourist attraction</value></Data><Data name="Distance"><value>0</value></Data></ExtendedData><description> Tourist attraction from 2019-12-01T20:49:08.999Z to 2019-12-01T21:12:39.343Z. Distance 0m </description><Point><coordinates>-123.7190225,39.8585618,0</coordinates></Point><TimeSpan><begin>2019-12-01T20:49:08.999Z</begin><end>2019-12-01T21:12:39.343Z</end></TimeSpan></Placemark><Placemark><name>Driving</name><address></address><ExtendedData><Data name="Email"><value>syugen.zhou@gmail.com</value></Data><Data name="Category"><value>Driving</value></Data><Data name="Distance"><value>269374</value></Data></ExtendedData><description> Driving from 2019-12-01T21:12:39.343Z to 2019-12-02T00:45:14.000Z. Distance 269374m </description><LineString><altitudeMode>clampToGround</altitudeMode><extrude>1</extrude><tesselate>1</tesselate><coordinates>-123.7193947,39.858696699999996,0 -123.71927240000001,39.858768899999994,0 -123.7183677,39.859006799999996,0 -123.71735970000002,39.859690199999996,0 -123.71658410000002,39.8606347,0 -123.71534180000002,39.8616163,0 -123.71510610000003,39.8616228,0 -123.71610500000003,39.8600153,0 -123.71629670000003,39.8593267,0 -123.71621440000003,39.8591009,0 -123.71552750000002,39.858491799999996,0 -123.71550720000003,39.858112999999996,0 -123.71559850000003,39.8579504,0 -123.71616000000002,39.857645299999994,0 -123.71718340000001,39.856319199999994,0 -123.71730720000002,39.85546299999999,0 -123.71746070000003,39.855131199999995,0 -123.71866990000002,39.853750399999996,0 -123.71878920000003,39.853398399999996,0 -123.71837610000003,39.85250699999999,0 -123.71824410000004,39.85191199999999,0 -123.71803120000004,39.851700599999994,0 -123.71468180000004,39.84995479999999,0 -123.71329880000003,39.84944929999999,0 -123.71197310000002,39.8491381,0 -123.70989170000003,39.848933499999994,0 -123.70958260000003,39.84880209999999,0 -123.70869530000004,39.847994699999994,0 -123.70818200000002,39.848234899999994,0 -123.70491950000002,39.84755719999999,0 -123.69865510000001,39.84534979999999,0 -123.69497120000003,39.84372829999999,0 -123.69386450000002,39.843040399999985,0 -123.68897830000002,39.839185599999986,0 -123.68803320000002,39.83865209999999,0 -123.6852561,39.837610599999984,0 -123.68426570000003,39.837099999999985,0 -123.67488710000002,39.83064419999999,0 -123.67438770000003,39.82992719999999,0 -123.67391770000002,39.828008099999984,0 -123.67350470000001,39.827222599999985,0 -123.67256040000001,39.82642029999999,0 -123.67149780000001,39.82599769999999,0 -123.67065570000003,39.825867999999986,0 -123.66966230000003,39.82590349999999,0 -123.66895630000003,39.82607259999999,0 -123.66559850000003,39.827713399999986,0 -123.66080480000002,39.82918809999998,0 -123.66002560000003,39.82924499999998,0 -123.65872690000002,39.82908409999998,0 -123.65604850000003,39.82836139999998,0 -123.65493200000003,39.82835229999998,0 -123.65406170000003,39.82851339999998,0 -123.65327130000001,39.82881099999997,0 -123.65265480000001,39.82916819999997,0 -123.65036970000001,39.83140459999997,0 -123.64967600000001,39.83189269999997,0 -123.6484426,39.83250189999997,0 -123.6472222,39.832890099999965,0 -123.63192690000001,39.834631999999964,0 -123.6307114,39.83443109999997,0 -123.62625409999998,39.832966099999965,0 -123.62488139999999,39.832787299999964,0 -123.6209149,39.83265679999997,0 -123.61987960000002,39.832319299999966,0 -123.6167992,39.83079469999996,0 -123.6143873,39.83039739999997,0 -123.61340460000001,39.82999799999997,0 -123.611475,39.82820099999997,0 -123.61085019999999,39.82783899999997,0 -123.60999449999998,39.82756889999997,0 -123.60931819999999,39.82750589999996,0 -123.60691139999999,39.827647199999966,0 -123.60583909999998,39.827907299999964,0 -123.60398429999996,39.828838199999964,0 -123.60292949999996,39.82907449999996,0 -123.59988939999995,39.82914189999997,0 -123.59921679999995,39.828976999999966,0 -123.59850739999996,39.828653999999965,0 -123.59544979999997,39.826501599999965,0 -123.59471539999998,39.82613209999997,0 -123.59416469999998,39.82598039999996,0 -123.59337979999998,39.82591579999997,0 -123.59242319999998,39.82604899999997,0 -123.59174529999997,39.82631219999996,0 -123.59020629999996,39.82742539999997,0 -123.58937979999996,39.82778309999996,0 -123.58767289999996,39.82810259999996,0 -123.58679259999994,39.82810149999996,0 -123.58598039999994,39.82789409999996,0 -123.58437639999994,39.826934799999954,0 -123.58359809999995,39.82661179999996,0 -123.58275139999995,39.826472099999954,0 -123.58206149999994,39.826493999999954,0 -123.58103219999995,39.82676479999996,0 -123.57935709999995,39.827813499999955,0 -123.57866449999995,39.82807939999996,0 -123.57767069999996,39.828195399999956,0 -123.57490829999996,39.827926599999955,0 -123.57315809999996,39.827484499999954,0 -123.57112139999997,39.82723479999995,0 -123.57025409999996,39.826949999999954,0 -123.56972909999996,39.82665189999995,0 -123.56497709999995,39.82234889999996,0 -123.56449819999997,39.82170479999996,0 -123.56431549999998,39.821033999999955,0 -123.56410319999999,39.81835519999996,0 -123.56377389999999,39.81767799999996,0 -123.56315679999999,39.81699439999996,0 -123.55987389999999,39.81509899999996,0 -123.5596142,39.81486119999997,0 -123.55886969999999,39.81373589999996,0 -123.55494900000001,39.81012159999996,0 -123.5537805,39.809553499999964,0 -123.55311830000001,39.80941649999996,0 -123.55118010000001,39.80936749999996,0 -123.55008110000001,39.80910489999996,0 -123.54905920000002,39.80858019999996,0 -123.54856920000002,39.80814139999996,0 -123.54774940000001,39.80685859999996,0 -123.54674620000003,39.80575509999996,0 -123.54483140000004,39.80465549999996,0 -123.54423920000004,39.80416899999996,0 -123.54372020000005,39.80344479999995,0 -123.54217770000004,39.797240199999955,0 -123.54215000000005,39.79657599999995,0 -123.54262750000005,39.79351019999995,0 -123.54245480000004,39.79176059999995,0 -123.54264430000003,39.790966599999955,0 -123.54366130000004,39.78917289999995,0 -123.54461420000004,39.78636399999995,0 -123.54460140000005,39.78580089999995,0 -123.54344180000005,39.78322739999995,0 -123.54280330000006,39.78246569999995,0 -123.54267960000007,39.78172449999995,0 -123.54285550000009,39.781285099999955,0 -123.54377080000008,39.78000349999996,0 -123.54374850000008,39.77751639999996,0 -123.54385310000006,39.777135599999966,0 -123.54441060000008,39.776313399999964,0 -123.54533970000008,39.77550619999996,0 -123.54584840000008,39.77475589999996,0 -123.54641110000009,39.77221869999996,0 -123.54625410000007,39.771567599999955,0 -123.54545660000007,39.77051049999996,0 -123.54535480000006,39.77019939999996,0 -123.54538390000008,39.769127099999956,0 -123.54499360000005,39.76840449999996,0 -123.54390460000006,39.767616599999954,0 -123.54365150000005,39.76686289999996,0 -123.54380920000004,39.76558929999996,0 -123.54303720000004,39.76367639999995,0 -123.54245780000005,39.763064499999956,0 -123.54110960000004,39.76222579999996,0 -123.54061870000004,39.76170179999996,0 -123.53980940000002,39.76024029999996,0 -123.53923520000002,39.759556599999954,0 -123.53789100000003,39.75854179999996,0 -123.53710240000004,39.75745519999996,0 -123.53692410000002,39.75659359999996,0 -123.53701840000004,39.755580199999955,0 -123.53682640000004,39.75443269999995,0 -123.53504290000005,39.75155909999996,0 -123.53383810000004,39.75036989999995,0 -123.53247630000004,39.749584499999955,0 -123.52649360000004,39.74731569999996,0 -123.51594280000005,39.740806999999954,0 -123.51493980000005,39.73984679999995,0 -123.51430820000006,39.738883999999956,0 -123.51389020000006,39.737650799999955,0 -123.51363990000007,39.735232199999956,0 -123.51318160000007,39.73432949999995,0 -123.51197860000008,39.733029799999954,0 -123.50557620000009,39.72816589999996,0 -123.5042615000001,39.72641499999995,0 -123.4995754000001,39.716801699999955,0 -123.4988836000001,39.715786799999954,0 -123.4973763000001,39.71440099999995,0 -123.49240880000009,39.71121849999995,0 -123.4899186000001,39.70849929999995,0 -123.48882630000008,39.706738699999946,0 -123.48325800000009,39.69155419999995,0 -123.48299440000008,39.69010239999995,0 -123.48307160000007,39.687682199999955,0 -123.48280730000008,39.68728829999995,0 -123.4788500000001,39.68458099999995,0 -123.47768940000009,39.68339419999995,0 -123.47618240000008,39.68084269999996,0 -123.47559420000009,39.67255929999995,0 -123.4759346000001,39.67060259999995,0 -123.4762780000001,39.66257299999995,0 -123.47645370000008,39.66192119999995,0 -123.47745590000008,39.660240199999954,0 -123.47768460000007,39.659524099999956,0 -123.47763830000007,39.658434399999955,0 -123.47645920000006,39.656129899999954,0 -123.47634460000006,39.64828679999996,0 -123.47610070000006,39.64727579999995,0 -123.47312090000005,39.64212329999996,0 -123.47126060000006,39.64026199999996,0 -123.46804020000006,39.63404139999996,0 -123.46723540000005,39.63320669999995,0 -123.46391450000004,39.63141549999996,0 -123.46335020000004,39.630879299999954,0 -123.46297210000004,39.630318199999955,0 -123.46231470000005,39.628419899999955,0 -123.46227460000006,39.627874599999956,0 -123.46237000000006,39.627422199999955,0 -123.46467790000005,39.62350299999996,0 -123.46516460000005,39.62066839999996,0 -123.46512240000004,39.620050499999955,0 -123.46483320000006,39.61933279999995,0 -123.46426410000004,39.61863779999995,0 -123.45962450000003,39.615181399999955,0 -123.45893420000003,39.614104599999955,0 -123.45876770000002,39.612966499999956,0 -123.45911180000003,39.61125159999995,0 -123.45907770000002,39.61056049999995,0 -123.45886930000003,39.61004509999995,0 -123.45855300000004,39.609621099999956,0 -123.45709080000003,39.60848599999995,0 -123.45647290000004,39.60775409999995,0 -123.45393190000003,39.60236559999995,0 -123.45378910000002,39.60177939999995,0 -123.45385470000001,39.601035599999946,0 -123.45452430000003,39.59953779999995,0 -123.45464830000003,39.598879699999955,0 -123.45418490000004,39.59629989999995,0 -123.45431250000004,39.59431189999995,0 -123.45404710000005,39.59329899999995,0 -123.45123130000006,39.588875899999955,0 -123.44507700000005,39.583522799999955,0 -123.44472160000007,39.58292699999995,0 -123.44416570000004,39.581043799999954,0 -123.44349780000005,39.58025179999995,0 -123.44163430000005,39.57923689999995,0 -123.44096140000006,39.578661499999946,0 -123.43895100000006,39.575528399999946,0 -123.43808260000007,39.57267269999995,0 -123.43759680000008,39.571949999999944,0 -123.43622720000008,39.57072509999995,0 -123.43593850000006,39.570272499999945,0 -123.43516050000007,39.567502399999945,0 -123.43485240000007,39.56519669999994,0 -123.43350710000009,39.56310399999994,0 -123.43318940000009,39.56227309999994,0 -123.43288050000008,39.560157499999946,0 -123.43285240000007,39.55815689999994,0 -123.43275880000009,39.557823899999946,0 -123.43237020000008,39.55718999999994,0 -123.43026810000009,39.555172599999935,0 -123.4253631000001,39.55127419999994,0 -123.42482810000008,39.55034149999994,0 -123.4247331000001,39.54968759999994,0 -123.4249248000001,39.547857099999945,0 -123.42418990000009,39.544984099999944,0 -123.42379230000009,39.54432589999994,0 -123.42138510000008,39.54252269999994,0 -123.41942200000008,39.54159159999994,0 -123.41889390000009,39.54123809999994,0 -123.41826550000009,39.54061179999994,0 -123.4179324000001,39.540104099999944,0 -123.41765060000009,39.539334999999944,0 -123.4173993000001,39.537641199999946,0 -123.41714500000009,39.53715199999994,0 -123.4165100000001,39.53650799999994,0 -123.4142701000001,39.53513169999994,0 -123.4130555000001,39.534657299999935,0 -123.4119187000001,39.53454929999994,0 -123.41133630000009,39.534615899999935,0 -123.41056330000009,39.534846299999934,0 -123.4088140000001,39.535874599999936,0 -123.4082549000001,39.536082399999934,0 -123.40767070000012,39.53619029999994,0 -123.40680580000013,39.53618379999994,0 -123.40571210000013,39.535868999999934,0 -123.40500470000013,39.535392399999935,0 -123.40467480000012,39.53502729999994,0 -123.40436600000012,39.53438309999994,0 -123.40430860000014,39.53380629999994,0 -123.40462800000014,39.53168189999994,0 -123.40427900000013,39.53042689999994,0 -123.40310750000015,39.52874019999994,0 -123.40122200000016,39.52706199999994,0 -123.39836460000016,39.52371489999994,0 -123.39783110000016,39.523320599999934,0 -123.39736080000016,39.52310099999994,0 -123.39661810000017,39.52290549999994,0 -123.39505900000016,39.52273479999994,0 -123.39441970000017,39.52256949999994,0 -123.39375760000017,39.522246999999936,0 -123.39303480000018,39.52153049999993,0 -123.39015650000019,39.515320999999936,0 -123.38813060000018,39.513241399999934,0 -123.38797680000019,39.513155099999935,0 -123.38514120000018,39.50979849999993,0 -123.38159130000018,39.50709999999993,0 -123.38074710000019,39.506221699999934,0 -123.3795922000002,39.50430519999993,0 -123.3779776000002,39.50228919999993,0 -123.3761366000002,39.500745099999925,0 -123.37390890000017,39.49939989999992,0 -123.36925230000017,39.49741299999992,0 -123.36515700000017,39.49428509999992,0 -123.36397260000018,39.492879599999924,0 -123.36352980000018,39.49211989999992,0 -123.36286950000017,39.48997239999992,0 -123.36064370000017,39.486216299999924,0 -123.36050830000018,39.48557609999992,0 -123.36055790000019,39.48493359999992,0 -123.36354240000018,39.47768339999992,0 -123.36371430000018,39.47680559999991,0 -123.36334630000019,39.474680199999916,0 -123.36340430000018,39.47405889999992,0 -123.3634867000002,39.47395069999992,0 -123.3635719000002,39.47294339999992,0 -123.3633819000002,39.472316799999916,0 -123.3628023000002,39.471507899999914,0 -123.3619011000002,39.47090889999991,0 -123.35610950000019,39.46915649999992,0 -123.35513980000019,39.46851909999992,0 -123.3541662000002,39.46704499999992,0 -123.35359610000019,39.46649609999992,0 -123.35153690000018,39.46536509999992,0 -123.3511127000002,39.464925199999925,0 -123.3507099000002,39.46418729999992,0 -123.3485983000002,39.45665879999992,0 -123.3479853000002,39.450776999999924,0 -123.3480912000002,39.450060199999925,0 -123.34860080000018,39.44900329999992,0 -123.35449050000017,39.44196599999992,0 -123.35581140000018,39.43993969999992,0 -123.35732150000017,39.435914799999914,0 -123.35747460000016,39.43482789999992,0 -123.35730820000015,39.43227859999991,0 -123.35671620000015,39.430379999999914,0 -123.35571210000015,39.42855699999991,0 -123.35372550000015,39.42635649999991,0 -123.35183230000015,39.424968599999914,0 -123.34919830000014,39.42360689999992,0 -123.34394270000014,39.422091999999914,0 -123.34222860000013,39.42133959999992,0 -123.34092590000014,39.42036119999992,0 -123.34002270000013,39.41931549999992,0 -123.33919810000015,39.41750479999992,0 -123.33888690000015,39.41599789999992,0 -123.33883080000015,39.414043899999925,0 -123.33906550000015,39.41287729999992,0 -123.33959800000015,39.41161459999992,0 -123.34308030000015,39.40625269999992,0 -123.34375110000016,39.40477529999992,0 -123.34403380000016,39.40332899999992,0 -123.34390850000017,39.401448599999924,0 -123.34306220000016,39.39933409999992,0 -123.34132480000017,39.39728039999992,0 -123.33794940000017,39.39496309999992,0 -123.33651890000017,39.39341079999992,0 -123.33588850000018,39.39229939999992,0 -123.33438400000017,39.38646899999993,0 -123.33334290000018,39.38416599999993,0 -123.33180420000016,39.381892199999925,0 -123.33055500000017,39.38045869999993,0 -123.31684730000016,39.36731599999993,0 -123.31593280000017,39.36597529999993,0 -123.31539080000016,39.364137299999925,0 -123.31538020000016,39.363228999999926,0 -123.31584480000015,39.36144279999992,0 -123.32201740000015,39.35167669999992,0 -123.32230850000015,39.350878699999924,0 -123.32240060000015,39.35010749999992,0 -123.32221440000016,39.34879789999992,0 -123.32183350000015,39.34791629999993,0 -123.32122730000015,39.34712279999993,0 -123.31286900000016,39.33918059999993,0 -123.31186130000016,39.33844859999993,0 -123.30493180000016,39.33520739999993,0 -123.30455790000015,39.33495619999992,0 -123.30412060000016,39.33440649999993,0 -123.30397410000015,39.33388849999993,0 -123.30453390000015,39.331574099999926,0 -123.30442390000016,39.33094089999993,0 -123.30397110000017,39.33031639999993,0 -123.30280410000016,39.32946029999993,0 -123.30235710000015,39.32883779999993,0 -123.30154250000015,39.32598399999993,0 -123.30086660000015,39.321157899999925,0 -123.30150990000014,39.31822159999993,0 -123.30147720000012,39.317648899999924,0 -123.30120940000013,39.31688339999993,0 -123.30080080000013,39.316323499999925,0 -123.29881190000013,39.314814299999924,0 -123.29826390000012,39.314234299999924,0 -123.29798190000012,39.313753399999925,0 -123.29775220000013,39.31287159999992,0 -123.29781840000012,39.312103299999926,0 -123.29814890000013,39.31134649999992,0 -123.30053220000013,39.30803619999992,0 -123.30072000000014,39.30714429999992,0 -123.30052640000012,39.30611419999992,0 -123.29968740000012,39.30468479999992,0 -123.29606920000012,39.30129879999992,0 -123.29466060000011,39.30056309999993,0 -123.29273860000012,39.29995449999993,0 -123.29168440000012,39.29989399999993,0 -123.28999010000013,39.300109299999924,0 -123.28935880000013,39.30008599999992,0 -123.28717480000012,39.29969129999993,0 -123.28648980000011,39.299475899999926,0 -123.28260780000011,39.29716379999993,0 -123.2795525000001,39.296342099999926,0 -123.2789766000001,39.29602869999992,0 -123.2776329000001,39.29467039999992,0 -123.2770109000001,39.29423109999993,0 -123.2755463000001,39.29368729999993,0 -123.2734899000001,39.293456399999926,0 -123.27229170000011,39.293143299999926,0 -123.27153830000012,39.29281149999993,0 -123.26896990000012,39.29098949999993,0 -123.26571670000011,39.28931429999992,0 -123.2646860000001,39.28856679999993,0 -123.26177280000012,39.28494749999993,0 -123.25973280000011,39.28292649999993,0 -123.2591697000001,39.28207749999993,0 -123.2581090000001,39.27863199999993,0 -123.2576352000001,39.277955099999936,0 -123.2565960000001,39.27707739999993,0 -123.2486692000001,39.27277079999994,0 -123.2371464000001,39.26917899999994,0 -123.2348389000001,39.268193299999936,0 -123.22974240000008,39.265204799999935,0 -123.22551790000009,39.26356829999994,0 -123.2238704000001,39.26263019999994,0 -123.22023360000009,39.25927759999994,0 -123.2153539000001,39.25605159999994,0 -123.21321780000011,39.25386799999994,0 -123.2077690000001,39.24438019999994,0 -123.2074032000001,39.242844699999935,0 -123.20736100000009,39.24162789999993,0 -123.20838470000011,39.233761499999936,0 -123.20668640000011,39.21773799999993,0 -123.2046600000001,39.21218179999993,0 -123.20475140000009,39.210479499999934,0 -123.20948670000008,39.19826559999993,0 -123.21202930000007,39.18377449999993,0 -123.21302240000009,39.17392999999993,0 -123.21277420000007,39.17275689999993,0 -123.21228030000007,39.171892399999926,0 -123.21136410000007,39.17099029999993,0 -123.20195440000008,39.16510469999992,0 -123.20032880000008,39.163406199999926,0 -123.19915240000007,39.16156849999992,0 -123.19853110000007,39.160008499999925,0 -123.19707950000006,39.15275139999993,0 -123.19477150000007,39.12103389999993,0 -123.19492300000007,39.11999369999993,0 -123.19602620000008,39.11651189999993,0 -123.19610590000008,39.11490329999992,0 -123.19488430000007,39.10664389999992,0 -123.19430990000006,39.10473749999992,0 -123.19345750000006,39.10301779999992,0 -123.19019520000008,39.09816249999992,0 -123.17951080000007,39.07887079999992,0 -123.17855300000008,39.077598599999924,0 -123.17020810000008,39.07079549999992,0 -123.16954660000007,39.07004809999992,0 -123.16823100000008,39.06776319999992,0 -123.16734670000007,39.06663079999992,0 -123.16380760000008,39.06340279999992,0 -123.16231580000007,39.06166369999992,0 -123.15892020000007,39.056712999999924,0 -123.15883760000007,39.05665749999992,0 -123.13909020000006,39.02787049999992,0 -123.12429240000007,39.01014559999992,0 -123.12019750000006,39.00444879999992,0 -123.12018560000006,39.004371899999924,0 -123.11875460000005,39.00237549999992,0 -123.11784100000004,39.00009819999992,0 -123.11762340000003,38.99825789999992,0 -123.11776260000005,38.996883399999916,0 -123.11854330000003,38.99413039999992,0 -123.11868650000004,38.99245519999991,0 -123.11660640000004,38.98091699999991,0 -123.11622470000005,38.98002849999991,0 -123.11502510000004,38.978301899999906,0 -123.11476880000006,38.97762809999991,0 -123.11470710000006,38.976960199999915,0 -123.11481620000006,38.97633609999992,0 -123.11650450000006,38.97282519999992,0 -123.11660470000007,38.97227669999992,0 -123.11656190000008,38.97058319999992,0 -123.11634120000008,38.96944919999992,0 -123.1141634000001,38.963506699999925,0 -123.11323430000009,38.96196689999992,0 -123.10820600000008,38.956692599999926,0 -123.10680350000007,38.95575289999992,0 -123.10359760000006,38.95448029999992,0 -123.08503210000008,38.948943899999925,0 -123.08421750000008,38.94858109999992,0 -123.08314650000007,38.94786539999992,0 -123.08260290000007,38.94733859999992,0 -123.08078270000007,38.94491429999992,0 -123.08005960000007,38.943083199999926,0 -123.07958110000007,38.94232349999992,0 -123.07824930000007,38.94112989999992,0 -123.07712820000006,38.940563599999926,0 -123.07625420000006,38.94028349999993,0 -123.07507430000005,38.940087499999926,0 -123.07209840000007,38.940128699999924,0 -123.07130710000008,38.94001769999993,0 -123.06997990000008,38.93962369999993,0 -123.06656530000008,38.93775549999992,0 -123.06351760000008,38.93508869999992,0 -123.0614640000001,38.93241809999992,0 -123.05717270000011,38.92862019999992,0 -123.0564540000001,38.92745039999992,0 -123.0562197000001,38.92639129999992,0 -123.0563216000001,38.92518129999992,0 -123.0579310000001,38.92190609999992,0 -123.0585749000001,38.91969399999992,0 -123.0586434000001,38.91850629999992,0 -123.0584110000001,38.91756519999993,0 -123.0579284000001,38.91666529999993,0 -123.05738890000009,38.916039999999924,0 -123.05428980000008,38.913878499999925,0 -123.05352040000007,38.912823699999926,0 -123.05330720000008,38.91179369999992,0 -123.05339210000008,38.91112679999992,0 -123.05416880000008,38.90902869999992,0 -123.05465610000009,38.90838479999993,0 -123.05505670000008,38.90804469999993,0 -123.05607910000009,38.90746299999993,0 -123.0568692000001,38.90679419999993,0 -123.05734580000009,38.90608109999993,0 -123.0576036000001,38.90500509999993,0 -123.05746610000011,38.90415039999993,0 -123.0571050000001,38.903447199999924,0 -123.05643570000012,38.90262599999993,0 -123.05594500000012,38.90155019999993,0 -123.05587860000013,38.90045519999993,0 -123.05617790000014,38.89934989999993,0 -123.05698490000015,38.89796899999994,0 -123.05721900000016,38.89716799999994,0 -123.05721070000016,38.896663899999936,0 -123.05702070000017,38.89602319999994,0 -123.05633540000017,38.895114599999935,0 -123.05498770000017,38.89409469999993,0 -123.05450010000017,38.893470999999934,0 -123.05333350000016,38.89022609999993,0 -123.05325260000018,38.889056199999935,0 -123.05454130000017,38.88342209999993,0 -123.05448630000018,38.88290579999993,0 -123.05417110000019,38.88214889999993,0 -123.05345300000018,38.88138319999994,0 -123.05235220000017,38.880804099999935,0 -123.04991560000016,38.88031059999994,0 -123.04900170000016,38.88000109999994,0 -123.04829830000017,38.87963029999994,0 -123.04581690000016,38.877610799999935,0 -123.04539430000015,38.87676729999993,0 -123.04525170000016,38.87502799999993,0 -123.04469080000017,38.87352679999993,0 -123.04432930000017,38.87023759999993,0 -123.04369960000017,38.86842019999993,0 -123.04223650000016,38.86590199999993,0 -123.04042240000017,38.86180999999993,0 -123.03765570000016,38.857043599999926,0 -123.03632560000017,38.855512499999925,0 -123.03522230000017,38.85464539999993,0 -123.03216520000016,38.85278629999993,0 -123.03170750000015,38.852378199999926,0 -123.02980310000017,38.84955709999993,0 -123.02777470000017,38.84790719999992,0 -123.02727660000016,38.847232999999925,0 -123.02696000000017,38.84612299999993,0 -123.02711270000017,38.844034899999926,0 -123.02701390000018,38.84337549999993,0 -123.0265766000002,38.84249929999993,0 -123.02558600000019,38.84158669999993,0 -123.02490170000019,38.841237799999924,0 -123.02224740000018,38.84019479999992,0 -123.02137850000018,38.83943239999992,0 -123.02099990000018,38.83882979999992,0 -123.02077820000018,38.83805989999992,0 -123.02072280000017,38.836227099999924,0 -123.02043290000017,38.835310299999925,0 -123.02007250000018,38.834771599999925,0 -123.01924890000016,38.83405269999992,0 -123.01631840000017,38.83249659999992,0 -123.01512480000018,38.831318699999926,0 -123.01464950000019,38.830494699999925,0 -123.01441160000019,38.829786299999924,0 -123.01432530000018,38.828532099999926,0 -123.01512610000017,38.82438979999993,0 -123.01524430000018,38.82216269999993,0 -123.01490600000017,38.819997899999926,0 -123.01223980000016,38.81195109999993,0 -123.01191820000015,38.81032299999993,0 -123.01195980000016,38.80829829999993,0 -123.01326630000014,38.80028199999994,0 -123.01304680000015,38.797473699999934,0 -123.00984160000016,38.78398129999993,0 -123.00876830000014,38.78153279999993,0 -123.00749990000016,38.77982499999993,0 -123.00637070000015,38.77871909999993,0 -123.00166540000015,38.77513749999993,0 -123.00040300000015,38.77395739999993,0 -122.99640620000014,38.76912989999993,0 -122.99444780000015,38.76723199999993,0 -122.99231020000016,38.76572069999993,0 -122.98573500000016,38.76227319999993,0 -122.97523150000018,38.758724299999926,0 -122.97427320000018,38.758186599999924,0 -122.97308460000018,38.75725109999992,0 -122.9659245000002,38.75009469999993,0 -122.96518820000018,38.74953919999992,0 -122.95373820000019,38.74325459999992,0 -122.94983970000017,38.74146469999992,0 -122.94892010000017,38.74090589999992,0 -122.94793300000016,38.74009149999993,0 -122.94720740000015,38.739249699999924,0 -122.94280620000016,38.73072979999992,0 -122.94104200000017,38.728632599999926,0 -122.93961630000017,38.72741899999993,0 -122.93800740000016,38.72637389999992,0 -122.92802010000017,38.72201219999992,0 -122.92644130000018,38.72103429999992,0 -122.9241557000002,38.71910279999992,0 -122.91682120000019,38.71073429999992,0 -122.91602760000019,38.71007099999992,0 -122.91443690000018,38.70908869999992,0 -122.91146810000019,38.70778459999992,0 -122.9045749000002,38.704138099999916,0 -122.89963490000021,38.70259649999992,0 -122.8967062000002,38.70116299999992,0 -122.89022310000018,38.69634949999992,0 -122.88514240000019,38.69363589999992,0 -122.88365900000018,38.69233369999992,0 -122.88276530000017,38.691115599999925,0 -122.88222140000019,38.68992239999992,0 -122.88093490000018,38.68362089999992,0 -122.88077930000019,38.675256999999924,0 -122.87999790000019,38.67172979999992,0 -122.87958370000018,38.67070249999992,0 -122.87710000000018,38.66693749999992,0 -122.87591080000018,38.66242719999992,0 -122.8720518000002,38.65413829999992,0 -122.87169600000018,38.65254489999992,0 -122.87179360000017,38.65071929999992,0 -122.87748640000017,38.63665599999992,0 -122.87888320000017,38.615692899999914,0 -122.87866230000016,38.614339599999916,0 -122.87821730000016,38.61323219999991,0 -122.87768000000015,38.61238249999991,0 -122.87270640000014,38.60687939999991,0 -122.86218370000016,38.59963039999991,0 -122.84896880000016,38.59267359999991,0 -122.84759050000017,38.591700899999914,0 -122.84607910000015,38.590192499999915,0 -122.83190730000015,38.57111799999991,0 -122.81578470000015,38.55401489999992,0 -122.80996190000015,38.54881749999992,0 -122.80821590000015,38.54688379999992,0 -122.80520430000013,38.54226539999991,0 -122.77976050000014,38.514545099999914,0 -122.76053600000013,38.49913149999991,0 -122.73508440000015,38.48102039999991,0 -122.73378030000016,38.479766799999915,0 -122.73306980000015,38.478766099999916,0 -122.72686610000015,38.46422799999991,0 -122.72658190000016,38.46280199999991,0 -122.72613910000015,38.456245799999905,0 -122.72626700000015,38.450702999999905,0 -122.72590940000015,38.44890219999991,0 -122.72546350000015,38.4479095999999,0 -122.71812030000014,38.4372081999999,0 -122.71722640000014,38.435556599999906,0 -122.71543300000013,38.43082139999991,0 -122.71520310000014,38.42954709999991,0 -122.71510890000013,38.424294199999906,0 -122.71606530000014,38.41848909999991,0 -122.71627950000014,38.37572449999991,0 -122.71597040000013,38.37451539999991,0 -122.71545370000015,38.373383799999914,0 -122.71347830000016,38.37057019999991,0 -122.71280450000016,38.369248199999916,0 -122.71237650000018,38.36718899999991,0 -122.71321690000018,38.360342399999915,0 -122.71299810000018,38.324395299999914,0 -122.71515490000019,38.31572209999991,0 -122.71524270000018,38.31418979999991,0 -122.71508390000018,38.313076999999915,0 -122.71428940000018,38.31100259999991,0 -122.71385940000019,38.31030239999991,0 -122.70119710000017,38.29524509999991,0 -122.69988180000017,38.294133099999904,0 -122.69063060000016,38.287858299999904,0 -122.66720860000017,38.269801399999906,0 -122.66290060000016,38.26605249999991,0 -122.66138330000015,38.265027799999906,0 -122.63466730000016,38.2503436999999,0 -122.63434170000016,38.25024009999991,0 -122.62615480000015,38.2459896999999,0 -122.62454050000017,38.2448296999999,0 -122.62300530000014,38.2430242999999,0 -122.61416880000016,38.225895199999904,0 -122.61355500000018,38.225101199999905,0 -122.61209860000017,38.22380729999991,0 -122.60679810000016,38.22016979999991,0 -122.60518240000016,38.21870189999991,0 -122.60339130000015,38.216206399999905,0 -122.59929490000015,38.207076399999906,0 -122.59882770000014,38.20531079999991,0 -122.59863390000012,38.2027773999999,0 -122.59962890000013,38.196694999999906,0 -122.60191640000012,38.1883143999999,0 -122.60193640000013,38.18675169999991,0 -122.60152300000013,38.18457399999991,0 -122.60076990000013,38.182777499999915,0 -122.59995240000013,38.18148569999991,0 -122.59846690000013,38.17983849999991,0 -122.58615770000014,38.170568399999915,0 -122.57906570000014,38.16602609999991,0 -122.57083210000015,38.159631299999916,0 -122.56947950000016,38.157975499999914,0 -122.56892860000016,38.15687839999992,0 -122.56477960000016,38.14493499999991,0 -122.56391060000017,38.132318299999916,0 -122.56403480000017,38.131086999999916,0 -122.56452320000018,38.12940419999992,0 -122.56574240000019,38.12672599999992,0 -122.56616970000019,38.12512939999992,0 -122.56622940000018,38.12410429999992,0 -122.56413710000018,38.11047159999992,0 -122.56182890000017,38.10274839999992,0 -122.56199060000019,38.09773669999991,0 -122.56151250000018,38.09553009999991,0 -122.56050060000017,38.093602199999914,0 -122.55947920000015,38.092359499999915,0 -122.54326320000015,38.077062799999915,0 -122.54218200000017,38.075666799999915,0 -122.53927470000015,38.07028219999992,0 -122.53798320000014,38.06682579999992,0 -122.53194400000014,38.059737999999925,0 -122.53126530000014,38.05840689999992,0 -122.53091720000015,38.05728359999992,0 -122.53074690000014,38.05519759999993,0 -122.53129290000014,38.05131839999992,0 -122.53197660000012,38.04919209999992,0 -122.53334740000014,38.04661519999992,0 -122.53656800000013,38.04197679999992,0 -122.53705040000011,38.04080999999992,0 -122.53712150000011,38.03980869999992,0 -122.5366994000001,38.03754719999992,0 -122.53800620000011,38.027011599999916,0 -122.53916500000012,38.02153339999992,0 -122.54207040000013,38.01383409999992,0 -122.54203450000013,38.00839979999992,0 -122.54135970000013,38.00653599999992,0 -122.53084240000013,37.99213569999992,0 -122.52420990000012,37.98526359999992,0 -122.52347060000014,37.984276499999915,0 -122.52104360000013,37.97950279999991,0 -122.52075330000014,37.97821049999991,0 -122.52069990000014,37.97671529999992,0 -122.52195160000014,37.970923199999916,0 -122.52177160000014,37.96987929999992,0 -122.52109690000013,37.96884269999991,0 -122.52054910000012,37.96836169999992,0 -122.5112849000001,37.963094899999916,0 -122.51037150000012,37.96226539999992,0 -122.50981520000012,37.96113539999992,0 -122.50856590000012,37.95405309999992,0 -122.50879300000013,37.953173099999916,0 -122.50928090000012,37.95241379999992,0 -122.51131530000012,37.950637599999915,0 -122.51214380000012,37.949651299999914,0 -122.51483170000012,37.945036399999914,0 -122.5169242000001,37.93704809999991,0 -122.5168984000001,37.93587309999992,0 -122.51549830000009,37.92825839999991,0 -122.51494560000009,37.92646039999991,0 -122.51155010000008,37.91972059999991,0 -122.5112856000001,37.91831939999991,0 -122.5112796000001,37.917416499999916,0 -122.51155830000009,37.91589169999992,0 -122.5155801000001,37.90510129999992,0 -122.5168515000001,37.88937309999992,0 -122.51666120000009,37.880894299999916,0 -122.51602200000008,37.87955249999992,0 -122.51498890000008,37.87854089999992,0 -122.51236870000007,37.87709759999992,0 -122.50888730000008,37.87442989999992,0 -122.50791680000007,37.87323329999991,0 -122.50743060000006,37.87210299999991,0 -122.50727760000007,37.87116859999991,0 -122.50721220000008,37.86553019999991,0 -122.50707810000009,37.86473209999991,0 -122.50661780000009,37.86361529999991,0 -122.50577540000009,37.862503799999914,0 -122.5048241000001,37.86171059999991,0 -122.50158710000011,37.860030399999914,0 -122.49898170000009,37.85758279999991,0 -122.49811630000009,37.85710549999991,0 -122.4950433000001,37.856250099999905,0 -122.49430150000009,37.85574319999991,0 -122.4938335000001,37.855178299999906,0 -122.4928781000001,37.85321629999991,0 -122.4922123000001,37.852508399999905,0 -122.49054580000009,37.85133689999991,0 -122.4901489000001,37.85083599999991,0 -122.4895884000001,37.84911679999991,0 -122.48890830000012,37.84825099999991,0 -122.48708830000012,37.846903099999906,0 -122.48672660000014,37.84625699999991,0 -122.48584580000013,37.8428708999999,0 -122.48586500000013,37.84201479999991,0 -122.48683110000013,37.84024829999991,0 -122.48696660000012,37.83958069999991,0 -122.48690960000012,37.83905109999991,0 -122.48672400000011,37.83857699999991,0 -122.48410220000012,37.83450279999991,0 -122.48285290000013,37.83345939999991,0 -122.48135420000013,37.83267899999991,0 -122.48075130000012,37.832225199999904,0 -122.48014530000012,37.83143539999991,0 -122.47995650000014,37.8309488999999,0 -122.47739360000013,37.809401299999905,0 -122.47686960000011,37.808385399999906,0 -122.47282760000012,37.804637999999905,0 -122.47161740000011,37.80384479999991,0 -122.46910260000011,37.802837699999905,0 -122.46250780000011,37.80154579999991,0 -122.46150840000011,37.801510299999904,0 -122.46076280000011,37.801593699999906,0 -122.45652520000012,37.802836499999906,0 -122.4519294000001,37.80330509999991,0 -122.4510367000001,37.803113099999905,0 -122.4505938000001,37.80288919999991,0 -122.4449737000001,37.79883729999991,0 -122.4447097000001,37.798753599999905,0 -122.44440730000011,37.79873439999991,0 -122.4249324000001,37.801225799999905,0 -122.4247026000001,37.8011986999999,0 -122.4246175000001,37.801118799999905,0 -122.42352190000011,37.7957372999999,0 -122.4102817000001,37.797379999999904,0 -122.40991150000009,37.7956281999999,0 -122.40803510000008,37.795864299999906,0 </coordinates></LineString><TimeSpan><begin>2019-12-01T21:12:39.343Z</begin><end>2019-12-02T00:45:14.000Z</end></TimeSpan></Placemark><Placemark><name>House of Nanking</name><address>919 Kearny St, San Francisco, CA 94133</address><ExtendedData><Data name="Email"><value>syugen.zhou@gmail.com</value></Data><Data name="Category"><value>Chinese</value></Data><Data name="Distance"><value>0</value></Data></ExtendedData><description> Chinese from 2019-12-02T00:45:14.000Z to 2019-12-02T01:41:59.000Z. Distance 0m </description><Point><coordinates>-122.4053898,37.7964791,0</coordinates></Point><TimeSpan><begin>2019-12-02T00:45:14.000Z</begin><end>2019-12-02T01:41:59.000Z</end></TimeSpan></Placemark><Placemark><name>Driving</name><address></address><ExtendedData><Data name="Email"><value>syugen.zhou@gmail.com</value></Data><Data name="Category"><value>Driving</value></Data><Data name="Distance"><value>60165</value></Data></ExtendedData><description> Driving from 2019-12-02T01:41:59.137Z to 2019-12-02T02:48:28.000Z. Distance 60165m </description><LineString><altitudeMode>clampToGround</altitudeMode><extrude>1</extrude><tesselate>1</tesselate><coordinates>-122.4082998,37.7959941,0 -122.4062345,37.785719799999995,0 -122.40588199999999,37.7857404,0 -122.40570439999999,37.7856695,0 -122.39971039999999,37.7809068,0 -122.39964789999998,37.7808019,0 -122.39964209999998,37.7805666,0 -122.39974419999997,37.7802281,0 -122.39999459999996,37.7798893,0 -122.40136989999996,37.778661799999995,0 -122.40141669999998,37.778545599999994,0 -122.40291149999999,37.77746509999999,0 -122.40538310000001,37.77595089999999,0 -122.40597260000001,37.7754651,0 -122.4064402,37.7748351,0 -122.40672260000002,37.774190499999996,0 -122.40681960000002,37.7737138,0 -122.40681900000001,37.7729575,0 -122.40669220000001,37.772280800000004,0 -122.40647220000001,37.7716913,0 -122.40586040000001,37.77054,0 -122.4055741,37.769495799999994,0 -122.4051165,37.764112499999996,0 -122.4051868,37.7636214,0 -122.4053926,37.763000299999995,0 -122.4062917,37.761422599999996,0 -122.4064795,37.7607368,0 -122.4064809,37.7602384,0 -122.4062395,37.759432399999994,0 -122.4059304,37.758956999999995,0 -122.40562659999999,37.7586343,0 -122.40401339999998,37.7573682,0 -122.40371589999998,37.757009700000005,0 -122.40343079999998,37.756461800000004,0 -122.40334559999998,37.7561544,0 -122.40302999999996,37.753126,0 -122.40307579999997,37.751948299999995,0 -122.40515479999998,37.7451728,0 -122.40542209999998,37.7445788,0 -122.40733859999999,37.7420713,0 -122.4077909,37.7412001,0 -122.40810009999998,37.7401253,0 -122.40819849999998,37.739287700000006,0 -122.4081377,37.7383083,0 -122.40796539999998,37.7374938,0 -122.40763839999998,37.736601300000004,0 -122.40430119999998,37.7307176,0 -122.40288479999998,37.727435299999996,0 -122.40278089999998,37.72730549999999,0 -122.40010249999997,37.72040789999999,0 -122.3991514,37.716910299999995,0 -122.39869799999998,37.715835999999996,0 -122.39830069999998,37.715198900000004,0 -122.39664249999996,37.7131361,0 -122.39608659999995,37.712135800000006,0 -122.39578759999993,37.7112731,0 -122.38856039999995,37.6792651,0 -122.38848729999994,37.6783871,0 -122.38859709999994,37.677102700000006,0 -122.38882489999993,37.676188700000004,0 -122.39013529999994,37.673423500000006,0 -122.39103259999995,37.672046900000005,0 -122.39251989999994,37.670194,0 -122.39714209999994,37.6654116,0 -122.39873469999993,37.6641178,0 -122.40331249999993,37.66111,0 -122.40426549999992,37.660288800000004,0 -122.40494529999992,37.6594589,0 -122.40656699999992,37.6564077,0 -122.40695219999992,37.6552877,0 -122.4071290999999,37.6542563,0 -122.4071458999999,37.653321500000004,0 -122.4061423999999,37.64174080000001,0 -122.40569839999989,37.639838100000006,0 -122.40363129999989,37.63537000000001,0 -122.40326219999989,37.63412350000001,0 -122.40247499999988,37.628240100000006,0 -122.39863449999987,37.6165127,0 -122.39811999999986,37.6154182,0 -122.39714509999988,37.613976900000004,0 -122.39579889999987,37.6125752,0 -122.39469769999988,37.6116982,0 -122.35996559999987,37.5891072,0 -122.35919069999989,37.588696,0 -122.3579103999999,37.588171100000004,0 -122.35612269999989,37.587593,0 -122.35433719999989,37.5872572,0 -122.35292679999989,37.587131400000004,0 -122.33326689999988,37.5865542,0 -122.33238389999988,37.586393,0 -122.33167359999989,37.5861796,0 -122.33061049999988,37.585707,0 -122.32992759999988,37.5852837,0 -122.30489759999989,37.5623336,0 -122.30135799999988,37.558823600000004,0 -122.30137859999986,37.5586576,0 -122.30059469999986,37.557668199999995,0 -122.30052379999987,37.5576281,0 -122.29781119999987,37.5545443,0 -122.29740829999987,37.5542144,0 -122.29711919999988,37.554063,0 -122.29448509999987,37.55329690000001,0 -122.29397499999986,37.553226800000004,0 -122.29322429999986,37.5532788,0 -122.28806379999986,37.555052800000006,0 -122.28590599999987,37.5559728,0 -122.28572129999986,37.5560021,0 -122.28354189999986,37.556884100000005,0 -122.28329109999986,37.556929700000005,0 -122.28305829999985,37.5569188,0 -122.28278399999984,37.5568356,0 -122.28253959999985,37.5566533,0 -122.28127489999986,37.5551323,0 -122.28212039999985,37.5550314,0 -122.28261199999984,37.555092,0 -122.28309259999985,37.555255499999994,0 -122.28660749999986,37.557383699999995,0 -122.28708449999986,37.55782,0 -122.28540429999987,37.558832699999996,0 -122.28450909999987,37.557863499999996,0 -122.28440409999986,37.5575407,0 -122.28441999999984,37.55735839999999,0 -122.28455749999985,37.557082099999995,0 -122.28480299999984,37.5568701,0 -122.28560199999984,37.556431499999995,0 -122.28565339999983,37.556325799999996,0 -122.28947239999984,37.554817199999995,0 -122.29242249999984,37.5539948,0 -122.30001199999984,37.5527744,0 -122.30496749999983,37.5526409,0 -122.30502859999984,37.552689900000004,0 -122.30614539999983,37.5527663,0 -122.30634909999984,37.552816500000006,0 -122.30652439999983,37.552913800000006,0 -122.30691819999984,37.55353500000001,0 -122.30692479999986,37.553666500000006,0 -122.30676479999985,37.55394640000001,0 -122.30611569999986,37.55432760000001,0 -122.30574949999988,37.55390420000001,0 -122.30547109999988,37.55325640000001,0 -122.30526199999987,37.55214300000001,0 -122.30480789999986,37.552239,0 -122.30265809999985,37.55243230000001,0 -122.30251509999984,37.5524867,0 -122.30026239999984,37.552551,0 -122.30014229999985,37.5524964,0 -122.29856539999984,37.55248340000001,0 -122.29803779999983,37.55237820000001,0 -122.29492459999985,37.55135940000001,0 -122.29461909999984,37.551165000000005,0 -122.29327879999984,37.54995350000001,0 -122.29308879999985,37.5499263,0 -122.27531079999986,37.530748300000006,0 -122.27308739999987,37.52874800000001,0 -122.27312149999986,37.5286344,0 -122.27217189999986,37.527633800000004,0 -122.27191759999985,37.527126800000005,0 -122.27194729999985,37.52605100000001,0 -122.27178869999986,37.525692700000015,0 -122.27138619999985,37.52530930000001,0 -122.26771269999985,37.52792260000002,0 -122.26709639999983,37.528211100000014,0 -122.26637209999983,37.52838220000002,0 -122.25977589999984,37.52875590000002,0 -122.25915099999983,37.52895120000002,0 -122.25873679999982,37.52914940000002,0 -122.25830579999982,37.52946950000002,0 -122.25798009999983,37.52980300000002,0 -122.25769929999983,37.530219100000025,0 -122.25631759999983,37.53370430000002,0 -122.25612019999983,37.533962600000024,0 -122.25445859999984,37.535299200000026,0 -122.25381439999984,37.535616600000026,0 -122.25153179999982,37.53605770000002,0 -122.25114649999985,37.53618290000002,0 -122.25062969999985,37.53648010000002,0 -122.24959079999986,37.537333700000026,0 -122.24915439999985,37.537849900000026,0 -122.25020279999984,37.538409700000024,0 -122.25092259999984,37.538650000000025,0 -122.25108629999984,37.538658500000025,0 -122.25108759999983,37.53854620000003,0 -122.25104439999984,37.53849590000003,0 -122.25098279999985,37.53848860000002,0 -122.25081339999986,37.53852180000003,0 -122.25062579999987,37.538476700000025,0 -122.25083599999988,37.53814910000003,0 -122.25179739999987,37.53732130000002,0 -122.25184879999986,37.53732260000002,0 -122.25222279999987,37.53703590000002,0 -122.25229799999988,37.536901000000015,0 -122.25324799999987,37.536124700000016,0 -122.25342779999987,37.53603070000001,0 -122.25334149999988,37.53583010000001,0 -122.25386519999986,37.53571260000001,0 -122.25438369999986,37.53549800000001,0 -122.25601669999986,37.53429770000001,0 -122.25642579999987,37.53386200000001,0 -122.25663929999986,37.533491300000016,0 -122.25794439999986,37.53016140000001,0 -122.25832579999985,37.529666000000006,0 -122.25858249999986,37.52943460000001,0 -122.25909319999985,37.52912920000001,0 -122.25969399999984,37.52891860000001,0 -122.26018259999985,37.52883080000001,0 -122.26414039999985,37.5286515,0 -122.26419809999986,37.52866710000001,0 -122.26647559999986,37.52855490000001,0 -122.26714009999986,37.528397500000004,0 -122.26743669999988,37.5282807,0 -122.27088299999988,37.525874400000006,0 -122.27118529999987,37.525803800000006,0 -122.27134339999988,37.525803200000006,0 -122.27151099999989,37.525847000000006,0 -122.27162529999991,37.5259152,0 -122.2717489999999,37.5260515,0 -122.2717901999999,37.5262772,0 -122.27173869999991,37.526407000000006,0 -122.2715612999999,37.5265715,0 -122.27132309999992,37.5266376,0 -122.27110779999991,37.5266219,0 -122.2709221999999,37.5265476,0 -122.27057599999992,37.5263428,0 -122.26349519999992,37.520108,0 -122.26327649999992,37.520044000000006,0 -122.23945099999992,37.499026300000004,0 -122.23879449999993,37.49853720000001,0 -122.23750559999992,37.49775840000001,0 -122.23593859999994,37.497072100000004,0 -122.22621829999993,37.494264900000005,0 -122.22384789999992,37.4933945,0 -122.21627409999992,37.4900521,0 -122.21187739999993,37.4885596,0 -122.20760399999995,37.48765910000001,0 -122.18937369999996,37.48540140000001,0 -122.18563459999996,37.484731700000005,0 -122.18302249999996,37.484046500000005,0 -122.18099309999997,37.483375800000005,0 -122.17928039999995,37.482678500000006,0 -122.17749359999995,37.4817788,0 -122.12644329999996,37.4517942,0 -122.12642349999996,37.4516105,0 -122.12322969999997,37.4486851,0 -122.12286719999997,37.4481425,0 -122.12246909999998,37.4464242,0 -122.12254759999996,37.4461942,0 -122.12279589999997,37.4459535,0 -122.12305969999998,37.4457887,0 -122.12404509999998,37.4448572,0 -122.12372669999998,37.444682,0 -122.12362459999997,37.4446851,0 -122.12354219999996,37.4447259,0 -122.12321459999995,37.445212,0 -122.12278849999996,37.4455975,0 -122.12169499999995,37.446107999999995,0 -122.12139289999995,37.4461745,0 -122.12110659999995,37.446162199999996,0 -122.12087499999994,37.44610279999999,0 -122.12069859999994,37.44601619999999,0 -122.11894899999993,37.44455019999999,0 -122.11980769999992,37.44369309999999,0 -122.1210962999999,37.44449039999999,0 -122.1212030999999,37.44448719999999,0 -122.12123199999989,37.444470499999994,0 </coordinates></LineString><TimeSpan><begin>2019-12-02T01:41:59.137Z</begin><end>2019-12-02T02:48:28.000Z</end></TimeSpan></Placemark><Placemark><name>Parker Palo Alto Apartments</name><address>1094 Tanland Dr, Palo Alto, CA 94303</address><ExtendedData><Data name="Email"><value>syugen.zhou@gmail.com</value></Data><Data name="Category"><value>Apartment complex</value></Data><Data name="Distance"><value>0</value></Data></ExtendedData><description> Apartment complex from 2019-12-02T02:48:28.000Z to 2019-12-02T17:05:13.950Z. Distance 0m </description><Point><coordinates>-122.1202093,37.4436795,0</coordinates></Point><TimeSpan><begin>2019-12-02T02:48:28.000Z</begin><end>2019-12-02T17:05:13.950Z</end></TimeSpan></Placemark></Document></kml>
