<?xml version="1.0" encoding="UTF-8"?><kml xmlns="http://www.opengis.net/kml/2.2" xmlns:gx="http://www.google.com/kml/ext/2.2"><Document><name> Location history from 2019-11-28 to 2019-11-28 </name><open>1</open><description></description><StyleMap id="multiTrack"><Pair><key>normal</key><styleUrl>#multiTrack_n</styleUrl></Pair><Pair><key>highlight</key><styleUrl>#multiTrack_h</styleUrl></Pair></StyleMap><Style id="multiTrack_n"><IconStyle><Icon><href>https://earth.google.com/images/kml-icons/track-directional/track-0.png</href></Icon></IconStyle><LineStyle><color>99ffac59</color><width>6</width></LineStyle></Style><Style id="multiTrack_h"><IconStyle><scale>1.2</scale><Icon><href>https://earth.google.com/images/kml-icons/track-directional/track-0.png</href></Icon></IconStyle><LineStyle><color>99ffac59</color><width>8</width></LineStyle></Style><Placemark><name>Best Western Plus Twin View Inn &amp; Suites</name><address>1080 Twin View Blvd, Redding, CA 96003</address><ExtendedData><Data name="Email"><value>syugen.zhou@gmail.com</value></Data><Data name="Category"><value>Hotel</value></Data><Data name="Distance"><value>0</value></Data></ExtendedData><description> Hotel from 2019-11-28T06:02:56.000Z to 2019-11-28T16:26:54.000Z. Distance 0m </description><Point><coordinates>-122.368037,40.623208,0</coordinates></Point><TimeSpan><begin>2019-11-28T06:02:56.000Z</begin><end>2019-11-28T16:26:54.000Z</end></TimeSpan></Placemark><Placemark><name>Driving</name><address></address><ExtendedData><Data name="Email"><value>syugen.zhou@gmail.com</value></Data><Data name="Category"><value>Driving</value></Data><Data name="Distance"><value>137425</value></Data></ExtendedData><description> Driving from 2019-11-28T16:26:54.000Z to 2019-11-28T18:08:31.000Z. Distance 137425m </description><LineString><altitudeMode>clampToGround</altitudeMode><extrude>1</extrude><tesselate>1</tesselate><coordinates>-122.3681494,40.623041799999996,0 -122.36858439999999,40.623227699999994,0 -122.3687358,40.6230106,0 -122.36878759999999,40.622775399999995,0 -122.36874419999998,40.6225844,0 -122.3659341,40.6230815,0 -122.36718129999998,40.6256687,0 -122.367304,40.625762599999995,0 -122.3683446,40.629169299999994,0 -122.3684142,40.6313865,0 -122.3681265,40.632748299999996,0 -122.3618871,40.6493051,0 -122.34882579999999,40.677983499999996,0 -122.34388729999999,40.6947014,0 -122.3277967,40.7203769,0 -122.3242767,40.7242801,0 -122.31431989999999,40.7399032,0 -122.31384709999999,40.741080499999995,0 -122.3137345,40.7420407,0 -122.31431129999999,40.74530729999999,0 -122.3154308,40.747383799999994,0 -122.31663670000002,40.748694199999996,0 -122.32123000000003,40.75257979999999,0 -122.32161520000002,40.753190499999995,0 -122.32178870000003,40.753708399999994,0 -122.32173180000004,40.75470849999999,0 -122.32111310000002,40.7558279,0 -122.31974400000003,40.757042899999995,0 -122.31916690000004,40.7578539,0 -122.31899300000003,40.7584069,0 -122.31843190000004,40.766486799999996,0 -122.31803380000004,40.7675085,0 -122.31761510000003,40.7679536,0 -122.31682970000004,40.768412000000005,0 -122.31514020000004,40.7690493,0 -122.31429750000004,40.7695042,0 -122.31329420000004,40.7703294,0 -122.31255710000003,40.771575500000004,0 -122.31232620000003,40.77294440000001,0 -122.31256020000004,40.774050900000006,0 -122.31463410000005,40.777835,0 -122.31477500000005,40.779013600000006,0 -122.31453560000006,40.779816600000004,0 -122.31393800000005,40.78061960000001,0 -122.31281590000005,40.78138290000001,0 -122.31019430000005,40.78236460000001,0 -122.30907800000004,40.78319680000001,0 -122.30845200000003,40.78425950000001,0 -122.30834470000002,40.78505470000002,0 -122.30856470000003,40.786009100000015,0 -122.30918500000003,40.786891800000014,0 -122.31199510000002,40.78893940000001,0 -122.31397810000003,40.79100010000001,0 -122.31532180000004,40.79200390000001,0 -122.31660570000003,40.79273720000001,0 -122.31973440000003,40.79403580000001,0 -122.32036690000002,40.79443820000001,0 -122.32114700000002,40.795321,0 -122.32146620000005,40.796074100000006,0 -122.32262680000004,40.804049299999996,0 -122.32238990000003,40.8061089,0 -122.32085850000004,40.811266499999995,0 -122.32079780000005,40.81285549999999,0 -122.32111710000007,40.81443499999999,0 -122.32457530000006,40.823928699999996,0 -122.32462570000008,40.82711989999999,0 -122.32600840000008,40.83061869999999,0 -122.32782910000009,40.83828479999999,0 -122.32815980000008,40.84258109999999,0 -122.32860840000008,40.843363,0 -122.32951740000009,40.84414309999999,0 -122.3402515000001,40.84868159999999,0 -122.3407678000001,40.849033399999996,0 -122.34149750000007,40.849848599999994,0 -122.34179360000007,40.85052059999999,0 -122.34190260000008,40.85345949999999,0 -122.34224390000007,40.85424989999999,0 -122.34260460000007,40.85471999999999,0 -122.3497778000001,40.86065879999999,0 -122.35100840000008,40.861434599999995,0 -122.35353610000008,40.86259019999999,0 -122.36263030000008,40.86536829999999,0 -122.3639996000001,40.8660508,0 -122.3647262000001,40.8666075,0 -122.3657562000001,40.867850999999995,0 -122.36700140000012,40.87032979999999,0 -122.36790670000012,40.87129159999999,0 -122.37094380000012,40.87310339999999,0 -122.37235420000012,40.874398299999996,0 -122.37417980000012,40.87694439999999,0 -122.37568730000011,40.878016499999994,0 -122.37862570000011,40.879400499999996,0 -122.37992090000012,40.8802263,0 -122.38095330000012,40.8811211,0 -122.38211290000011,40.8825895,0 -122.3832571000001,40.884929199999995,0 -122.3835791000001,40.88660879999999,0 -122.38280890000009,40.89872569999999,0 -122.38305570000007,40.90294759999999,0 -122.38453760000009,40.909037899999994,0 -122.38558870000008,40.9108653,0 -122.38635740000008,40.9117007,0 -122.3874745000001,40.9125966,0 -122.3963938000001,40.9180846,0 -122.40091960000011,40.9212793,0 -122.4019392000001,40.921695899999996,0 -122.40341580000009,40.9219794,0 -122.4069286000001,40.9220225,0 -122.4083663000001,40.9223872,0 -122.4096328000001,40.9231006,0 -122.4101798000001,40.923615399999996,0 -122.4106609000001,40.9243216,0 -122.4116682000001,40.9285895,0 -122.4128637000001,40.9311822,0 -122.41307170000012,40.9319733,0 -122.41321850000011,40.9341426,0 -122.4136240000001,40.93500830000001,0 -122.41447980000011,40.93585620000001,0 -122.4152657000001,40.936292200000004,0 -122.41625410000012,40.93660880000001,0 -122.41696890000013,40.93671360000001,0 -122.41962540000013,40.93677340000001,0 -122.42030190000013,40.93689270000001,0 -122.42126940000011,40.93723760000001,0 -122.42191360000011,40.93762420000001,0 -122.42459570000011,40.93988400000001,0 -122.4260735000001,40.94055610000001,0 -122.4341162000001,40.94158120000001,0 -122.43512340000011,40.94197100000001,0 -122.43616890000011,40.94267620000001,0 -122.43663760000011,40.94317710000001,0 -122.43724490000012,40.944410600000005,0 -122.43727720000011,40.94574550000001,0 -122.43559830000011,40.950264000000004,0 -122.43516240000011,40.95686460000001,0 -122.4355902000001,40.95793050000001,0 -122.43629650000013,40.958691800000004,0 -122.43980070000013,40.96060030000001,0 -122.44031240000012,40.96107020000001,0 -122.44083220000012,40.96189260000001,0 -122.44100710000014,40.96275610000001,0 -122.44079160000013,40.96380430000001,0 -122.44044250000013,40.964369100000006,0 -122.43992430000011,40.96489330000001,0 -122.43925890000011,40.965330400000006,0 -122.43634580000013,40.96664260000001,0 -122.43583460000012,40.96702690000001,0 -122.43521270000012,40.96776450000001,0 -122.43396760000012,40.96984640000001,0 -122.4325105000001,40.971329100000005,0 -122.43200120000012,40.97228580000001,0 -122.43189900000013,40.9729675,0 -122.43207520000013,40.97393460000001,0 -122.43295090000014,40.97601480000001,0 -122.43296200000013,40.977163100000006,0 -122.43272410000013,40.9777824,0 -122.43071260000012,40.9809833,0 -122.42905250000013,40.9857034,0 -122.42732110000013,40.9886653,0 -122.42574170000013,40.9904766,0 -122.41050480000014,41.0023653,0 -122.40972690000014,41.003502100000006,0 -122.40927050000015,41.005027000000005,0 -122.40972400000015,41.01014240000001,0 -122.40957970000015,41.0111471,0 -122.40917670000016,41.01210540000001,0 -122.40839880000016,41.01313960000001,0 -122.39769390000016,41.022745900000004,0 -122.39684060000016,41.023980300000005,0 -122.39654860000014,41.02492740000001,0 -122.39650150000014,41.02571830000001,0 -122.39735770000014,41.032219100000006,0 -122.39714850000013,41.033911200000006,0 -122.39568180000012,41.037436500000005,0 -122.39533540000012,41.04122900000001,0 -122.39464670000011,41.04286300000001,0 -122.3935980000001,41.044041400000005,0 -122.3898944000001,41.04657650000001,0 -122.3882200000001,41.047293900000014,0 -122.3835590000001,41.04843690000001,0 -122.38242880000008,41.048864400000014,0 -122.38173690000009,41.049268900000015,0 -122.38083660000011,41.050060000000016,0 -122.38042520000012,41.05062410000002,0 -122.37896770000012,41.05399600000002,0 -122.37862960000011,41.054486500000024,0 -122.37790960000011,41.05512210000002,0 -122.37737100000011,41.05542930000002,0 -122.3742659000001,41.056537300000016,0 -122.3733482000001,41.057119600000014,0 -122.3729113000001,41.057547700000015,0 -122.36919300000011,41.063089800000014,0 -122.36841140000011,41.063799300000014,0 -122.36766070000012,41.06421120000002,0 -122.3636333000001,41.06548470000001,0 -122.3624953000001,41.06613810000001,0 -122.36158660000012,41.06690920000001,0 -122.35648550000013,41.07429810000001,0 -122.35615000000014,41.07517150000001,0 -122.35593740000013,41.076479700000014,0 -122.35598350000014,41.080756000000015,0 -122.35576420000014,41.081324500000015,0 -122.35532030000013,41.08189140000002,0 -122.35457530000014,41.082423900000016,0 -122.35309830000016,41.083093200000015,0 -122.35244710000015,41.08356370000002,0 -122.35191140000016,41.08435520000002,0 -122.35178610000017,41.085052900000015,0 -122.35278380000017,41.089178900000014,0 -122.35274050000017,41.08982370000001,0 -122.35252960000017,41.09033920000002,0 -122.35216920000018,41.090801200000016,0 -122.35138740000018,41.09134020000002,0 -122.34744890000019,41.09282060000001,0 -122.3465952000002,41.09339410000002,0 -122.34606610000019,41.09405200000002,0 -122.3443090000002,41.09882500000002,0 -122.34363350000018,41.09961380000002,0 -122.33387000000019,41.10639150000002,0 -122.32723900000018,41.11013250000002,0 -122.32684280000016,41.110520100000016,0 -122.32651740000016,41.11104000000002,0 -122.32634990000017,41.111559700000015,0 -122.32639820000018,41.11249590000002,0 -122.32767940000018,41.11565690000002,0 -122.32807300000016,41.118424200000014,0 -122.32796600000017,41.119373900000014,0 -122.32766580000016,41.12010520000002,0 -122.32325600000016,41.12761320000001,0 -122.32264200000014,41.129134700000016,0 -122.32147390000013,41.13651450000001,0 -122.32102440000013,41.13757840000001,0 -122.31851510000013,41.140876700000014,0 -122.31813210000014,41.14173550000001,0 -122.31746010000013,41.14607720000001,0 -122.31710150000013,41.14700190000001,0 -122.31611420000013,41.14833770000001,0 -122.31483340000013,41.14931250000001,0 -122.31360730000011,41.14989510000001,0 -122.3073973000001,41.15149960000001,0 -122.30570710000009,41.151506100000006,0 -122.30309930000008,41.15125600000001,0 -122.30199810000009,41.15141210000001,0 -122.29668950000008,41.15300510000001,0 -122.29581250000007,41.15342320000001,0 -122.29507600000007,41.15398540000001,0 -122.29441150000008,41.15491250000001,0 -122.29416900000007,41.155707500000005,0 -122.29417450000008,41.15637810000001,0 -122.29439940000009,41.15713980000001,0 -122.29733620000007,41.16243440000001,0 -122.29752340000007,41.163177700000006,0 -122.29766240000006,41.17168,0 -122.29694870000006,41.1737121,0 -122.28640860000006,41.187780800000006,0 -122.28394530000004,41.1948166,0 -122.28308500000004,41.195966500000004,0 -122.27866410000003,41.19989230000001,0 -122.27799300000002,41.20082400000001,0 -122.27778040000003,41.20131550000001,0 -122.27686660000002,41.2059245,0 -122.27527880000001,41.21039720000001,0 -122.27410520000002,41.21271390000001,0 -122.27398720000001,41.21354140000001,0 -122.27551550000001,41.22329130000001,0 -122.27538940000001,41.22900350000001,0 -122.27493460000001,41.23045050000001,0 -122.2740454,41.23159680000001,0 -122.27119160000002,41.23431960000001,0 -122.26979960000001,41.235310300000016,0 -122.26486920000002,41.23810120000002,0 -122.26233640000002,41.24002810000002,0 -122.26086310000002,41.24159760000001,0 -122.25827150000002,41.245616700000014,0 -122.25779830000002,41.24704610000001,0 -122.25792650000001,41.24866100000001,0 -122.2583521,41.249629200000015,0 -122.25891259999999,41.250388700000016,0 -122.25999749999998,41.25133080000002,0 -122.27061999999998,41.257569300000014,0 -122.27189769999998,41.25853820000001,0 -122.2733251,41.26022440000001,0 -122.2773775,41.26837240000001,0 -122.2790306,41.27024320000001,0 -122.2875848,41.27686320000001,0 -122.30632,41.287557000000014,0 -122.30797439999999,41.28888770000001,0 -122.3088578,41.28997000000001,0 -122.3325206,41.33259740000001,0 -122.33799929999999,41.33797590000001,0 -122.3429517,41.34457670000001,0 -122.3522468,41.35258620000001,0 -122.35648500000002,41.35552270000001,0 -122.36877900000003,41.36687790000001,0 -122.37328470000004,41.37171140000002,0 -122.37460660000002,41.373846700000016,0 -122.37514500000003,41.37573730000002,0 -122.37473110000002,41.383717900000015,0 -122.37490950000003,41.390533300000016,0 -122.37508450000004,41.391337000000014,0 -122.37568720000003,41.39271590000001,0 -122.37713670000004,41.39447950000001,0 -122.38025510000003,41.39675970000001,0 -122.38101470000005,41.397500300000004,0 -122.38189080000005,41.39868940000001,0 -122.38248900000004,41.4000372,0 -122.38271570000003,41.40119980000001,0 -122.38271380000002,41.40225,0 -122.38237620000002,41.40372550000001,0 -122.38013660000001,41.40747280000001,0 -122.37974680000002,41.40868510000001,0 -122.37965640000003,41.410397,0 -122.37995490000003,41.41174530000001,0 -122.38238880000003,41.41574000000001,0 -122.38303570000002,41.417591300000005,0 -122.38358240000002,41.418601200000005,0 -122.38444380000004,41.419584500000006,0 -122.38621910000003,41.420847,0 -122.38772400000003,41.4214794,0 -122.38941720000003,41.42187870000001,0 -122.39266150000002,41.42214630000001,0 -122.39419560000003,41.42244070000001,0 -122.39539450000004,41.42285450000001,0 -122.39648660000003,41.42341700000001,0 -122.39815350000003,41.424808500000005,0 -122.39968150000004,41.42745240000001,0 -122.40060420000003,41.428462700000004,0 -122.40160640000002,41.429104900000006,0 -122.40236740000003,41.4294232,0 -122.40845180000004,41.43068050000001,0 -122.40966780000004,41.43066710000001,0 -122.42094500000005,41.428864000000004,0 -122.42216480000003,41.428849400000004,0 -122.42383800000003,41.42918040000001,0 -122.42758460000002,41.430671800000006,0 -122.42864980000003,41.431470700000006,0 -122.42940660000002,41.432496400000005,0 -122.42966520000002,41.433174300000005,0 -122.43013260000002,41.4359935,0 -122.43097370000001,41.4376283,0 -122.4344085,41.4411082,0 -122.4351217,41.4422384,0 -122.43641869999999,41.445829,0 -122.43779789999999,41.44784760000001,0 -122.44183059999999,41.45126100000001,0 -122.44272469999999,41.452395700000004,0 -122.448354,41.466534800000005,0 -122.456855,41.47939130000001,0 -122.4618853,41.48990490000001,0 -122.46340430000001,41.495914100000014,0 -122.4643413,41.49779980000002,0 -122.4649432,41.49856370000002,0 -122.468368,41.50166820000001,0 -122.4700193,41.50354890000002,0 -122.47080620000001,41.504729400000016,0 -122.47175070000003,41.506712600000014,0 -122.47232600000002,41.50876320000002,0 -122.47379000000001,41.520230300000016,0 -122.47556780000002,41.52477840000002,0 -122.47646780000002,41.52804530000002,0 -122.47711030000004,41.53369870000002,0 -122.47749240000005,41.53511710000002,0 -122.47851390000004,41.537305000000025,0 -122.48135260000005,41.54187050000002,0 -122.48195920000005,41.54338610000002,0 -122.48275570000006,41.54756360000002,0 -122.48331440000005,41.54929280000002,0 -122.48460360000006,41.55165380000002,0 -122.48969140000005,41.558866400000014,0 -122.49681310000005,41.572344600000015,0 -122.50189820000006,41.58412870000002,0 -122.50213990000006,41.58597260000002,0 -122.50199180000006,41.58897690000002,0 -122.50245120000005,41.59146160000002,0 -122.51568130000005,41.61955790000002,0 -122.51750130000005,41.62256100000002,0 -122.52309540000006,41.62938440000001,0 -122.53420510000005,41.64512730000002,0 -122.53536030000005,41.646275500000016,0 -122.53662120000006,41.64717740000002,0 -122.53786850000004,41.64784550000002,0 -122.56658150000004,41.65892950000001,0 -122.57040890000005,41.65976340000001,0 -122.57952230000005,41.66096410000001,0 -122.59226990000005,41.66120350000001,0 -122.59537690000005,41.66156120000001,0 -122.59931380000005,41.66245670000001,0 -122.60183890000006,41.663319900000005,0 -122.60409550000006,41.664320000000004,0 -122.62156920000005,41.674704500000004,0 -122.63299000000005,41.683244800000004,0 -122.63478260000005,41.6849569,0 -122.63648670000003,41.687391700000006,0 -122.64176890000003,41.70083090000001,0 -122.64172590000004,41.70091160000001,0 -122.64207030000004,41.70223360000001,0 -122.64218500000004,41.7040428,0 -122.64503580000004,41.70381800000001,0 -122.64586400000003,41.70182390000001,0 -122.64763890000003,41.69894390000001,0 -122.64666940000004,41.69861000000001,0 -122.64648230000003,41.69891570000001,0 -122.64527380000003,41.698481300000005,0 -122.64509830000003,41.698762200000004,0 </coordinates></LineString><TimeSpan><begin>2019-11-28T16:26:54.000Z</begin><end>2019-11-28T18:08:31.000Z</end></TimeSpan></Placemark><Placemark><name>Walmart Supercenter</name><address>1906 Fort Jones Rd, Yreka, CA 96097</address><ExtendedData><Data name="Email"><value>syugen.zhou@gmail.com</value></Data><Data name="Category"><value>Department store</value></Data><Data name="Distance"><value>0</value></Data></ExtendedData><description> Department store from 2019-11-28T18:08:31.000Z to 2019-11-28T18:20:22.000Z. Distance 0m </description><Point><coordinates>-122.644472,41.6987083,0</coordinates></Point><TimeSpan><begin>2019-11-28T18:08:31.000Z</begin><end>2019-11-28T18:20:22.000Z</end></TimeSpan></Placemark><Placemark><name>Driving</name><address></address><ExtendedData><Data name="Email"><value>syugen.zhou@gmail.com</value></Data><Data name="Category"><value>Driving</value></Data><Data name="Distance"><value>497</value></Data></ExtendedData><description> Driving from 2019-11-28T18:20:22.000Z to 2019-11-28T18:29:55.000Z. Distance 497m </description><LineString><altitudeMode>clampToGround</altitudeMode><extrude>1</extrude><tesselate>1</tesselate><coordinates>-122.6451238,41.698721299999995,0 -122.64518329999999,41.69862609999999,0 -122.64518329999999,41.69862609999999,0 -122.64574479999997,41.6988225,0 -122.64639919999999,41.699051499999996,0 -122.64639919999999,41.699051499999996,0 -122.64648229999997,41.69891569999999,0 -122.64657499999997,41.69876419999999,0 -122.64666939999998,41.698609999999995,0 -122.64666939999998,41.698609999999995,0 -122.64742019999997,41.6988686,0 -122.64763889999999,41.698943899999996,0 -122.64763889999999,41.698943899999996,0 -122.64758379999998,41.6990327,0 -122.64723819999998,41.699572499999995,0 -122.64685539999998,41.70017489999999,0 -122.64654989999998,41.7006617,0 -122.64641839999997,41.7008595,0 -122.64615369999997,41.7012995,0 -122.64595559999998,41.7016486,0 -122.64586399999999,41.701823899999994,0 -122.64575859999998,41.7020721,0 -122.64556209999999,41.7025853,0 -122.64550549999998,41.7027377,0 </coordinates></LineString><TimeSpan><begin>2019-11-28T18:20:22.000Z</begin><end>2019-11-28T18:29:55.000Z</end></TimeSpan></Placemark><Placemark><name>Starbucks</name><address>1805 Fort Jones Rd, Yreka, CA 96097</address><ExtendedData><Data name="Email"><value>syugen.zhou@gmail.com</value></Data><Data name="Category"><value>Coffee shop</value></Data><Data name="Distance"><value>0</value></Data></ExtendedData><description> Coffee shop from 2019-11-28T18:29:55.000Z to 2019-11-28T18:43:00.000Z. Distance 0m </description><Point><coordinates>-122.645945,41.703044,0</coordinates></Point><TimeSpan><begin>2019-11-28T18:29:55.000Z</begin><end>2019-11-28T18:43:00.000Z</end></TimeSpan></Placemark><Placemark><name>Driving</name><address></address><ExtendedData><Data name="Email"><value>syugen.zhou@gmail.com</value></Data><Data name="Category"><value>Driving</value></Data><Data name="Distance"><value>166981</value></Data></ExtendedData><description> Driving from 2019-11-28T18:43:00.197Z to 2019-11-28T20:57:12.000Z. Distance 166981m </description><LineString><altitudeMode>clampToGround</altitudeMode><extrude>1</extrude><tesselate>1</tesselate><coordinates>-122.6454926,41.702772599999996,0 -122.6450358,41.703818,0 -122.64250630000001,41.7040139,0 -122.6424463,41.704172299999996,0 -122.6426133,41.705801799999996,0 -122.64249090000001,41.7070331,0 -122.64255130000001,41.7071353,0 -122.64172260000001,41.7102449,0 -122.64059170000002,41.713412999999996,0 -122.63058410000002,41.736054,0 -122.62966830000003,41.7374845,0 -122.62900900000002,41.7382624,0 -122.62768590000005,41.7394903,0 -122.62520210000004,41.74134899999999,0 -122.62431770000003,41.742165299999996,0 -122.62177700000004,41.745560499999996,0 -122.62053640000003,41.746644399999994,0 -122.61933220000003,41.747413599999994,0 -122.61349700000004,41.749854,0 -122.60577310000004,41.7542902,0 -122.60336000000004,41.7553202,0 -122.59986940000005,41.7565172,0 -122.59853740000004,41.757190099999995,0 -122.59490800000005,41.7594669,0 -122.59157120000006,41.7609004,0 -122.59011220000006,41.7617522,0 -122.58898210000008,41.7626633,0 -122.58791470000007,41.7638684,0 -122.58390240000006,41.7698524,0 -122.58290250000005,41.771844699999995,0 -122.58241790000005,41.7735011,0 -122.58222540000004,41.7750868,0 -122.58233790000004,41.777063299999995,0 -122.58486460000005,41.78584729999999,0 -122.58529950000003,41.7867062,0 -122.58595260000004,41.787503599999994,0 -122.58747880000004,41.788868199999996,0 -122.58796520000004,41.789437799999995,0 -122.58843100000004,41.790268199999986,0 -122.58871210000002,41.79140249999999,0 -122.58866610000003,41.792312999999986,0 -122.58824870000001,41.79348439999998,0 -122.58746520000001,41.79450819999999,0 -122.58652340000002,41.79525369999999,0 -122.58441610000001,41.79636959999999,0 -122.5833118,41.79723779999999,0 -122.5827272,41.79794769999999,0 -122.5823503,41.798641899999986,0 -122.58209190000001,41.799495399999984,0 -122.5820389,41.802016299999984,0 -122.5818393,41.80271699999998,0 -122.5814272,41.803508399999984,0 -122.58064859999999,41.80440869999999,0 -122.57991589999999,41.804975699999986,0 -122.57921029999999,41.805372799999994,0 -122.57842109999997,41.805698899999996,0 -122.57569749999998,41.806458,0 -122.57490359999997,41.8067986,0 -122.57376179999997,41.8075235,0 -122.57295939999997,41.8083113,0 -122.57223369999997,41.809583700000005,0 -122.57205499999996,41.8103182,0 -122.57203609999996,41.811178000000005,0 -122.57233689999997,41.8123592,0 -122.57287019999995,41.81325100000001,0 -122.57729509999994,41.8182381,0 -122.57805909999993,41.819400800000004,0 -122.57869279999993,41.8206746,0 -122.57937959999994,41.8231127,0 -122.58018129999994,41.8303577,0 -122.58008709999991,41.831249400000004,0 -122.57963319999993,41.832367500000004,0 -122.57920539999994,41.83297030000001,0 -122.57741849999994,41.83460440000001,0 -122.57657709999994,41.835750000000004,0 -122.57621519999992,41.83677540000001,0 -122.57614419999992,41.83755380000001,0 -122.57641169999992,41.83963960000001,0 -122.57617159999992,41.84094460000001,0 -122.57572379999992,41.84180350000001,0 -122.57527129999993,41.84236790000001,0 -122.57449209999993,41.843052000000014,0 -122.57377889999994,41.843501300000014,0 -122.57062899999995,41.84487660000001,0 -122.57000999999995,41.84530550000001,0 -122.56919189999995,41.84610080000001,0 -122.56888959999995,41.846509100000006,0 -122.56839049999995,41.84755450000001,0 -122.56824249999994,41.84828130000001,0 -122.56830329999994,41.849412900000004,0 -122.56862279999994,41.85032650000001,0 -122.57103199999995,41.85367980000001,0 -122.57152409999995,41.85479110000001,0 -122.57164479999996,41.85573140000001,0 -122.57140459999995,41.857018200000006,0 -122.57094439999995,41.85789760000001,0 -122.57013869999996,41.858804000000006,0 -122.56780519999995,41.8604271,0 -122.56698339999996,41.86112610000001,0 -122.56628779999994,41.86192440000001,0 -122.56583869999994,41.862633300000006,0 -122.56413219999996,41.86663830000001,0 -122.56321959999995,41.86800370000001,0 -122.56256219999996,41.86870930000001,0 -122.56025439999996,41.870697000000014,0 -122.55954309999996,41.87158020000001,0 -122.55818929999997,41.874707000000015,0 -122.55685639999996,41.877134800000015,0 -122.55627799999995,41.87871900000001,0 -122.55590009999996,41.88099600000002,0 -122.55595159999994,41.884164700000014,0 -122.55609799999995,41.88505090000002,0 -122.55628249999995,41.88555370000002,0 -122.55677139999996,41.88639250000002,0 -122.55993239999997,41.890176900000014,0 -122.56318669999997,41.89496380000001,0 -122.56537939999997,41.89937820000002,0 -122.56996599999998,41.91190230000002,0 -122.57128999999998,41.914870700000016,0 -122.57305609999997,41.91799160000002,0 -122.57984179999997,41.92816940000002,0 -122.58084719999997,41.930271500000025,0 -122.58325209999997,41.93846240000002,0 -122.59068649999996,41.952557400000025,0 -122.59411519999996,41.957720800000025,0 -122.59583839999995,41.96167930000002,0 -122.59650009999996,41.962630000000026,0 -122.60009019999995,41.96633560000002,0 -122.60269179999995,41.97012060000002,0 -122.60354839999994,41.972046900000024,0 -122.60535109999994,41.978960800000024,0 -122.60690359999994,41.98322110000002,0 -122.60726799999995,41.98509470000002,0 -122.60741849999994,41.98754570000002,0 -122.60789699999994,41.989547600000016,0 -122.60998329999994,41.99356570000002,0 -122.61028089999992,41.99450200000002,0 -122.61031649999993,41.99520180000002,0 -122.60985149999992,41.99754980000002,0 -122.60989789999991,41.99821920000002,0 -122.61025149999992,41.999220800000025,0 -122.61218569999993,42.00227260000002,0 -122.61501199999992,42.004953800000024,0 -122.61540809999994,42.00559060000002,0 -122.61565229999994,42.00628980000002,0 -122.61566529999993,42.00744890000002,0 -122.61416299999993,42.01432160000002,0 -122.61375679999993,42.01522470000002,0 -122.61294979999992,42.01626530000002,0 -122.60675699999993,42.02203700000002,0 -122.60617269999992,42.02274080000002,0 -122.6056129999999,42.02380610000002,0 -122.60239799999992,42.03370160000002,0 -122.60207889999991,42.03432220000003,0 -122.60132569999992,42.03521200000002,0 -122.59858989999991,42.037650900000024,0 -122.59808619999991,42.03832320000002,0 -122.5978593999999,42.039045100000024,0 -122.59795379999991,42.039911000000025,0 -122.59834229999991,42.04061290000002,0 -122.5988612999999,42.041127000000024,0 -122.60401849999991,42.04500730000002,0 -122.6048284999999,42.04577450000002,0 -122.60515559999989,42.04627320000002,0 -122.60660229999989,42.049944500000024,0 -122.60710249999988,42.05059120000002,0 -122.60909169999988,42.05220240000002,0 -122.60959179999988,42.05273010000002,0 -122.60995619999989,42.05347400000002,0 -122.61003789999988,42.05410980000002,0 -122.60991779999989,42.05598060000002,0 -122.6096914999999,42.05678090000002,0 -122.60927269999989,42.05755080000002,0 -122.6067395999999,42.06114900000002,0 -122.6059039999999,42.061904200000015,0 -122.6017560999999,42.064520500000015,0 -122.6012530999999,42.06500040000002,0 -122.60095259999989,42.06549910000002,0 -122.6008341999999,42.06599640000002,0 -122.60095009999989,42.06669890000001,0 -122.6013438999999,42.06748970000002,0 -122.60546479999992,42.073065200000016,0 -122.60563179999991,42.073800700000014,0 -122.6054686999999,42.074546300000016,0 -122.60497979999991,42.07516190000002,0 -122.60447549999991,42.07553530000001,0 -122.60127149999991,42.077386200000014,0 -122.6007719999999,42.07785780000001,0 -122.6003864999999,42.07841180000001,0 -122.5991963999999,42.08214690000001,0 -122.5992258999999,42.082697500000016,0 -122.5994446999999,42.083279800000014,0 -122.60301199999991,42.08795060000001,0 -122.6032005999999,42.08849460000001,0 -122.60317759999991,42.089025200000016,0 -122.60256289999991,42.090706400000016,0 -122.60266679999992,42.09148900000002,0 -122.60328359999993,42.093320300000016,0 -122.60367289999992,42.093966600000016,0 -122.60411449999992,42.094342300000015,0 -122.60634769999993,42.09555320000002,0 -122.60674329999992,42.09592280000002,0 -122.60694879999993,42.096233300000016,0 -122.60711959999992,42.09680190000002,0 -122.60711649999992,42.09879080000002,0 -122.60793239999991,42.10175620000001,0 -122.6085805999999,42.10284680000001,0 -122.6092863999999,42.103635900000015,0 -122.6115609999999,42.10562220000001,0 -122.61186889999989,42.10601050000002,0 -122.6128642999999,42.10808930000002,0 -122.6132428999999,42.108493400000015,0 -122.61355609999991,42.10871730000001,0 -122.61622249999992,42.109799900000006,0 -122.6170340999999,42.11023290000001,0 -122.6176250999999,42.110848800000014,0 -122.6185589999999,42.11267680000001,0 -122.6188608999999,42.113046200000014,0 -122.6194378999999,42.11354870000002,0 -122.6210690999999,42.11446200000002,0 -122.6217080999999,42.11491800000002,0 -122.62203229999992,42.11530010000002,0 -122.6244007999999,42.12082500000002,0 -122.62514739999992,42.12189700000002,0 -122.62733159999992,42.12367980000002,0 -122.62775199999992,42.12424490000002,0 -122.62983829999992,42.12806180000002,0 -122.63510909999992,42.13496910000002,0 -122.63560869999992,42.13612920000002,0 -122.63677219999994,42.140513400000025,0 -122.63964299999994,42.14764790000002,0 -122.64061979999994,42.14894230000002,0 -122.64361249999995,42.15200100000002,0 -122.67169229999995,42.19378620000003,0 -122.67287219999996,42.19510280000003,0 -122.67406009999995,42.19602680000003,0 -122.70841039999993,42.21611100000003,0 -122.73929069999996,42.22751900000003,0 -122.74255119999995,42.228967800000035,0 -122.76961329999996,42.242727900000034,0 -122.77186099999994,42.24423460000003,0 -122.80342979999995,42.27022420000004,0 -122.81510849999995,42.281522900000034,0 -122.84697409999995,42.30992550000004,0 -122.86683119999995,42.32435200000004,0 -122.86805419999995,42.32569750000004,0 -122.86879799999994,42.32700140000004,0 -122.87502119999994,42.34581700000005,0 -122.87498609999993,42.34591020000004,0 -122.87528119999993,42.34739910000005,0 -122.87526089999993,42.34786430000005,0 -122.87470909999993,42.34985280000004,0 -122.87475439999993,42.350170900000045,0 -122.87507589999994,42.350623400000046,0 -122.87506959999995,42.350913900000045,0 -122.87498809999994,42.351022800000045,0 -122.87353439999994,42.35188340000004,0 -122.87329309999993,42.35196870000004,0 -122.87303369999994,42.35195710000004,0 -122.87268699999993,42.351749300000044,0 -122.87255349999992,42.35127710000005,0 -122.87257699999992,42.35098530000005,0 -122.87280129999992,42.35052860000005,0 -122.87297289999992,42.35034450000004,0 -122.87341119999991,42.35006020000005,0 -122.87416179999991,42.349754500000046,0 -122.87397909999991,42.34914840000005,0 -122.87406119999991,42.34877450000005,0 -122.8735264999999,42.34865100000005,0 -122.8733049999999,42.34944090000005,0 -122.87219889999992,42.34943630000004,0 -122.87219879999991,42.34927740000005,0 -122.87336959999992,42.34928730000004,0 -122.87352649999993,42.34865100000004,0 -122.87406119999994,42.34877450000004,0 -122.87397909999994,42.34914840000004,0 -122.87410699999994,42.34966940000004,0 -122.87518419999995,42.351313700000034,0 -122.87542569999995,42.35202920000003,0 -122.87545679999994,42.35479780000003,0 -122.87383549999996,42.35478650000003,0 -122.87318789999995,42.35464630000003,0 -122.87275589999994,42.35435570000003,0 -122.87258179999995,42.354097200000034,0 -122.87224259999996,42.353233400000036,0 -122.87231429999997,42.352965800000035,0 -122.87548519999997,42.35098620000003,0 -122.87634489999996,42.35143610000003,0 -122.87672629999996,42.351819700000036,0 -122.87733389999995,42.35306620000003,0 -122.87743169999997,42.35313670000003,0 -122.87878829999997,42.35652950000003,0 -122.87956229999998,42.35778490000003,0 -122.88126259999999,42.359836800000025,0 -122.90054789999996,42.37582570000003,0 -122.90057079999995,42.37591890000002,0 -122.90131739999997,42.37664230000003,0 -122.90178559999995,42.37741270000003,0 -122.90193329999997,42.37840990000003,0 -122.90174259999996,42.37861180000003,0 -122.90148519999998,42.37873800000003,0 -122.89114189999998,42.37866990000003,0 -122.88532699999999,42.37837650000003,0 -122.88546579999998,42.42559490000003,0 -122.88561609999998,42.42686200000003,0 -122.89508909999998,42.44820280000003,0 -122.89535419999999,42.44860570000003,0 -122.8957909,42.449029600000024,0 -122.89892309999998,42.45102860000002,0 -122.89889649999999,42.455117700000024,0 -122.8988287,42.45526400000003,0 -122.8985721,42.455432700000024,0 -122.89343269999998,42.45576990000002,0 -122.88862959999997,42.457355300000025,0 -122.88395639999997,42.46151020000002,0 -122.86967539999996,42.48626710000002,0 -122.86923579999997,42.48761460000002,0 -122.86661989999999,42.518591200000024,0 -122.84983119999998,42.525332300000024,0 -122.84826929999998,42.52573480000002,0 -122.84734129999998,42.52584920000002,0 -122.84624049999998,42.52587290000002,0 -122.84459499999997,42.52568820000002,0 -122.83691989999998,42.52412010000002,0 -122.83419079999997,42.52378380000002,0 -122.81396749999998,42.523774400000015,0 -122.81438339999997,42.52546590000002,0 -122.81445519999997,42.52670640000002,0 -122.81402099999997,42.53380660000002,0 -122.81352789999998,42.535140900000016,0 -122.81181139999997,42.53809190000002,0 -122.81145989999997,42.53897310000002,0 -122.81047959999997,42.54268460000002,0 -122.81008259999997,42.54858030000002,0 -122.81055959999998,42.557514400000024,0 -122.81075969999998,42.558615100000026,0 -122.81626519999998,42.57404390000002,0 -122.81652809999997,42.57548070000002,0 -122.81662879999998,42.590741100000024,0 -122.81684839999997,42.59164740000003,0 -122.81834879999995,42.595643000000024,0 -122.81832099999997,42.596915600000024,0 -122.81908709999998,42.59921840000003,0 -122.81905109999998,42.599485200000025,0 -122.81615509999997,42.60605040000002,0 -122.81260569999998,42.61148800000002,0 -122.81220419999998,42.612701800000025,0 -122.81183759999996,42.615256200000026,0 -122.80814399999996,42.62337580000002,0 -122.80678969999995,42.62873510000002,0 -122.80683729999996,42.62918000000002,0 -122.80722819999994,42.630362400000024,0 -122.80731129999994,42.631691000000025,0 -122.80764979999994,42.63298630000003,0 -122.80779269999995,42.636131400000025,0 -122.80816179999995,42.63743520000003,0 -122.80954979999996,42.64581890000003,0 -122.80945979999996,42.64659050000003,0 -122.80912659999996,42.64712490000003,0 -122.80844559999997,42.647663300000026,0 -122.80793339999995,42.647886900000024,0 -122.80722049999996,42.648055900000024,0 -122.80114009999994,42.648628100000025,0 -122.79900479999996,42.649035600000026,0 -122.79816869999996,42.64907060000002,0 -122.79560119999995,42.64858170000002,0 -122.79487469999994,42.64853610000002,0 -122.79192249999996,42.648794800000026,0 -122.79134359999995,42.64895750000002,0 -122.79093809999996,42.649148000000025,0 -122.78885409999997,42.65074750000003,0 -122.78569459999996,42.652302500000026,0 -122.78557709999995,42.65232110000003,0 -122.78497649999997,42.65270910000003,0 -122.78438999999997,42.653350000000025,0 -122.78325269999996,42.65546670000003,0 -122.78130239999997,42.65774960000003,0 -122.78081029999996,42.65807700000003,0 -122.78011619999997,42.65833720000003,0 -122.77960609999997,42.65842530000003,0 -122.77910869999997,42.65844010000003,0 -122.77537989999998,42.65806940000003,0 -122.77468429999996,42.658127000000036,0 -122.76568079999997,42.65974840000004,0 -122.76328729999996,42.66062470000004,0 -122.75702299999996,42.66243110000004,0 -122.75546349999996,42.66336120000004,0 -122.75507399999996,42.66349200000004,0 -122.75437829999994,42.66356250000004,0 -122.75363509999994,42.66344800000004,0 -122.75333899999994,42.66334710000004,0 -122.75178969999993,42.66233500000004,0 -122.75109069999993,42.66202760000004,0 -122.74815909999994,42.66143190000003,0 -122.74588089999995,42.66140980000003,0 -122.74557529999996,42.661455900000036,0 -122.74442879999995,42.66186660000004,0 -122.74410489999995,42.662081500000035,0 -122.74318889999994,42.66294700000004,0 -122.74267869999994,42.66316890000004,0 -122.74228489999993,42.663254600000045,0 -122.73980849999991,42.66328050000004,0 -122.73931779999992,42.663196800000044,0 -122.73748289999992,42.66244260000004,0 -122.73690329999991,42.66211660000005,0 -122.7351485999999,42.66066850000005,0 -122.7349000999999,42.660555700000046,0 -122.7343404999999,42.660426100000045,0 -122.7338881999999,42.66041030000005,0 -122.73338219999991,42.66047990000005,0 -122.73183679999991,42.66101210000005,0 -122.73133009999991,42.661084600000045,0 -122.73067839999992,42.66103420000005,0 -122.73017369999992,42.66086900000005,0 -122.72844739999994,42.65979700000005,0 -122.72639359999992,42.65902910000005,0 -122.72281029999994,42.65737930000005,0 -122.72203919999994,42.65724340000005,0 -122.72144839999994,42.65729840000005,0 -122.72103259999994,42.65744070000005,0 -122.72001129999994,42.65797950000005,0 -122.71773689999993,42.658739600000054,0 -122.71628849999995,42.65946180000005,0 -122.71584299999995,42.65958510000006,0 -122.71431449999994,42.65972300000006,0 -122.71185609999996,42.660123500000054,0 -122.71114849999995,42.66011780000006,0 -122.71054069999995,42.66000110000006,0 -122.70823199999995,42.65914060000006,0 -122.70671689999995,42.65885400000006,0 -122.70613719999994,42.65885680000006,0 -122.70562109999993,42.65895570000006,0 -122.70420009999994,42.659447400000055,0 -122.70290089999995,42.660180800000056,0 -122.70254659999995,42.66029500000006,0 -122.70193189999996,42.660376500000055,0 -122.70116879999995,42.660347300000055,0 -122.69977749999995,42.66011610000005,0 -122.69030399999995,42.65673280000006,0 -122.68917089999995,42.65645930000006,0 -122.68770309999995,42.656381800000055,0 -122.68666229999995,42.65650960000006,0 -122.68558859999995,42.656823100000054,0 -122.68461039999995,42.65730980000006,0 -122.67615949999994,42.663384500000056,0 -122.67515829999994,42.66387110000006,0 -122.67416959999994,42.664094000000055,0 -122.67329489999993,42.66411730000006,0 -122.66946989999992,42.66376020000006,0 -122.66818259999992,42.66380570000006,0 -122.66358329999991,42.66460810000006,0 -122.66277919999992,42.66461170000006,0 -122.65483439999993,42.66304860000006,0 -122.65253499999993,42.66275930000006,0 -122.65134029999993,42.66276150000006,0 -122.64643999999993,42.663126600000055,0 -122.64540439999992,42.66345900000006,0 -122.64457429999992,42.66399140000006,0 -122.6442255999999,42.66436630000006,0 -122.6439169999999,42.66491350000006,0 -122.6437454999999,42.66547530000006,0 -122.64357439999988,42.667611100000066,0 -122.64341469999988,42.66814350000007,0 -122.64310199999989,42.668684300000066,0 -122.64259469999989,42.66918130000007,0 -122.64189719999989,42.66961450000007,0 -122.6346531999999,42.67317010000007,0 -122.6339415999999,42.67341560000007,0 -122.63293789999989,42.673623700000064,0 -122.6250152999999,42.674469000000066,0 -122.6236684999999,42.67478420000007,0 -122.6227247999999,42.67515440000007,0 -122.6212726999999,42.676034300000076,0 -122.6103989999999,42.68537660000007,0 -122.60858879999991,42.686529200000074,0 -122.6019918999999,42.689132200000074,0 -122.60157209999988,42.68938360000007,0 -122.60093509999989,42.68998240000007,0 -122.60059159999989,42.690583400000065,0 -122.60047559999988,42.69111200000007,0 -122.60054919999989,42.692396000000066,0 -122.60069269999988,42.69253010000007,0 -122.60095019999987,42.69717640000007,0 -122.60136779999988,42.69956440000007,0 -122.60123139999988,42.70044350000007,0 -122.60075939999987,42.70106990000007,0 -122.59838419999987,42.70333050000007,0 -122.59782389999988,42.703740500000066,0 -122.59745109999987,42.703900300000065,0 -122.59674529999988,42.70403120000007,0 -122.59104169999989,42.70451960000007,0 -122.59043079999988,42.70466190000007,0 -122.58988469999989,42.70496350000007,0 -122.5895198999999,42.70538140000007,0 -122.58937999999989,42.70573810000007,0 -122.58913399999989,42.70721930000007,0 -122.58881489999987,42.70780590000007,0 -122.58820299999988,42.70844500000007,0 -122.58774989999986,42.70874950000007,0 -122.58704169999987,42.70907780000007,0 -122.58634939999986,42.70926720000007,0 -122.58540539999987,42.70934930000007,0 -122.58310359999987,42.70933410000007,0 -122.58141979999988,42.709649500000076,0 -122.58069589999988,42.70988500000008,0 -122.5676988999999,42.716325000000076,0 -122.56670389999991,42.716720700000074,0 -122.5652904999999,42.71706140000008,0 -122.53575759999988,42.72084480000008,0 -122.53390449999989,42.72145150000008,0 -122.5328290999999,42.72201070000008,0 -122.53176899999991,42.72274100000008,0 -122.4898686999999,42.75859880000007,0 -122.48890579999991,42.759951800000074,0 -122.48831279999992,42.76168430000008,0 -122.48775379999992,42.77311110000007,0 -122.48750699999992,42.77442240000007,0 -122.48694379999992,42.77614900000007,0 -122.47785639999992,42.79291280000007,0 -122.47711749999993,42.79490170000007,0 -122.47688279999993,42.79592520000007,0 -122.47671649999994,42.798541800000066,0 -122.47699679999995,42.80067710000007,0 -122.48397449999995,42.82583380000007,0 -122.48472689999993,42.83285720000007,0 -122.48442249999994,42.83485270000008,0 -122.47875489999993,42.85033310000007,0 -122.47786719999992,42.851627200000074,0 -122.46616329999992,42.86397970000007,0 -122.46543649999992,42.865234900000075,0 -122.46056689999992,42.878143900000076,0 -122.45986549999994,42.88343980000008,0 -122.45953959999994,42.88456690000008,0 -122.45909569999993,42.88547690000008,0 -122.44718099999994,42.90340120000008,0 -122.44706189999992,42.90336810000008,0 </coordinates></LineString><TimeSpan><begin>2019-11-28T18:43:00.197Z</begin><end>2019-11-28T20:57:12.000Z</end></TimeSpan></Placemark><Placemark><name>temp</name><address>Dropped pin</address><ExtendedData><Data name="Email"><value>syugen.zhou@gmail.com</value></Data><Data name="Category"><value></value></Data><Data name="Distance"><value>0</value></Data></ExtendedData><description>  from 2019-11-28T20:57:12.000Z to 2019-11-28T20:59:45.000Z. Distance 0m </description><Point><coordinates>-122.4470551,42.9033258,0</coordinates></Point><TimeSpan><begin>2019-11-28T20:57:12.000Z</begin><end>2019-11-28T20:59:45.000Z</end></TimeSpan></Placemark><Placemark><name>Driving</name><address></address><ExtendedData><Data name="Email"><value>syugen.zhou@gmail.com</value></Data><Data name="Category"><value>Driving</value></Data><Data name="Distance"><value>419108</value></Data></ExtendedData><description> Driving from 2019-11-28T20:59:45.000Z to 2019-11-29T01:55:18.533Z. Distance 419108m </description><LineString><altitudeMode>clampToGround</altitudeMode><extrude>1</extrude><tesselate>1</tesselate><coordinates>-122.44706190000001,42.9033681,0 -122.44718100000001,42.903401200000005,0 -122.4590957,42.8854769,0 -122.4598655,42.883439800000005,0 -122.46056689999999,42.878143900000005,0 -122.4654365,42.865234900000004,0 -122.4661633,42.8639797,0 -122.4778672,42.851627199999996,0 -122.4787549,42.8503331,0 -122.48442250000001,42.8348527,0 -122.48472690000001,42.8328572,0 -122.48397450000002,42.8258338,0 -122.47699680000002,42.800677099999994,0 -122.47671650000002,42.798541799999995,0 -122.47688280000001,42.79592519999999,0 -122.47785640000001,42.792912799999996,0 -122.48694379999999,42.776149,0 -122.4877538,42.773111099999994,0 -122.48831279999999,42.7616843,0 -122.4889058,42.759951799999996,0 -122.48986869999999,42.7585988,0 -122.53176899999998,42.722741,0 -122.53390449999999,42.7214515,0 -122.53575759999998,42.7208448,0 -122.5652905,42.7170614,0 -122.56670390000001,42.7167207,0 -122.58069590000001,42.709885,0 -122.58310360000003,42.7093341,0 -122.58634940000002,42.7092672,0 -122.58704170000003,42.7090778,0 -122.58820300000002,42.708445,0 -122.58881490000003,42.7078059,0 -122.58913400000004,42.7072193,0 -122.58951990000004,42.7053814,0 -122.58988470000004,42.7049635,0 -122.59043080000004,42.7046619,0 -122.59745110000003,42.7039003,0 -122.59782390000004,42.703740499999995,0 -122.60075940000003,42.7010699,0 -122.60123140000003,42.7004435,0 -122.60136780000002,42.6995644,0 -122.60069270000002,42.6925301,0 -122.60054920000003,42.692396,0 -122.60047560000004,42.691112,0 -122.60059160000004,42.690583399999994,0 -122.60093510000004,42.6899824,0 -122.60199190000004,42.6891322,0 -122.60858880000005,42.6865292,0 -122.61039900000006,42.685376600000005,0 -122.62127270000006,42.676034300000005,0 -122.62272480000004,42.675154400000004,0 -122.62366850000005,42.6747842,0 -122.62501530000006,42.674468999999995,0 -122.63293790000004,42.67362369999999,0 -122.63465320000006,42.6731701,0 -122.64259470000005,42.6691813,0 -122.64310200000003,42.668684299999995,0 -122.64357440000003,42.667611099999995,0 -122.64374550000005,42.6654753,0 -122.64422560000003,42.66436629999999,0 -122.64457430000004,42.663991399999986,0 -122.64540440000005,42.66345899999999,0 -122.64644000000006,42.663126599999984,0 -122.65253500000006,42.66275929999998,0 -122.66277920000005,42.66461169999999,0 -122.66358330000004,42.66460809999999,0 -122.66818260000005,42.66380569999998,0 -122.66946990000005,42.663760199999984,0 -122.67416960000004,42.664093999999984,0 -122.67515830000004,42.66387109999999,0 -122.67615950000004,42.663384499999985,0 -122.68461040000005,42.657309799999986,0 -122.68558860000005,42.65682309999998,0 -122.68666230000005,42.656509599999985,0 -122.68770310000005,42.656381799999984,0 -122.68917090000006,42.65645929999999,0 -122.69030400000005,42.656732799999986,0 -122.69977750000005,42.66011609999998,0 -122.70193190000006,42.660376499999984,0 -122.70290090000005,42.660180799999985,0 -122.70420010000004,42.65944739999998,0 -122.70613720000004,42.65885679999999,0 -122.70671690000005,42.65885399999999,0 -122.70823200000005,42.659140599999986,0 -122.71054070000007,42.66000109999999,0 -122.71114850000005,42.66011779999999,0 -122.71185610000006,42.66012349999998,0 -122.71628850000008,42.65946179999999,0 -122.71773690000006,42.65873959999999,0 -122.72001130000007,42.65797949999999,0 -122.72144840000007,42.65729839999999,0 -122.72203920000007,42.657243399999984,0 -122.72281030000006,42.65737929999999,0 -122.72844740000006,42.65979699999998,0 -122.73017370000005,42.660868999999984,0 -122.73067840000004,42.66103419999999,0 -122.73133010000004,42.66108459999999,0 -122.73183680000004,42.661012099999986,0 -122.73338220000004,42.660479899999984,0 -122.73434050000003,42.66042609999998,0 -122.73514860000003,42.660668499999986,0 -122.73690330000004,42.66211659999998,0 -122.73931780000002,42.66319679999998,0 -122.73980850000002,42.66328049999998,0 -122.74228490000003,42.66325459999998,0 -122.74318890000004,42.66294699999998,0 -122.74442880000004,42.66186659999998,0 -122.74557530000003,42.66145589999998,0 -122.74815910000002,42.661431899999975,0 -122.75109070000002,42.66202759999998,0 -122.7517897,42.662334999999985,0 -122.75333900000003,42.66334709999998,0 -122.75437830000003,42.66356249999998,0 -122.75507400000004,42.663491999999984,0 -122.75546350000003,42.66336119999998,0 -122.75702300000003,42.662431099999985,0 -122.76568080000003,42.659748399999984,0 -122.77537990000002,42.65806939999999,0 -122.77910870000002,42.658440099999986,0 -122.78011620000002,42.658337199999984,0 -122.78081030000001,42.658076999999984,0 -122.78130240000002,42.65774959999999,0 -122.78325270000002,42.655466699999984,0 -122.78439000000003,42.65334999999998,0 -122.78497650000001,42.65270909999998,0 -122.78885410000002,42.65074749999999,0 -122.79093810000002,42.64914799999998,0 -122.7919225,42.64879479999998,0 -122.7948747,42.64853609999999,0 -122.79816869999999,42.64907059999999,0 -122.79900479999998,42.64903559999999,0 -122.80114009999997,42.64862809999999,0 -122.80722049999999,42.64805589999999,0 -122.80793339999998,42.64788689999999,0 -122.80871049999998,42.64789909999998,0 -122.80970279999997,42.64850869999998,0 -122.81042209999998,42.64962749999999,0 -122.8113901,42.650629899999984,0 -122.8130604,42.65166869999998,0 -122.81855549999999,42.65382109999999,0 -122.8197098,42.65449979999999,0 -122.8217032,42.65632689999999,0 -122.8232686,42.65833009999999,0 -122.82428149999998,42.66014849999999,0 -122.82440379999998,42.661764699999985,0 -122.82484479999997,42.662693199999985,0 -122.82549679999998,42.663248299999985,0 -122.83356699999997,42.66671259999999,0 -122.83464919999997,42.667596199999984,0 -122.83627059999996,42.66984549999999,0 -122.83989029999996,42.673270999999986,0 -122.84065069999996,42.67479139999999,0 -122.84081699999994,42.67598739999999,0 -122.83950139999995,42.684067999999996,0 -122.83968779999994,42.6848202,0 -122.84118579999993,42.687445399999994,0 -122.84138689999993,42.688418399999996,0 -122.84067879999994,42.69150869999999,0 -122.84113619999992,42.69452199999999,0 -122.84006729999992,42.70115729999999,0 -122.83972019999993,42.71084659999999,0 -122.83863369999992,42.712744699999995,0 -122.8385678999999,42.713117199999985,0 -122.83870609999991,42.71376159999999,0 -122.83893809999991,42.714106499999986,0 -122.8406586999999,42.715695899999986,0 -122.8413439999999,42.71676689999999,0 -122.84167529999992,42.72065589999999,0 -122.84201589999992,42.721362299999996,0 -122.84488049999992,42.723442199999994,0 -122.84702119999992,42.72611499999999,0 -122.8504836999999,42.72947049999999,0 -122.8514827999999,42.72993939999999,0 -122.8522954999999,42.73001429999999,0 -122.85302639999989,42.72988329999999,0 -122.85352259999989,42.72965859999999,0 -122.8557219999999,42.727835099999986,0 -122.85617259999991,42.72759969999999,0 -122.8568632999999,42.72743709999999,0 -122.85840019999989,42.72740269999999,0 -122.85912169999989,42.727577,0 -122.8628874999999,42.729585699999994,0 -122.8643009999999,42.7311905,0 -122.86451699999989,42.73182489999999,0 -122.86403949999989,42.734816599999995,0 -122.8641065999999,42.73572769999999,0 -122.8635902999999,42.73982039999999,0 -122.8639228999999,42.74099439999999,0 -122.8657748999999,42.74360059999999,0 -122.8658955999999,42.7443038,0 -122.8655562999999,42.74607459999999,0 -122.8658245999999,42.746897899999986,0 -122.8677167999999,42.74853669999999,0 -122.8688111999999,42.749103999999996,0 -122.86983179999989,42.7493049,0 -122.8709206999999,42.75018529999999,0 -122.8729417999999,42.750559499999994,0 -122.8735452999999,42.75077219999999,0 -122.87456589999991,42.75086579999999,0 -122.8750405999999,42.75112669999999,0 -122.8753141999999,42.75170869999999,0 -122.87531149999991,42.75197659999999,0 -122.8752122999999,42.75208889999998,0 -122.8749520999999,42.75212329999999,0 -122.8743659999999,42.751774699999984,0 -122.8741044999999,42.75173139999998,0 -122.8720820999999,42.75194019999998,0 -122.87023949999991,42.751927399999985,0 -122.86998329999992,42.75201109999998,0 -122.86982709999991,42.752173099999986,0 -122.86982369999991,42.75239709999998,0 -122.87041779999991,42.752985999999986,0 -122.87049829999992,42.75331389999999,0 -122.8703413999999,42.75390179999999,0 -122.86924699999992,42.755369999999985,0 -122.86911029999993,42.755918499999986,0 -122.86922019999993,42.75697509999999,0 -122.86913039999993,42.75737189999999,0 -122.86755189999994,42.75903999999999,0 -122.86729309999993,42.75964749999999,0 -122.86727459999992,42.76168469999999,0 -122.86777179999991,42.763721899999986,0 -122.87044469999992,42.769183099999985,0 -122.87045939999992,42.770076999999986,0 -122.8702219999999,42.77076119999999,0 -122.86891179999989,42.77273209999999,0 -122.86877629999991,42.773173099999994,0 -122.8687668999999,42.77427669999999,0 -122.8685831999999,42.774734399999986,0 -122.8654677999999,42.77783919999999,0 -122.86534179999992,42.77832149999998,0 -122.86543289999993,42.77882059999998,0 -122.86563009999993,42.779152299999986,0 -122.86667749999994,42.78009139999999,0 -122.86688269999993,42.78073219999999,0 -122.86681289999994,42.78143199999999,0 -122.86701549999994,42.782021599999986,0 -122.86737489999994,42.78233759999999,0 -122.86859259999993,42.78283269999999,0 -122.86884199999994,42.78301179999999,0 -122.86918539999994,42.783497999999994,0 -122.86920679999994,42.78410729999999,0 -122.86833639999995,42.78576969999999,0 -122.86822779999993,42.78761209999999,0 -122.86860729999995,42.78949879999998,0 -122.86946159999995,42.79123389999999,0 -122.86955419999995,42.79174759999999,0 -122.86854299999996,42.79626069999998,0 -122.86800119999994,42.79734219999998,0 -122.86689609999995,42.798767099999985,0 -122.86672439999995,42.80046449999999,0 -122.86705169999995,42.801060799999995,0 -122.86936099999993,42.80249839999999,0 -122.87007179999992,42.80336629999999,0 -122.87029579999992,42.80417209999999,0 -122.87014019999992,42.80598059999999,0 -122.87050099999993,42.80713769999999,0 -122.87140219999993,42.80818259999999,0 -122.87174149999994,42.80894899999999,0 -122.87167439999993,42.80942619999999,0 -122.87062969999994,42.81101899999999,0 -122.87049289999993,42.81229399999998,0 -122.87037629999995,42.81250749999998,0 -122.86931279999995,42.813127299999984,0 -122.86909419999994,42.81345789999998,0 -122.86906999999995,42.81372939999998,0 -122.86932219999996,42.81441709999998,0 -122.86920409999995,42.81484009999998,0 -122.86891309999994,42.81508509999998,0 -122.86855399999995,42.81520229999998,0 -122.86739769999994,42.81521789999998,0 -122.86695639999994,42.815305399999986,0 -122.86667079999994,42.81547659999998,0 -122.86596669999993,42.816487899999984,0 -122.86475569999992,42.81708289999998,0 -122.86418569999994,42.817705799999985,0 -122.86405159999994,42.818474999999985,0 -122.86421789999993,42.81894519999999,0 -122.86503869999993,42.819581699999986,0 -122.86515669999993,42.819870899999984,0 -122.86494079999994,42.820171899999984,0 -122.86369349999995,42.82057719999998,0 -122.86285399999996,42.82151659999998,0 -122.86249589999997,42.821751699999986,0 -122.85993039999995,42.822719599999985,0 -122.85971579999996,42.82299699999998,0 -122.85967289999998,42.82327829999998,0 -122.86092419999997,42.826183899999975,0 -122.86093489999998,42.826487899999975,0 -122.86080079999998,42.82679569999998,0 -122.86061169999998,42.82697869999998,0 -122.86017719999998,42.82719409999998,0 -122.85981099999998,42.82724229999998,0 -122.85910829999997,42.82709279999998,0 -122.85824729999997,42.82635009999998,0 -122.85787979999998,42.82619569999998,0 -122.85744129999999,42.82612489999998,0 -122.8569438,42.82615929999998,0 -122.85623159999999,42.82649869999998,0 -122.85594199999997,42.826885199999985,0 -122.85567369999997,42.82818649999998,0 -122.85515609999997,42.82902249999998,0 -122.85445599999998,42.82956939999998,0 -122.85313229999998,42.83024599999998,0 -122.85259459999997,42.830756499999985,0 -122.85240279999998,42.83138299999999,0 -122.85247519999997,42.831805899999985,0 -122.85350249999999,42.83332339999999,0 -122.85505429999999,42.83432319999999,0 -122.85518699999999,42.83454989999999,0 -122.8551262,42.834735499999994,0 -122.8550239,42.834824499999996,0 -122.85476440000002,42.834907699999995,0 -122.85366070000002,42.83490189999999,0 -122.85326780000001,42.835055299999986,0 -122.85289230000002,42.835327699999986,0 -122.85215870000002,42.83699559999999,0 -122.85207960000001,42.83796719999999,0 -122.85246980000002,42.84012569999998,0 -122.85201650000002,42.842036399999984,0 -122.85214260000002,42.84269719999998,0 -122.85620080000004,42.848427799999975,0 -122.85921290000003,42.85438489999998,0 -122.85943690000003,42.85458449999998,0 -122.86245990000002,42.856132099999975,0 -122.86572370000003,42.85881009999997,0 -122.86879060000003,42.860785299999975,0 -122.87240600000004,42.862103599999976,0 -122.87748970000004,42.86474329999997,0 -122.87906230000004,42.865016599999976,0 -122.87994520000005,42.865427499999974,0 -122.88578230000005,42.872579699999974,0 -122.88633750000005,42.87299839999997,0 -122.88945670000004,42.87424769999998,0 -122.89022110000005,42.87474599999997,0 -122.89525110000004,42.879536699999974,0 -122.89559490000003,42.87970739999997,0 -122.89837120000003,42.880003799999976,0 -122.89882790000004,42.88014459999997,0 -122.90438070000005,42.88380769999997,0 -122.91016760000005,42.888937299999974,0 -122.91111390000005,42.88951909999998,0 -122.91294680000004,42.89019689999998,0 -122.91374340000004,42.890330399999975,0 -122.91461670000005,42.89025789999997,0 -122.91558030000006,42.88973119999998,0 -122.91587460000007,42.88971589999998,0 -122.91630370000006,42.88981509999998,0 -122.91706950000007,42.89021699999998,0 -122.91942310000007,42.890557899999976,0 -122.92087020000007,42.890393799999984,0 -122.92134000000007,42.89045019999998,0 -122.92185720000008,42.89063059999998,0 -122.92329550000008,42.89194899999998,0 -122.92580820000008,42.89299749999998,0 -122.92611260000007,42.89331299999998,0 -122.92619570000006,42.89359299999998,0 -122.92512820000006,42.89610819999998,0 -122.92503830000005,42.896735999999976,0 -122.92520060000005,42.89714669999998,0 -122.92548760000004,42.897346099999986,0 -122.92609110000005,42.89748859999998,0 -122.92757700000006,42.89740899999998,0 -122.92795120000005,42.897223299999986,0 -122.92855200000004,42.896283099999984,0 -122.92881490000003,42.89612789999999,0 -122.92906030000003,42.89608359999998,0 -122.93158960000002,42.896410799999984,0 -122.93189940000003,42.89651889999998,0 -122.93219310000003,42.89674089999998,0 -122.93227900000004,42.89691279999998,0 -122.93223600000005,42.897305799999984,0 -122.93125700000004,42.89828929999999,0 -122.93112430000005,42.898640999999984,0 -122.93144350000006,42.900435899999984,0 -122.93038260000006,42.90205189999999,0 -122.93024720000007,42.90247829999999,0 -122.93027940000006,42.90316689999999,0 -122.93054760000008,42.90368759999999,0 -122.93115380000008,42.90424059999999,0 -122.93185790000008,42.904487199999984,0 -122.93267460000008,42.90451079999999,0 -122.93292540000009,42.90465709999999,0 -122.9333693000001,42.905797599999985,0 -122.93544530000008,42.90896749999998,0 -122.93542920000007,42.909344699999984,0 -122.93509930000006,42.90966199999998,0 -122.93504160000006,42.909804399999985,0 -122.93509530000006,42.910115799999986,0 -122.93536620000006,42.91052139999998,0 -122.93560760000005,42.91068249999998,0 -122.93611850000008,42.910828899999984,0 -122.93728930000007,42.91095359999998,0 -122.93777750000007,42.911225699999974,0 -122.93789010000006,42.91140349999998,0 -122.93796660000007,42.913030999999975,0 -122.93714990000007,42.91459569999998,0 -122.93711770000007,42.91525959999998,0 -122.93752130000007,42.91645889999998,0 -122.93764610000007,42.917568699999975,0 -122.93742480000006,42.91832299999997,0 -122.93775870000006,42.919095899999974,0 -122.93876590000006,42.920119199999974,0 -122.93881420000008,42.92050519999997,0 -122.93825890000008,42.92200189999997,0 -122.93824420000009,42.92289559999997,0 -122.9386143000001,42.92399539999997,0 -122.9390462000001,42.92437839999997,0 -122.93938820000011,42.92454829999997,0 -122.94262830000012,42.92492349999997,0 -122.94457960000011,42.92546849999997,0 -122.94483170000012,42.925477299999976,0 -122.94584290000012,42.925261299999974,0 -122.94833200000011,42.92548219999997,0 -122.94997750000012,42.92606259999997,0 -122.95219970000012,42.92770699999997,0 -122.95437110000012,42.928508599999965,0 -122.95498520000012,42.92860009999997,0 -122.95721450000013,42.92856369999996,0 -122.96205170000015,42.92959419999996,0 -122.96358700000015,42.929644899999964,0 -122.97428110000014,42.92789599999996,0 -122.97569760000013,42.92792819999996,0 -122.97707250000012,42.92821999999996,0 -122.98126010000013,42.930305699999955,0 -122.98560110000012,42.93202439999995,0 -122.98676930000013,42.93233599999996,0 -122.98784530000013,42.93242489999996,0 -122.99014440000013,42.932195399999955,0 -122.99073070000013,42.93223569999996,0 -122.99095270000015,42.93231239999996,0 -122.99133900000014,42.93259279999995,0 -122.99159350000014,42.933175499999955,0 -122.99117360000012,42.93509659999995,0 -122.99122810000013,42.936143399999956,0 -122.99205710000012,42.93772739999996,0 -122.99249230000014,42.938102899999954,0 -122.99302840000014,42.93832359999996,0 -122.99457540000014,42.938669699999956,0 -122.99775710000014,42.93886909999996,0 -123.00222870000015,42.94041399999996,0 -123.00338290000016,42.941053699999955,0 -123.00720840000015,42.94496859999995,0 -123.00806300000016,42.945382199999955,0 -123.00892720000016,42.94560639999995,0 -123.01026120000017,42.94568609999995,0 -123.01155780000016,42.94543839999995,0 -123.01268230000018,42.944893799999946,0 -123.01416140000016,42.94351869999995,0 -123.01679140000016,42.941930099999944,0 -123.01798950000016,42.94073459999994,0 -123.01911090000016,42.94010809999994,0 -123.02075100000015,42.93976659999994,0 -123.02587330000014,42.94027379999994,0 -123.03427640000014,42.939811899999945,0 -123.03664160000015,42.939283599999946,0 -123.03718010000016,42.939071899999945,0 -123.03793850000017,42.938537999999944,0 -123.03935630000015,42.93632529999995,0 -123.03952270000016,42.93574999999994,0 -123.03948920000016,42.93427679999994,0 -123.03966090000017,42.93342929999994,0 -123.03993940000016,42.93289089999995,0 -123.04051150000016,42.932238199999944,0 -123.04166660000017,42.93151019999995,0 -123.04292950000017,42.931135299999944,0 -123.05016090000018,42.93069319999994,0 -123.05591970000019,42.929500999999945,0 -123.0564380000002,42.92953789999994,0 -123.05894380000018,42.93028519999995,0 -123.06220460000019,42.93083859999995,0 -123.07016740000017,42.93505249999995,0 -123.07141900000016,42.935334999999945,0 -123.07492020000016,42.93564609999994,0 -123.07593660000015,42.93597629999995,0 -123.07733960000016,42.93688959999995,0 -123.07960330000016,42.937697199999945,0 -123.08143790000017,42.93884499999995,0 -123.08495230000017,42.939653199999945,0 -123.09091150000016,42.94187769999994,0 -123.09426560000016,42.94266009999994,0 -123.09768010000016,42.942854499999946,0 -123.10013830000015,42.94375869999995,0 -123.10137210000016,42.943942199999945,0 -123.10216610000016,42.943892199999944,0 -123.10418040000016,42.94342589999995,0 -123.10613230000017,42.942515899999954,0 -123.10960390000017,42.93981189999995,0 -123.11233700000015,42.93679979999995,0 -123.11299950000017,42.936371799999954,0 -123.11362710000017,42.936188199999954,0 -123.11411530000017,42.93614589999996,0 -123.11495750000014,42.93626469999995,0 -123.11723340000015,42.937418399999956,0 -123.11795020000014,42.937630399999954,0 -123.12028970000014,42.93774239999995,0 -123.12352450000013,42.93725049999995,0 -123.12532420000014,42.93724459999995,0 -123.12670290000013,42.93749009999995,0 -123.12714950000012,42.93767369999995,0 -123.12761350000012,42.938005499999946,0 -123.12795680000012,42.93851109999994,0 -123.12804270000014,42.938982399999944,0 -123.12786430000013,42.94008889999994,0 -123.12800110000013,42.94091949999994,0 -123.12825990000015,42.94132489999994,0 -123.12967680000015,42.94256949999995,0 -123.13197550000014,42.946254399999944,0 -123.13541470000014,42.95007859999995,0 -123.13944740000015,42.953877399999946,0 -123.14015550000015,42.954292599999945,0 -123.14500090000013,42.95564709999995,0 -123.14566880000012,42.95567659999995,0 -123.14631660000012,42.955549399999946,0 -123.14800900000012,42.95486289999995,0 -123.15052360000011,42.95326689999995,0 -123.15267750000011,42.95283509999995,0 -123.1566940000001,42.95158909999995,0 -123.1603624000001,42.949502199999955,0 -123.1609805000001,42.94938559999996,0 -123.1616378000001,42.949405999999954,0 -123.16227370000009,42.94958279999995,0 -123.1636715000001,42.95052539999995,0 -123.1643383000001,42.95081439999995,0 -123.16926060000009,42.952113299999944,0 -123.1699733000001,42.95245349999994,0 -123.1709272000001,42.95320889999994,0 -123.1715722000001,42.954214099999945,0 -123.1717198000001,42.95555089999994,0 -123.17125570000012,42.95671209999994,0 -123.17070720000012,42.95734319999994,0 -123.16843410000011,42.95885369999994,0 -123.16686630000012,42.96122389999994,0 -123.16483860000011,42.96326819999994,0 -123.1629530000001,42.96759799999994,0 -123.1629650000001,42.97105909999994,0 -123.1632480000001,42.97147909999994,0 -123.1638300000001,42.97179309999994,0 -123.1660268000001,42.97207469999994,0 -123.1670433000001,42.97245449999994,0 -123.1707247000001,42.973096199999944,0 -123.1712370000001,42.973055999999936,0 -123.17272960000011,42.97251829999993,0 -123.17327280000012,42.972494699999935,0 -123.1821817000001,42.976069299999935,0 -123.1838125000001,42.97643529999993,0 -123.1851777000001,42.97631369999993,0 -123.18658190000009,42.97647559999993,0 -123.18719070000009,42.97644219999992,0 -123.1954144000001,42.97444739999993,0 -123.1998199000001,42.97384389999993,0 -123.20805970000009,42.971324099999926,0 -123.20979100000008,42.97104829999993,0 -123.21992350000009,42.970420499999925,0 -123.22173020000008,42.96963359999993,0 -123.2274748000001,42.96485119999993,0 -123.22971860000008,42.96197529999993,0 -123.23102360000009,42.96078119999993,0 -123.23266790000008,42.95740019999993,0 -123.2337345000001,42.95624739999993,0 -123.23509880000009,42.95300729999993,0 -123.23922020000009,42.94777569999994,0 -123.24633840000008,42.94032439999993,0 -123.24698520000008,42.93997399999993,0 -123.24812440000007,42.93962439999993,0 -123.25350100000007,42.938876399999934,0 -123.25451630000008,42.93851919999993,0 -123.25517840000008,42.938099899999926,0 -123.25695120000007,42.93642449999993,0 -123.25778000000007,42.93600179999993,0 -123.26249000000007,42.93472619999993,0 -123.26403350000008,42.93406059999993,0 -123.26478870000008,42.933486099999925,0 -123.26719560000008,42.93006489999993,0 -123.26780690000008,42.92953999999993,0 -123.27000980000008,42.92838469999993,0 -123.26997830000008,42.92840359999993,0 -123.27116590000007,42.92792539999993,0 -123.27195630000008,42.92775109999993,0 -123.27566930000009,42.92763079999993,0 -123.27685740000007,42.92745609999994,0 -123.27938230000008,42.92644479999993,0 -123.2784088000001,42.92521709999993,0 -123.2789542000001,42.92497089999993,0 -123.2808342000001,42.92692449999993,0 -123.28094830000009,42.92696079999993,0 -123.2823775000001,42.92917079999993,0 -123.28529260000009,42.93787629999993,0 -123.2862548000001,42.93935269999993,0 -123.2950817000001,42.94713189999993,0 -123.29593950000007,42.94758199999993,0 -123.29675150000008,42.94784389999993,0 -123.29820780000009,42.948033199999934,0 -123.32702730000008,42.94804499999994,0 -123.3283197000001,42.948358099999936,0 -123.32964610000009,42.949153999999936,0 -123.3304003000001,42.95017569999994,0 -123.33061620000008,42.951246699999935,0 -123.33052630000007,42.951731899999935,0 -123.33003660000007,42.95265699999993,0 -123.32515260000007,42.95800429999993,0 -123.32473330000008,42.95905539999993,0 -123.32473780000008,42.95982009999993,0 -123.32494120000008,42.960455599999925,0 -123.32533390000009,42.961066599999924,0 -123.3262937000001,42.961881299999924,0 -123.3271781000001,42.96229939999993,0 -123.33107050000011,42.963417199999924,0 -123.3329831000001,42.964244899999926,0 -123.3349308000001,42.965609899999926,0 -123.33583110000009,42.96661769999993,0 -123.3365636000001,42.96792499999993,0 -123.3369412000001,42.96975709999993,0 -123.33680200000009,42.97106419999994,0 -123.33125390000009,42.984586499999935,0 -123.32449440000009,42.99411019999994,0 -123.32362950000011,42.99500119999993,0 -123.3022893000001,43.01011329999994,0 -123.30122450000012,43.01117989999993,0 -123.3006399000001,43.012169999999934,0 -123.30036320000009,43.01311669999993,0 -123.30040310000011,43.01456519999993,0 -123.30165190000011,43.01781239999993,0 -123.3017104000001,43.01930929999993,0 -123.3009704000001,43.02082329999993,0 -123.30022370000009,43.021533499999926,0 -123.2981644000001,43.02287339999993,0 -123.29778510000011,43.02332709999993,0 -123.29760830000012,43.023853299999935,0 -123.29763110000012,43.024322699999935,0 -123.29796570000012,43.024973799999934,0 -123.30010350000013,43.02645849999993,0 -123.30165570000013,43.02904059999993,0 -123.30224870000013,43.02956609999993,0 -123.30332160000013,43.03012109999993,0 -123.30464190000012,43.03041589999993,0 -123.30568500000012,43.030435099999934,0 -123.31347550000014,43.02970229999993,0 -123.31541960000013,43.029898199999934,0 -123.31913800000014,43.03095289999993,0 -123.32931170000015,43.03479309999993,0 -123.33080290000014,43.035718899999935,0 -123.33164330000014,43.03648479999993,0 -123.33251510000014,43.03760889999994,0 -123.33326510000012,43.039477599999934,0 -123.33337000000013,43.04077069999994,0 -123.33121430000013,43.04860499999994,0 -123.33137330000012,43.051299999999934,0 -123.33185410000011,43.052693799999936,0 -123.33314530000013,43.05476609999994,0 -123.33467700000014,43.05629089999994,0 -123.33613950000013,43.05732819999993,0 -123.33769310000012,43.05815759999993,0 -123.34394310000013,43.06065559999993,0 -123.34546740000012,43.061502099999935,0 -123.3468744000001,43.06262619999993,0 -123.35436280000012,43.070846899999935,0 -123.36277650000011,43.078549999999936,0 -123.36372250000011,43.079657799999936,0 -123.36761380000013,43.089175799999936,0 -123.36778470000012,43.09100379999994,0 -123.3668510000001,43.10238579999994,0 -123.36657820000012,43.10322149999994,0 -123.36587500000012,43.10409519999994,0 -123.3650736000001,43.10460759999994,0 -123.36376370000012,43.10500769999994,0 -123.36018750000012,43.10523159999994,0 -123.35899660000013,43.105478199999936,0 -123.35776960000014,43.10609779999994,0 -123.35524330000013,43.108909099999934,0 -123.35476490000013,43.10971569999994,0 -123.35459520000013,43.110798299999935,0 -123.35478170000015,43.111437799999926,0 -123.35515170000016,43.11202609999993,0 -123.35766580000015,43.11459079999994,0 -123.35890930000015,43.117394099999935,0 -123.36326930000013,43.12406339999994,0 -123.36375790000014,43.12530359999994,0 -123.36546810000013,43.16547869999994,0 -123.36635950000013,43.16818669999994,0 -123.37361290000013,43.18065809999994,0 -123.37398540000014,43.18187929999994,0 -123.37402680000014,43.182587299999945,0 -123.37378730000015,43.18388799999994,0 -123.37254590000016,43.18590549999994,0 -123.37007180000015,43.18828619999994,0 -123.36491650000015,43.19140719999994,0 -123.36310090000016,43.19285669999994,0 -123.36064420000017,43.19599799999994,0 -123.35955170000015,43.19860399999994,0 -123.35874390000016,43.206694199999944,0 -123.35835590000015,43.20758539999994,0 -123.35740260000016,43.20877979999994,0 -123.35557940000015,43.21036969999994,0 -123.35492650000016,43.21123259999994,0 -123.35469240000016,43.21211039999994,0 -123.35494100000015,43.21328939999994,0 -123.35858370000017,43.22063319999994,0 -123.36144510000018,43.22860429999994,0 -123.36155380000018,43.229818499999936,0 -123.36063120000019,43.23601219999994,0 -123.3595474000002,43.25608319999994,0 -123.35904000000018,43.25919979999994,0 -123.35510380000017,43.27389769999994,0 -123.35597800000016,43.28662969999994,0 -123.35552780000017,43.288135299999944,0 -123.35070120000016,43.297019299999945,0 -123.34979370000018,43.299499399999945,0 -123.34645140000016,43.31837139999995,0 -123.34532000000016,43.321433299999946,0 -123.34312910000017,43.32537249999994,0 -123.32881730000017,43.34514369999994,0 -123.32848710000016,43.34639949999994,0 -123.32850620000016,43.350118699999946,0 -123.32727390000015,43.35572319999994,0 -123.32825670000015,43.36226109999994,0 -123.32947470000016,43.36602289999994,0 -123.33165580000015,43.37005849999994,0 -123.33613420000015,43.37547669999994,0 -123.33744800000015,43.377555699999945,0 -123.33823250000016,43.38041439999995,0 -123.33565470000016,43.40222099999995,0 -123.33530640000016,43.40309039999995,0 -123.32000660000018,43.42282389999995,0 -123.31909240000019,43.42467159999995,0 -123.31848370000019,43.42957839999995,0 -123.31809050000018,43.430388799999946,0 -123.3145060000002,43.43392899999995,0 -123.31380640000019,43.435024199999944,0 -123.3135885000002,43.43621149999994,0 -123.31374390000019,43.43708379999995,0 -123.31451510000018,43.43838749999994,0 -123.32211950000018,43.446211199999944,0 -123.3226461000002,43.44701109999994,0 -123.32504950000019,43.454796499999944,0 -123.32497990000019,43.45594999999994,0 -123.3244754000002,43.457010899999936,0 -123.3165913000002,43.46753079999994,0 -123.3161198000002,43.46866889999994,0 -123.3158938000002,43.47096909999994,0 -123.3163351000002,43.472686499999945,0 -123.31697490000019,43.47385709999994,0 -123.3221775000002,43.47956419999994,0 -123.3260829000002,43.48543169999994,0 -123.32938910000018,43.48886579999995,0 -123.33001590000018,43.48977259999995,0 -123.33034460000019,43.49106739999995,0 -123.33019900000019,43.49204269999995,0 -123.32951040000017,43.493237099999945,0 -123.32373920000019,43.49879969999995,0 -123.31895780000019,43.50479159999995,0 -123.31614750000018,43.51014709999995,0 -123.31183400000019,43.52380869999995,0 -123.31140210000018,43.52463589999994,0 -123.31046230000018,43.52560369999995,0 -123.30921670000018,43.526300799999945,0 -123.30425450000018,43.52741419999995,0 -123.30252460000018,43.52821819999995,0 -123.3013578000002,43.52906149999995,0 -123.2988527000002,43.531716999999944,0 -123.29436870000019,43.53477989999995,0 -123.2923764000002,43.536718699999945,0 -123.2915003000002,43.53812489999995,0 -123.28099630000018,43.561944499999946,0 -123.28002540000018,43.56331069999995,0 -123.25124680000019,43.589447899999946,0 -123.2474816000002,43.59229999999995,0 -123.2234820000002,43.60639929999995,0 -123.22135990000021,43.60814029999995,0 -123.2162016000002,43.61359679999995,0 -123.21485510000021,43.61589129999995,0 -123.21445780000019,43.61762359999995,0 -123.2145912000002,43.61970769999995,0 -123.21506410000019,43.62110089999995,0 -123.21899660000018,43.62731299999995,0 -123.21940740000018,43.62838009999995,0 -123.21957950000018,43.62951629999995,0 -123.21936720000018,43.63115709999995,0 -123.2112173000002,43.64913739999995,0 -123.2032904000002,43.66083469999995,0 -123.20286130000021,43.66183009999995,0 -123.2025682000002,43.66327709999995,0 -123.2028546000002,43.66830899999996,0 -123.20238640000021,43.670074399999955,0 -123.19759810000022,43.67969189999995,0 -123.19752330000021,43.681187899999955,0 -123.19778750000022,43.68195019999995,0 -123.19965530000023,43.68450469999995,0 -123.19996460000023,43.685333999999955,0 -123.20005980000022,43.68669019999995,0 -123.19933130000022,43.69055189999995,0 -123.19967050000021,43.69209349999995,0 -123.2043525000002,43.70253239999995,0 -123.20516620000019,43.703634799999946,0 -123.2065346000002,43.70483359999995,0 -123.2076050000002,43.70548219999995,0 -123.20963250000018,43.70629499999995,0 -123.21465700000019,43.707314399999944,0 -123.21607360000017,43.70777999999995,0 -123.21675550000018,43.70816229999995,0 -123.21757300000017,43.70887149999995,0 -123.21826240000016,43.71013229999995,0 -123.21832000000018,43.711161999999945,0 -123.21801950000017,43.712077599999944,0 -123.21767480000017,43.712604199999944,0 -123.19731330000018,43.733371899999945,0 -123.19420500000018,43.73524969999995,0 -123.18949630000019,43.737037199999946,0 -123.1871362000002,43.73822859999995,0 -123.1850804000002,43.73968589999995,0 -123.18396600000021,43.74072019999994,0 -123.18250850000021,43.74253509999994,0 -123.18090070000021,43.74539219999994,0 -123.18039270000021,43.745935199999934,0 -123.17487280000022,43.74970029999994,0 -123.17328590000022,43.750336099999934,0 -123.17178390000021,43.750578799999936,0 -123.16645430000023,43.75088809999993,0 -123.16530900000022,43.75120539999993,0 -123.16252880000023,43.752339699999936,0 -123.16123160000022,43.75262759999994,0 -123.15380030000023,43.75282079999994,0 -123.15230230000024,43.752652799999936,0 -123.14937440000024,43.751764299999934,0 -123.14757490000024,43.751497499999935,0 -123.14619890000024,43.751516999999936,0 -123.14472030000023,43.75175329999993,0 -123.14374250000023,43.75204699999993,0 -123.14117710000022,43.75322759999994,0 -123.13991430000021,43.753591599999936,0 -123.13856880000023,43.75369689999994,0 -123.13722790000021,43.75354289999994,0 -123.1253412000002,43.75034689999995,0 -123.12264350000021,43.749938199999946,0 -123.11292980000022,43.750291899999944,0 -123.11122240000022,43.75061329999994,0 -123.06749590000021,43.767438199999944,0 -123.0653627000002,43.76847899999994,0 -123.06370300000019,43.76955109999994,0 -123.06137510000019,43.77167079999994,0 -123.05976730000019,43.77401059999994,0 -123.0536293000002,43.78654569999994,0 -123.05297680000021,43.79017639999994,0 -123.0525270000002,43.79097039999994,0 -123.04823400000019,43.79491919999994,0 -123.04610690000018,43.79771149999994,0 -123.0127845000002,43.86815269999994,0 -123.0125744000002,43.869649499999944,0 -123.0147140000002,43.896869499999944,0 -123.01459730000019,43.90039029999994,0 -123.00866010000017,43.94405599999995,0 -123.01185710000017,43.96728749999995,0 -123.01162850000017,43.96966739999995,0 -123.00547270000018,43.993397099999946,0 -123.00542150000018,43.99459289999995,0 -123.00582610000019,43.99599759999995,0 -123.0062449000002,43.99670249999995,0 -123.00738580000021,43.99787569999995,0 -123.00891730000022,43.99877849999995,0 -123.01625560000022,44.00152849999996,0 -123.01714630000022,44.002045699999954,0 -123.01813990000021,44.00287839999995,0 -123.01921330000022,44.00444119999995,0 -123.02912240000022,44.02706029999995,0 -123.0301056000002,44.031775799999956,0 -123.03057550000021,44.03270149999995,0 -123.0311124000002,44.033313999999955,0 -123.0319645000002,44.03394969999995,0 -123.0335252000002,44.03460939999996,0 -123.0349684000002,44.03485569999995,0 -123.0419967000002,44.035018899999955,0 -123.0435598000002,44.03536709999995,0 -123.04475820000019,44.03580559999995,0 -123.04633340000018,44.03669279999995,0 -123.04757410000018,44.037807699999945,0 -123.04866090000019,44.03939179999995,0 -123.04964560000019,44.04204929999995,0 -123.05002950000018,44.05479039999995,0 -123.04401290000017,44.10582189999995,0 -123.04419990000018,44.10768749999995,0 -123.06027620000017,44.17136369999995,0 -123.06228410000018,44.64598829999995,0 -123.05788390000019,44.67025879999995,0 -123.05326520000018,44.684002099999944,0 -123.05273740000018,44.68647779999995,0 -123.05196670000018,44.702349899999945,0 -123.05410410000017,44.71121529999994,0 -123.05453230000019,44.71593899999995,0 -123.05101550000019,44.751831499999945,0 -123.0498843000002,44.75658789999995,0 -123.0253849000002,44.814952399999946,0 -123.02371380000022,44.81778279999995,0 -123.02109990000021,44.820955999999946,0 -123.01341560000022,44.82761959999994,0 -123.0110848000002,44.83029539999994,0 -123.00906470000021,44.83406639999994,0 -123.00839920000021,44.836466599999945,0 -123.0081818000002,44.83937039999994,0 -123.00935710000022,44.84886319999994,0 -123.01169060000021,44.85431929999994,0 -123.01194040000021,44.855866199999944,0 -123.01188080000023,44.85730009999994,0 -123.01118540000023,44.85961009999994,0 -123.01024840000024,44.86117459999994,0 -123.00235250000024,44.86984989999994,0 -123.00132190000025,44.87134599999994,0 -123.00029870000026,44.87351359999994,0 -122.99785870000025,44.88613279999994,0 -122.99718840000025,44.887687299999946,0 -122.99560590000024,44.88969399999994,0 -122.99445260000024,44.890661599999945,0 -122.98834800000024,44.89416899999994,0 -122.98699740000023,44.89520909999994,0 -122.98533560000023,44.89717049999994,0 -122.98463260000023,44.89863839999994,0 -122.98426990000023,44.900620799999935,0 -122.98432580000022,44.90163779999993,0 -122.98971990000022,44.920198499999934,0 -122.99003340000023,44.92226009999994,0 -122.99008870000024,44.97459349999994,0 -122.99045930000024,44.97610049999994,0 -122.99536740000023,44.98696129999993,0 -122.99942550000021,44.992001299999934,0 -123.00027340000021,44.99399349999993,0 -123.0004527000002,44.99667709999993,0 -123.0000110000002,44.99842669999993,0 -122.9604009000002,45.071941999999936,0 -122.9594169000002,45.073283799999935,0 -122.83658900000019,45.19443879999993,0 -122.8159980000002,45.22339499999993,0 -122.7698273000002,45.27957179999993,0 -122.76943840000021,45.28052469999993,0 -122.7690978000002,45.33763799999993,0 -122.7679742000002,45.34345069999993,0 -122.7449532000002,45.40177079999993,0 -122.74437940000018,45.40390359999992,0 -122.74387740000019,45.407979499999925,0 -122.7440877000002,45.43682389999992,0 -122.7438825000002,45.43801789999992,0 -122.7425779000002,45.44040739999993,0 -122.73967890000019,45.44371649999992,0 -122.73888740000017,45.444274799999924,0 -122.73764430000017,45.44480879999992,0 -122.73414340000016,45.44558889999992,0 -122.73278180000017,45.446085999999916,0 -122.73108600000018,45.447163299999914,0 -122.73040950000018,45.44785489999992,0 -122.72798370000018,45.45148919999992,0 -122.72639280000017,45.45268759999992,0 -122.72463910000018,45.45332729999992,0 -122.72302730000018,45.45354529999992,0 -122.71879940000018,45.45342699999991,0 -122.71762110000019,45.45355319999992,0 -122.71638120000019,45.45389159999991,0 -122.69513080000019,45.465517699999914,0 -122.6919397000002,45.467607499999914,0 -122.6902831000002,45.46925919999991,0 -122.6892105000002,45.46989279999991,0 -122.68823110000021,45.470138199999916,0 -122.68557130000022,45.47026229999991,0 -122.68123440000022,45.46960269999992,0 -122.68018630000022,45.469559199999914,0 -122.67917140000023,45.469750799999915,0 -122.67806790000023,45.47032629999991,0 -122.67759860000024,45.47079529999991,0 -122.67724570000024,45.47163669999991,0 -122.67730000000024,45.472367699999914,0 -122.67854230000023,45.47584169999992,0 -122.67915460000023,45.48557609999992,0 -122.67882610000025,45.48684129999992,0 -122.67813550000025,45.487642599999916,0 -122.67564950000025,45.48958989999991,0 -122.67416320000025,45.49148669999991,0 -122.67354550000024,45.49309969999991,0 -122.67315710000024,45.498569899999914,0 -122.67323980000025,45.498668399999914,0 -122.67326920000025,45.50065219999991,0 -122.67405910000025,45.504105399999915,0 -122.67448120000026,45.50467109999991,0 -122.67491030000025,45.50498239999991,0 -122.67585890000025,45.505348099999914,0 -122.67962920000024,45.50568719999991,0 -122.68104980000024,45.50601019999991,0 -122.68185060000023,45.50634499999991,0 -122.68730720000023,45.50995949999991,0 -122.68838740000024,45.511017199999905,0 -122.68903300000022,45.512020399999905,0 -122.68938410000024,45.513198199999906,0 -122.68930420000025,45.5139585999999,0 -122.68564530000026,45.521050899999906,0 -122.68558530000024,45.521991899999904,0 -122.68580200000025,45.52264419999991,0 -122.68574600000025,45.52273829999991,0 -122.68582210000025,45.52354469999991,0 -122.68520070000024,45.5244931999999,0 -122.68525780000024,45.5250426999999,0 -122.67748740000023,45.525180399999904,0 -122.67741220000022,45.5231969999999,0 -122.67756780000022,45.5227771999999,0 -122.67787790000021,45.5225126999999,0 </coordinates></LineString><TimeSpan><begin>2019-11-28T20:59:45.000Z</begin><end>2019-11-29T01:55:18.533Z</end></TimeSpan></Placemark><Placemark><name>Saucebox</name><address>214 SW Broadway, Portland, OR 97205</address><ExtendedData><Data name="Email"><value>syugen.zhou@gmail.com</value></Data><Data name="Category"><value>Asian</value></Data><Data name="Distance"><value>0</value></Data></ExtendedData><description> Asian from 2019-11-29T01:55:18.533Z to 2019-11-29T03:22:36.836Z. Distance 0m </description><Point><coordinates>-122.67771429999999,45.5223539,0</coordinates></Point><TimeSpan><begin>2019-11-29T01:55:18.533Z</begin><end>2019-11-29T03:22:36.836Z</end></TimeSpan></Placemark><Placemark><name>Driving</name><address></address><ExtendedData><Data name="Email"><value>syugen.zhou@gmail.com</value></Data><Data name="Category"><value>Driving</value></Data><Data name="Distance"><value>8556</value></Data></ExtendedData><description> Driving from 2019-11-29T03:22:36.836Z to 2019-11-29T03:33:29.000Z. Distance 8556m </description><LineString><altitudeMode>clampToGround</altitudeMode><extrude>1</extrude><tesselate>1</tesselate><coordinates>-122.67678859999998,45.5224719,0 -122.67672209999999,45.5225482,0 -122.67668259999999,45.522610300000004,0 -122.6765303,45.5229156,0 -122.67647939999999,45.5230594,0 -122.67647,45.523121399999994,0 -122.67900839999999,45.5230609,0 -122.6793896,45.5230105,0 -122.6809131,45.5229962,0 -122.6817913,45.522963700000005,0 -122.6852415,45.522914500000006,0 -122.6852592,45.52300410000001,0 -122.68526100000001,45.52309220000001,0 -122.685271,45.523140100000006,0 -122.68531330000002,45.52320930000001,0 -122.6853573,45.52325540000001,0 -122.6859259,45.52376490000001,0 -122.68604030000002,45.523882500000006,0 -122.6861768,45.524048300000004,0 -122.68633250000002,45.524299600000006,0 -122.68642200000002,45.524492300000006,0 -122.68649530000003,45.52478020000001,0 -122.68660450000003,45.52580410000001,0 -122.68666750000001,45.5262109,0 -122.68667360000002,45.5262207,0 -122.68674760000003,45.526257300000005,0 -122.68681560000002,45.52876400000001,0 -122.68680510000002,45.52916690000001,0 -122.68693740000002,45.532800900000005,0 -122.68694400000003,45.53384510000001,0 -122.68691120000003,45.534169000000006,0 -122.68688280000002,45.534291800000005,0 -122.68680490000001,45.534518600000006,0 -122.68665770000003,45.534761100000004,0 -122.68640240000002,45.5350673,0 -122.6860608,45.53535050000001,0 -122.68605720000001,45.5353556,0 -122.6860383,45.5354272,0 -122.67970980000001,45.540641,0 -122.67895880000002,45.541175800000005,0 -122.67881210000002,45.5413058,0 -122.67842360000002,45.5416052,0 -122.678026,45.5419415,0 -122.67798350000001,45.5419843,0 -122.67768020000001,45.542222699999996,0 -122.6770709,45.5427939,0 -122.6765982,45.543308399999994,0 -122.6765144,45.5434238,0 -122.67638579999999,45.543634499999996,0 -122.67633889999998,45.5437322,0 -122.67626619999999,45.5439675,0 -122.67623239999998,45.544177399999995,0 -122.67623189999999,45.5443935,0 -122.67624599999999,45.5445085,0 -122.6762965,45.5447186,0 -122.67638850000002,45.5449442,0 -122.67650640000002,45.5451471,0 -122.67672900000002,45.545437899999996,0 -122.67796790000001,45.546822299999995,0 -122.6781337,45.54703779999999,0 -122.67823850000002,45.54721059999999,0 -122.6783419,45.547413999999996,0 -122.6783862,45.5475249,0 -122.67845419999999,45.547742299999996,0 -122.6785248,45.54815029999999,0 -122.67861780000001,45.54821559999999,0 -122.67857370000002,45.54893129999999,0 -122.67845030000002,45.5602945,0 -122.67854180000002,45.5648102,0 -122.67852900000001,45.569233,0 -122.67851230000002,45.5692781,0 -122.67856070000002,45.571629099999996,0 -122.67846110000002,45.5812964,0 -122.67850680000004,45.582063999999995,0 -122.67856680000004,45.582504899999996,0 -122.67870190000004,45.583145699999996,0 -122.67890480000003,45.5838049,0 -122.67914970000004,45.5844282,0 -122.68133890000003,45.589267899999996,0 -122.68141610000002,45.5893916,0 -122.68210500000004,45.5909091,0 -122.68205650000003,45.5910302,0 -122.68297200000002,45.5937111,0 -122.68312230000002,45.59423099999999,0 -122.68317030000004,45.594488199999994,0 -122.68318230000003,45.594783199999995,0 -122.68278150000002,45.5947258,0 -122.68270180000003,45.594704799999995,0 -122.68261400000003,45.594671899999994,0 -122.68252990000003,45.5946108,0 -122.68243110000004,45.594554200000005,0 -122.68238520000004,45.594469600000004,0 -122.68195300000004,45.5935188,0 -122.68183020000004,45.5932893,0 -122.68092780000003,45.5935184,0 -122.68085170000005,45.5935463,0 -122.68080290000005,45.5935835,0 -122.68077560000005,45.59361750000001,0 -122.68057160000006,45.593692600000004,0 -122.68065980000004,45.593875000000004,0 </coordinates></LineString><TimeSpan><begin>2019-11-29T03:22:36.836Z</begin><end>2019-11-29T03:33:29.000Z</end></TimeSpan></Placemark><Placemark><name>Best Western Inn At The Meadows</name><address>1215 N Hayden Meadows Dr, Portland, OR 97217</address><ExtendedData><Data name="Email"><value>syugen.zhou@gmail.com</value></Data><Data name="Category"><value>Hotel</value></Data><Data name="Distance"><value>0</value></Data></ExtendedData><description> Hotel from 2019-11-29T03:33:29.000Z to 2019-11-29T17:57:36.999Z. Distance 0m </description><Point><coordinates>-122.6806919,45.5942849,0</coordinates></Point><TimeSpan><begin>2019-11-29T03:33:29.000Z</begin><end>2019-11-29T17:57:36.999Z</end></TimeSpan></Placemark></Document></kml>
