<?xml version="1.0" encoding="UTF-8"?><kml xmlns="http://www.opengis.net/kml/2.2" xmlns:gx="http://www.google.com/kml/ext/2.2"><Document><name> Location history from 2019-11-30 to 2019-11-30 </name><open>1</open><description></description><StyleMap id="multiTrack"><Pair><key>normal</key><styleUrl>#multiTrack_n</styleUrl></Pair><Pair><key>highlight</key><styleUrl>#multiTrack_h</styleUrl></Pair></StyleMap><Style id="multiTrack_n"><IconStyle><Icon><href>https://earth.google.com/images/kml-icons/track-directional/track-0.png</href></Icon></IconStyle><LineStyle><color>99ffac59</color><width>6</width></LineStyle></Style><Style id="multiTrack_h"><IconStyle><scale>1.2</scale><Icon><href>https://earth.google.com/images/kml-icons/track-directional/track-0.png</href></Icon></IconStyle><LineStyle><color>99ffac59</color><width>8</width></LineStyle></Style><Placemark><name>Best Western Inn At The Meadows</name><address>1215 N Hayden Meadows Dr, Portland, OR 97217</address><ExtendedData><Data name="Email"><value>syugen.zhou@gmail.com</value></Data><Data name="Category"><value>Hotel</value></Data><Data name="Distance"><value>0</value></Data></ExtendedData><description> Hotel from 2019-11-30T03:46:30.000Z to 2019-11-30T17:46:00.000Z. Distance 0m </description><Point><coordinates>-122.6806919,45.5942849,0</coordinates></Point><TimeSpan><begin>2019-11-30T03:46:30.000Z</begin><end>2019-11-30T17:46:00.000Z</end></TimeSpan></Placemark><Placemark><name>Driving</name><address></address><ExtendedData><Data name="Email"><value>syugen.zhou@gmail.com</value></Data><Data name="Category"><value>Driving</value></Data><Data name="Distance"><value>202019</value></Data></ExtendedData><description> Driving from 2019-11-30T17:46:00.000Z to 2019-11-30T20:10:35.000Z. Distance 202019m </description><LineString><altitudeMode>clampToGround</altitudeMode><extrude>1</extrude><tesselate>1</tesselate><coordinates>-122.6806859,45.594134,0 -122.6809744,45.594111299999994,0 -122.68100329999999,45.59408919999999,0 -122.6807756,45.59361749999999,0 -122.68085169999999,45.59354629999999,0 -122.68183019999998,45.59328929999999,0 -122.68243109999999,45.59455419999999,0 -122.682424,45.594651699999986,0 -122.68268269999999,45.59480649999999,0 -122.68320519999997,45.59489409999998,0 -122.68337829999997,45.594876099999986,0 -122.68453139999997,45.595011699999986,0 -122.68442309999999,45.594509899999984,0 -122.68247299999999,45.59102989999999,0 -122.68235299999999,45.590993699999984,0 -122.6790598,45.583582599999986,0 -122.67869950000001,45.581607699999985,0 -122.67880610000002,45.54872959999999,0 -122.6787651,45.548674699999985,0 -122.678718,45.547681099999984,0 -122.6785626,45.547131399999984,0 -122.678107,45.54631509999999,0 -122.67758779999998,45.54575409999999,0 -122.6722084,45.54126429999999,0 -122.6666781,45.53471419999999,0 -122.66569809999999,45.53294779999999,0 -122.66535569999999,45.53132989999999,0 -122.6657085,45.52137339999999,0 -122.66577190000001,45.521301499999986,0 -122.66694470000002,45.51799709999998,0 -122.66802910000001,45.51337069999998,0 -122.66779900000003,45.51212819999998,0 -122.66689750000003,45.510943199999986,0 -122.66671560000003,45.51053309999999,0 -122.66669400000004,45.510166199999986,0 -122.66692180000003,45.50945689999999,0 -122.66715710000003,45.509168899999985,0 -122.67073820000005,45.506952699999985,0 -122.67314200000004,45.50576809999999,0 -122.67404970000004,45.50493119999999,0 -122.67446380000005,45.504101199999994,0 -122.67455650000004,45.503443399999995,0 -122.67440810000005,45.502246099999994,0 -122.67363690000006,45.499902299999995,0 -122.67354000000006,45.497625199999995,0 -122.67345950000005,45.497576099999996,0 -122.67365020000005,45.493352599999994,0 -122.67394840000006,45.49233419999999,0 -122.67451330000006,45.49120289999999,0 -122.67539220000005,45.490057499999985,0 -122.67839350000006,45.487575599999985,0 -122.67876870000005,45.487157199999984,0 -122.67911340000005,45.48656719999998,0 -122.67930480000005,45.485607499999986,0 -122.67878180000005,45.476077899999986,0 -122.67744740000005,45.47226339999999,0 -122.67746260000006,45.47142299999999,0 -122.67779990000005,45.47079119999999,0 -122.67824440000005,45.47037379999999,0 -122.67915450000005,45.46989429999999,0 -122.67991690000005,45.46971309999999,0 -122.68121320000006,45.469720099999996,0 -122.68464520000008,45.47029589999999,0 -122.68608500000006,45.47039979999999,0 -122.68838400000007,45.47023399999999,0 -122.68914350000006,45.47004859999999,0 -122.69002530000007,45.4696323,0 -122.69188960000008,45.4678429,0 -122.69522410000008,45.4656401,0 -122.71620250000007,45.4540974,0 -122.71722240000005,45.4537593,0 -122.71846680000004,45.4535637,0 -122.72223980000005,45.453679900000004,0 -122.72364480000006,45.4536187,0 -122.72462220000008,45.4534586,0 -122.72597200000008,45.453030999999996,0 -122.72742650000006,45.452196099999995,0 -122.72812290000006,45.451558999999996,0 -122.73056950000004,45.4478952,0 -122.73167370000006,45.4468797,0 -122.73246040000005,45.446392599999996,0 -122.73365930000006,45.44587059999999,0 -122.73749360000005,45.444981299999995,0 -122.73854000000006,45.444617199999996,0 -122.73930040000005,45.4442039,0 -122.74008320000004,45.44358679999999,0 -122.74266910000004,45.4405868,0 -122.74356400000005,45.439246999999995,0 -122.74423380000005,45.4375141,0 -122.74415500000003,45.407605499999995,0 -122.74445620000003,45.404879,0 -122.74527320000003,45.4016035,0 -122.76812820000002,45.3442711,0 -122.76887080000002,45.3418792,0 -122.76946980000002,45.3384758,0 -122.76958580000002,45.281992100000004,0 -122.76995930000001,45.2805337,0 -122.77110420000001,45.2783854,0 -122.81641300000001,45.2234674,0 -122.83454520000002,45.197606099999994,0 -122.83799360000003,45.1933806,0 -122.95897510000003,45.0743167,0 -122.96095570000003,45.071766,0 -122.99694180000003,45.0050636,0 -122.99705100000003,45.0050169,0 -122.99943440000003,45.0016863,0 -122.99989770000002,45.001280799999996,0 -123.00229890000001,44.999793499999996,0 -123.00351110000003,44.9986891,0 -123.00415040000003,44.997666,0 -123.00451760000001,44.9964199,0 -123.00527210000001,44.9900941,0 -123.00580010000002,44.988492400000005,0 -123.00920740000002,44.982401100000004,0 -123.01102000000002,44.980048100000005,0 -123.01269380000002,44.9784829,0 -123.02068920000004,44.9731292,0 -123.02159280000002,44.9727029,0 -123.02503400000002,44.97171620000001,0 -123.02574990000002,44.97130010000001,0 -123.02614330000002,44.97095100000001,0 -123.02764700000002,44.968419700000005,0 -123.02837290000001,44.96782590000001,0 -123.03213920000002,44.96610350000001,0 -123.03240840000001,44.96584990000001,0 -123.0326216,44.96532810000001,0 -123.0327991,44.956563300000006,0 -123.03564500000002,44.95084550000001,0 -123.03571580000002,44.95006490000001,0 -123.03825990000003,44.94481850000001,0 -123.04461080000003,44.94635830000001,0 -123.04532250000003,44.94628100000001,0 -123.04637300000002,44.94592580000001,0 -123.04898000000001,44.944258000000005,0 -123.05022800000002,44.9436084,0 -123.05550410000001,44.94147660000001,0 -123.0612301,44.938594,0 -123.064009,44.9366843,0 -123.0647442,44.9363235,0 -123.06562940000002,44.9360639,0 -123.0706488,44.9356771,0 -123.07170169999999,44.935383599999994,0 -123.07277489999998,44.9347673,0 -123.07438739999999,44.9333768,0 -123.07453189999998,44.933155199999995,0 -123.07755579999998,44.930575899999994,0 -123.07866849999999,44.929894399999995,0 -123.07963589999999,44.9295105,0 -123.08031599999998,44.9293359,0 -123.08132369999998,44.929213999999995,0 -123.08231709999998,44.92922289999999,0 -123.08392209999998,44.929419499999995,0 -123.0867409,44.93003769999999,0 -123.0946354,44.9325536,0 -123.09567930000001,44.93275619999999,0 -123.0968313,44.932777699999995,0 -123.10230920000002,44.931638,0 -123.10289140000002,44.931584,0 -123.10909120000001,44.931983800000005,0 -123.11005710000002,44.931927300000005,0 -123.1115211,44.9315906,0 -123.1116147,44.93151,0 -123.11361760000001,44.9309146,0 -123.11424180000002,44.9308286,0 -123.1154709,44.93083819999999,0 -123.1260135,44.93212929999999,0 -123.1412388,44.93253549999999,0 -123.14533079999998,44.93299939999999,0 -123.152109,44.932734399999994,0 -123.15838509999999,44.932887699999995,0 -123.15866499999998,44.93295169999999,0 -123.22237599999997,44.93470229999999,0 -123.22598559999999,44.93499969999999,0 -123.22950999999999,44.93504949999999,0 -123.23002029999999,44.93513979999999,0 -123.23026229999998,44.93526649999999,0 -123.23044009999998,44.935447199999984,0 -123.23053559999998,44.935706799999984,0 -123.23039229999999,44.93608109999999,0 -123.23010499999998,44.93629039999999,0 -123.22984499999997,44.93637409999999,0 -123.22950119999997,44.93639119999999,0 -123.22920989999997,44.93632669999999,0 -123.22898459999999,44.93622169999999,0 -123.22880099999999,44.93606619999999,0 -123.22856439999998,44.935505099999986,0 -123.22937519999999,44.82852069999999,0 -123.22905639999999,44.82702229999999,0 -123.2271344,44.82191809999999,0 -123.22674110000001,44.81887259999999,0 -123.2292468,44.77830329999999,0 -123.2287929,44.774212699999985,0 -123.22321460000002,44.749667999999986,0 -123.22312290000004,44.744089999999986,0 -123.25856730000002,44.74402139999999,0 -123.25913980000003,44.74383919999998,0 -123.26028790000004,44.743181499999984,0 -123.26065420000003,44.74306489999998,0 -123.26112080000003,44.742999699999984,0 -123.28650280000004,44.742920699999985,0 -123.29733000000004,44.741179299999985,0 -123.29802920000006,44.74098209999998,0 -123.30565750000005,44.73627779999998,0 -123.30631140000006,44.736010599999986,0 -123.30729920000005,44.73595949999998,0 -123.30802770000004,44.73603089999998,0 -123.31108770000002,44.73676369999998,0 -123.31155480000004,44.73694829999998,0 -123.31855860000002,44.742900699999986,0 -123.33134030000001,44.75047619999999,0 -123.33497860000001,44.747368499999986,0 -123.33575750000001,44.74684719999998,0 -123.33651180000001,44.74650829999999,0 -123.33767400000002,44.74622449999998,0 -123.34016550000001,44.746039199999984,0 -123.3417881,44.74546179999998,0 -123.34244650000001,44.74497779999999,0 -123.34457840000002,44.74225039999999,0 -123.34724660000002,44.740501299999984,0 -123.34779540000004,44.739985799999985,0 -123.34834910000005,44.73886989999998,0 -123.34884170000005,44.73828479999998,0 -123.35065490000004,44.73683539999998,0 -123.35111270000004,44.73627549999998,0 -123.35271040000003,44.731988099999974,0 -123.35260700000003,44.73112769999997,0 -123.35141270000003,44.728268299999975,0 -123.35135920000003,44.72754699999997,0 -123.35159980000003,44.72677639999998,0 -123.35267570000003,44.724583599999974,0 -123.35278860000003,44.72383179999998,0 -123.35245590000002,44.721802499999974,0 -123.35255290000003,44.721353199999974,0 -123.35284430000003,44.72081179999998,0 -123.35443730000001,44.718734399999974,0 -123.35507540000002,44.71809139999998,0 -123.35566960000003,44.71772549999998,0 -123.35662260000002,44.717429799999984,0 -123.36532090000003,44.71572639999998,0 -123.36668970000004,44.71527689999998,0 -123.38235970000004,44.70881369999998,0 -123.38294550000005,44.70840309999998,0 -123.38322780000003,44.70798459999998,0 -123.38332070000001,44.70762969999998,0 -123.38326380000002,44.70712289999998,0 -123.38286920000003,44.70601239999998,0 -123.38270550000003,44.705002199999974,0 -123.38320610000004,44.70167479999998,0 -123.38343580000004,44.701197799999974,0 -123.38381220000004,44.70078039999998,0 -123.38428040000002,44.70045699999997,0 -123.38699540000003,44.69929079999997,0 -123.38779050000004,44.69904629999997,0 -123.38926820000003,44.698782799999975,0 -123.39005590000004,44.69873129999998,0 -123.39497890000003,44.698885599999976,0 -123.39639710000003,44.69868819999997,0 -123.39714940000002,44.69848279999997,0 -123.39834380000003,44.69798299999997,0 -123.40083610000003,44.696406499999966,0 -123.40195830000003,44.69606069999997,0 -123.40562890000002,44.69553389999997,0 -123.40853030000004,44.694506899999965,0 -123.41205170000003,44.69359219999997,0 -123.41302150000003,44.69345679999997,0 -123.41997360000003,44.69337899999997,0 -123.43021970000004,44.694481999999965,0 -123.43105440000005,44.69467389999996,0 -123.43187900000004,44.695006799999966,0 -123.43223290000003,44.69507679999997,0 -123.43514360000002,44.678116399999965,0 -123.43481060000003,44.67430319999996,0 -123.43247890000004,44.665768099999966,0 -123.43181830000003,44.65994909999996,0 -123.43033740000003,44.65614699999996,0 -123.43002930000004,44.65562879999996,0 -123.42941580000004,44.654948299999965,0 -123.42770390000004,44.65350939999996,0 -123.42705080000003,44.65264249999996,0 -123.42685340000003,44.65199949999997,0 -123.42695600000003,44.65095189999997,0 -123.43119920000004,44.64151729999996,0 -123.43149990000003,44.640195699999964,0 -123.43166150000002,44.63753189999996,0 -123.43142390000001,44.63682459999996,0 -123.43075260000002,44.635969999999965,0 -123.42869800000003,44.634095499999965,0 -123.42605200000001,44.630455299999966,0 -123.42571360000001,44.629754199999965,0 -123.42558950000002,44.62889499999996,0 -123.425713,44.62826079999996,0 -123.4276988,44.625269799999955,0 -123.42788049999999,44.62463219999996,0 -123.42777009999999,44.623480399999956,0 -123.4260295,44.62023589999996,0 -123.42586279999999,44.61932009999996,0 -123.42652819999999,44.612819799999954,0 -123.426932,44.61183519999996,0 -123.42841039999999,44.609257599999964,0 -123.42848789999998,44.60835369999996,0 -123.42827499999999,44.60768019999996,0 -123.42660549999998,44.60557889999996,0 -123.42426709999998,44.60146899999996,0 -123.42386239999998,44.59997059999996,0 -123.42385289999997,44.59907249999996,0 -123.42412799999997,44.598124699999964,0 -123.42435309999996,44.59771949999996,0 -123.42509869999998,44.596850999999965,0 -123.42525199999996,44.59690109999996,0 -123.42558109999996,44.59692659999996,0 -123.42962919999997,44.59638379999996,0 -123.43758969999995,44.59602549999997,0 -123.43806949999994,44.59606649999997,0 -123.44053979999993,44.59671579999997,0 -123.44283409999994,44.59754499999997,0 -123.44303889999993,44.597534999999965,0 -123.44340829999994,44.597348999999966,0 -123.44489409999994,44.59888649999996,0 -123.44619789999993,44.59989809999997,0 -123.44837079999994,44.601122399999966,0 -123.45761549999993,44.60499759999997,0 -123.45857399999994,44.605500799999966,0 -123.46357459999994,44.60920499999997,0 -123.46535469999993,44.610068699999964,0 -123.46877059999994,44.611204499999964,0 -123.46977559999993,44.61144139999996,0 -123.47108929999995,44.61152169999996,0 -123.47179979999996,44.61144099999996,0 -123.47295939999994,44.61113489999996,0 -123.48910019999995,44.60460339999996,0 -123.51044179999995,44.59858079999996,0 -123.51231689999996,44.59824479999996,0 -123.51788819999997,44.59764959999996,0 -123.51873009999997,44.59738869999996,0 -123.52830449999998,44.592586899999965,0 -123.53044669999997,44.59195529999996,0 -123.54112219999998,44.59017469999996,0 -123.54242459999998,44.59009739999996,0 -123.54334829999998,44.59018789999996,0 -123.54404719999997,44.59036009999996,0 -123.54468999999997,44.59061399999997,0 -123.54525609999996,44.590944099999966,0 -123.54588179999996,44.591484499999964,0 -123.54650539999996,44.592321699999964,0 -123.54962779999995,44.59784609999996,0 -123.55047339999996,44.59887289999997,0 -123.55130999999996,44.59954259999997,0 -123.55290859999995,44.60036119999997,0 -123.55405879999995,44.600698299999976,0 -123.55533079999994,44.60090599999997,0 -123.55664419999994,44.60095559999998,0 -123.57282869999992,44.60013489999997,0 -123.57632759999991,44.599636599999975,0 -123.57920419999992,44.59889119999998,0 -123.58879789999993,44.59493949999998,0 -123.59259089999993,44.59382909999999,0 -123.59399509999994,44.59361409999999,0 -123.59528699999994,44.593697599999985,0 -123.59597969999993,44.59386349999998,0 -123.59686019999994,44.594222899999984,0 -123.60084629999994,44.59698359999999,0 -123.60144479999994,44.597629699999985,0 -123.60211749999993,44.59931609999998,0 -123.60257749999995,44.60004269999998,0 -123.60331889999995,44.60064769999998,0 -123.60404269999994,44.60098219999998,0 -123.61328659999992,44.602877499999984,0 -123.62225949999993,44.60426849999998,0 -123.62369709999993,44.60468849999998,0 -123.62465679999994,44.60516489999998,0 -123.62575299999995,44.60615979999998,0 -123.63041879999994,44.61278729999997,0 -123.63120269999995,44.613659999999975,0 -123.63228659999993,44.61448829999997,0 -123.63948529999993,44.61828809999997,0 -123.64467229999994,44.620063099999975,0 -123.64663829999992,44.62036509999997,0 -123.65759859999991,44.61988099999997,0 -123.66474509999992,44.62066229999998,0 -123.66664239999992,44.620619599999976,0 -123.68217229999992,44.618779099999976,0 -123.68722079999992,44.619053299999976,0 -123.6910513999999,44.61980149999998,0 -123.69229609999991,44.61993459999998,0 -123.7050906999999,44.61924779999998,0 -123.7074765999999,44.61944339999998,0 -123.71625739999989,44.62165669999998,0 -123.71785249999988,44.621929699999974,0 -123.72141139999988,44.622137199999976,0 -123.72243479999987,44.62208209999998,0 -123.72356369999986,44.62183639999998,0 -123.72421109999986,44.62158899999998,0 -123.72560639999986,44.62068049999998,0 -123.72723959999985,44.61900589999998,0 -123.72850949999986,44.61829089999998,0 -123.73209619999984,44.61736319999998,0 -123.73298169999985,44.61723389999998,0 -123.73432989999986,44.617252999999984,0 -123.73535259999987,44.61745439999998,0 -123.73607989999987,44.617711399999976,0 -123.73716749999987,44.618335799999976,0 -123.74373089999986,44.62365459999997,0 -123.74450529999986,44.62447019999997,0 -123.74657239999986,44.627275399999974,0 -123.74753399999986,44.62798599999997,0 -123.74852899999985,44.62841319999997,0 -123.74991119999983,44.62868699999997,0 -123.75111719999984,44.62868679999997,0 -123.75190179999986,44.62857199999997,0 -123.75774199999987,44.62704539999997,0 -123.75905749999986,44.62699799999997,0 -123.76387149999987,44.62767019999997,0 -123.76580629999985,44.628118199999975,0 -123.76762559999987,44.628757299999975,0 -123.77127669999987,44.63068919999998,0 -123.77275349999987,44.63118229999998,0 -123.77769519999987,44.63204639999997,0 -123.77849479999986,44.632273999999974,0 -123.77949169999987,44.63274609999998,0 -123.78035559999988,44.63343389999998,0 -123.78088999999987,44.63415029999997,0 -123.78181409999985,44.63619059999998,0 -123.78226959999986,44.63673109999998,0 -123.78304189999986,44.63734959999998,0 -123.78389079999985,44.637765199999976,0 -123.78548789999985,44.638150699999976,0 -123.78622579999985,44.63819549999997,0 -123.78711369999985,44.63814349999997,0 -123.78817639999987,44.63791939999997,0 -123.79126089999986,44.63670569999997,0 -123.79246809999987,44.636364899999975,0 -123.79455759999988,44.636170199999974,0 -123.79599119999988,44.63624549999997,0 -123.79704999999987,44.63643879999997,0 -123.79833549999988,44.636816699999976,0 -123.79937389999988,44.63725589999998,0 -123.80033459999987,44.63786519999997,0 -123.80354039999987,44.64042719999997,0 -123.80558759999987,44.64142349999997,0 -123.81883989999987,44.64577949999997,0 -123.82019829999987,44.64639809999997,0 -123.82176509999987,44.647326699999965,0 -123.82532659999985,44.65021859999997,0 -123.82613669999985,44.65068279999996,0 -123.82729789999986,44.65112579999997,0 -123.82868559999986,44.65137169999997,0 -123.82974939999984,44.65139139999997,0 -123.83780269999986,44.650802899999974,0 -123.83926129999985,44.650946999999974,0 -123.84084509999985,44.651361099999974,0 -123.84276559999986,44.652287099999974,0 -123.84376809999986,44.653085599999976,0 -123.84439399999988,44.65383119999998,0 -123.84488509999989,44.65466409999998,0 -123.84577189999987,44.65688309999998,0 -123.84665559999988,44.657944899999976,0 -123.84853069999988,44.659534199999975,0 -123.84906249999987,44.660300999999976,0 -123.84949749999987,44.66182429999998,0 -123.84939599999986,44.66255759999997,0 -123.84892889999985,44.66388119999998,0 -123.84914309999985,44.66493429999998,0 -123.84966099999984,44.66591769999997,0 -123.84996829999984,44.66730829999997,0 -123.85024039999985,44.66779689999998,0 -123.85143839999985,44.66928289999997,0 -123.85164449999985,44.669904199999976,0 -123.85150539999987,44.67128699999998,0 -123.85071549999986,44.67285099999998,0 -123.85058509999988,44.67339189999998,0 -123.85062769999988,44.673862899999975,0 -123.85074679999988,44.67416589999998,0 -123.85178389999989,44.675371499999976,0 -123.85468879999988,44.67759959999997,0 -123.85592069999986,44.67819879999997,0 -123.85882159999986,44.679038099999964,0 -123.86007979999987,44.679236999999965,0 -123.86254839999987,44.67924279999997,0 -123.86380049999988,44.67904039999997,0 -123.87256139999987,44.676561199999966,0 -123.87385729999988,44.67631329999996,0 -123.87578639999987,44.67615209999996,0 -123.87711559999988,44.67618639999996,0 -123.88247159999989,44.67681749999996,0 -123.8842958999999,44.67679059999996,0 -123.88572239999989,44.67661339999996,0 -123.8883602999999,44.675896299999955,0 -123.8900460999999,44.67511519999996,0 -123.8961972999999,44.67070719999995,0 -123.89746479999991,44.66919449999995,0 -123.8977240999999,44.668657199999956,0 -123.89850629999992,44.66517389999996,0 -123.89888899999991,44.664328499999954,0 -123.89979719999991,44.66327689999995,0 -123.9008407999999,44.66258459999995,0 -123.9023594999999,44.66201609999995,0 -123.90342589999992,44.66183079999995,0 -123.90700619999991,44.66159909999995,0 -123.90842249999992,44.661356399999946,0 -123.9095687999999,44.66098639999995,0 -123.9104878999999,44.660560499999946,0 -123.9155313999999,44.65741309999995,0 -123.91632639999989,44.65672599999995,0 -123.91684839999989,44.65601209999995,0 -123.91719219999989,44.655047499999945,0 -123.91730719999988,44.65228559999995,0 -123.91773679999989,44.650396799999946,0 -123.9182809999999,44.64926959999995,0 -123.92129359999988,44.64454109999995,0 -123.9216342999999,44.644292199999946,0 -123.92251879999989,44.64391049999995,0 -123.9230856999999,44.64378549999994,0 -123.9238679999999,44.64374339999995,0 -123.92662029999991,44.64402379999994,0 -123.92749739999992,44.644031299999945,0 -123.92849339999991,44.64391629999994,0 -123.92948759999992,44.64365679999994,0 -123.92958839999991,44.64366279999994,0 -123.9307691999999,44.643145699999934,0 -123.93493399999991,44.64041239999994,0 -123.93502669999991,44.64030299999993,0 -123.9358140999999,44.63984879999994,0 -123.9371287999999,44.63940749999994,0 -123.93797679999989,44.63924879999994,0 -123.9410455999999,44.63908889999994,0 -123.94196469999989,44.63882739999994,0 -123.94271219999987,44.638439899999945,0 -123.94337989999988,44.637879199999944,0 -123.94565729999987,44.63520479999995,0 -123.94645589999986,44.63446069999995,0 -123.94889729999986,44.63264679999995,0 -123.95507049999986,44.62943659999995,0 -123.95607309999987,44.62908279999995,0 -123.95692189999987,44.628961599999954,0 -123.95756189999987,44.628962199999954,0 -123.96051109999988,44.62936029999995,0 -123.96132719999987,44.62932259999996,0 -123.96199689999989,44.62919539999996,0 -123.96552679999988,44.62751369999996,0 -123.96661579999989,44.62723979999996,0 -123.97055109999988,44.62684869999996,0 -123.97213299999989,44.62649949999996,0 -123.97696119999989,44.62463959999996,0 -123.97811209999989,44.62447119999996,0 -123.97914459999988,44.62448439999996,0 -123.98039879999988,44.62473189999996,0 -123.98109589999989,44.62499149999996,0 -123.98986559999989,44.63037889999996,0 -123.99153779999988,44.63111199999996,0 -123.99236349999987,44.63129379999996,0 -123.99368799999988,44.63139049999996,0 -123.99516129999986,44.63122149999996,0 -124.00108039999985,44.62965929999996,0 -124.00193299999985,44.629558899999964,0 -124.00269409999986,44.62956949999996,0 -124.00355449999986,44.62971619999996,0 -124.00434889999987,44.629980299999964,0 -124.00510449999986,44.63038569999996,0 -124.00725769999987,44.632258699999966,0 -124.00796189999988,44.63264339999997,0 -124.00874849999987,44.632855099999965,0 -124.01614989999986,44.63326729999997,0 -124.01695549999985,44.633461299999965,0 -124.01820539999986,44.63404759999997,0 -124.01919509999986,44.63436019999997,0 -124.01996469999986,44.63442799999997,0 -124.02076359999987,44.63432269999997,0 -124.02241619999988,44.633857699999965,0 -124.02356899999988,44.633660099999965,0 -124.02498639999988,44.633654699999965,0 -124.02637669999987,44.63389929999996,0 -124.03060129999987,44.63562429999996,0 -124.03271169999987,44.63599289999996,0 -124.05179219999985,44.636294199999966,0 -124.05311029999984,44.63655809999997,0 -124.05306489999985,44.64781209999997,0 </coordinates></LineString><TimeSpan><begin>2019-11-30T17:46:00.000Z</begin><end>2019-11-30T20:10:35.000Z</end></TimeSpan></Placemark><Placemark><name>Burger King</name><address>1435 N Coast Hwy, Newport, OR 97365</address><ExtendedData><Data name="Email"><value>syugen.zhou@gmail.com</value></Data><Data name="Category"><value>Restaurant</value></Data><Data name="Distance"><value>0</value></Data></ExtendedData><description> Restaurant from 2019-11-30T20:10:35.000Z to 2019-11-30T20:52:47.000Z. Distance 0m </description><Point><coordinates>-124.053598,44.647813,0</coordinates></Point><TimeSpan><begin>2019-11-30T20:10:35.000Z</begin><end>2019-11-30T20:52:47.000Z</end></TimeSpan></Placemark><Placemark><name>Driving</name><address></address><ExtendedData><Data name="Email"><value>syugen.zhou@gmail.com</value></Data><Data name="Category"><value>Driving</value></Data><Data name="Distance"><value>42014</value></Data></ExtendedData><description> Driving from 2019-11-30T20:52:47.761Z to 2019-11-30T21:59:46.000Z. Distance 42014m </description><LineString><altitudeMode>clampToGround</altitudeMode><extrude>1</extrude><tesselate>1</tesselate><coordinates>-124.05306490000001,44.647812099999996,0 -124.0531088,44.636488,0 -124.05315519999999,44.6360271,0 -124.05333399999999,44.6355363,0 -124.0539009,44.634773599999995,0 -124.0540585,44.634686599999995,0 -124.05433609999999,44.6344577,0 -124.05918829999999,44.6318743,0 -124.06001789999999,44.6313025,0 -124.06056019999998,44.630785599999996,0 -124.06114169999998,44.630016399999995,0 -124.06143429999999,44.62944879999999,0 -124.06161809999998,44.62842059999999,0 -124.06158439999999,44.62785399999999,0 -124.0614325,44.62723219999999,0 -124.06120820000001,44.62669649999999,0 -124.060776,44.62606189999999,0 -124.0602503,44.625521499999984,0 -124.05218920000002,44.61847499999998,0 -124.05157380000001,44.617833199999986,0 -124.05127540000001,44.61744069999999,0 -124.0505782,44.61611209999999,0 -124.0504659,44.61581889999998,0 -124.05022890000001,44.61479809999998,0 -124.0501914,44.61385799999998,0 -124.05013060000002,44.61372129999998,0 -124.0503582,44.61253419999998,0 -124.050706,44.61164469999998,0 -124.05112890000001,44.61088169999997,0 -124.0521023,44.60939609999998,0 -124.0522446,44.609296199999974,0 -124.05374979999999,44.606934699999975,0 -124.05386849999998,44.60667199999997,0 -124.05405549999999,44.60640249999997,0 -124.0541745,44.60628509999997,0 -124.05682809999999,44.60226059999997,0 -124.05692659999998,44.60219049999997,0 -124.0597667,44.59784969999997,0 -124.05979919999999,44.59773369999997,0 -124.06105099999998,44.595812499999965,0 -124.06109609999997,44.59578229999997,0 -124.06402739999997,44.59131539999997,0 -124.06403379999996,44.59124699999997,0 -124.06404589999997,44.59123909999997,0 -124.06423129999997,44.59088609999996,0 -124.06444709999997,44.590106099999964,0 -124.06441799999996,44.58945219999997,0 -124.06412709999995,44.58861019999996,0 -124.06406049999995,44.58785969999997,0 -124.06485159999995,44.581941699999966,0 -124.06579889999995,44.57869929999997,0 -124.06587569999995,44.577960399999974,0 -124.06591999999993,44.57791329999997,0 -124.06601939999994,44.576012999999975,0 -124.06614259999994,44.57544049999997,0 -124.06671939999994,44.57399659999997,0 -124.06669819999993,44.57391569999998,0 -124.06733789999993,44.57222719999998,0 -124.06794039999993,44.56981099999998,0 -124.06799559999995,44.56975689999998,0 -124.06885269999994,44.56654749999998,0 -124.06884629999995,44.566477499999976,0 -124.07140599999995,44.55643209999998,0 -124.07233959999996,44.55042179999998,0 -124.07239269999997,44.55038699999998,0 -124.07375919999997,44.54154709999998,0 -124.07456729999998,44.53400139999998,0 -124.07508019999997,44.52708349999998,0 -124.07495149999997,44.52622439999998,0 -124.07479209999995,44.52581829999998,0 -124.07445359999996,44.52523279999998,0 -124.07413789999994,44.52481499999998,0 -124.07360139999994,44.524281399999985,0 -124.07307619999993,44.52389139999998,0 -124.07263179999994,44.52362109999998,0 -124.07260819999995,44.52357549999998,0 -124.07119329999995,44.52296819999998,0 -124.07066859999995,44.52259879999998,0 -124.07040509999993,44.52232539999998,0 -124.07022819999995,44.52207399999998,0 -124.07007229999994,44.521658899999984,0 -124.07004649999993,44.52128969999998,0 -124.07007189999992,44.52099539999998,0 -124.07023319999992,44.52058599999999,0 -124.07047379999992,44.52025699999999,0 -124.07060139999992,44.52013169999999,0 -124.07101109999992,44.51982619999999,0 -124.07146669999992,44.51959949999999,0 -124.07151579999991,44.51954809999999,0 -124.0718864999999,44.51943849999999,0 -124.07229719999991,44.519366299999994,0 -124.07392979999992,44.51934569999999,0 -124.07423879999992,44.519317999999984,0 -124.07495349999992,44.519106599999986,0 -124.07517819999993,44.518985499999985,0 -124.07548029999992,44.518773999999986,0 -124.07569459999992,44.518562299999985,0 -124.07588049999993,44.51831199999998,0 -124.07718679999992,44.515428599999986,0 -124.07719339999993,44.51535049999998,0 -124.07957979999993,44.50984329999998,0 -124.07991089999994,44.508755399999984,0 -124.08181439999996,44.499831499999985,0 -124.08256629999995,44.49761559999998,0 -124.08296809999995,44.49604419999998,0 -124.08314419999995,44.49488369999998,0 -124.08331499999994,44.49066539999998,0 -124.08317459999994,44.48922569999998,0 -124.08278609999994,44.48766189999998,0 -124.07946109999995,44.47861289999998,0 -124.07939239999995,44.47816549999998,0 -124.07985089999994,44.47191179999998,0 -124.07970559999993,44.47008139999998,0 -124.07928079999992,44.46833939999998,0 -124.07822259999992,44.465424399999975,0 -124.07823319999993,44.46537049999998,0 -124.07726479999992,44.46276149999998,0 -124.07720299999993,44.46267029999998,0 -124.07384819999993,44.45351609999998,0 -124.07368949999994,44.45284839999998,0 -124.07357059999995,44.45186149999998,0 -124.07362709999995,44.450459099999975,0 -124.07457629999996,44.442343199999975,0 -124.07460309999998,44.44230779999997,0 -124.07474789999996,44.441508299999974,0 -124.07512549999997,44.43725539999998,0 -124.07505409999997,44.436773799999976,0 -124.07494549999997,44.43640609999998,0 -124.07475839999996,44.43601379999998,0 -124.07452739999997,44.43566569999998,0 -124.07416899999997,44.435268299999976,0 -124.06845349999998,44.42998039999997,0 -124.06787999999997,44.42933729999997,0 -124.06764019999997,44.42899419999997,0 -124.06737809999998,44.42844179999997,0 -124.06723659999997,44.42771089999997,0 -124.06726779999995,44.427014199999974,0 -124.06746959999995,44.42592199999997,0 -124.06745609999996,44.42584459999998,0 -124.06767319999994,44.42539429999998,0 -124.06789759999995,44.42509199999998,0 -124.06849779999996,44.424584699999976,0 -124.06884199999998,44.424377299999975,0 -124.07035879999997,44.42373599999998,0 -124.07071709999998,44.42353789999998,0 -124.07187199999997,44.42264219999998,0 -124.07663739999997,44.419731399999975,0 -124.07940079999997,44.41730569999997,0 -124.07951649999997,44.417251799999974,0 -124.08170949999997,44.41532619999998,0 -124.08248139999998,44.41451829999998,0 -124.08249709999997,44.414463099999985,0 -124.08313919999996,44.41359929999999,0 -124.08349329999996,44.41297869999998,0 -124.08393199999996,44.411867399999984,0 -124.08574029999996,44.40217309999999,0 -124.08636569999996,44.392754899999986,0 -124.08646689999995,44.39228149999999,0 -124.08750319999993,44.38991389999999,0 -124.08854109999994,44.38689669999999,0 -124.08864209999993,44.386449699999986,0 -124.08865059999994,44.38570349999999,0 -124.08798019999993,44.38024229999999,0 -124.08798089999995,44.37930179999999,0 -124.09811349999995,44.33251299999999,0 -124.09833779999994,44.33176399999999,0 -124.10456049999995,44.315806499999994,0 -124.10474889999995,44.314918199999994,0 -124.10475739999994,44.31373609999999,0 -124.10464049999993,44.313048699999996,0 -124.10449349999993,44.31259149999999,0 -124.10389479999992,44.31136629999999,0 -124.10354469999992,44.31093529999999,0 -124.10312109999991,44.31064909999999,0 -124.10267829999991,44.31044369999999,0 -124.1001506999999,44.30975739999999,0 -124.09989489999991,44.30966049999999,0 -124.0997755999999,44.30958979999999,0 -124.0996114999999,44.30944479999999,0 -124.09932419999988,44.30908389999999,0 -124.09924729999989,44.30892699999999,0 -124.09920719999988,44.30872949999999,0 -124.09922539999987,44.30855189999999,0 -124.09933979999988,44.30822979999999,0 -124.09945069999989,44.308068799999994,0 -124.0997745999999,44.3077778,0 -124.10550649999989,44.303531,0 -124.10630479999989,44.3027424,0 -124.1066869999999,44.3022696,0 -124.10732209999988,44.301291500000005,0 -124.1093403999999,44.29757130000001,0 -124.10941299999988,44.297235500000006,0 -124.10939199999987,44.297115100000006,0 -124.10933289999987,44.29697710000001,0 -124.10915459999987,44.29676060000001,0 -124.10865699999987,44.29631110000001,0 -124.10854729999986,44.29610220000001,0 -124.10854979999986,44.29585350000001,0 -124.10858629999986,44.295739000000005,0 -124.10866879999988,44.295608200000004,0 -124.10892159999989,44.295404600000005,0 -124.10909369999987,44.295318900000005,0 -124.11011899999987,44.2950602,0 -124.11048609999987,44.2948942,0 -124.11082639999987,44.2946375,0 -124.11109049999986,44.294322,0 -124.11114119999986,44.2942064,0 -124.11116729999986,44.294055799999995,0 -124.11114089999987,44.293863699999996,0 -124.11058479999987,44.2924464,0 -124.11042539999985,44.2922074,0 -124.11029069999985,44.292110300000004,0 -124.11012429999984,44.2920431,0 -124.10973839999984,44.2919642,0 -124.10901879999983,44.2919282,0 -124.10873729999983,44.2918794,0 -124.10844199999984,44.2917585,0 -124.10829889999984,44.291640300000005,0 -124.10825609999983,44.291565000000006,0 -124.10817809999983,44.291303400000004,0 -124.10821199999984,44.291093700000005,0 -124.10825079999985,44.291015400000006,0 -124.10849419999985,44.29078500000001,0 -124.11057269999986,44.28956230000001,0 -124.11103109999986,44.289399,0 -124.11218469999986,44.2891425,0 -124.11225449999986,44.2891079,0 -124.11233839999986,44.2890394,0 -124.11292839999986,44.2882783,0 -124.11297089999985,44.2881148,0 -124.11294009999986,44.2879311,0 -124.11241719999985,44.28641640000001,0 -124.11226939999985,44.286121400000006,0 -124.11205169999984,44.2859143,0 -124.11101799999985,44.2852712,0 -124.11063919999984,44.285130699999996,0 -124.10941809999984,44.2848695,0 -124.10927859999984,44.2847913,0 -124.10907119999985,44.2845947,0 -124.10900109999986,44.2844432,0 -124.10898489999984,44.2843373,0 -124.10900139999985,44.284236799999995,0 -124.10929359999986,44.28382,0 -124.10938829999985,44.28358419999999,0 -124.10932709999985,44.283411099999995,0 -124.10919989999985,44.283269399999995,0 -124.10800979999986,44.28257759999999,0 -124.10787699999986,44.282469199999994,0 -124.10780159999986,44.282313699999996,0 -124.10778569999987,44.282182299999995,0 -124.10780659999988,44.28200629999999,0 -124.10784459999988,44.28193419999999,0 -124.10792989999987,44.28184069999999,0 -124.10813709999988,44.28170409999999,0 -124.10884719999989,44.28146119999999,0 -124.10911569999989,44.28132629999999,0 -124.10944519999988,44.28105459999999,0 -124.10963549999988,44.28074499999999,0 -124.10970229999987,44.28040389999999,0 -124.10960709999988,44.27982379999999,0 -124.10961819999987,44.279677699999986,0 -124.10971999999987,44.27945739999999,0 -124.10984449999987,44.27934939999999,0 -124.11126659999987,44.27842639999999,0 </coordinates></LineString><TimeSpan><begin>2019-11-30T20:52:47.761Z</begin><end>2019-11-30T21:59:46.000Z</end></TimeSpan></Placemark><Placemark><name>Cape Perpetua Scenic Area</name><address>Yachats, OR 97498</address><ExtendedData><Data name="Email"><value>syugen.zhou@gmail.com</value></Data><Data name="Category"><value>Park</value></Data><Data name="Distance"><value>0</value></Data></ExtendedData><description> Park from 2019-11-30T21:59:46.000Z to 2019-11-30T22:26:25.000Z. Distance 0m </description><Point><coordinates>-124.1120837,44.2790045,0</coordinates></Point><TimeSpan><begin>2019-11-30T21:59:46.000Z</begin><end>2019-11-30T22:26:25.000Z</end></TimeSpan></Placemark><Placemark><name>Driving</name><address></address><ExtendedData><Data name="Email"><value>syugen.zhou@gmail.com</value></Data><Data name="Category"><value>Driving</value></Data><Data name="Distance"><value>269411</value></Data></ExtendedData><description> Driving from 2019-11-30T22:26:25.999Z to 2019-12-01T02:14:33.000Z. Distance 269411m </description><LineString><altitudeMode>clampToGround</altitudeMode><extrude>1</extrude><tesselate>1</tesselate><coordinates>-124.11264539999998,44.2768619,0 -124.11309699999997,44.276234699999996,0 -124.11325269999999,44.2755586,0 -124.11318799999998,44.2750495,0 -124.11297149999997,44.274559599999996,0 -124.10815299999996,44.2702655,0 -124.10775099999995,44.2697744,0 -124.10738999999995,44.2690423,0 -124.10676719999995,44.264496900000005,0 -124.10685539999994,44.263795300000005,0 -124.10706199999993,44.2634192,0 -124.10742379999994,44.26304030000001,0 -124.10824359999992,44.262574400000005,0 -124.10968129999992,44.262088500000004,0 -124.10999229999993,44.2617818,0 -124.11010359999993,44.26154160000001,0 -124.11008339999992,44.261168100000006,0 -124.10921179999993,44.258464800000006,0 -124.10912869999994,44.2576188,0 -124.10936009999992,44.2566009,0 -124.11070709999993,44.25454750000001,0 -124.11210749999994,44.2487233,0 -124.11112999999993,44.240601700000006,0 -124.11145099999993,44.2388435,0 -124.11132389999993,44.23843610000001,0 -124.11016439999995,44.23679210000001,0 -124.10984809999995,44.235860300000006,0 -124.10908689999994,44.22520190000001,0 -124.10931559999995,44.224464100000006,0 -124.11335619999994,44.2182187,0 -124.11346129999995,44.217787300000005,0 -124.11311439999996,44.21150200000001,0 -124.11343129999996,44.20993680000001,0 -124.11486049999996,44.20710230000001,0 -124.11464179999996,44.20428170000001,0 -124.11444939999994,44.20385680000001,0 -124.11346039999995,44.20287390000001,0 -124.11321099999994,44.20218930000001,0 -124.11348199999995,44.20020890000001,0 -124.11334529999995,44.199790500000006,0 -124.11256599999996,44.1988712,0 -124.11238299999995,44.198326,0 -124.11281829999996,44.196428499999996,0 -124.11364789999996,44.194784899999995,0 -124.11368009999995,44.1942471,0 -124.11328469999995,44.1931776,0 -124.11334439999995,44.1926521,0 -124.11413619999995,44.191467599999996,0 -124.11421379999996,44.1891378,0 -124.11369839999998,44.1879597,0 -124.11373239999998,44.187404199999996,0 -124.11419099999998,44.186814299999995,0 -124.11497739999997,44.1863652,0 -124.11528339999995,44.1860221,0 -124.11538049999996,44.185635899999994,0 -124.11489519999995,44.1754485,0 -124.11574649999996,44.1728142,0 -124.11577149999995,44.1719313,0 -124.11550199999994,44.170898699999995,0 -124.11339009999993,44.16628789999999,0 -124.11331759999993,44.165524899999994,0 -124.11574709999994,44.15818159999999,0 -124.11764739999994,44.14481609999999,0 -124.11729629999992,44.140119399999996,0 -124.11765649999992,44.139230999999995,0 -124.11842959999993,44.1384863,0 -124.11928189999992,44.138043499999995,0 -124.12077269999992,44.13775089999999,0 -124.12435669999992,44.13802009999999,0 -124.12452069999993,44.13799199999999,0 -124.12479889999993,44.137835399999986,0 -124.12489609999993,44.137676899999995,0 -124.12489319999995,44.137465199999994,0 -124.12478499999995,44.13728089999999,0 -124.12461839999995,44.13716949999999,0 -124.12435649999995,44.1371013,0 -124.12287619999995,44.137002,0 -124.12241369999995,44.136775099999994,0 -124.12189169999995,44.135945799999995,0 -124.12160399999995,44.134722,0 -124.12280479999994,44.1286942,0 -124.12353129999995,44.1272003,0 -124.12460349999996,44.1260684,0 -124.12563299999998,44.1255945,0 -124.12573129999997,44.1254026,0 -124.12575679999999,44.124849000000005,0 -124.12609269999999,44.124179100000006,0 -124.12617549999999,44.123349600000005,0 -124.126503,44.12260210000001,0 -124.1265147,44.12213390000001,0 -124.1262593,44.12154470000001,0 -124.12573800000001,44.121103600000005,0 -124.12176400000001,44.11944150000001,0 -124.12049960000002,44.11868350000001,0 -124.11968370000002,44.11857750000001,0 -124.11862420000001,44.11877370000001,0 -124.11828220000001,44.11874770000001,0 -124.11801880000003,44.11861160000001,0 -124.11784480000003,44.118324400000006,0 -124.11789110000002,44.11815020000001,0 -124.11817060000001,44.117856100000004,0 -124.11870240000002,44.11759370000001,0 -124.1193362,44.117113200000006,0 -124.12025440000002,44.11679000000001,0 -124.12232380000002,44.11562900000001,0 -124.12247900000003,44.115421600000005,0 -124.12243790000001,44.11428260000001,0 -124.1233095,44.11341580000001,0 -124.1234373,44.113130000000005,0 -124.1231736,44.11188210000001,0 -124.12332610000001,44.1106873,0 -124.12287720000002,44.10903640000001,0 -124.1221744,44.10814870000001,0 -124.12205580000001,44.10693010000001,0 -124.12145009999999,44.105987000000006,0 -124.12146939999998,44.104417600000005,0 -124.12136129999999,44.10408250000001,0 -124.1205741,44.10284200000001,0 -124.120426,44.10238770000001,0 -124.12065029999998,44.10143180000001,0 -124.12057489999998,44.10104940000001,0 -124.12033549999998,44.100651000000006,0 -124.11806519999996,44.09896160000001,0 -124.11652499999997,44.098244600000015,0 -124.11625559999995,44.09804900000001,0 -124.11095889999994,44.09209590000001,0 -124.10974889999994,44.09033260000001,0 -124.10475579999995,44.07798970000002,0 -124.10432339999996,44.07747180000001,0 -124.10195869999995,44.075489800000014,0 -124.10151839999996,44.07495930000002,0 -124.10123459999994,44.07414150000002,0 -124.10132129999994,44.07339630000001,0 -124.10173069999995,44.07245250000001,0 -124.10173249999995,44.07205330000001,0 -124.09833889999996,44.06604240000001,0 -124.09813379999997,44.06518170000001,0 -124.09817439999996,44.06452660000001,0 -124.09888339999996,44.062053600000006,0 -124.09883789999998,44.059717000000006,0 -124.09990969999997,44.057015500000006,0 -124.09996379999998,44.05660490000001,0 -124.09964889999998,44.055865600000004,0 -124.09803449999997,44.05438850000001,0 -124.09785319999997,44.054079900000005,0 -124.09801829999996,44.051292600000004,0 -124.09796469999996,44.051223,0 -124.10170549999995,44.01865050000001,0 -124.10122079999996,43.9782543,0 -124.10137309999998,43.977369200000005,0 -124.10164459999996,43.97678150000001,0 -124.10806389999998,43.96774330000001,0 -124.10844939999998,43.96651400000001,0 -124.10868999999998,43.96273190000001,0 -124.10853759999996,43.96222920000001,0 -124.10785579999997,43.96125540000001,0 -124.10744829999997,43.96092930000001,0 -124.10556979999996,43.95986210000001,0 -124.10518109999997,43.959521600000016,0 -124.10448479999997,43.95855210000002,0 -124.10435109999996,43.95803370000002,0 -124.10430569999997,43.95626270000002,0 -124.10434489999997,43.95620140000002,0 -124.10431839999998,43.95358250000002,0 -124.10425459999998,43.95351310000002,0 -124.10412949999997,43.94160660000002,0 -124.10687399999998,43.931997800000026,0 -124.10795899999997,43.92204860000003,0 -124.11069279999997,43.91454220000003,0 -124.11234069999996,43.90792400000003,0 -124.11521949999995,43.90344020000003,0 -124.12128469999996,43.88451870000002,0 -124.12169539999996,43.883850200000026,0 -124.12219249999997,43.883491400000025,0 -124.12323829999997,43.88309280000003,0 -124.12686539999996,43.88300920000003,0 -124.12754469999996,43.88286170000003,0 -124.12838669999995,43.88244110000003,0 -124.12871459999995,43.88211950000004,0 -124.13127339999996,43.87639380000003,0 -124.13172789999996,43.87331060000003,0 -124.13215529999995,43.87201260000003,0 -124.13286049999996,43.87083840000003,0 -124.14155419999997,43.86030670000004,0 -124.14495799999997,43.85485460000004,0 -124.14557829999998,43.85351110000004,0 -124.14693489999998,43.84765190000004,0 -124.15049529999997,43.83715940000004,0 -124.15054119999998,43.836266400000035,0 -124.15040289999997,43.835571400000035,0 -124.14913339999998,43.83279660000004,0 -124.14890989999998,43.83188050000004,0 -124.14859949999999,43.826847500000035,0 -124.14838169999999,43.82635070000004,0 -124.14759869999999,43.82532140000004,0 -124.14750509999999,43.82493730000004,0 -124.14767339999999,43.82430350000004,0 -124.1479464,43.82395810000004,0 -124.1500996,43.82243590000004,0 -124.1507357,43.82161470000004,0 -124.15157789999999,43.81872160000004,0 -124.15186949999999,43.81820540000004,0 -124.15228059999998,43.81781920000004,0 -124.15339159999998,43.81710010000004,0 -124.15374369999996,43.816637100000044,0 -124.15384219999996,43.81634860000004,0 -124.15302609999996,43.81167050000004,0 -124.15364049999997,43.80853000000004,0 -124.15353519999996,43.80802350000004,0 -124.15293939999997,43.80730260000004,0 -124.14940799999997,43.80512460000004,0 -124.14858419999996,43.80442020000004,0 -124.14826809999995,43.80401840000005,0 -124.14780769999996,43.803047900000045,0 -124.14770939999995,43.802399600000044,0 -124.14872989999995,43.793335800000044,0 -124.14914819999994,43.792308900000045,0 -124.15037069999995,43.79037040000005,0 -124.15046179999996,43.78993920000005,0 -124.15034299999996,43.78931190000005,0 -124.14972859999997,43.78858450000005,0 -124.14299079999996,43.78406730000005,0 -124.14224469999996,43.78302960000005,0 -124.14196949999997,43.782110100000054,0 -124.14204589999999,43.78104020000005,0 -124.14285819999999,43.77801690000005,0 -124.1441625,43.77612570000005,0 -124.1443113,43.775427200000046,0 -124.14405239999999,43.77307680000005,0 -124.14346189999999,43.772090400000046,0 -124.1426598,43.771432600000054,0 -124.1418963,43.77105070000005,0 -124.1403464,43.77066000000005,0 -124.1311879,43.76941660000005,0 -124.13057090000001,43.76920580000005,0 -124.129998,43.76880280000005,0 -124.12959719999999,43.768113500000055,0 -124.12896159999998,43.76410810000005,0 -124.12852529999998,43.76345770000005,0 -124.12817589999997,43.76314550000005,0 -124.12737369999996,43.76268490000005,0 -124.12410469999996,43.76189810000005,0 -124.12358789999998,43.76160860000005,0 -124.12320259999998,43.761235600000056,0 -124.1230246,43.760901800000056,0 -124.1228639,43.756689400000056,0 -124.12323849999999,43.75601340000006,0 -124.1236938,43.755659300000055,0 -124.1252029,43.75495670000005,0 -124.12580070000001,43.75456880000006,0 -124.12625349999999,43.75396860000006,0 -124.1263169,43.75319830000006,0 -124.12604950000001,43.75261040000006,0 -124.1258353,43.75238540000006,0 -124.1195826,43.74886740000006,0 -124.1145947,43.744660300000064,0 -124.1114048,43.74046530000007,0 -124.111077,43.73972990000007,0 -124.11100509999999,43.73871970000007,0 -124.1115081,43.73309740000007,0 -124.1113743,43.731485900000074,0 -124.1117345,43.730321600000075,0 -124.11172999999998,43.72984210000008,0 -124.1089485,43.72268260000008,0 -124.1082129,43.721894400000075,0 -124.10700899999999,43.72118270000008,0 -124.1032839,43.72002580000008,0 -124.101835,43.71929000000008,0 -124.1005313,43.71826610000008,0 -124.09980949999999,43.71742460000008,0 -124.09933739999998,43.71662740000008,0 -124.09892929999997,43.71478760000008,0 -124.09911819999998,43.71330090000008,0 -124.09968149999999,43.71191100000007,0 -124.10365039999999,43.705003500000075,0 -124.10666649999997,43.70234620000008,0 -124.10671909999996,43.702242000000076,0 -124.11104229999995,43.69865600000008,0 -124.11113829999995,43.69863870000008,0 -124.11183979999994,43.69812400000008,0 -124.11375569999994,43.69726300000008,0 -124.12309859999993,43.69517170000008,0 -124.14160219999994,43.68939490000008,0 -124.14270439999993,43.688786600000086,0 -124.14751919999995,43.684458600000085,0 -124.15799249999995,43.67655660000008,0 -124.16041339999995,43.675074400000085,0 -124.16176229999995,43.67455600000009,0 -124.16244669999995,43.674434100000084,0 -124.16792959999995,43.67421150000009,0 -124.17172379999997,43.67500710000009,0 -124.17279799999996,43.675106000000085,0 -124.17383259999995,43.67500160000009,0 -124.17447059999996,43.67481430000009,0 -124.17988839999997,43.672137700000086,0 -124.18155659999996,43.67089400000008,0 -124.18261039999997,43.66986190000008,0 -124.18732829999998,43.66347600000008,0 -124.18768839999997,43.66251610000008,0 -124.18772899999996,43.661900300000084,0 -124.18777549999996,43.66184600000009,0 -124.18766459999995,43.66020240000008,0 -124.18780599999994,43.65925010000009,0 -124.18819229999993,43.658279500000084,0 -124.18859379999992,43.65769950000009,0 -124.18868719999993,43.65765550000009,0 -124.18944819999993,43.65646430000009,0 -124.18965119999993,43.65569950000009,0 -124.18908299999993,43.64677570000009,0 -124.18927359999992,43.64587180000009,0 -124.18953919999991,43.645431500000086,0 -124.19070329999991,43.644144200000085,0 -124.19100119999992,43.643636400000084,0 -124.19104719999993,43.643119000000084,0 -124.19017559999993,43.640100300000086,0 -124.18991289999992,43.63966690000009,0 -124.18861339999991,43.63826930000008,0 -124.18792899999991,43.63690230000009,0 -124.18550859999992,43.63465680000009,0 -124.18475979999994,43.63345580000009,0 -124.18160009999993,43.62151350000009,0 -124.18017059999993,43.59917760000009,0 -124.18417909999994,43.58702370000009,0 -124.18451539999994,43.582963600000085,0 -124.18495709999993,43.58155560000009,0 -124.18540809999995,43.58076710000008,0 -124.18664049999994,43.57931110000008,0 -124.18738929999994,43.57874610000008,0 -124.19429869999995,43.57527910000008,0 -124.19520069999994,43.57463940000008,0 -124.20411139999995,43.564985500000084,0 -124.20554019999996,43.562655100000086,0 -124.21493599999997,43.53731580000008,0 -124.21525499999994,43.535897000000084,0 -124.21907279999996,43.49382970000008,0 -124.21965569999995,43.49183160000008,0 -124.21972339999995,43.49176580000008,0 -124.22261009999994,43.48369790000008,0 -124.22416829999995,43.47724780000008,0 -124.22402409999994,43.47176310000008,0 -124.22597149999994,43.46376980000008,0 -124.22635639999994,43.46298290000008,0 -124.22862579999995,43.45996650000008,0 -124.22924019999995,43.45856130000008,0 -124.22936969999994,43.45686630000008,0 -124.22909349999995,43.45571610000008,0 -124.22866039999994,43.45475980000008,0 -124.22807579999994,43.45392460000008,0 -124.22572979999995,43.45151500000008,0 -124.21995719999994,43.43939390000008,0 -124.21981899999993,43.43830820000007,0 -124.22060719999993,43.43466580000007,0 -124.22058169999993,43.43457170000007,0 -124.22399719999993,43.417856200000074,0 -124.22402669999994,43.40529490000007,0 -124.22370089999994,43.40491130000007,0 -124.22248389999993,43.40400100000007,0 -124.22228739999993,43.403674800000076,0 -124.22168859999992,43.40094570000007,0 -124.22160759999994,43.400888900000076,0 -124.22144749999994,43.40040180000007,0 -124.22149269999994,43.40034250000007,0 -124.22035239999994,43.396754900000076,0 -124.22025329999994,43.396703700000074,0 -124.21963339999992,43.39468720000007,0 -124.21957579999992,43.393853300000075,0 -124.22137089999991,43.385468800000076,0 -124.22129159999992,43.38508480000008,0 -124.2196639999999,43.381694800000076,0 -124.21715829999991,43.37849920000008,0 -124.21517969999991,43.37692620000008,0 -124.21518779999991,43.37685710000008,0 -124.2135105999999,43.375464400000084,0 -124.2131686999999,43.37495420000008,0 -124.2132523999999,43.35841950000008,0 -124.21299759999991,43.357393700000074,0 -124.21244769999993,43.35670530000007,0 -124.21185229999992,43.356352300000076,0 -124.2111494999999,43.35619430000007,0 -124.20422669999991,43.35577310000007,0 -124.20234779999991,43.35536870000007,0 -124.2016614999999,43.35507640000007,0 -124.2002516999999,43.35396520000007,0 -124.1996401999999,43.35300560000007,0 -124.1979126999999,43.34872070000007,0 -124.19775009999991,43.34453610000007,0 -124.19858019999991,43.34230580000007,0 -124.19879349999991,43.340515600000074,0 -124.1985979999999,43.33969210000007,0 -124.19801619999993,43.33862690000007,0 -124.19797129999992,43.33786800000007,0 -124.20160079999991,43.32870150000007,0 -124.2020460999999,43.32809270000007,0 -124.2027246999999,43.32750350000007,0 -124.2056374999999,43.326124000000064,0 -124.20597549999988,43.32580990000007,0 -124.2064180999999,43.324939600000064,0 -124.20639129999988,43.324350400000064,0 -124.20586549999989,43.322737500000066,0 -124.20713449999988,43.315352900000065,0 -124.2082436999999,43.31208830000006,0 -124.2101974999999,43.30879740000007,0 -124.21032559999988,43.308723700000066,0 -124.21171069999988,43.30643400000006,0 -124.21195469999988,43.30528750000006,0 -124.2116000999999,43.30227960000006,0 -124.2122712999999,43.29968190000007,0 -124.2126522999999,43.29898460000006,0 -124.2131473999999,43.29845400000006,0 -124.21900129999989,43.29373600000007,0 -124.21943659999991,43.29315510000006,0 -124.2208771999999,43.29023250000006,0 -124.22121929999992,43.28978610000006,0 -124.22186419999991,43.28926090000006,0 -124.2222554999999,43.28909770000006,0 -124.22295959999991,43.28894660000007,0 -124.22362849999992,43.28890720000007,0 -124.22448429999992,43.28900470000006,0 -124.23110099999991,43.290956000000065,0 -124.2321230999999,43.29109430000006,0 -124.2331859999999,43.29109430000006,0 -124.23420059999991,43.29095750000006,0 -124.25297629999991,43.28663600000006,0 -124.25482429999991,43.28595950000007,0 -124.2560511999999,43.285227100000064,0 -124.25688469999992,43.28453670000007,0 -124.2578731999999,43.28322340000007,0 -124.25840119999991,43.28204490000007,0 -124.2616348999999,43.269779300000074,0 -124.26221529999991,43.268327900000074,0 -124.26660849999992,43.261546600000074,0 -124.26893289999991,43.25864000000007,0 -124.27052359999992,43.25718330000008,0 -124.27336579999994,43.255347800000074,0 -124.27433939999993,43.254991700000076,0 -124.27571229999994,43.25467450000007,0 -124.27675139999995,43.254565900000074,0 -124.27818919999994,43.254597600000075,0 -124.28136679999994,43.25516410000007,0 -124.28260369999995,43.25521800000007,0 -124.28331369999997,43.25512270000007,0 -124.28450009999996,43.25466600000007,0 -124.28530779999996,43.25403440000007,0 -124.28577319999995,43.25329510000007,0 -124.28908259999994,43.23789710000007,0 -124.28939639999994,43.23706170000007,0 -124.29022269999994,43.23567120000007,0 -124.30634319999994,43.21824400000007,0 -124.30729939999995,43.21667660000007,0 -124.30761499999996,43.21540400000007,0 -124.30762419999996,43.21457480000008,0 -124.30638199999997,43.20643140000008,0 -124.30654139999999,43.20561140000007,0 -124.30706239999998,43.20462070000008,0 -124.31862139999998,43.193677800000074,0 -124.32009249999997,43.19279660000007,0 -124.32183839999999,43.192181400000074,0 -124.32350149999999,43.191882400000075,0 -124.32489519999999,43.19182480000008,0 -124.33088669999998,43.19247870000007,0 -124.33251739999997,43.192450800000074,0 -124.33369319999997,43.192257000000076,0 -124.33786399999998,43.19084640000007,0 -124.33863769999996,43.19076840000007,0 -124.33949429999996,43.19083560000007,0 -124.34051299999994,43.19110190000007,0 -124.34442429999993,43.192621700000075,0 -124.34552509999993,43.192923300000075,0 -124.34641529999995,43.19300740000007,0 -124.34698609999994,43.19296240000007,0 -124.34779699999994,43.192743300000075,0 -124.34884039999993,43.19220430000007,0 -124.36339419999993,43.180801100000075,0 -124.36344609999993,43.18070050000007,0 -124.39236749999993,43.157943800000076,0 -124.39330619999994,43.156975800000076,0 -124.39445419999994,43.155324200000074,0 -124.39536639999993,43.15306900000007,0 -124.39546589999993,43.145388600000075,0 -124.39574579999993,43.14396060000007,0 -124.39729989999994,43.14021840000007,0 -124.39773619999994,43.13814370000007,0 -124.39866509999996,43.11991800000007,0 -124.39887889999997,43.119503800000075,0 -124.39916159999997,43.119250200000074,0 -124.39957739999997,43.11911120000007,0 -124.41036649999998,43.11904330000007,0 -124.41176669999999,43.118752900000075,0 -124.4129804,43.118208600000074,0 -124.4137757,43.117613400000074,0 -124.41425710000001,43.117071100000075,0 -124.4147842,43.116082400000074,0 -124.4150041,43.115113200000074,0 -124.41527470000003,43.067101800000074,0 -124.41522690000004,43.067008300000076,0 -124.41513300000004,43.050642000000074,0 -124.41431250000004,43.04766500000007,0 -124.41425610000003,43.04695850000007,0 -124.41474390000003,43.044810600000076,0 -124.41466650000004,43.042755400000075,0 -124.41503650000006,43.03860310000008,0 -124.41590170000006,43.03660120000008,0 -124.41596800000006,43.036173700000084,0 -124.41536030000006,43.03434990000008,0 -124.41497930000006,43.00946400000008,0 -124.41567520000007,43.00590480000008,0 -124.41559000000007,43.00187850000008,0 -124.42315990000007,42.98254030000009,0 -124.42378980000008,42.977517600000084,0 -124.42524010000008,42.97518550000008,0 -124.42614900000008,42.97242230000008,0 -124.42995050000009,42.964103500000085,0 -124.4319770000001,42.96153320000008,0 -124.4345987000001,42.959273300000085,0 -124.43727510000008,42.95537040000008,0 -124.43822490000008,42.95453910000008,0 -124.44286040000007,42.94702990000008,0 -124.44975400000007,42.93174420000009,0 -124.44991340000007,42.93100360000009,0 -124.45002930000008,42.92327610000009,0 -124.45082580000009,42.91852760000009,0 -124.45136500000007,42.91739320000009,0 -124.45612130000006,42.91028630000009,0 -124.46206130000007,42.892931200000085,0 -124.46215930000008,42.890411500000084,0 -124.46341990000009,42.88466800000008,0 -124.46368830000009,42.88405510000008,0 -124.4663025000001,42.88059600000008,0 -124.46765480000009,42.879339400000084,0 -124.46794650000008,42.878850100000086,0 -124.46861820000007,42.87558580000009,0 -124.46796370000007,42.87087980000008,0 -124.46779300000007,42.87044720000008,0 -124.46666600000006,42.86891210000008,0 -124.46635760000008,42.86780690000008,0 -124.46673810000007,42.864135300000086,0 -124.46723430000007,42.86297330000008,0 -124.46761210000007,42.862474700000085,0 -124.46964860000007,42.860589300000086,0 -124.47264890000007,42.85284640000008,0 -124.47493580000007,42.84456930000008,0 -124.47753410000009,42.83907410000008,0 -124.47913600000008,42.831802200000084,0 -124.47954980000007,42.83116550000009,0 -124.48266670000008,42.82801580000009,0 -124.48297560000009,42.82704980000008,0 -124.4830000000001,42.82118720000008,0 -124.48205000000011,42.81252260000008,0 -124.4822009000001,42.81121080000008,0 -124.48364620000011,42.80801060000008,0 -124.48375010000011,42.80791900000008,0 -124.48532250000011,42.80489190000008,0 -124.48672440000011,42.79740410000008,0 -124.48734680000011,42.79634780000008,0 -124.49310630000011,42.79022750000008,0 -124.4938950000001,42.788800900000076,0 -124.4964010000001,42.774554100000074,0 -124.49647550000012,42.77444110000007,0 -124.4978645000001,42.766925300000075,0 -124.4973317000001,42.745071100000075,0 -124.49585050000012,42.743894500000074,0 -124.49544060000011,42.743672100000076,0 -124.49473940000013,42.74353050000008,0 -124.49225130000013,42.74349710000008,0 -124.49122450000014,42.74335650000008,0 -124.48973590000014,42.742947800000074,0 -124.48581080000015,42.741361000000076,0 -124.48476650000015,42.740737200000076,0 -124.48260070000016,42.73866170000008,0 -124.48144590000017,42.73797450000008,0 -124.48073850000017,42.73769020000008,0 -124.47963080000017,42.73741540000008,0 -124.47535580000016,42.73684630000008,0 -124.47445280000015,42.73653530000008,0 -124.47359050000016,42.73603940000008,0 -124.47317600000017,42.735677900000084,0 -124.46658670000016,42.725300100000084,0 -124.46629760000017,42.724498200000085,0 -124.46617910000018,42.72359010000009,0 -124.46668870000016,42.720181900000085,0 -124.46660410000018,42.71955400000009,0 -124.46631920000017,42.719096500000084,0 -124.46594010000017,42.71877720000008,0 -124.46388490000017,42.717966800000085,0 -124.46333530000017,42.71751220000008,0 -124.46217590000018,42.715825300000084,0 -124.4588199000002,42.70943330000008,0 -124.45804300000019,42.70736590000008,0 -124.4573442000002,42.704514700000075,0 -124.45652990000019,42.70246100000008,0 -124.4558346000002,42.70128890000008,0 -124.45275230000021,42.69776790000008,0 -124.4524906000002,42.69708990000007,0 -124.4525167000002,42.69659070000007,0 -124.4533421000002,42.69503240000007,0 -124.45340330000022,42.69467510000007,0 -124.4531564000002,42.69396500000007,0 -124.45248570000021,42.69338910000007,0 -124.44923240000021,42.69187740000007,0 -124.44849910000022,42.69138880000007,0 -124.44822990000023,42.691085500000064,0 -124.44774710000021,42.69005760000007,0 -124.44716480000021,42.68793080000007,0 -124.44697680000021,42.68760300000007,0 -124.44629470000021,42.68702670000007,0 -124.44583990000021,42.68684810000007,0 -124.44493290000021,42.68673900000007,0 -124.44399510000022,42.68681750000007,0 -124.44011900000021,42.687786500000065,0 -124.4372730000002,42.688977600000065,0 -124.4362136000002,42.68911690000007,0 -124.43547510000019,42.68902560000007,0 -124.4349169000002,42.688843500000075,0 -124.43268010000021,42.68727820000007,0 -124.43188570000021,42.687149500000075,0 -124.43038860000021,42.68736630000007,0 -124.42967830000022,42.687626700000074,0 -124.42945850000021,42.687619400000074,0 -124.42926010000019,42.68755460000007,0 -124.4280431000002,42.68672620000007,0 -124.4274853000002,42.68597170000007,0 -124.4271532000002,42.68458810000007,0 -124.42698720000021,42.68436700000007,0 -124.42664930000022,42.68413260000007,0 -124.42620260000024,42.684021100000066,0 -124.42243180000023,42.68431570000006,0 -124.42154280000022,42.68420670000007,0 -124.42044430000021,42.68380840000007,0 -124.42004810000022,42.68351970000007,0 -124.4193603000002,42.68274470000007,0 -124.4190880000002,42.68199370000007,0 -124.42005260000022,42.673831700000065,0 -124.4196124000002,42.671843500000065,0 -124.4187652000002,42.67033660000007,0 -124.41272380000018,42.66296940000007,0 -124.41124010000019,42.65995570000007,0 -124.4103292000002,42.65531150000007,0 -124.40794050000018,42.650459200000064,0 -124.40792040000018,42.64991660000007,0 -124.4088860000002,42.64664670000007,0 -124.40886860000019,42.64581020000007,0 -124.40843400000018,42.64485620000007,0 -124.40403800000018,42.63971960000006,0 -124.40286640000018,42.637787500000066,0 -124.40189500000018,42.63521880000007,0 -124.40028280000018,42.63364380000007,0 -124.40008440000017,42.63321260000007,0 -124.40017340000017,42.63126260000007,0 -124.39989860000017,42.63035200000007,0 -124.39900950000016,42.629071100000075,0 -124.39876630000018,42.62804110000007,0 -124.39893780000018,42.62619830000007,0 -124.39861930000018,42.624800800000074,0 -124.39875540000018,42.622677200000076,0 -124.39837930000017,42.62165230000007,0 -124.39714220000016,42.61973190000007,0 -124.39687680000017,42.61905190000007,0 -124.39676910000017,42.616926500000076,0 -124.39643160000017,42.61590080000008,0 -124.39575530000018,42.61496720000008,0 -124.39264380000017,42.61239100000008,0 -124.39197100000018,42.611408800000085,0 -124.39164450000018,42.61036700000008,0 -124.39169810000017,42.60669450000008,0 -124.39201840000018,42.60578960000008,0 -124.39245390000019,42.60529150000008,0 -124.3932696000002,42.60476570000008,0 -124.39588750000019,42.60348430000008,0 -124.39842590000019,42.60043080000008,0 -124.39877220000018,42.59948570000008,0 -124.39860100000017,42.59683780000008,0 -124.39912090000016,42.59499950000008,0 -124.39911260000017,42.594535400000076,0 -124.39873530000015,42.59385480000008,0 -124.39523540000016,42.591602100000074,0 -124.39463100000016,42.59085020000008,0 -124.39280480000018,42.587375300000076,0 -124.39273020000017,42.58696080000008,0 -124.39312420000019,42.584715800000076,0 -124.39230100000019,42.58271090000008,0 -124.39230220000019,42.58085140000008,0 -124.3919883000002,42.58022410000008,0 -124.3904053000002,42.578665800000074,0 -124.39016990000019,42.57824570000008,0 -124.38990120000018,42.57621060000008,0 -124.38970740000018,42.57581110000008,0 -124.38823410000019,42.574310700000076,0 -124.3880111000002,42.57392800000008,0 -124.38794680000021,42.571784200000074,0 -124.38467400000022,42.565238300000075,0 -124.38454840000021,42.564031400000076,0 -124.38473380000022,42.56324870000008,0 -124.38531280000022,42.56225980000008,0 -124.39344060000023,42.552646100000075,0 -124.39466190000024,42.55040470000008,0 -124.39749020000025,42.54008150000008,0 -124.39914130000025,42.53634000000008,0 -124.39919180000027,42.53630480000008,0 -124.40998050000026,42.51305760000008,0 -124.41036700000025,42.51159710000008,0 -124.41034840000025,42.510542300000075,0 -124.40955110000026,42.50626340000008,0 -124.40974610000026,42.50409860000008,0 -124.41691180000026,42.486052300000075,0 -124.41801330000025,42.481642200000074,0 -124.41866520000026,42.461904000000075,0 -124.41932990000025,42.458627300000074,0 -124.43075410000026,42.43317810000007,0 -124.43093340000024,42.43227630000007,0 -124.43068980000024,42.43121540000007,0 -124.42998950000025,42.43025230000007,0 -124.42915080000026,42.42961340000007,0 -124.42778960000025,42.42902660000007,0 -124.42645700000024,42.42881880000007,0 -124.42567440000023,42.42882830000007,0 -124.41911150000024,42.430267900000075,0 -124.41844490000024,42.43032910000008,0 -124.41454950000023,42.430235600000074,0 -124.41408840000025,42.43012370000008,0 -124.41353600000024,42.42978560000008,0 -124.41326310000025,42.429361600000085,0 -124.41332490000025,42.42419080000008,0 -124.41358200000025,42.42379460000008,0 -124.41401220000023,42.42351380000008,0 -124.41516450000023,42.42308630000008,0 -124.41595910000022,42.42265620000008,0 -124.41664200000022,42.42201650000008,0 -124.42060790000023,42.41526740000008,0 -124.42074360000025,42.41440800000009,0 -124.42051310000024,42.410737200000085,0 -124.42278270000024,42.394318000000084,0 -124.42219110000023,42.391238400000084,0 -124.42221480000023,42.390187300000086,0 -124.42329910000024,42.38650800000009,0 -124.42333200000024,42.38539280000008,0 -124.42055270000026,42.37788640000009,0 -124.42020750000025,42.37579920000009,0 -124.42002020000025,42.37144630000009,0 -124.41845290000025,42.36623140000009,0 -124.41813800000024,42.365730600000084,0 -124.41667330000024,42.36432720000009,0 -124.41630390000024,42.363623900000086,0 -124.41604590000024,42.36206060000009,0 -124.41576640000024,42.36151550000009,0 -124.41538730000025,42.36106610000009,0 -124.41399330000026,42.35991260000009,0 -124.41356290000024,42.35925350000009,0 -124.41327850000025,42.35737800000009,0 -124.41307360000025,42.35681640000009,0 -124.41245060000026,42.35584440000009,0 -124.41220660000026,42.355094200000096,0 -124.41227900000025,42.354499500000095,0 -124.41252170000026,42.354036700000094,0 -124.41345780000026,42.35298020000009,0 -124.41471850000028,42.3507196000001,0 -124.41781260000026,42.34707090000009,0 -124.41810770000026,42.34591210000009,0 -124.41799980000026,42.345108500000094,0 -124.41721670000027,42.34291850000009,0 -124.41681070000027,42.34232570000009,0 -124.41636370000026,42.34189530000009,0 -124.41344150000026,42.34052070000009,0 -124.41269100000025,42.33993340000009,0 -124.41210780000024,42.339109800000095,0 -124.41195510000024,42.338573400000094,0 -124.41197770000024,42.33788000000009,0 -124.41256180000023,42.336708600000094,0 -124.41345980000023,42.335985100000094,0 -124.41797120000021,42.334128800000094,0 -124.42258180000022,42.3307636000001,0 -124.4230935000002,42.3301573000001,0 -124.42337520000021,42.329439400000105,0 -124.4233163000002,42.3286921000001,0 -124.4231482000002,42.3282750000001,0 -124.42275950000021,42.3277581000001,0 -124.42034940000019,42.3258076000001,0 -124.41941090000019,42.3252337000001,0 -124.41767900000018,42.3244943000001,0 -124.41711050000019,42.3240486000001,0 -124.41515110000019,42.320908100000096,0 -124.4149947000002,42.3201719000001,0 -124.41505680000017,42.3196217000001,0 -124.41622170000018,42.317347900000094,0 -124.41632130000018,42.316848300000096,0 -124.41626350000017,42.31619120000009,0 -124.41491800000018,42.31324850000009,0 -124.41383450000018,42.30999110000009,0 -124.41335480000019,42.30931960000009,0 -124.41064950000019,42.30757400000009,0 -124.4100206000002,42.30678450000009,0 -124.40980200000018,42.306102100000096,0 -124.40984120000017,42.30540720000009,0 -124.41100830000019,42.3026919000001,0 -124.4110693000002,42.3021034000001,0 -124.4109590000002,42.3015063000001,0 -124.4106570000002,42.3009172000001,0 -124.4090489000002,42.2990331000001,0 -124.4084760000002,42.2980392000001,0 -124.40500550000021,42.289013800000106,0 -124.40510130000021,42.282275600000105,0 -124.40477520000022,42.27997230000011,0 -124.39813310000022,42.25582640000011,0 -124.39732640000022,42.254591600000104,0 -124.39658370000024,42.25375830000011,0 -124.39286510000024,42.25074300000011,0 -124.39235300000021,42.25012790000011,0 -124.39183030000024,42.249136500000105,0 -124.39157500000022,42.24777160000011,0 -124.39235280000022,42.23812580000011,0 -124.39184730000022,42.23687690000011,0 -124.3911788000002,42.23608380000012,0 -124.39042550000022,42.235519400000115,0 -124.3872577000002,42.23406480000012,0 -124.38624390000021,42.23332610000011,0 -124.38584690000022,42.23281780000012,0 -124.38476990000021,42.23009610000012,0 -124.38423850000021,42.229441700000116,0 -124.3813710000002,42.22737630000012,0 -124.38085650000019,42.22677810000011,0 -124.37921240000018,42.223934700000115,0 -124.37822510000018,42.22291050000012,0 -124.37659590000018,42.221907500000114,0 -124.37377410000019,42.220915300000115,0 -124.3728917000002,42.220463000000116,0 -124.37232970000018,42.220024600000116,0 -124.37164580000018,42.21899420000012,0 -124.37157880000017,42.218130000000116,0 -124.37197500000018,42.217037400000116,0 -124.37483180000018,42.214178400000115,0 -124.37513060000018,42.213662800000115,0 -124.37531530000017,42.21298120000011,0 -124.37532270000017,42.21237980000011,0 -124.37480900000016,42.21103800000011,0 -124.37367320000017,42.20952600000011,0 -124.37327140000018,42.20819010000012,0 -124.37298030000018,42.20467220000011,0 -124.37405540000017,42.200837000000114,0 -124.37397780000016,42.20035960000011,0 -124.37362850000017,42.199672200000116,0 -124.37297140000015,42.198991100000114,0 -124.36966320000016,42.19635250000012,0 -124.36838510000018,42.194825100000116,0 -124.36564890000018,42.189788200000116,0 -124.36475860000017,42.188692400000114,0 -124.36363960000018,42.187765800000115,0 -124.36089530000018,42.18594410000012,0 -124.36048880000018,42.185512600000116,0 -124.3600999000002,42.184818200000116,0 -124.3599561000002,42.18415370000012,0 -124.35999560000019,42.18196070000012,0 -124.3597493000002,42.181221000000114,0 -124.35834060000019,42.17946050000012,0 -124.3580395000002,42.178544600000116,0 -124.35861220000021,42.17658450000012,0 -124.35853500000022,42.17583740000012,0 -124.3577989000002,42.173744800000115,0 -124.35775240000021,42.17303360000012,0 -124.35790240000021,42.172495400000116,0 -124.35991760000022,42.16942680000012,0 -124.36006860000023,42.168980400000116,0 -124.36012070000022,42.16824170000012,0 -124.35963790000022,42.16694970000011,0 -124.35896970000023,42.165919600000116,0 -124.35786330000025,42.163455300000116,0 -124.35764560000024,42.16221340000011,0 -124.35769810000023,42.161563600000115,0 -124.35806690000022,42.160488000000115,0 -124.35980100000023,42.15793050000012,0 -124.36009580000024,42.15724090000012,0 -124.36020800000024,42.156354800000116,0 -124.35969660000023,42.15146410000011,0 -124.35947110000025,42.15074660000011,0 -124.35889690000025,42.14990190000011,0 -124.35794330000026,42.14909810000011,0 -124.35352950000025,42.14641860000011,0 -124.35270470000025,42.14551450000011,0 -124.35225910000025,42.14468030000011,0 -124.35204970000025,42.14335010000011,0 -124.35241880000025,42.14076630000012,0 -124.35231110000025,42.14001490000011,0 -124.35204310000026,42.13930590000012,0 -124.35016920000025,42.136798700000114,0 -124.34989320000027,42.135826700000116,0 -124.35013490000026,42.13364720000012,0 -124.35005440000026,42.13283420000011,0 -124.34979710000026,42.13212770000011,0 -124.34862210000027,42.13016880000011,0 -124.34846210000028,42.129672900000116,0 -124.34845660000028,42.12904330000011,0 -124.34968790000028,42.125199000000116,0 -124.34911460000028,42.121955800000116,0 -124.34883300000027,42.11324660000011,0 -124.34858300000027,42.111892900000115,0 -124.34789800000027,42.110563900000116,0 -124.34223590000028,42.10215500000012,0 -124.32725640000027,42.08562340000011,0 -124.32610030000028,42.08475340000011,0 -124.31805380000027,42.08040370000011,0 -124.31506230000026,42.07842890000011,0 -124.31130690000026,42.07492890000011,0 -124.30127120000027,42.06166940000011,0 -124.29724070000027,42.05706100000011,0 -124.29594770000027,42.056418600000114,0 -124.28911670000028,42.054717500000116,0 -124.28747430000028,42.05407080000011,0 -124.2847129000003,42.05259740000011,0 -124.28384330000031,42.052355300000116,0 -124.28306010000033,42.052297500000115,0 -124.28239160000031,42.052349100000114,0 -124.27825310000033,42.05353230000011,0 -124.27794500000033,42.05296000000011,0 -124.27772470000033,42.05302330000011,0 </coordinates></LineString><TimeSpan><begin>2019-11-30T22:26:25.999Z</begin><end>2019-12-01T02:14:33.000Z</end></TimeSpan></Placemark><Placemark><name>Wild Rivers Motorlodge</name><address>437 Chetco Ave, Brookings, OR 97415</address><ExtendedData><Data name="Email"><value>syugen.zhou@gmail.com</value></Data><Data name="Category"><value>Motel</value></Data><Data name="Distance"><value>0</value></Data></ExtendedData><description> Motel from 2019-12-01T02:14:33.000Z to 2019-12-01T16:16:28.000Z. Distance 0m </description><Point><coordinates>-124.27771949999999,42.0531796,0</coordinates></Point><TimeSpan><begin>2019-12-01T02:14:33.000Z</begin><end>2019-12-01T16:16:28.000Z</end></TimeSpan></Placemark></Document></kml>
