<?xml version="1.0" encoding="UTF-8"?><kml xmlns="http://www.opengis.net/kml/2.2" xmlns:gx="http://www.google.com/kml/ext/2.2"><Document><name> Location history from 2022-05-28 to 2022-05-28 </name><open>1</open><description></description><StyleMap id="multiTrack"><Pair><key>normal</key><styleUrl>#multiTrack_n</styleUrl></Pair><Pair><key>highlight</key><styleUrl>#multiTrack_h</styleUrl></Pair></StyleMap><Style id="multiTrack_n"><IconStyle><Icon><href>https://earth.google.com/images/kml-icons/track-directional/track-0.png</href></Icon></IconStyle><LineStyle><color>99ffac59</color><width>6</width></LineStyle></Style><Style id="multiTrack_h"><IconStyle><scale>1.2</scale><Icon><href>https://earth.google.com/images/kml-icons/track-directional/track-0.png</href></Icon></IconStyle><LineStyle><color>99ffac59</color><width>8</width></LineStyle></Style><Placemark><name>Holiday Inn Express &amp; Suites El Paso North, an IHG Hotel</name><address>8725 Gateway S Blvd, El Paso, TX 79904</address><ExtendedData><Data name="Email"><value>syugen.zhou@gmail.com</value></Data><Data name="Category"><value>Hotel</value></Data><Data name="Distance"><value>0</value></Data></ExtendedData><description> Hotel from 2022-05-28T01:28:15.999Z to 2022-05-28T16:28:02.999Z. Distance 0m </description><Point><coordinates>-106.4416279,31.861448499999998,0</coordinates></Point><TimeSpan><begin>2022-05-28T01:28:15.999Z</begin><end>2022-05-28T16:28:02.999Z</end></TimeSpan></Placemark><Placemark><name>Driving</name><address></address><ExtendedData><Data name="Email"><value>syugen.zhou@gmail.com</value></Data><Data name="Category"><value>Driving</value></Data><Data name="Distance"><value>25045</value></Data></ExtendedData><description> Driving from 2022-05-28T16:28:02.999Z to 2022-05-28T16:49:31.000Z. Distance 25045m </description><LineString><altitudeMode>clampToGround</altitudeMode><extrude>1</extrude><tesselate>1</tesselate><coordinates>-106.4412502,31.861503700000004,0 -106.44099999999999,31.851856,0 -106.44073139999999,31.8494097,0 -106.4405565,31.8439793,0 -106.44050089999999,31.843875099999998,0 -106.4401484,31.8418196,0 -106.4400677,31.841706000000002,0 -106.4397992,31.8307272,0 -106.4396079,31.829344,0 -106.4378762,31.824611500000003,0 -106.437787,31.823544700000003,0 -106.4381156,31.822352700000003,0 -106.4400773,31.819194500000002,0 -106.4404657,31.818346,0 -106.4417212,31.813986399999994,0 -106.4425363,31.806487299999997,0 -106.4423865,31.804330099999994,0 -106.4416211,31.8012229,0 -106.44165840000001,31.801070599999996,0 -106.441511,31.799982099999998,0 -106.44174170000001,31.7806437,0 -106.44196860000001,31.7797683,0 -106.4424939,31.778504,0 -106.44291750000001,31.778083600000002,0 -106.4432632,31.777916100000002,0 -106.44358090000001,31.777837700000003,0 -106.44626240000001,31.777836200000003,0 -106.44907290000002,31.778040100000005,0 -106.44925290000002,31.7779677,0 -106.45064320000003,31.778149100000004,0 -106.46208160000003,31.778227800000003,0 -106.46290780000004,31.778126300000004,0 -106.46419680000002,31.777781100000002,0 -106.46518330000002,31.777299700000007,0 -106.48471930000002,31.764810600000008,0 -106.48590820000001,31.764429700000008,0 -106.48796050000001,31.764068400000003,0 -106.48900520000002,31.763724100000005,0 -106.49544760000003,31.759726600000008,0 -106.49635050000002,31.759352700000008,0 -106.49777770000003,31.75905760000001,0 -106.49892110000002,31.75902530000001,0 -106.50097860000002,31.759378600000012,0 -106.50202760000003,31.759749500000012,0 -106.50336300000004,31.760570000000012,0 -106.50415320000003,31.76135330000001,0 -106.50670700000003,31.764618000000006,0 -106.51063910000003,31.77057840000001,0 -106.51445610000003,31.774515600000004,0 -106.51665660000003,31.7780215,0 -106.51723940000004,31.779435100000004,0 -106.51924120000002,31.789477100000006,0 -106.51917240000003,31.789558900000003,0 -106.51918990000003,31.7908185,0 -106.51891950000002,31.7926453,0 -106.51897070000003,31.793149900000003,0 -106.51918920000003,31.793765000000004,0 -106.52293480000002,31.790567600000003,0 -106.52396800000002,31.788981000000003,0 -106.52448410000002,31.788556000000003,0 -106.52508210000002,31.788335800000002,0 -106.52570390000001,31.788277,0 -106.52578560000002,31.7882938,0 -106.52590810000001,31.7884178,0 -106.52600530000001,31.788950900000003,0 -106.52606050000001,31.789000200000004,0 -106.52621930000001,31.789521700000005,0 -106.5264439,31.789943600000004,0 -106.5270175,31.790645800000004,0 -106.5282312,31.791602200000003,0 -106.53120700000001,31.7932533,0 -106.53248810000001,31.794420000000002,0 -106.5330441,31.7952427,0 -106.5343732,31.797895000000004,0 -106.5355941,31.799440800000003,0 -106.5356093,31.799520700000002,0 -106.5376461,31.80177,0 -106.5386091,31.802398600000004,0 -106.5398215,31.802869,0 -106.53986270000001,31.8028581,0 -106.54049890000002,31.802981400000004,0 -106.54092370000002,31.8028815,0 -106.54294260000002,31.801470100000003,0 -106.54776580000001,31.799937200000002,0 -106.54913310000002,31.7991655,0 -106.55181800000001,31.797175400000004,0 -106.55352130000001,31.796344000000005,0 -106.55490100000002,31.795930300000002,0 -106.55507630000001,31.7952457,0 -106.55534570000002,31.794816400000002,0 -106.5557366,31.794433000000005,0 -106.55836550000001,31.792913700000003,0 -106.55868260000001,31.792820700000004,0 -106.56001270000002,31.792662200000006,0 -106.56152630000003,31.792070900000006,0 -106.56251930000002,31.791466800000006,0 -106.56426260000002,31.790016800000004,0 -106.56489550000002,31.789642000000004,0 -106.56888300000003,31.7855852,0 -106.56941880000002,31.784745299999997,0 </coordinates></LineString><TimeSpan><begin>2022-05-28T16:28:02.999Z</begin><end>2022-05-28T16:49:31.000Z</end></TimeSpan></Placemark><Placemark><name>Border</name><address>Dropped pin</address><ExtendedData><Data name="Email"><value>syugen.zhou@gmail.com</value></Data><Data name="Category"><value></value></Data><Data name="Distance"><value>0</value></Data></ExtendedData><description>  from 2022-05-28T16:49:31.000Z to 2022-05-28T16:53:00.000Z. Distance 0m </description><Point><coordinates>-106.5693335,31.7846116,0</coordinates></Point><TimeSpan><begin>2022-05-28T16:49:31.000Z</begin><end>2022-05-28T16:53:00.000Z</end></TimeSpan></Placemark><Placemark><name>Walking</name><address></address><ExtendedData><Data name="Email"><value>syugen.zhou@gmail.com</value></Data><Data name="Category"><value>Walking</value></Data><Data name="Distance"><value>1622</value></Data></ExtendedData><description> Walking from 2022-05-28T16:53:00.000Z to 2022-05-28T17:14:48.348Z. Distance 1622m </description><LineString><altitudeMode>clampToGround</altitudeMode><extrude>1</extrude><tesselate>1</tesselate><coordinates>-106.5693335,31.7846116,0 -106.5693335,31.7846116,0 -106.5689403,31.7845209,0 -106.5677571,31.783967,0 -106.566069,31.7838417,0 -106.5628779,31.7838432,0 -106.561223,31.7839415,0 -106.5679329,31.784118,0 -106.5671832,31.783954,0 -106.5685474,31.7841137,0 -106.5685474,31.7841137,0 </coordinates></LineString><TimeSpan><begin>2022-05-28T16:53:00.000Z</begin><end>2022-05-28T17:14:48.348Z</end></TimeSpan></Placemark><Placemark><name>Driving</name><address></address><ExtendedData><Data name="Email"><value>syugen.zhou@gmail.com</value></Data><Data name="Category"><value>Driving</value></Data><Data name="Distance"><value>13850</value></Data></ExtendedData><description> Driving from 2022-05-28T17:14:48.348Z to 2022-05-28T17:37:32.000Z. Distance 13850m </description><LineString><altitudeMode>clampToGround</altitudeMode><extrude>1</extrude><tesselate>1</tesselate><coordinates>-106.56847889999999,31.784248899999998,0 -106.5694503,31.7846972,0 -106.568883,31.7855852,0 -106.56489549999999,31.789642000000004,0 -106.5615263,31.792070900000006,0 -106.56001269999999,31.792662200000006,0 -106.5583655,31.79291370000001,0 -106.5557366,31.794433000000012,0 -106.5550763,31.795245700000013,0 -106.554901,31.795930300000013,0 -106.5535213,31.796344000000015,0 -106.551818,31.797175400000018,0 -106.54776580000001,31.799937200000013,0 -106.5429426,31.801470100000017,0 -106.54092370000001,31.802881500000012,0 -106.54034270000001,31.80297570000001,0 -106.53953350000002,31.80274310000001,0 -106.53892720000002,31.80235660000001,0 -106.53514280000002,31.798746700000006,0 -106.53252680000001,31.794239100000006,0 -106.53157610000001,31.79332760000001,0 -106.52806570000001,31.791384700000005,0 -106.5266445,31.790059600000006,0 -106.52626240000001,31.7892866,0 -106.52573960000001,31.7832111,0 -106.52340100000002,31.776687999999996,0 -106.52162700000001,31.774775999999996,0 -106.51755000000001,31.772569499999996,0 -106.5145363,31.771726299999994,0 -106.5129062,31.770431499999997,0 -106.5116887,31.768804399999997,0 -106.50885029999999,31.763046,0 -106.5080376,31.7623276,0 -106.50541619999998,31.7638682,0 -106.50476259999999,31.764812199999998,0 -106.5039834,31.765054,0 -106.4959026,31.7702657,0 -106.4965378,31.7709721,0 -106.4946035,31.772043699999998,0 -106.4942381,31.7724219,0 -106.4937249,31.7737735,0 -106.49343710000001,31.774069700000002,0 -106.49208600000001,31.774829700000005,0 -106.49187810000001,31.775058100000006,0 -106.4916443,31.775762400000005,0 -106.49200810000002,31.777238600000004,0 -106.49160330000001,31.7786058,0 -106.49178870000001,31.7796922,0 -106.4902699,31.7808777,0 -106.4894972,31.7809079,0 -106.48847990000002,31.7812935,0 -106.48814820000001,31.7812944,0 -106.48774940000001,31.781153200000002,0 -106.48712040000001,31.7804385,0 -106.48709590000001,31.780095199999998,0 -106.48728520000002,31.7796018,0 -106.48641300000001,31.7796455,0 -106.48559270000001,31.7799664,0 -106.48510000000002,31.780461999999996,0 -106.48417700000002,31.782044999999997,0 -106.48398300000002,31.782700999999996,0 -106.48458900000001,31.782721999999996,0 -106.48489600000002,31.782588999999998,0 -106.48632500000002,31.780889,0 -106.48649400000002,31.780518,0 -106.48647000000001,31.780221000000004,0 -106.48617100000001,31.779712,0 -106.48680800000001,31.7796396,0 -106.48705250000002,31.7797344,0 -106.48715800000001,31.779890999999996,0 -106.48712040000001,31.7804385,0 -106.48774940000001,31.781153200000002,0 -106.48814820000001,31.7812944,0 -106.48847990000002,31.7812935,0 -106.4894972,31.7809079,0 -106.4902699,31.7808777,0 -106.49178870000001,31.7796922,0 -106.49155460000001,31.780081199999998,0 -106.49051500000002,31.781042999999997,0 -106.48928800000002,31.781357,0 -106.48736600000001,31.783272999999998,0 -106.48617610000001,31.786107199999996,0 -106.48596830000001,31.786204599999998,0 -106.48571530000001,31.786212199999998,0 -106.48445400000001,31.785391,0 -106.48424000000001,31.785395000000005,0 -106.48399200000001,31.785528000000003,0 -106.48367900000001,31.785972,0 -106.483495,31.786017,0 -106.483337,31.785969000000005,0 -106.483046,31.785661,0 -106.48286300000001,31.785237000000002,0 -106.482395,31.784995000000002,0 -106.482334,31.784833000000003,0 -106.482439,31.784321000000002,0 -106.48214499999999,31.783983,0 -106.481561,31.783793,0 -106.480519,31.782575999999995,0 -106.4803756,31.7825232,0 -106.4798239,31.782734899999998,0 </coordinates></LineString><TimeSpan><begin>2022-05-28T17:14:48.348Z</begin><end>2022-05-28T17:37:32.000Z</end></TimeSpan></Placemark><Placemark><name>Scenic Drive - Overlook</name><address>Scenic Dr, El Paso, TX 79902</address><ExtendedData><Data name="Email"><value>syugen.zhou@gmail.com</value></Data><Data name="Category"><value>Park</value></Data><Data name="Distance"><value>0</value></Data></ExtendedData><description> Park from 2022-05-28T17:37:32.000Z to 2022-05-28T17:40:31.000Z. Distance 0m </description><Point><coordinates>-106.4797389,31.7826028,0</coordinates></Point><TimeSpan><begin>2022-05-28T17:37:32.000Z</begin><end>2022-05-28T17:40:31.000Z</end></TimeSpan></Placemark><Placemark><name>Driving</name><address></address><ExtendedData><Data name="Email"><value>syugen.zhou@gmail.com</value></Data><Data name="Category"><value>Driving</value></Data><Data name="Distance"><value>11254</value></Data></ExtendedData><description> Driving from 2022-05-28T17:40:31.000Z to 2022-05-28T17:58:57.000Z. Distance 11254m </description><LineString><altitudeMode>clampToGround</altitudeMode><extrude>1</extrude><tesselate>1</tesselate><coordinates>-106.4798239,31.782734899999998,0 -106.47931319999999,31.783008399999996,0 -106.478972,31.783326699999996,0 -106.47856379999999,31.783531999999997,0 -106.4782336,31.783866599999996,0 -106.4779451,31.7843895,0 -106.47789139999999,31.784659199999997,0 -106.4777831,31.7847701,0 -106.47688169999998,31.785162,0 -106.47668089999999,31.7853244,0 -106.47658899999999,31.7855995,0 -106.47647139999998,31.785790499999997,0 -106.47583569999999,31.786464899999995,0 -106.47568949999999,31.786936399999995,0 -106.47546359999998,31.787248799999993,0 -106.47542949999998,31.787371599999993,0 -106.47543749999998,31.787436299999996,0 -106.47564499999999,31.787797799999993,0 -106.475653,31.787847899999992,0 -106.4756232,31.787958599999993,0 -106.47557929999999,31.78802029999999,0 -106.47546639999999,31.788089699999986,0 -106.47496199999999,31.78822099999999,0 -106.474844,31.788319999999988,0 -106.47480399999999,31.788436999999984,0 -106.474873,31.78894599999999,0 -106.4748,31.78911199999999,0 -106.47463,31.78922999999999,0 -106.47389400000002,31.789239999999992,0 -106.47375900000002,31.78929299999999,0 -106.47369,31.789395999999993,0 -106.473725,31.790007999999993,0 -106.473682,31.79018899999999,0 -106.47331,31.791056999999988,0 -106.47297300000001,31.791471999999988,0 -106.47276000000001,31.79160899999999,0 -106.47210700000001,31.791688999999987,0 -106.47202300000001,31.791723999999984,0 -106.47166700000001,31.791979999999988,0 -106.47077900000001,31.792313999999983,0 -106.47059200000001,31.792432999999985,0 -106.470259,31.792863999999984,0 -106.470098,31.792950999999984,0 -106.469804,31.793019999999984,0 -106.469636,31.793093999999982,0 -106.46950199999999,31.793212999999984,0 -106.469421,31.793401999999986,0 -106.46937899999999,31.794072999999987,0 -106.46930499999999,31.794199999999986,0 -106.46888,31.794574999999988,0 -106.468074,31.795664999999985,0 -106.467831,31.795849999999984,0 -106.467598,31.795915999999984,0 -106.465947,31.795908199999985,0 -106.4658828,31.811771399999984,0 -106.46579440000001,31.811957399999983,0 -106.465888,31.820693999999982,0 -106.4657959,31.82114419999998,0 -106.465571,31.821699999999986,0 -106.4653384,31.82209969999998,0 -106.46506099999999,31.822455999999985,0 -106.4636415,31.823758599999987,0 -106.46311569999999,31.82409739999999,0 -106.4620542,31.824514599999986,0 -106.46163999999999,31.824605999999985,0 -106.45720309999999,31.825095999999984,0 -106.45644199999998,31.825294399999983,0 -106.45569789999998,31.825664699999983,0 -106.45525149999999,31.82598349999998,0 -106.45494539999999,31.826286499999984,0 -106.45453129999999,31.826922499999988,0 -106.45436779999999,31.827314899999987,0 -106.4541658,31.828265699999985,0 -106.4542338,31.83168739999999,0 -106.4542967,31.83206499999999,0 -106.45449529999999,31.832689399999985,0 -106.45496399999999,31.833517399999984,0 -106.45632739999999,31.83502269999999,0 -106.4565274,31.83530029999999,0 -106.45691169999999,31.83601119999999,0 -106.45723629999999,31.83687939999999,0 -106.45737489999999,31.83762459999999,0 -106.45739079999998,31.83864579999999,0 -106.45724189999999,31.83955279999999,0 -106.45695449999998,31.84037289999999,0 -106.45635599999999,31.84135299999999,0 -106.45491449999999,31.842924699999994,0 -106.45456279999999,31.84343329999999,0 -106.45408959999999,31.84435339999999,0 -106.4534271,31.846538499999987,0 -106.4533471,31.847344299999985,0 -106.45335899999999,31.847872999999982,0 -106.453966,31.850338999999984,0 -106.45424539999999,31.860937699999983,0 -106.45411449999999,31.861413599999985,0 -106.45351699999999,31.862686199999985,0 -106.4534505,31.86296159999998,0 -106.4534328,31.864242799999978,0 -106.441329,31.864459299999975,0 -106.4412533,31.861618199999977,0 </coordinates></LineString><TimeSpan><begin>2022-05-28T17:40:31.000Z</begin><end>2022-05-28T17:58:57.000Z</end></TimeSpan></Placemark><Placemark><name>Holiday Inn Express &amp; Suites El Paso North, an IHG Hotel</name><address>8725 Gateway S Blvd, El Paso, TX 79904</address><ExtendedData><Data name="Email"><value>syugen.zhou@gmail.com</value></Data><Data name="Category"><value>Hotel</value></Data><Data name="Distance"><value>0</value></Data></ExtendedData><description> Hotel from 2022-05-28T17:58:57.000Z to 2022-05-28T19:08:49.999Z. Distance 0m </description><Point><coordinates>-106.4416279,31.861448499999998,0</coordinates></Point><TimeSpan><begin>2022-05-28T17:58:57.000Z</begin><end>2022-05-28T19:08:49.999Z</end></TimeSpan></Placemark><Placemark><name>Driving</name><address></address><ExtendedData><Data name="Email"><value>syugen.zhou@gmail.com</value></Data><Data name="Category"><value>Driving</value></Data><Data name="Distance"><value>10122</value></Data></ExtendedData><description> Driving from 2022-05-28T19:08:49.999Z to 2022-05-28T19:18:24.000Z. Distance 10122m </description><LineString><altitudeMode>clampToGround</altitudeMode><extrude>1</extrude><tesselate>1</tesselate><coordinates>-106.44123409999999,31.860836,0 -106.44116019999998,31.856714500000002,0 -106.44113799999998,31.8565518,0 -106.44102999999998,31.852311999999998,0 -106.44099999999997,31.851855999999994,0 -106.44073139999998,31.849409699999992,0 -106.44059359999997,31.844592099999993,0 -106.44055649999997,31.843979299999994,0 -106.44052299999997,31.843927999999995,0 -106.44050089999996,31.843875099999995,0 -106.44021019999997,31.842355499999993,0 -106.44015129999997,31.84182719999999,0 -106.44014839999997,31.84181959999999,0 -106.44006769999997,31.841705999999988,0 -106.44001169999997,31.839696499999988,0 -106.44001739999997,31.83965799999999,0 -106.43979919999997,31.830727199999988,0 -106.43975949999998,31.830176699999985,0 -106.43970689999998,31.829785499999982,0 -106.43960789999997,31.82934399999998,0 -106.43935109999997,31.828572499999982,0 -106.43807779999997,31.825263599999982,0 -106.43787619999996,31.824611499999982,0 -106.43781479999996,31.824301899999984,0 -106.43778689999996,31.82403679999998,0 -106.43778699999996,31.823544699999978,0 -106.43783689999995,31.823228999999973,0 -106.43790659999996,31.822918499999975,0 -106.43796279999997,31.822740199999977,0 -106.43811559999996,31.82235269999998,0 -106.43840879999995,31.821830899999977,0 -106.43986909999995,31.819564199999977,0 -106.44007729999996,31.819194499999977,0 -106.44030409999996,31.818730799999972,0 -106.44046569999996,31.818345999999973,0 -106.44059309999996,31.817983999999974,0 -106.44112819999997,31.81627699999997,0 -106.44119099999996,31.816154099999974,0 -106.44144549999996,31.815288499999976,0 -106.44163899999997,31.814447399999974,0 -106.44172119999996,31.813986399999976,0 -106.44222589999997,31.810135599999974,0 -106.44253629999997,31.806487299999976,0 -106.44254769999996,31.806021999999977,0 -106.44253789999996,31.805593699999974,0 -106.44248069999995,31.80493799999998,0 -106.44238649999996,31.804330099999977,0 -106.44162109999995,31.801222899999978,0 -106.44165839999995,31.801070599999974,0 -106.44165829999996,31.801049899999974,0 -106.44158159999995,31.800639699999973,0 -106.44151099999995,31.799982099999973,0 -106.44149779999995,31.79943639999997,0 -106.44152189999996,31.79904449999997,0 -106.44155539999997,31.795245699999967,0 -106.44152949999996,31.795148099999967,0 -106.44169169999996,31.781168699999967,0 -106.44174169999995,31.780643699999967,0 -106.44181559999996,31.78027119999997,0 -106.44188159999995,31.780025599999966,0 -106.44196859999995,31.77976829999997,0 -106.44240459999995,31.778673799999964,0 -106.44249389999995,31.778503999999963,0 -106.44256279999995,31.778406099999962,0 -106.44264439999995,31.77831089999996,0 -106.44273669999994,31.77822199999996,0 -106.44291749999994,31.77808359999996,0 -106.44303049999995,31.778016799999957,0 -106.44326319999995,31.77791609999996,0 -106.44339059999994,31.77787699999996,0 -106.44358089999993,31.777837699999957,0 -106.44377809999993,31.777819899999958,0 -106.44626239999992,31.777836199999957,0 -106.44727779999992,31.777883999999954,0 -106.44862239999992,31.777989499999954,0 -106.44907289999992,31.778040099999952,0 -106.44925289999992,31.77796769999995,0 -106.44996699999992,31.77807669999995,0 -106.45064319999992,31.77814909999995,0 -106.45162799999991,31.77819829999995,0 -106.45348109999992,31.77821069999995,0 -106.45361269999991,31.77836049999995,0 -106.45516179999991,31.77863609999995,0 -106.45937599999992,31.77865599999995,0 -106.45964719999992,31.778603699999945,0 -106.45971849999991,31.778567599999946,0 -106.45976219999991,31.778523299999943,0 -106.4597735999999,31.778502899999943,0 -106.4597848999999,31.77845679999994,0 -106.45979099999991,31.777777999999945,0 -106.4597848999999,31.777749799999945,0 -106.45975159999992,31.777693999999943,0 -106.45971729999991,31.777662799999945,0 -106.4596019999999,31.77759899999994,0 -106.4584489999999,31.777592999999943,0 -106.4584602999999,31.77584019999994,0 -106.4584425999999,31.775823899999942,0 -106.4584637999999,31.775728199999943,0 -106.45848189999991,31.77340209999994,0 -106.45776359999991,31.77338939999994,0 </coordinates></LineString><TimeSpan><begin>2022-05-28T19:08:49.999Z</begin><end>2022-05-28T19:18:24.000Z</end></TimeSpan></Placemark><Placemark><name>Mariscos Los Mariachis</name><address>3214 Alameda Ave, El Paso, TX 79905</address><ExtendedData><Data name="Email"><value>syugen.zhou@gmail.com</value></Data><Data name="Category"><value>Seafood</value></Data><Data name="Distance"><value>0</value></Data></ExtendedData><description> Seafood from 2022-05-28T19:18:24.000Z to 2022-05-28T20:40:19.000Z. Distance 0m </description><Point><coordinates>-106.4562083,31.773230199999997,0</coordinates></Point><TimeSpan><begin>2022-05-28T19:18:24.000Z</begin><end>2022-05-28T20:40:19.000Z</end></TimeSpan></Placemark><Placemark><name>Driving</name><address></address><ExtendedData><Data name="Email"><value>syugen.zhou@gmail.com</value></Data><Data name="Category"><value>Driving</value></Data><Data name="Distance"><value>1537</value></Data></ExtendedData><description> Driving from 2022-05-28T20:40:19.999Z to 2022-05-28T20:42:59.998Z. Distance 1537m </description><LineString><altitudeMode>clampToGround</altitudeMode><extrude>1</extrude><tesselate>1</tesselate><coordinates>-106.4569829,31.772180499999997,0 -106.4569841,31.771865,0 -106.456986,31.7713626,0 -106.45698949999999,31.7710748,0 -106.4569917,31.770895000000003,0 -106.45699210000001,31.770863100000003,0 -106.4569919,31.770715100000004,0 -106.4569919,31.770709500000002,0 -106.45699160000001,31.7705353,0 -106.4569912,31.770355399999996,0 -106.45699520000001,31.769987799999996,0 -106.4569949,31.7698915,0 -106.4569925,31.7694437,0 -106.4569941,31.7690354,0 -106.45699800000001,31.768898000000004,0 -106.45699200000001,31.768719,0 -106.45699200000001,31.768719,0 -106.4574776,31.7684787,0 -106.45772660000002,31.7683577,0 -106.45831890000001,31.768082,0 -106.45831890000001,31.768082,0 -106.45843290000002,31.768029800000004,0 -106.45834260000001,31.767890400000002,0 -106.45808860000001,31.7674199,0 -106.45784880000002,31.766970200000003,0 -106.45760950000002,31.766499399999997,0 -106.45760950000002,31.766499399999997,0 -106.45747890000001,31.766544699999997,0 -106.45719820000002,31.766624800000002,0 -106.45707690000002,31.766651799999998,0 -106.45696520000001,31.7666672,0 -106.45685100000001,31.7666733,0 -106.45672180000001,31.766672600000003,0 -106.45664590000001,31.7666682,0 -106.4564976,31.766643400000003,0 -106.45640340000001,31.766628200000003,0 -106.45631900000001,31.766608600000005,0 -106.4561942,31.766573900000008,0 -106.45609400000001,31.766543400000007,0 -106.4560307,31.766522800000004,0 -106.455937,31.766467800000004,0 -106.45579760000001,31.766388000000003,0 -106.45559640000002,31.7662945,0 -106.45556810000001,31.7662796,0 -106.45556810000001,31.7662796,0 -106.45541180000001,31.766277200000005,0 -106.45531170000001,31.766284600000002,0 -106.4552378,31.766300200000003,0 -106.4551284,31.766336900000006,0 -106.4550284,31.766387,0 -106.4549545,31.766435200000004,0 -106.45489510000002,31.7664794,0 -106.45488310000002,31.7665165,0 -106.45478590000002,31.766701899999997,0 -106.45475620000002,31.766816600000002,0 -106.45475020000002,31.7669107,0 -106.45475710000002,31.766932500000003,0 -106.45477180000003,31.767018500000006,0 -106.45479100000001,31.767076600000006,0 -106.45481200000002,31.767118100000005,0 -106.45496580000001,31.767340300000004,0 -106.45504520000001,31.767461400000006,0 -106.45504520000001,31.767461400000006,0 -106.45509350000002,31.767543900000007,0 -106.45512700000002,31.76760120000001,0 -106.45516210000002,31.767739000000013,0 </coordinates></LineString><TimeSpan><begin>2022-05-28T20:40:19.999Z</begin><end>2022-05-28T20:42:59.998Z</end></TimeSpan></Placemark><Placemark><name>Chamizal National Memorial</name><address>800 S San Marcial St, El Paso, TX 79905</address><ExtendedData><Data name="Email"><value>syugen.zhou@gmail.com</value></Data><Data name="Category"><value>National park</value></Data><Data name="Distance"><value>0</value></Data></ExtendedData><description> National park from 2022-05-28T20:42:59.998Z to 2022-05-28T20:58:19.999Z. Distance 0m </description><Point><coordinates>-106.4543374,31.767240899999997,0</coordinates></Point><TimeSpan><begin>2022-05-28T20:42:59.998Z</begin><end>2022-05-28T20:58:19.999Z</end></TimeSpan></Placemark><Placemark><name>Driving</name><address></address><ExtendedData><Data name="Email"><value>syugen.zhou@gmail.com</value></Data><Data name="Category"><value>Driving</value></Data><Data name="Distance"><value>21580</value></Data></ExtendedData><description> Driving from 2022-05-28T20:58:19.999Z to 2022-05-28T21:16:34.222Z. Distance 21580m </description><LineString><altitudeMode>clampToGround</altitudeMode><extrude>1</extrude><tesselate>1</tesselate><coordinates>-106.45581059999999,31.7678838,0 -106.45606779999999,31.767810799999996,0 -106.45620599999998,31.767743899999996,0 -106.45637399999998,31.767633699999998,0 -106.45653709999999,31.7674599,0 -106.45660529999998,31.7673539,0 -106.45666909999998,31.767204000000003,0 -106.45643479999998,31.767137300000005,0 -106.45639639999999,31.767115700000005,0 -106.45632409999999,31.767006600000002,0 -106.45630779999998,31.7669022,0 -106.45632539999998,31.7668504,0 -106.45639059999998,31.766767100000003,0 -106.45646139999998,31.7667177,0 -106.45664589999998,31.7666682,0 -106.45685099999999,31.7666733,0 -106.45707689999999,31.766651799999998,0 -106.45747889999998,31.766544699999997,0 -106.45821969999999,31.7679414,0 -106.45584169999998,31.7690729,0 -106.45519399999999,31.769325300000006,0 -106.45480029999999,31.769430800000002,0 -106.45398909999999,31.7695776,0 -106.45341489999998,31.7696407,0 -106.4529968,31.7696514,0 -106.4524053,31.769618299999998,0 -106.4519001,31.769543799999997,0 -106.4511724,31.769376599999998,0 -106.446515,31.767774999999997,0 -106.4464717,31.769492299999996,0 -106.44649220000001,31.769619599999995,0 -106.44648680000002,31.769757199999997,0 -106.44640920000002,31.7701671,0 -106.44619310000002,31.7707837,0 -106.44620540000001,31.770964199999998,0 -106.44425370000002,31.775152999999996,0 -106.44398040000002,31.775612399999996,0 -106.4437231,31.775973599999993,0 -106.44322120000001,31.77655559999999,0 -106.4424291,31.77736139999999,0 -106.4419871,31.77789769999999,0 -106.4417016,31.778360799999994,0 -106.44140610000001,31.779029799999993,0 -106.44130770000001,31.779425899999993,0 -106.44118200000001,31.780373899999994,0 -106.44113490000001,31.780482699999997,0 -106.44106140000001,31.799395499999996,0 -106.4410301,31.799463899999996,0 -106.4410976,31.800042499999996,0 -106.44133360000001,31.801079899999998,0 -106.44136150000001,31.8011455,0 -106.44216800000001,31.8044352,0 -106.4422695,31.805630300000004,0 -106.4422708,31.806396300000003,0 -106.4419587,31.810096500000007,0 -106.4415161,31.813389500000007,0 -106.44152039999999,31.81347670000001,0 -106.44138079999999,31.814365500000008,0 -106.44106349999998,31.815664400000006,0 -106.44039219999999,31.81774840000001,0 -106.44007799999999,31.81857760000001,0 -106.43989219999999,31.818973500000013,0 -106.43950569999998,31.819654400000008,0 -106.43800569999998,31.822008300000007,0 -106.43775779999997,31.822521000000005,0 -106.43758319999998,31.823113300000006,0 -106.43751459999997,31.823597000000003,0 -106.43750849999998,31.823898500000006,0 -106.43755839999997,31.82440630000001,0 -106.43764879999998,31.824808700000006,0 -106.43922959999998,31.829042900000008,0 -106.43936639999997,31.82956230000001,0 -106.43945499999998,31.83007170000001,0 -106.44022339999998,31.85290970000001,0 -106.44169379999998,31.91776470000001,0 -106.44163329999998,31.91861930000001,0 -106.44148699999998,31.919371900000012,0 -106.44136369999998,31.919797500000012,0 -106.44104469999999,31.920601900000015,0 -106.44078329999998,31.921108000000018,0 -106.44040199999998,31.921716900000014,0 -106.44000129999998,31.922235400000016,0 -106.43936169999998,31.922920400000017,0 -106.43882659999998,31.923388700000014,0 -106.43844479999998,31.923680400000013,0 -106.4378407,31.924078800000014,0 -106.43730749999999,31.924378800000017,0 -106.43094959999998,31.92746620000002,0 -106.42529819999999,31.929927500000016,0 -106.42507289999998,31.929971700000014,0 -106.42469659999998,31.930126800000014,0 -106.42310489999997,31.93092550000001,0 -106.41506209999997,31.934835500000016,0 -106.41341689999997,31.935749800000018,0 -106.41150389999999,31.936961900000018,0 -106.40903639999998,31.938754200000016,0 -106.40885879999998,31.938543500000016,0 -106.40850919999997,31.93876270000002,0 -106.40845739999997,31.938808800000018,0 -106.40842289999998,31.938863100000017,0 </coordinates></LineString><TimeSpan><begin>2022-05-28T20:58:19.999Z</begin><end>2022-05-28T21:16:34.222Z</end></TimeSpan></Placemark><Placemark><name>Speedway</name><address>11390 Gateway N Blvd, El Paso, TX 79934</address><ExtendedData><Data name="Email"><value>syugen.zhou@gmail.com</value></Data><Data name="Category"><value>Gas station</value></Data><Data name="Distance"><value>0</value></Data></ExtendedData><description> Gas station from 2022-05-28T21:16:34.222Z to 2022-05-28T21:25:07.999Z. Distance 0m </description><Point><coordinates>-106.4083823,31.9387668,0</coordinates></Point><TimeSpan><begin>2022-05-28T21:16:34.222Z</begin><end>2022-05-28T21:25:07.999Z</end></TimeSpan></Placemark><Placemark><name>Driving</name><address></address><ExtendedData><Data name="Email"><value>syugen.zhou@gmail.com</value></Data><Data name="Category"><value>Driving</value></Data><Data name="Distance"><value>134863</value></Data></ExtendedData><description> Driving from 2022-05-28T21:25:07.999Z to 2022-05-28T22:39:49.991Z. Distance 134863m </description><LineString><altitudeMode>clampToGround</altitudeMode><extrude>1</extrude><tesselate>1</tesselate><coordinates>-106.40844849999999,31.938822199999997,0 -106.40845739999999,31.9388088,0 -106.4085092,31.938762699999998,0 -106.4088588,31.938543499999994,0 -106.4090364,31.938754199999998,0 -106.4087872,31.938939299999994,0 -106.4083073,31.939322299999994,0 -106.4081117,31.9394711,0 -106.4078519,31.939628099999993,0 -106.4076,31.939817999999995,0 -106.4073151,31.9400101,0 -106.4071843,31.940122399999996,0 -106.40643100000001,31.940698999999995,0 -106.4058351,31.941168499999993,0 -106.4055053,31.941461999999998,0 -106.40471550000001,31.942278999999996,0 -106.40440100000001,31.942575999999992,0 -106.404149,31.942791999999994,0 -106.403611,31.943210999999998,0 -106.40349,31.943295999999997,0 -106.3987972,31.946828099999998,0 -106.3983878,31.947120599999995,0 -106.3978236,31.947457099999998,0 -106.3969002,31.947962599999997,0 -106.39633400000001,31.948319699999995,0 -106.39604100000001,31.948528599999996,0 -106.3953729,31.949034899999994,0 -106.39530400000001,31.949094999999993,0 -106.3746867,31.964650499999994,0 -106.3742824,31.964947199999994,0 -106.3452452,31.986822899999993,0 -106.34487899999999,31.987083999999992,0 -106.3445845,31.987318999999992,0 -106.3427529,31.98869689999999,0 -106.3421125,31.98919779999999,0 -106.3312814,31.99735779999999,0 -106.3306925,31.99785619999999,0 -106.3296465,31.998828999999994,0 -106.3291129,31.999296499999993,0 -106.3281468,32.00007389999999,0 -106.32671799999999,32.001166799999986,0 -106.32664839999998,32.00122429999999,0 -106.32429219999999,32.00300999999999,0 -106.32381419999999,32.00338469999999,0 -106.32358939999999,32.00357559999999,0 -106.32318979999998,32.00393669999999,0 -106.32261939999998,32.00447909999998,0 -106.32205099999999,32.005089799999986,0 -106.32180829999999,32.00537159999998,0 -106.32129349999998,32.006006499999984,0 -106.32085149999997,32.006603099999985,0 -106.28611379999997,32.06115679999999,0 -106.28473619999997,32.06335159999999,0 -106.28429949999997,32.06400599999999,0 -106.28341439999997,32.06539599999999,0 -106.28327069999997,32.065611399999995,0 -106.28299019999997,32.0660719,0 -106.27761749999996,32.07448409999999,0 -106.27643959999996,32.076442099999994,0 -106.27565489999995,32.077707,0 -106.27430889999995,32.07980179999999,0 -106.27313739999994,32.081588499999995,0 -106.21325589999995,32.17536849999999,0 -106.21241699999995,32.17664599999999,0 -106.19822139999995,32.19884919999999,0 -106.19772519999995,32.19964929999999,0 -106.19518049999995,32.20361499999999,0 -106.19505489999995,32.20382669999999,0 -106.18850089999995,32.21405289999999,0 -106.18832039999995,32.2143464,0 -106.17287889999994,32.2384582,0 -106.17280709999996,32.238554799999996,0 -106.15274329999995,32.2698872,0 -106.15160259999995,32.2716977,0 -106.14948779999995,32.2749823,0 -106.14912919999995,32.2755664,0 -106.14895689999994,32.275803100000005,0 -106.14268069999994,32.285613500000004,0 -106.14110229999994,32.288043900000005,0 -106.12834379999994,32.307974900000005,0 -106.12690649999995,32.3101806,0 -106.12554529999996,32.312218900000005,0 -106.12379169999996,32.3149377,0 -106.12282339999994,32.3164696,0 -106.11939369999995,32.3217731,0 -106.11861429999995,32.3230165,0 -106.09913789999995,32.3533527,0 -106.09882469999994,32.353816599999995,0 -106.09781549999994,32.3554271,0 -106.09413899999994,32.3611255,0 -106.09413699999995,32.361130700000004,0 -106.09413199999996,32.3612145,0 -106.09358729999995,32.3620651,0 -106.09336849999995,32.36245460000001,0 -106.09302949999994,32.363087500000006,0 -106.09290519999995,32.3633353,0 -106.09283639999995,32.3634878,0 -106.09235139999996,32.3646648,0 -106.09216719999995,32.365242099999996,0 -106.09199069999995,32.36585,0 -106.09185699999996,32.3664372,0 -106.09178059999995,32.3668177,0 -106.09166299999995,32.367620099999996,0 -106.09157649999996,32.3686842,0 -106.09155749999995,32.3692344,0 -106.09189509999995,32.381402200000004,0 -106.09189239999995,32.381644900000005,0 -106.09188209999995,32.38190350000001,0 -106.09184599999995,32.3823665,0 -106.09179809999995,32.3828146,0 -106.09173069999994,32.383285400000005,0 -106.09167669999995,32.3836037,0 -106.09162339999995,32.3838738,0 -106.09143539999994,32.38469740000001,0 -106.09130349999994,32.385145800000004,0 -106.09119049999994,32.3854966,0 -106.09099689999994,32.3860341,0 -106.09076299999994,32.386633200000006,0 -106.09062719999994,32.386939500000004,0 -106.09031039999995,32.387593800000005,0 -106.09005939999994,32.3880477,0 -106.08962369999995,32.3887743,0 -106.08950789999994,32.388866900000004,0 -106.08757239999994,32.3917367,0 -106.08571129999994,32.394669900000004,0 -106.08288289999994,32.399220500000006,0 -106.08132749999994,32.4016773,0 -106.08062279999996,32.4027503,0 -106.07381069999995,32.4136229,0 -106.07359269999996,32.4139837,0 -106.07242729999996,32.4158287,0 -106.07187749999994,32.416728,0 -106.07171159999996,32.4170137,0 -106.07155439999994,32.417302,0 -106.07146519999993,32.4174774,0 -106.07125639999994,32.417934300000006,0 -106.07106639999994,32.418389700000006,0 -106.07066729999994,32.41944850000001,0 -106.07046489999993,32.42002070000001,0 -106.07019219999994,32.42074180000001,0 -106.06997029999994,32.42139290000001,0 -106.06965359999992,32.42224020000001,0 -106.06818159999992,32.426403500000006,0 -106.06785149999992,32.42730300000001,0 -106.06739019999992,32.42862240000001,0 -106.06702009999992,32.42963610000001,0 -106.06649959999993,32.431141800000006,0 -106.06263249999994,32.44199420000001,0 -106.06168059999993,32.44473480000001,0 -106.05905559999994,32.45208010000001,0 -106.05561399999993,32.46073020000001,0 -106.05542429999993,32.461185000000015,0 -106.02985789999993,32.52530850000001,0 -106.02976459999992,32.525424700000016,0 -106.02971919999992,32.52549310000001,0 -106.02967469999993,32.52556810000001,0 -106.02866979999993,32.527452900000014,0 -106.02849839999992,32.52780020000001,0 -106.02808039999992,32.52876590000002,0 -106.02803459999993,32.52888880000001,0 -106.02800149999993,32.52899170000001,0 -106.02794709999993,32.529215500000014,0 -106.02781339999993,32.52984460000001,0 -106.02776779999992,32.53012150000001,0 -106.02766629999994,32.53057660000001,0 -106.02764959999993,32.53070420000001,0 -106.02766139999994,32.53077540000002,0 -106.02029919999994,32.54922720000002,0 -106.02019289999993,32.549521200000015,0 -106.02008029999993,32.549868900000014,0 -106.01995649999994,32.550318800000014,0 -106.01982749999993,32.550906200000014,0 -106.01357429999993,32.58847270000001,0 -106.01347819999994,32.58895560000001,0 -105.99785109999995,32.68270900000001,0 -105.99776769999994,32.68325570000001,0 -105.99222359999995,32.716387100000006,0 -105.98507929999995,32.759278200000004,0 -105.98474579999996,32.761167900000004,0 -105.97908719999995,32.79505460000001,0 -105.97851819999995,32.798870900000004,0 -105.97687999999995,32.8088502,0 -105.97674559999996,32.809526600000005,0 -105.97634629999996,32.811935600000005,0 -105.97629019999995,32.8123586,0 -105.97612239999997,32.8133934,0 -105.97606849999997,32.81367170000001,0 -105.97596969999996,32.814350000000005,0 -105.97578529999997,32.81525000000001,0 -105.97573669999997,32.81570960000001,0 -105.97520419999996,32.81871180000002,0 -105.97410649999996,32.82543560000001,0 -105.97391059999997,32.82648670000002,0 -105.97377969999997,32.82738170000002,0 -105.97368129999997,32.82794930000002,0 -105.97362699999996,32.82831420000002,0 -105.97306109999997,32.831523000000026,0 -105.97172829999997,32.839518400000024,0 -105.97167049999996,32.83997280000003,0 -105.97151079999996,32.841014200000025,0 -105.97137469999996,32.84169900000003,0 -105.97127939999996,32.84207060000002,0 -105.97115769999995,32.84249810000002,0 -105.97113969999995,32.84252730000002,0 -105.97111399999996,32.84254960000002,0 -105.97090559999997,32.84330200000002,0 -105.97072369999997,32.844134500000024,0 -105.97056719999998,32.845014900000024,0 -105.97044619999998,32.84585990000002,0 -105.97024599999997,32.84694350000002,0 -105.96946069999997,32.851658800000024,0 -105.96931859999998,32.85261760000002,0 -105.96921669999998,32.853133400000026,0 -105.96820659999997,32.85918520000002,0 -105.96815819999998,32.859519300000024,0 -105.96811949999999,32.859855600000024,0 -105.96808829999998,32.86027810000002,0 -105.96808189999997,32.860815000000024,0 -105.96811269999998,32.86131910000002,0 -105.96868149999997,32.86823860000002,0 -105.96871429999997,32.86875390000002,0 -105.96873479999998,32.868946700000016,0 -105.96879979999999,32.86998820000002,0 -105.96881749999999,32.87015360000002,0 -105.96885339999999,32.87035900000002,0 -105.96889199999998,32.87048500000002,0 -105.96895519999998,32.870661400000024,0 -105.96900519999998,32.87077600000003,0 -105.96906939999997,32.87089890000002,0 -105.96920559999997,32.87113120000002,0 -105.96937909999997,32.871378900000025,0 -105.96949929999997,32.871525500000025,0 -105.96961009999997,32.871467600000024,0 -105.97067369999998,32.87096260000002,0 -105.97152559999998,32.87059670000002,0 -105.97289589999997,32.87003790000002,0 -105.97683379999998,32.86838400000002,0 -105.98001649999998,32.86709530000002,0 -105.98040009999997,32.86694940000002,0 -105.98482659999998,32.865155500000014,0 -105.99918299999997,32.85942110000001,0 -106.00105749999997,32.858686200000015,0 -106.01765359999996,32.85202010000001,0 -106.01911729999996,32.851445800000015,0 -106.02100869999995,32.85067450000001,0 -106.05839359999996,32.83569900000001,0 -106.06404249999996,32.83340960000001,0 -106.06471319999996,32.83314590000001,0 -106.06582269999996,32.83268870000001,0 -106.06644199999995,32.83240450000001,0 -106.06863729999995,32.83133980000001,0 -106.06989759999995,32.83070280000001,0 -106.07141029999995,32.829962300000005,0 -106.07332729999995,32.82898900000001,0 -106.07473209999995,32.828326700000005,0 -106.07746899999995,32.826958700000006,0 -106.08015049999995,32.8255895,0 -106.08121929999994,32.825061000000005,0 -106.08201439999995,32.824654800000005,0 -106.08249849999994,32.82438680000001,0 -106.08389179999995,32.82368970000001,0 -106.08553779999994,32.82284680000001,0 -106.08607889999995,32.82258100000001,0 -106.09284479999995,32.81913360000001,0 -106.09307529999994,32.81903080000001,0 -106.09894269999994,32.816042900000014,0 -106.10099259999994,32.81501760000001,0 -106.10341759999994,32.81377420000001,0 -106.10404379999994,32.81346250000001,0 -106.10441259999995,32.81327010000001,0 -106.10649919999994,32.81222460000001,0 -106.10706469999994,32.811930200000006,0 -106.11215139999993,32.80935960000001,0 -106.11321779999993,32.8088046,0 -106.11531689999994,32.807739500000004,0 -106.11574779999994,32.8075303,0 -106.11799759999994,32.8063732,0 -106.11986319999993,32.80543360000001,0 -106.12032549999992,32.80520990000001,0 -106.12241619999993,32.80415500000001,0 -106.12290009999992,32.803899300000005,0 -106.12504599999993,32.802815900000006,0 -106.12591299999994,32.80236190000001,0 -106.12807939999993,32.8012736,0 -106.12860309999994,32.8010006,0 -106.14078859999994,32.7948327,0 -106.14091979999993,32.7947599,0 -106.14588059999994,32.792250800000005,0 -106.14678959999993,32.7917735,0 -106.17042059999994,32.7798,0 -106.17091609999994,32.7795298,0 -106.17150629999995,32.7791862,0 -106.17204959999995,32.778852,0 -106.17241009999995,32.7786189,0 -106.17267559999993,32.7789468,0 -106.17224059999994,32.779212199999996,0 </coordinates></LineString><TimeSpan><begin>2022-05-28T21:25:07.999Z</begin><end>2022-05-28T22:39:49.991Z</end></TimeSpan></Placemark><Placemark><name>White Sands National Park Visitor Center</name><address>19955 US-70, Alamogordo, NM 88310</address><ExtendedData><Data name="Email"><value>syugen.zhou@gmail.com</value></Data><Data name="Category"><value>Visitor center</value></Data><Data name="Distance"><value>0</value></Data></ExtendedData><description> Visitor center from 2022-05-28T22:39:49.991Z to 2022-05-28T23:04:33.623Z. Distance 0m </description><Point><coordinates>-106.172455,32.779612799999995,0</coordinates></Point><TimeSpan><begin>2022-05-28T22:39:49.991Z</begin><end>2022-05-28T23:04:33.623Z</end></TimeSpan></Placemark><Placemark><name>Driving</name><address></address><ExtendedData><Data name="Email"><value>syugen.zhou@gmail.com</value></Data><Data name="Category"><value>Driving</value></Data><Data name="Distance"><value>6436</value></Data></ExtendedData><description> Driving from 2022-05-28T23:04:33.623Z to 2022-05-28T23:11:32.636Z. Distance 6436m </description><LineString><altitudeMode>clampToGround</altitudeMode><extrude>1</extrude><tesselate>1</tesselate><coordinates>-106.1720842,32.779307599999996,0 -106.1726756,32.7789468,0 -106.1728808,32.77916329999999,0 -106.17311080000002,32.779461399999995,0 -106.17338570000001,32.77995759999999,0 -106.17357150000001,32.78052199999999,0 -106.17369760000001,32.7807779,0 -106.17385580000001,32.78101809999999,0 -106.17414280000001,32.78137549999999,0 -106.17471010000001,32.78199339999999,0 -106.1747651,32.782041899999996,0 -106.174816,32.7821084,0 -106.17486430000001,32.782150099999996,0 -106.17497860000002,32.782223599999995,0 -106.17725950000002,32.783364399999996,0 -106.18007990000001,32.78509509999999,0 -106.18167310000001,32.7859013,0 -106.18338860000001,32.786677499999996,0 -106.18432580000001,32.7870084,0 -106.1859258,32.7874177,0 -106.18840010000002,32.787886699999994,0 -106.18943540000002,32.78812909999999,0 -106.19074170000002,32.788521499999995,0 -106.19213160000002,32.78904369999999,0 -106.19337830000003,32.789610599999996,0 -106.19635550000002,32.79117539999999,0 -106.19705420000003,32.791489999999996,0 -106.19814460000002,32.79191159999999,0 -106.19910800000002,32.792230399999994,0 -106.2010802,32.792813499999994,0 -106.20204220000001,32.7931568,0 -106.20370880000002,32.793894699999996,0 -106.20522830000002,32.794689399999996,0 -106.20565610000001,32.794869799999994,0 -106.20625020000003,32.795070499999994,0 -106.20662440000002,32.795171999999994,0 -106.20790240000002,32.795454899999996,0 -106.20890440000004,32.7955957,0 -106.20972900000004,32.7956421,0 -106.21013670000004,32.7956466,0 -106.21094490000003,32.7956046,0 -106.21208130000004,32.795449299999994,0 -106.21455030000004,32.79494759999999,0 -106.21482790000005,32.79492729999999,0 -106.21512030000004,32.79494309999999,0 -106.21532280000004,32.794972599999994,0 -106.21552520000004,32.79502009999999,0 -106.21578130000005,32.79511609999999,0 -106.21797100000005,32.79614849999999,0 -106.21932680000005,32.79668059999999,0 -106.22006300000005,32.79690659999999,0 -106.22114640000005,32.797152,0 -106.22322220000005,32.79744449999999,0 -106.22396510000004,32.79746979999999,0 -106.22442110000004,32.797442099999984,0 -106.22484740000004,32.797374799999986,0 -106.22524170000004,32.79728829999999,0 -106.22555410000005,32.79719599999999,0 -106.22604630000004,32.79701719999999,0 -106.22680520000004,32.79670449999999,0 -106.22720830000004,32.79651579999999,0 -106.22765660000005,32.796231699999986,0 -106.22790470000004,32.79599409999999,0 -106.22863290000004,32.79506959999999,0 -106.22876550000004,32.79494929999999,0 -106.22889560000004,32.79487259999999,0 -106.22902740000005,32.794810299999995,0 -106.22916520000005,32.794762299999995,0 -106.22933150000004,32.7947196,0 -106.22968010000005,32.7946985,0 -106.23210310000005,32.7947748,0 -106.23244110000005,32.794732100000004,0 -106.23270800000006,32.794648900000006,0 -106.23297740000005,32.794490200000006,0 -106.23310480000005,32.79438210000001,0 -106.23323900000005,32.79423680000001,0 -106.23337430000007,32.79399370000001,0 -106.23348290000006,32.7936703,0 -106.23352180000006,32.79350590000001,0 -106.23363710000007,32.79323670000001,0 -106.23379130000005,32.793003600000006,0 -106.23395890000005,32.7928403,0 -106.23419080000006,32.79269730000001,0 -106.23522340000005,32.792253,0 -106.23539370000006,32.7922114,0 -106.23549970000006,32.792199000000004,0 -106.23572490000005,32.7921991,0 -106.23587510000006,32.792235299999994,0 -106.23610980000005,32.792338099999995,0 -106.23688750000005,32.792853,0 -106.23722000000006,32.7930326,0 -106.23749890000006,32.793132,0 -106.23770820000006,32.7931806,0 -106.23802860000006,32.7932045,0 -106.23868970000007,32.7932119,0 -106.23887200000006,32.7932413,0 -106.23958710000007,32.793442,0 -106.23990100000006,32.793548200000004,0 -106.23923240000006,32.7936919,0 -106.23908890000007,32.793741,0 </coordinates></LineString><TimeSpan><begin>2022-05-28T23:04:33.623Z</begin><end>2022-05-28T23:11:32.636Z</end></TimeSpan></Placemark><Placemark><name>Interdune Boardwalk</name><address>Dunes Dr, Tularosa, NM 88352</address><ExtendedData><Data name="Email"><value>syugen.zhou@gmail.com</value></Data><Data name="Category"><value>Hiking area</value></Data><Data name="Distance"><value>0</value></Data></ExtendedData><description> Hiking area from 2022-05-28T23:11:32.636Z to 2022-05-28T23:24:18.001Z. Distance 0m </description><Point><coordinates>-106.2390496,32.7938478,0</coordinates></Point><TimeSpan><begin>2022-05-28T23:11:32.636Z</begin><end>2022-05-28T23:24:18.001Z</end></TimeSpan></Placemark><Placemark><name>Driving</name><address></address><ExtendedData><Data name="Email"><value>syugen.zhou@gmail.com</value></Data><Data name="Category"><value>Driving</value></Data><Data name="Distance"><value>10738</value></Data></ExtendedData><description> Driving from 2022-05-28T23:24:18.001Z to 2022-05-28T23:36:35.153Z. Distance 10738m </description><LineString><altitudeMode>clampToGround</altitudeMode><extrude>1</extrude><tesselate>1</tesselate><coordinates>-106.23908709999999,32.793863099999996,0 -106.2390496,32.793771799999995,0 -106.2390601,32.7937508,0 -106.2392324,32.7936919,0 -106.23963900000001,32.7935958,0 -106.239901,32.7935482,0 -106.2416086,32.794165899999996,0 -106.24187140000001,32.79427569999999,0 -106.24218090000001,32.7944361,0 -106.24231830000001,32.7945242,0 -106.2430463,32.7951282,0 -106.24319240000001,32.795222800000005,0 -106.24334860000002,32.7952978,0 -106.24348540000001,32.795341300000004,0 -106.24361850000001,32.795369300000004,0 -106.24431330000002,32.79540380000001,0 -106.24445590000002,32.795420500000006,0 -106.24472640000002,32.795473900000005,0 -106.24501970000001,32.795572,0 -106.24570950000002,32.795878699999996,0 -106.24680130000002,32.796403,0 -106.24805880000001,32.797042999999995,0 -106.2493938,32.797776799999994,0 -106.25010010000001,32.798316899999996,0 -106.2502128,32.79837059999999,0 -106.25029359999999,32.79840049999999,0 -106.25063569999999,32.798473599999994,0 -106.2510784,32.79852849999999,0 -106.2513418,32.79858189999999,0 -106.25162139999999,32.79867559999999,0 -106.2519296,32.79881059999999,0 -106.25220470000001,32.79895949999999,0 -106.2524685,32.79912179999999,0 -106.2529126,32.79943499999999,0 -106.2535605,32.79993959999999,0 -106.25388099999999,32.80015089999999,0 -106.2541043,32.800281199999986,0 -106.25479709999999,32.80060779999999,0 -106.2554632,32.80101719999998,0 -106.25874899999998,32.80327539999998,0 -106.25889429999998,32.80341529999999,0 -106.25898039999997,32.80351969999999,0 -106.25907289999996,32.80367379999999,0 -106.25924939999997,32.804105699999994,0 -106.25947909999996,32.804531299999994,0 -106.25979239999997,32.80502389999999,0 -106.26027759999997,32.805674399999994,0 -106.26059139999997,32.80604519999999,0 -106.26174349999997,32.807140999999994,0 -106.26200289999997,32.807429199999994,0 -106.26224969999997,32.8078101,0 -106.26229309999997,32.8079616,0 -106.26233179999996,32.808272099999996,0 -106.26233049999996,32.808534099999996,0 -106.26230009999996,32.80869789999999,0 -106.26223699999996,32.808864899999996,0 -106.26208689999996,32.809069599999994,0 -106.26194669999995,32.809292199999994,0 -106.26179389999996,32.80959599999999,0 -106.26179809999995,32.80989479999999,0 -106.26190639999996,32.81024569999999,0 -106.26212749999995,32.81078129999999,0 -106.26236439999994,32.81128739999998,0 -106.26249139999994,32.811473099999986,0 -106.26261159999994,32.81157799999998,0 -106.26275689999994,32.81168879999998,0 -106.26317259999993,32.81217339999998,0 -106.26332329999994,32.81243079999998,0 -106.26411129999994,32.814455299999985,0 -106.26415099999994,32.814766099999986,0 -106.26414809999994,32.815108899999984,0 -106.26405089999994,32.81549159999998,0 -106.26393909999994,32.81573229999998,0 -106.26366659999995,32.81610279999998,0 -106.26350889999995,32.81625979999998,0 -106.26318899999995,32.81666499999998,0 -106.26311609999996,32.81680969999998,0 -106.26310229999996,32.816996199999984,0 -106.26315899999996,32.81714159999998,0 -106.26325689999996,32.81730499999998,0 -106.26350749999996,32.81767539999998,0 -106.26365979999996,32.81798019999998,0 -106.26376299999995,32.81821769999998,0 -106.26390089999995,32.818458399999976,0 -106.26403209999995,32.81860269999998,0 -106.26447659999995,32.81889679999998,0 -106.26490069999996,32.819080599999985,0 -106.26567019999996,32.81923889999998,0 -106.26618789999996,32.819361499999985,0 -106.26660099999997,32.819526899999985,0 -106.26674619999996,32.819635099999985,0 -106.26683389999995,32.819719699999986,0 -106.26691769999996,32.81983449999999,0 -106.26697279999996,32.81995579999999,0 -106.26716969999997,32.82026829999999,0 -106.26766549999998,32.82070729999999,0 -106.26924399999997,32.82159999999999,0 -106.26950879999997,32.821778699999996,0 -106.26966199999997,32.821970699999994,0 -106.26978139999997,32.822144099999996,0 </coordinates></LineString><TimeSpan><begin>2022-05-28T23:24:18.001Z</begin><end>2022-05-28T23:36:35.153Z</end></TimeSpan></Placemark><Placemark><name>White Sands National Park</name><address>New Mexico</address><ExtendedData><Data name="Email"><value>syugen.zhou@gmail.com</value></Data><Data name="Category"><value>National park</value></Data><Data name="Distance"><value>0</value></Data></ExtendedData><description> National park from 2022-05-28T23:36:35.153Z to 2022-05-29T00:21:15.000Z. Distance 0m </description><Point><coordinates>-106.3256816,32.7872403,0</coordinates></Point><TimeSpan><begin>2022-05-28T23:36:35.153Z</begin><end>2022-05-29T00:21:15.000Z</end></TimeSpan></Placemark><Placemark><name>Driving</name><address></address><ExtendedData><Data name="Email"><value>syugen.zhou@gmail.com</value></Data><Data name="Category"><value>Driving</value></Data><Data name="Distance"><value>153239</value></Data></ExtendedData><description> Driving from 2022-05-29T00:21:15.000Z to 2022-05-29T01:46:02.999Z. Distance 153239m </description><LineString><altitudeMode>clampToGround</altitudeMode><extrude>1</extrude><tesselate>1</tesselate><coordinates>-106.2701192,32.8227153,0 -106.2705419,32.8231359,0 -106.2706828,32.823245199999995,0 -106.270904,32.82339329999999,0 -106.2710741,32.82348309999999,0 -106.27122229999999,32.823525,0 -106.27136329999999,32.823544399999996,0 -106.27155409999999,32.823521899999996,0 -106.27172169999999,32.823484099999995,0 -106.27187359999999,32.82341159999999,0 -106.2720024,32.82332079999999,0 -106.2721684,32.82305289999999,0 -106.2722984,32.82271999999999,0 -106.27235189999999,32.822497399999996,0 -106.2723677,32.82231149999999,0 -106.27230329999999,32.82217159999999,0 -106.2721696,32.82199499999999,0 -106.27187919999999,32.821680499999985,0 -106.2714487,32.821141199999985,0 -106.27135999999999,32.82095479999998,0 -106.27131659999999,32.82083889999998,0 -106.27124579999999,32.82034309999998,0 -106.27118319999998,32.82004679999998,0 -106.27089449999998,32.81938599999998,0 -106.27058219999998,32.81876459999999,0 -106.27051559999997,32.81852649999999,0 -106.27050559999996,32.81828849999999,0 -106.27053799999997,32.81802059999999,0 -106.27046789999997,32.81773659999999,0 -106.27035219999998,32.81745609999999,0 -106.27010729999998,32.81698439999999,0 -106.26987559999998,32.81666029999999,0 -106.26970579999998,32.816449599999984,0 -106.26957659999998,32.81626639999998,0 -106.26925539999998,32.81569599999999,0 -106.26910889999998,32.815580699999984,0 -106.26853249999998,32.81532939999998,0 -106.26810759999998,32.81520349999998,0 -106.26758339999998,32.815017699999984,0 -106.26738609999998,32.814933199999984,0 -106.26626429999999,32.814384699999984,0 -106.26615399999999,32.81430179999999,0 -106.26610229999999,32.81423369999999,0 -106.2660571,32.81415479999998,0 -106.26602419999999,32.81398629999999,0 -106.26601709999998,32.81379099999999,0 -106.26609189999999,32.813471499999984,0 -106.26610529999999,32.81317299999999,0 -106.26609299999998,32.81289249999999,0 -106.2660502,32.81268019999999,0 -106.26596439999999,32.81250649999999,0 -106.265834,32.812357099999986,0 -106.26556819999999,32.81216879999999,0 -106.26537309999999,32.81206329999999,0 -106.2642667,32.81159579999999,0 -106.26401279999999,32.81145529999999,0 -106.26385969999998,32.81131239999999,0 -106.26372459999999,32.81111189999999,0 -106.26366029999998,32.810963799999996,0 -106.26352859999999,32.81075729999999,0 -106.2633827,32.810587899999994,0 -106.26322809999999,32.810441999999995,0 -106.26302919999999,32.810322799999994,0 -106.2629402,32.81030139999999,0 -106.2619064,32.810245699999996,0 -106.26179810000001,32.809894799999995,0 -106.2617939,32.809596,0 -106.2619467,32.8092922,0 -106.2620869,32.8090696,0 -106.26223700000001,32.8088649,0 -106.26230010000002,32.8086979,0 -106.2623305,32.8085341,0 -106.26233180000001,32.8082721,0 -106.26229310000001,32.807961600000006,0 -106.26224970000001,32.807810100000005,0 -106.26200290000001,32.8074292,0 -106.26174350000002,32.807141,0 -106.26059140000002,32.8060452,0 -106.26027760000002,32.8056744,0 -106.25979240000001,32.805023899999995,0 -106.25947910000002,32.8045313,0 -106.25924940000002,32.804105699999994,0 -106.25907290000002,32.8036738,0 -106.25898040000003,32.803519699999995,0 -106.25889430000002,32.80341529999999,0 -106.25874900000004,32.80327539999999,0 -106.25546320000004,32.80101719999999,0 -106.25479710000005,32.800607799999995,0 -106.25410430000005,32.80028119999999,0 -106.25388100000005,32.8001509,0 -106.25356050000005,32.799939599999995,0 -106.25291260000006,32.799434999999995,0 -106.25246850000006,32.799121799999995,0 -106.25220470000005,32.798959499999995,0 -106.25192960000005,32.798810599999996,0 -106.25162140000005,32.798675599999996,0 -106.25134180000005,32.798581899999995,0 -106.25107840000005,32.798528499999996,0 -106.25063570000005,32.7984736,0 -106.25029360000005,32.7984005,0 -106.25021280000006,32.7983706,0 -106.25010010000005,32.7983169,0 -106.24939380000006,32.7977768,0 -106.24805880000005,32.797043,0 -106.24570950000006,32.7958787,0 -106.24501970000007,32.79557200000001,0 -106.24472640000008,32.79547390000001,0 -106.24445590000008,32.79542050000001,0 -106.24431330000007,32.79540380000002,0 -106.24361850000007,32.79536930000001,0 -106.24348540000007,32.79534130000001,0 -106.24334860000006,32.79529780000001,0 -106.24319240000007,32.79522280000001,0 -106.24304630000006,32.79512820000001,0 -106.24231830000005,32.794524200000005,0 -106.24218090000006,32.794436100000006,0 -106.24187140000005,32.7942757,0 -106.24160860000005,32.7941659,0 -106.23958710000005,32.793442,0 -106.23887200000006,32.7932413,0 -106.23868970000005,32.7932119,0 -106.23838930000005,32.7931993,0 -106.23802860000006,32.7932045,0 -106.23784900000007,32.7931965,0 -106.23770820000006,32.7931806,0 -106.23749890000006,32.793132,0 -106.23722000000006,32.7930326,0 -106.23688750000005,32.792853,0 -106.23610980000005,32.792338099999995,0 -106.23602660000005,32.79229529999999,0 -106.23587510000004,32.792235299999994,0 -106.23572490000004,32.79219909999999,0 -106.23564050000003,32.792194599999995,0 -106.23549970000003,32.792199,0 -106.23539370000003,32.7922114,0 -106.23522340000002,32.792253,0 -106.23448990000003,32.7925579,0 -106.23419080000004,32.7926973,0 -106.23395890000003,32.792840299999995,0 -106.23379130000004,32.7930036,0 -106.23370950000003,32.793115,0 -106.23363710000004,32.793236699999994,0 -106.23352180000003,32.79350589999999,0 -106.23348290000003,32.79367029999999,0 -106.23337430000004,32.793993699999994,0 -106.23323900000003,32.79423679999999,0 -106.23310480000002,32.79438209999999,0 -106.23297740000002,32.79449019999999,0 -106.23270800000003,32.79464889999999,0 -106.23244110000003,32.79473209999999,0 -106.23223050000003,32.79476469999999,0 -106.23210310000003,32.794774799999985,0 -106.22968010000002,32.79469849999999,0 -106.22943460000002,32.794707399999986,0 -106.22933150000003,32.794719599999986,0 -106.22916520000003,32.79476229999998,0 -106.22902740000002,32.79481029999998,0 -106.22889560000002,32.79487259999998,0 -106.22876550000001,32.79494929999998,0 -106.22863290000001,32.79506959999998,0 -106.22850010000002,32.795223799999974,0 -106.22800130000002,32.79588389999998,0 -106.22790470000001,32.79599409999997,0 -106.22765660000002,32.79623169999998,0 -106.22738050000002,32.79641639999998,0 -106.22720830000002,32.79651579999997,0 -106.22680520000002,32.79670449999998,0 -106.22604630000002,32.79701719999998,0 -106.22555410000002,32.79719599999998,0 -106.22524170000001,32.79728829999998,0 -106.22484740000002,32.79737479999998,0 -106.22442110000001,32.79744209999998,0 -106.22396510000003,32.79746979999997,0 -106.22345150000002,32.79746049999998,0 -106.22322220000002,32.797444499999976,0 -106.22114640000002,32.79715199999998,0 -106.22006300000002,32.79690659999998,0 -106.21932680000002,32.79668059999998,0 -106.21883860000001,32.79650199999998,0 -106.21797100000002,32.79614849999998,0 -106.21578130000002,32.79511609999998,0 -106.2155252,32.79502009999998,0 -106.21532280000001,32.79497259999999,0 -106.21512030000001,32.79494309999998,0 -106.2148279,32.79492729999998,0 -106.2145503,32.794947599999986,0 -106.2120813,32.79544929999999,0 -106.2109449,32.79560459999999,0 -106.21013669999999,32.79564659999999,0 -106.209729,32.795642099999995,0 -106.2089044,32.79559569999999,0 -106.2085555,32.795557499999994,0 -106.2079024,32.79545489999999,0 -106.2066244,32.79517199999999,0 -106.2062502,32.79507049999999,0 -106.2056561,32.79486979999999,0 -106.20522829999999,32.79468939999999,0 -106.20370879999999,32.79389469999999,0 -106.20260509999999,32.79339189999999,0 -106.2020422,32.79315679999999,0 -106.20108019999999,32.79281349999999,0 -106.199108,32.79223039999999,0 -106.19814459999999,32.79191159999999,0 -106.1970542,32.79148999999999,0 -106.1963555,32.79117539999999,0 -106.1953435,32.79066599999999,0 -106.1933783,32.78961059999999,0 -106.1921316,32.789043699999986,0 -106.1907417,32.78852149999999,0 -106.1894354,32.788129099999985,0 -106.1884001,32.78788669999999,0 -106.18592579999999,32.78741769999999,0 -106.18432579999998,32.78700839999999,0 -106.18387839999998,32.78686209999999,0 -106.18338859999999,32.78667749999999,0 -106.18167309999998,32.78590129999999,0 -106.18007989999998,32.785095099999985,0 -106.17725949999999,32.78336439999999,0 -106.17685719999999,32.78314909999999,0 -106.17668419999998,32.783002499999995,0 -106.17653939999998,32.78286159999999,0 -106.17646559999997,32.78277589999999,0 -106.17635159999998,32.78267439999999,0 -106.17604849999996,32.78250299999999,0 -106.17579909999998,32.78239369999999,0 -106.17566899999997,32.782351899999995,0 -106.17534179999997,32.78230009999999,0 -106.17518349999997,32.78226399999999,0 -106.17497299999997,32.78217039999999,0 -106.17482889999998,32.7820754,0 -106.17476509999997,32.782041899999996,0 -106.17471009999997,32.78199339999999,0 -106.17414279999997,32.78137549999999,0 -106.17385579999997,32.78101809999999,0 -106.17369759999997,32.7807779,0 -106.17357149999998,32.78052199999999,0 -106.17338569999997,32.77995759999999,0 -106.17311079999998,32.779461399999995,0 -106.17288079999997,32.77916329999999,0 -106.17267559999996,32.7789468,0 -106.17241009999996,32.7786189,0 -106.17229899999997,32.77852279999999,0 -106.17178349999996,32.77885119999999,0 -106.17084779999996,32.77940449999999,0 -106.07554649999996,32.82777239999999,0 -106.07393989999996,32.82853699999999,0 -106.07230219999997,32.82920129999999,0 -106.07093399999997,32.82984819999999,0 -106.06727679999997,32.831700199999986,0 -106.06570459999996,32.83241699999999,0 -106.06082069999997,32.83439359999999,0 -106.06050439999997,32.83450669999999,0 -105.99964389999997,32.85888719999999,0 -105.99854179999996,32.85929689999999,0 -105.97930629999996,32.86715119999999,0 -105.97243569999995,32.87002299999999,0 -105.97122529999994,32.87049679999999,0 -105.97005029999995,32.87102249999999,0 -105.96972339999995,32.87109479999999,0 -105.96960689999995,32.87110289999998,0 -105.96956899999995,32.871101299999985,0 -105.96951389999995,32.87109129999998,0 -105.96945319999995,32.87107049999999,0 -105.96932159999994,32.87101059999999,0 -105.96909199999995,32.87054309999999,0 -105.96898519999995,32.8701709,0 -105.96845219999996,32.86370759999999,0 -105.96839189999996,32.863238599999995,0 -105.96823039999995,32.860581399999994,0 -105.96824939999995,32.8601856,0 -105.96843039999995,32.8587106,0 -105.97097899999996,32.8435748,0 -105.97123989999996,32.842584499999994,0 -105.97130019999996,32.84249729999999,0 -105.97135639999996,32.84234039999999,0 -105.97166609999995,32.841046299999995,0 -105.97643309999995,32.81236399999999,0 -105.97647939999995,32.81195549999999,0 -105.99226409999996,32.71747069999999,0 -105.99229989999995,32.717316499999995,0 -106.01496569999995,32.581441999999996,0 -106.01509669999994,32.58049429999999,0 -106.01988139999993,32.55167279999999,0 -106.02005739999993,32.55080579999999,0 -106.02027849999993,32.54997439999999,0 -106.02053119999992,32.54923689999998,0 -106.05930519999993,32.452045599999984,0 -106.07132449999992,32.418282799999986,0 -106.07166509999992,32.41754729999998,0 -106.07211009999992,32.41674959999998,0 -106.08958569999993,32.38891549999998,0 -106.08962369999992,32.38877429999998,0 -106.09031039999992,32.38759379999998,0 -106.09076299999992,32.386633199999984,0 -106.09119049999993,32.38549659999998,0 -106.09143539999994,32.384697399999986,0 -106.09162339999993,32.38387379999999,0 -106.09179809999993,32.38281459999999,0 -106.09188209999994,32.38190349999999,0 -106.09189509999993,32.38140219999999,0 -106.09155749999994,32.36923439999999,0 -106.09157649999995,32.36868419999998,0 -106.09166299999994,32.36762009999998,0 -106.09178059999994,32.366817699999984,0 -106.09199069999994,32.36584999999999,0 -106.09235139999994,32.364664799999986,0 -106.09290519999993,32.36333529999998,0 -106.09358729999992,32.36206509999999,0 -106.09413199999993,32.36121449999998,0 -106.09421419999993,32.361175399999986,0 -106.09709089999993,32.35695099999998,0 -106.12617519999992,32.31167859999998,0 -106.12758589999993,32.30955759999998,0 -106.18280949999992,32.223391999999976,0 -106.32071649999992,32.00723169999998,0 -106.32117919999993,32.006542699999976,0 -106.32168489999992,32.00587469999997,0 -106.32203399999993,32.00546219999997,0 -106.32250989999993,32.004942199999974,0 -106.32338059999994,32.00410019999997,0 -106.32400929999993,32.00356469999997,0 -106.32868689999992,32.00004129999997,0 -106.32925459999993,31.99965869999997,0 -106.33045989999992,31.99891859999997,0 -106.33121519999993,31.99841309999997,0 -106.39640409999993,31.94928329999997,0 -106.39692169999992,31.94886819999997,0 -106.39725529999993,31.948563799999974,0 -106.39830349999993,31.94752259999997,0 -106.39861549999993,31.947247999999966,0 -106.40419789999993,31.943039599999967,0 -106.40480889999994,31.942647699999966,0 -106.40595529999993,31.942003399999965,0 -106.40679809999995,31.941444899999965,0 -106.40787319999994,31.940649799999964,0 -106.40781189999994,31.938223199999964,0 </coordinates></LineString><TimeSpan><begin>2022-05-29T00:21:15.000Z</begin><end>2022-05-29T01:46:02.999Z</end></TimeSpan></Placemark><Placemark><name>Popeyes</name><address>11300 McCombs St Suite C, El Paso, TX 79934</address><ExtendedData><Data name="Email"><value>syugen.zhou@gmail.com</value></Data><Data name="Category"><value>Chicken</value></Data><Data name="Distance"><value>0</value></Data></ExtendedData><description> Chicken from 2022-05-29T01:46:02.999Z to 2022-05-29T02:24:50.999Z. Distance 0m </description><Point><coordinates>-106.4070725,31.939089,0</coordinates></Point><TimeSpan><begin>2022-05-29T01:46:02.999Z</begin><end>2022-05-29T02:24:50.999Z</end></TimeSpan></Placemark><Placemark><name>Driving</name><address></address><ExtendedData><Data name="Email"><value>syugen.zhou@gmail.com</value></Data><Data name="Category"><value>Driving</value></Data><Data name="Distance"><value>9922</value></Data></ExtendedData><description> Driving from 2022-05-29T02:24:50.999Z to 2022-05-29T02:33:20.999Z. Distance 9922m </description><LineString><altitudeMode>clampToGround</altitudeMode><extrude>1</extrude><tesselate>1</tesselate><coordinates>-106.407592,31.939584699999997,0 -106.4076161,31.9404122,0 -106.4078732,31.940649800000003,0 -106.40801119999999,31.940548300000003,0 -106.4081169,31.9404765,0 -106.41083330000001,31.938441700000002,0 -106.4112389,31.9381475,0 -106.4122129,31.937481599999998,0 -106.4126539,31.937193500000003,0 -106.41317079999999,31.936868800000003,0 -106.41393889999999,31.936405,0 -106.41449669999999,31.936082000000003,0 -106.41499269999998,31.935807200000003,0 -106.41536289999998,31.935608500000008,0 -106.41635279999998,31.93510460000001,0 -106.42279979999998,31.93197350000001,0 -106.42388659999997,31.931432200000007,0 -106.42434299999998,31.931221000000004,0 -106.42648599999998,31.930185000000005,0 -106.42650559999998,31.930178400000006,0 -106.42658489999998,31.930046100000006,0 -106.42659229999998,31.930036400000006,0 -106.42659869999999,31.930029600000005,0 -106.42786269999999,31.929292900000004,0 -106.42912189999998,31.9286232,0 -106.42995529999999,31.928196300000003,0 -106.43234999999999,31.9270311,0 -106.43265619999998,31.926875300000003,0 -106.43292279999999,31.926749800000003,0 -106.43309509999997,31.9266558,0 -106.43742489999998,31.924552199999997,0 -106.43772309999999,31.9243899,0 -106.43792729999998,31.924271599999997,0 -106.43813639999998,31.924142899999996,0 -106.43834089999997,31.924009899999998,0 -106.43854129999998,31.923871600000002,0 -106.43882419999998,31.923662200000003,0 -106.43910129999999,31.9234418,0 -106.43937359999998,31.9232047,0 -106.43963179999999,31.922960700000004,0 -106.43979189999997,31.922798,0 -106.43994879999998,31.922631300000003,0 -106.44010629999997,31.9224538,0 -106.44025399999997,31.922278399999996,0 -106.44046629999997,31.922005799999997,0 -106.44057049999998,31.921862899999994,0 -106.44073129999998,31.92162529999999,0 -106.44091579999998,31.921330199999993,0 -106.44102879999998,31.92113349999999,0 -106.44113359999999,31.92093749999999,0 -106.44123199999999,31.92074009999999,0 -106.44136319999998,31.92045299999999,0 -106.441521,31.92004859999999,0 -106.4415581,31.91994449999999,0 -106.44165579999999,31.91963139999999,0 -106.4417136,31.919419499999986,0 -106.44178020000001,31.91913059999999,0 -106.44182850000001,31.91888599999999,0 -106.44186260000002,31.918670299999988,0 -106.44188950000002,31.91845389999999,0 -106.44191620000001,31.91813009999999,0 -106.44192650000001,31.91791419999999,0 -106.44192860000001,31.917806699999993,0 -106.44170650000001,31.907684699999994,0 -106.44170210000001,31.90759069999999,0 -106.44169860000002,31.907365099999993,0 -106.44169390000002,31.90725629999999,0 -106.44166430000001,31.90583679999999,0 -106.44164590000001,31.90539389999999,0 -106.44116400000001,31.883801899999987,0 -106.44116940000002,31.883769699999984,0 -106.44114370000003,31.882411899999987,0 -106.44113790000002,31.882297199999982,0 -106.44113080000002,31.881874699999987,0 -106.44112900000002,31.881855799999986,0 -106.44110380000001,31.880649499999986,0 -106.44121130000002,31.880523499999985,0 -106.44121540000002,31.880513499999985,0 -106.44121800000002,31.880501299999985,0 -106.44122810000002,31.880288599999982,0 -106.44125170000001,31.88006939999998,0 -106.441336,31.878862099999978,0 -106.44133450000001,31.87860749999998,0 -106.4413601,31.878229899999976,0 -106.4413988,31.877345199999976,0 -106.44144109999999,31.877222699999976,0 -106.44138489999999,31.87478499999997,0 -106.4413618,31.874220199999975,0 -106.4413599,31.87342909999997,0 -106.4413799,31.87193099999997,0 -106.44137899999998,31.871642999999974,0 -106.4414341,31.87061509999997,0 -106.44145319999998,31.86959179999997,0 -106.44140009999998,31.86823059999997,0 -106.44137579999999,31.866357099999973,0 -106.44137699999999,31.866234999999968,0 -106.44123499999998,31.86094689999997,0 -106.44123299999998,31.86069299999997,0 -106.44274199999998,31.86067199999997,0 -106.44275699999999,31.861496999999968,0 </coordinates></LineString><TimeSpan><begin>2022-05-29T02:24:50.999Z</begin><end>2022-05-29T02:33:20.999Z</end></TimeSpan></Placemark><Placemark><name>Holiday Inn Express &amp; Suites El Paso North, an IHG Hotel</name><address>8725 Gateway S Blvd, El Paso, TX 79904</address><ExtendedData><Data name="Email"><value>syugen.zhou@gmail.com</value></Data><Data name="Category"><value>Hotel</value></Data><Data name="Distance"><value>0</value></Data></ExtendedData><description> Hotel from 2022-05-29T02:33:20.999Z to 2022-05-29T17:33:50.999Z. Distance 0m </description><Point><coordinates>-106.4416279,31.861448499999998,0</coordinates></Point><TimeSpan><begin>2022-05-29T02:33:20.999Z</begin><end>2022-05-29T17:33:50.999Z</end></TimeSpan></Placemark></Document></kml>
