<?xml version="1.0" encoding="UTF-8"?><kml xmlns="http://www.opengis.net/kml/2.2" xmlns:gx="http://www.google.com/kml/ext/2.2"><Document><name> Location history from 2022-05-27 to 2022-05-27 </name><open>1</open><description></description><StyleMap id="multiTrack"><Pair><key>normal</key><styleUrl>#multiTrack_n</styleUrl></Pair><Pair><key>highlight</key><styleUrl>#multiTrack_h</styleUrl></Pair></StyleMap><Style id="multiTrack_n"><IconStyle><Icon><href>https://earth.google.com/images/kml-icons/track-directional/track-0.png</href></Icon></IconStyle><LineStyle><color>99ffac59</color><width>6</width></LineStyle></Style><Style id="multiTrack_h"><IconStyle><scale>1.2</scale><Icon><href>https://earth.google.com/images/kml-icons/track-directional/track-0.png</href></Icon></IconStyle><LineStyle><color>99ffac59</color><width>8</width></LineStyle></Style><Placemark><name>Holiday Inn Express &amp; Suites El Paso North, an IHG Hotel</name><address>8725 Gateway S Blvd, El Paso, TX 79904</address><ExtendedData><Data name="Email"><value>syugen.zhou@gmail.com</value></Data><Data name="Category"><value>Hotel</value></Data><Data name="Distance"><value>0</value></Data></ExtendedData><description> Hotel from 2022-05-27T03:04:04.006Z to 2022-05-27T16:00:26.999Z. Distance 0m </description><Point><coordinates>-106.4416279,31.861448499999998,0</coordinates></Point><TimeSpan><begin>2022-05-27T03:04:04.006Z</begin><end>2022-05-27T16:00:26.999Z</end></TimeSpan></Placemark><Placemark><name>Driving</name><address></address><ExtendedData><Data name="Email"><value>syugen.zhou@gmail.com</value></Data><Data name="Category"><value>Driving</value></Data><Data name="Distance"><value>24224</value></Data></ExtendedData><description> Driving from 2022-05-27T16:00:26.999Z to 2022-05-27T16:17:19.001Z. Distance 24224m </description><LineString><altitudeMode>clampToGround</altitudeMode><extrude>1</extrude><tesselate>1</tesselate><coordinates>-106.4412372,31.861028599999997,0 -106.4411602,31.856714499999995,0 -106.441138,31.85655179999999,0 -106.44099999999999,31.851855999999994,0 -106.44073139999999,31.849409699999992,0 -106.4405565,31.843979299999994,0 -106.44050089999999,31.843875099999995,0 -106.4402102,31.842355499999993,0 -106.4401484,31.841819599999994,0 -106.4400677,31.841705999999995,0 -106.43985550000001,31.833111999999996,0 -106.4399728,31.832960799999995,0 -106.43998110000001,31.83185419999999,0 -106.44005940000001,31.83060899999999,0 -106.4400255,31.829634399999986,0 -106.4399781,31.829374499999986,0 -106.4398706,31.829024099999987,0 -106.4390819,31.827329499999987,0 -106.4387978,31.826928599999988,0 -106.4385644,31.82667959999999,0 -106.4383,31.82645079999999,0 -106.4380063,31.826240499999994,0 -106.4375395,31.825989699999994,0 -106.4370299,31.825797099999992,0 -106.4365256,31.825679199999996,0 -106.43623869999999,31.82564199999999,0 -106.43325519999999,31.825555799999993,0 -106.43317369999998,31.825537799999992,0 -106.43129679999998,31.82563559999999,0 -106.42860819999999,31.82599219999999,0 -106.42852339999999,31.826033199999994,0 -106.42728089999999,31.82614699999999,0 -106.42195249999997,31.826270899999994,0 -106.41708499999999,31.826201199999996,0 -106.40928269999998,31.826356699999995,0 -106.40848569999999,31.8263042,0 -106.40789849999999,31.8262189,0 -106.40696399999997,31.825999999999997,0 -106.40632439999999,31.825785199999995,0 -106.40550149999999,31.825416299999997,0 -106.40507729999997,31.825182799999997,0 -106.40442579999997,31.8247476,0 -106.40401519999996,31.824417599999997,0 -106.40139719999998,31.821803899999995,0 -106.40056299999998,31.821183899999994,0 -106.39998219999997,31.820843099999998,0 -106.39932029999997,31.820528199999995,0 -106.39881149999998,31.8203283,0 -106.39823249999998,31.8201497,0 -106.39742689999999,31.819966700000002,0 -106.39673009999998,31.8198738,0 -106.39604929999997,31.819837300000003,0 -106.38181809999999,31.820099600000002,0 -106.38104229999999,31.820178200000004,0 -106.3801706,31.820319700000006,0 -106.37941289999999,31.820490400000008,0 -106.3781991,31.820862500000008,0 -106.377243,31.82125050000001,0 -106.3765537,31.82158900000001,0 -106.3757246,31.82207000000001,0 -106.35274749999999,31.838497900000007,0 -106.3520316,31.838959100000007,0 -106.3514526,31.83928160000001,0 -106.3505952,31.83969450000001,0 -106.3496925,31.840064100000014,0 -106.34881340000001,31.840321500000016,0 -106.3477022,31.840577500000016,0 -106.3469371,31.840701600000013,0 -106.34579710000001,31.840805200000016,0 -106.3256496,31.84109450000001,0 -106.3255527,31.841047500000013,0 -106.325384,31.84101740000001,0 -106.32517250000001,31.84094480000001,0 -106.3247619,31.84063260000001,0 -106.32293440000001,31.83728450000001,0 -106.3224472,31.836601500000015,0 -106.32201090000001,31.83612390000001,0 -106.3219191,31.83605490000001,0 -106.32182800000001,31.836023400000013,0 -106.3212634,31.835532600000015,0 -106.3208617,31.835248600000018,0 -106.32000289999999,31.834773600000016,0 -106.31930779999999,31.834491000000014,0 -106.27224819999999,31.819213700000013,0 -106.2714498,31.818879600000013,0 -106.27101529999999,31.818637200000012,0 -106.27059879999999,31.818362100000016,0 -106.27014359999998,31.817995800000013,0 -106.26980169999997,31.817662100000014,0 -106.26946609999997,31.817269800000016,0 -106.26908069999998,31.816689700000016,0 -106.26877159999998,31.816033500000014,0 -106.26858039999998,31.815402200000012,0 -106.26848499999998,31.81469900000001,0 -106.26843499999998,31.810614400000013,0 -106.2685521,31.810196700000017,0 -106.2687675,31.808071500000015,0 -106.26875439999999,31.808026100000017,0 -106.26874319999999,31.80624200000002,0 -106.2481155,31.80894820000002,0 </coordinates></LineString><TimeSpan><begin>2022-05-27T16:00:26.999Z</begin><end>2022-05-27T16:17:19.001Z</end></TimeSpan></Placemark><Placemark><name>Circle K</name><address>12680 Montana Ave, El Paso, TX 79938</address><ExtendedData><Data name="Email"><value>syugen.zhou@gmail.com</value></Data><Data name="Category"><value>Convenience store</value></Data><Data name="Distance"><value>0</value></Data></ExtendedData><description> Convenience store from 2022-05-27T16:17:19.001Z to 2022-05-27T16:25:15.000Z. Distance 0m </description><Point><coordinates>-106.24793319999999,31.808507,0</coordinates></Point><TimeSpan><begin>2022-05-27T16:17:19.001Z</begin><end>2022-05-27T16:25:15.000Z</end></TimeSpan></Placemark><Placemark><name>Driving</name><address></address><ExtendedData><Data name="Email"><value>syugen.zhou@gmail.com</value></Data><Data name="Category"><value>Driving</value></Data><Data name="Distance"><value>210275</value></Data></ExtendedData><description> Driving from 2022-05-27T16:25:15.000Z to 2022-05-27T18:19:49.000Z. Distance 210275m </description><LineString><altitudeMode>clampToGround</altitudeMode><extrude>1</extrude><tesselate>1</tesselate><coordinates>-106.247457,31.808786499999997,0 -106.24750010000001,31.8090155,0 -106.218753,31.8127871,0 -106.2146266,31.8134771,0 -106.1452463,31.8225515,0 -106.1080642,31.829052299999997,0 -106.06331390000001,31.833406799999995,0 -106.05828960000001,31.8340176,0 -106.05764230000001,31.8341487,0 -106.05678330000002,31.834431,0 -106.05628420000002,31.8346562,0 -106.04962770000002,31.838276800000003,0 -106.04887110000001,31.838608800000003,0 -106.04787950000002,31.838895300000004,0 -106.04689560000001,31.839037700000006,0 -106.04241680000001,31.839283000000005,0 -106.04187010000003,31.839249700000003,0 -106.04109680000002,31.839131200000004,0 -106.03137060000002,31.836971200000008,0 -106.03018900000002,31.836592300000007,0 -106.02575940000001,31.834668100000005,0 -106.02459770000002,31.834382500000004,0 -106.02386670000001,31.834300100000007,0 -106.02316170000002,31.834294600000007,0 -106.01989380000002,31.834510500000004,0 -106.01883030000002,31.8344327,0 -106.01805990000003,31.834269000000003,0 -106.01748150000003,31.834089500000005,0 -106.01402490000002,31.8325679,0 -106.01299150000001,31.8320163,0 -106.01115090000002,31.8308497,0 -106.01004280000002,31.830290500000004,0 -106.00936660000002,31.830068,0 -106.00863480000002,31.8299082,0 -105.99795990000003,31.8292099,0 -105.99722530000003,31.829223100000004,0 -105.99634340000001,31.829367,0 -105.99568940000002,31.8295776,0 -105.99536710000002,31.8297187,0 -105.99486320000003,31.830005200000002,0 -105.99431060000003,31.830423900000003,0 -105.99396920000002,31.830778400000007,0 -105.99367150000002,31.831175400000006,0 -105.99312270000003,31.832301500000003,0 -105.99116020000002,31.837221600000003,0 -105.99097130000003,31.8375351,0 -105.99050470000003,31.8380918,0 -105.98990290000002,31.838600200000005,0 -105.98960040000003,31.838773700000004,0 -105.98906040000003,31.838995900000008,0 -105.98811950000002,31.839181900000003,0 -105.98520460000003,31.839294700000004,0 -105.98446790000003,31.8393891,0 -105.98389040000002,31.839548200000007,0 -105.98360120000002,31.839667400000007,0 -105.98293360000002,31.840051500000012,0 -105.98156850000002,31.84128960000001,0 -105.98110520000002,31.841632300000015,0 -105.9808265,31.84178660000001,0 -105.98025290000001,31.842002700000013,0 -105.97991250000001,31.842082000000012,0 -105.979242,31.84213680000001,0 -105.9788374,31.84211390000001,0 -105.97817680000001,31.841986800000015,0 -105.97189130000001,31.840072000000017,0 -105.94618730000002,31.829025000000016,0 -105.94513930000002,31.82864840000002,0 -105.94266250000003,31.82801550000002,0 -105.93648750000001,31.82691360000002,0 -105.93433620000002,31.826707100000014,0 -105.92080690000002,31.826689600000016,0 -105.92010350000001,31.826576700000018,0 -105.91856070000001,31.826187000000015,0 -105.91740210000002,31.82619130000002,0 -105.91719690000001,31.826224000000018,0 -105.91592120000001,31.826693300000013,0 -105.9021261,31.826700700000014,0 -105.89111100000001,31.827262500000014,0 -105.88950710000002,31.82725310000001,0 -105.88030160000001,31.826735600000013,0 -105.87932870000002,31.826808200000013,0 -105.87861880000001,31.82693290000001,0 -105.86910570000002,31.829719700000012,0 -105.85959680000002,31.83292210000001,0 -105.84515490000003,31.83686610000001,0 -105.84433550000003,31.83715030000001,0 -105.84301560000002,31.837782000000008,0 -105.83194550000002,31.844682000000006,0 -105.83115700000002,31.845021800000005,0 -105.83024360000002,31.845279000000005,0 -105.82926110000001,31.845407800000007,0 -105.8242268,31.845430700000005,0 -105.8228315,31.845516900000003,0 -105.794503,31.8484015,0 -105.79364740000001,31.8483983,0 -105.7924783,31.848287099999997,0 -105.7795876,31.845785299999996,0 -105.77145110000001,31.8431221,0 -105.71555810000001,31.821968799999997,0 -105.7144785,31.82167,0 -105.2842409,31.7467957,0 -105.28186040000001,31.7466238,0 -105.20543480000002,31.747050699999996,0 -105.20536550000001,31.747031699999997,0 -105.19780820000001,31.747083899999996,0 -105.19773400000001,31.747106199999994,0 -105.17711890000002,31.747220399999996,0 -105.17609900000002,31.7471291,0 -105.17478220000002,31.746900099999994,0 -105.14248710000003,31.739031299999997,0 -105.14062470000002,31.738783499999997,0 -105.13879940000002,31.738781399999997,0 -104.97904110000002,31.755245499999994,0 -104.94552080000001,31.761711899999995,0 -104.93142840000002,31.763694499999993,0 -104.91104820000002,31.76394999999999,0 -104.91028150000002,31.764025699999994,0 -104.90918490000003,31.764238199999994,0 -104.90778790000002,31.764692599999993,0 -104.90673470000003,31.765195099999996,0 -104.90621260000002,31.765508299999993,0 -104.88061640000002,31.783451399999993,0 -104.87821690000003,31.784891299999995,0 -104.87559180000004,31.7862211,0 -104.84982880000003,31.798027899999997,0 -104.84941100000003,31.7982703,0 -104.84850910000003,31.798908299999994,0 -104.82987510000004,31.815764199999993,0 -104.82925030000004,31.816471999999994,0 -104.82886070000004,31.817100999999994,0 -104.82856380000003,31.817821999999992,0 -104.82843800000002,31.81829069999999,0 -104.82834450000003,31.81892089999999,0 -104.82833370000003,31.81949479999999,0 -104.82928750000002,31.83213869999999,0 -104.83049610000003,31.838323699999986,0 -104.83087500000003,31.839368399999984,0 -104.83152660000003,31.840452799999987,0 -104.83225760000003,31.841320399999987,0 -104.83604380000004,31.844491299999987,0 -104.83610740000003,31.844593899999992,0 -104.83770680000003,31.845976399999994,0 -104.83945330000003,31.847654399999993,0 -104.84114590000003,31.849651399999996,0 -104.84219180000004,31.851036699999995,0 -104.84411550000004,31.853877899999997,0 -104.84440710000005,31.854476799999993,0 -104.84465160000005,31.855320999999993,0 -104.84473280000005,31.856079499999996,0 -104.84463580000005,31.857173599999996,0 -104.84365340000005,31.859802299999995,0 -104.84341400000005,31.860267899999997,0 -104.84317380000006,31.860623799999992,0 -104.84276520000006,31.861072099999998,0 -104.84237720000006,31.8613985,0 -104.84197290000006,31.861664399999995,0 -104.84125110000006,31.862009399999998,0 -104.84076950000006,31.862171800000002,0 -104.83623460000007,31.8630436,0 -104.83527040000006,31.8631463,0 -104.83361780000006,31.8631191,0 -104.83234720000006,31.8629228,0 -104.82658100000006,31.8610739,0 -104.82566350000006,31.860889500000003,0 -104.82452340000006,31.860769800000003,0 -104.82371350000005,31.860759100000006,0 -104.82263080000006,31.860832100000007,0 -104.81804110000006,31.861748600000006,0 -104.81766660000005,31.861857200000006,0 -104.81678640000005,31.862240000000003,0 -104.81608320000005,31.86273510000001,0 -104.81573800000005,31.863073500000006,0 -104.81529650000004,31.863641000000005,0 -104.81493480000005,31.864355400000008,0 -104.81484190000005,31.86463830000001,0 -104.81472340000005,31.865296900000008,0 -104.81476930000005,31.86615380000001,0 -104.81499540000006,31.866934800000013,0 -104.81520100000004,31.867346900000012,0 -104.81593720000005,31.86829210000001,0 -104.81604860000006,31.86838200000001,0 -104.82175300000006,31.875413000000012,0 -104.82228880000005,31.876216300000014,0 -104.82261290000005,31.876843100000016,0 -104.82287540000004,31.87749980000002,0 -104.82310470000004,31.878357100000017,0 -104.82321620000003,31.879064000000017,0 -104.82320480000004,31.880696500000013,0 -104.82223710000004,31.88896740000001,0 -104.82222330000003,31.889852600000015,0 -104.82204330000003,31.89045450000001,0 -104.82192400000004,31.890672000000013,0 -104.82158440000002,31.89111660000001,0 -104.82126140000003,31.89141430000001,0 -104.81937860000002,31.892504400000014,0 -104.81891470000002,31.892687400000014,0 -104.81816100000003,31.892845700000013,0 -104.81737440000002,31.892862600000015,0 -104.81432300000003,31.892338100000014,0 -104.81366830000003,31.89229710000001,0 -104.81264360000003,31.89231520000001,0 -104.81148170000002,31.892450300000007,0 -104.81074760000003,31.892620800000007,0 -104.80938750000003,31.89311320000001,0 -104.80092970000003,31.89722870000001,0 -104.80084290000002,31.89724070000001,0 -104.79648890000001,31.89882320000001,0 -104.79638510000002,31.89889010000001,0 -104.79270380000003,31.900235900000013,0 -104.79145170000002,31.900837500000012,0 -104.78050510000003,31.907217000000013,0 -104.77976460000004,31.907784100000015,0 -104.77893350000002,31.908585100000014,0 -104.77655810000002,31.911558100000015,0 -104.77567530000003,31.912484800000016,0 -104.77482010000001,31.913148900000017,0 -104.77392940000001,31.913684400000015,0 -104.77265860000001,31.914230300000014,0 -104.77123350000001,31.914618700000013,0 -104.76994300000001,31.91481440000001,0 -104.7689907,31.914842500000013,0 -104.7604259,31.91458450000001,0 -104.75927480000001,31.914667900000012,0 -104.75811850000001,31.914846700000012,0 -104.75666930000001,31.91521380000001,0 -104.75561600000002,31.91558710000001,0 -104.75410080000002,31.91632140000001,0 -104.75306730000003,31.91697290000001,0 -104.75216970000002,31.91765970000001,0 -104.74949620000002,31.91995630000001,0 -104.74833780000002,31.92083410000001,0 -104.74682870000002,31.92178940000001,0 -104.74253770000003,31.924175500000008,0 -104.73255430000003,31.93062380000001,0 -104.73123200000002,31.931368300000006,0 -104.72991130000003,31.93199600000001,0 -104.71337040000002,31.938757600000006,0 -104.71236990000003,31.939274800000003,0 -104.71103320000002,31.940131700000006,0 -104.69760840000002,31.950619400000008,0 -104.68337060000002,31.95932760000001,0 -104.68182870000001,31.96010800000001,0 -104.68022930000001,31.960725100000012,0 -104.67925700000002,31.961013600000012,0 -104.67461970000002,31.961965600000013,0 -104.67452220000001,31.962002200000015,0 -104.60375690000002,31.975690800000017,0 -104.60224990000002,31.976133700000013,0 -104.6011088,31.976560500000016,0 -104.57175950000001,31.989122400000014,0 -104.5700149,31.989700400000014,0 -104.5307252,32.000626900000015,0 -104.52611460000001,32.00171030000001,0 -104.49431850000002,32.01060740000001,0 -104.49337950000002,32.01101670000001,0 -104.49208140000002,32.011799300000014,0 -104.49147650000002,32.012277900000015,0 -104.49034780000001,32.013455600000015,0 -104.403739,32.13651080000002,0 -104.40318820000002,32.137398900000015,0 -104.37848960000001,32.17238140000001,0 -104.37788040000001,32.17305420000001,0 -104.37688710000002,32.17384240000001,0 -104.3761894,32.17429230000001,0 -104.3753921,32.174700500000014,0 -104.3757268,32.17520310000001,0 -104.3760489,32.175476300000014,0 -104.3764284,32.175671500000014,0 -104.3805376,32.177060900000015,0 -104.3812215,32.17748090000001,0 -104.38175799999999,32.17793480000001,0 -104.38201969999999,32.17821730000001,0 -104.38238959999998,32.1787508,0 -104.38263239999999,32.179256300000006,0 -104.38357209999998,32.18200130000001,0 -104.38374009999998,32.18234220000001,0 -104.38408809999999,32.18280220000001,0 -104.38439139999998,32.18308370000001,0 -104.38604309999998,32.18432730000001,0 -104.38636779999997,32.1846541,0 -104.38653399999998,32.1849496,0 -104.38663849999999,32.185324200000004,0 -104.38697099999999,32.18779510000001,0 -104.38702729999999,32.18795860000001,0 -104.3871561,32.1881653,0 -104.3874804,32.1884536,0 -104.3876869,32.188566400000006,0 -104.3880452,32.1886658,0 -104.38832790000001,32.188678100000004,0 -104.3886419,32.1886347,0 -104.38892919999999,32.1885315,0 -104.38922219999999,32.188331000000005,0 -104.3894012,32.188127900000005,0 -104.38978189999999,32.18752260000001,0 -104.3899184,32.1873857,0 -104.39032059999998,32.1871315,0 -104.3905899,32.1870377,0 -104.39097659999999,32.1869808,0 -104.39264669999999,32.187050000000006,0 -104.39330839999998,32.187203100000005,0 -104.39642729999998,32.188439100000004,0 -104.39715949999999,32.1888141,0 -104.40310029999998,32.192311100000005,0 -104.40401489999998,32.192744600000005,0 -104.40491479999999,32.193043700000004,0 -104.40527139999998,32.193101000000006,0 -104.40558209999998,32.193085800000006,0 -104.40577399999998,32.193030500000006,0 -104.40602579999997,32.19290870000001,0 -104.40623459999998,32.192738600000006,0 -104.40784139999997,32.190569,0 -104.40800369999997,32.19042800000001,0 -104.40822709999996,32.19029600000001,0 -104.40851069999997,32.19018550000001,0 -104.40892819999996,32.19012400000001,0 -104.40923209999995,32.190137400000005,0 -104.40949739999995,32.190193300000004,0 -104.40993939999996,32.190395300000006,0 -104.41166609999996,32.1920604,0 -104.41204159999997,32.192346300000004,0 -104.41236609999996,32.1925121,0 -104.41276219999996,32.1926413,0 -104.41305639999996,32.1926957,0 -104.41355569999995,32.1927116,0 -104.41407129999995,32.1926313,0 -104.41438439999996,32.192528200000005,0 -104.41479799999996,32.19231510000001,0 -104.41519189999995,32.191990700000005,0 -104.41540349999995,32.19171860000001,0 -104.41559329999995,32.1913715,0 -104.41635019999995,32.189574,0 -104.41643209999995,32.1894513,0 -104.41660359999996,32.189285500000004,0 -104.41687659999995,32.1891193,0 -104.41709359999996,32.1890385,0 -104.41749509999995,32.1889818,0 -104.41784949999996,32.1890208,0 -104.41915009999997,32.1895462,0 -104.41947859999996,32.1896051,0 -104.41980279999997,32.189587700000004,0 -104.42007959999998,32.1895199,0 -104.42030089999997,32.1894234,0 -104.42057009999998,32.1892296,0 -104.42246119999997,32.187353699999996,0 -104.42269899999998,32.1871752,0 -104.42306409999998,32.18700509999999,0 -104.42351739999998,32.186897099999996,0 -104.42393329999999,32.18689249999999,0 -104.42420819999998,32.18693659999999,0 -104.42450919999997,32.18702519999999,0 -104.42483739999997,32.18717789999999,0 -104.42706319999998,32.18876369999999,0 -104.42733029999998,32.18890449999999,0 -104.42760389999998,32.18900759999999,0 -104.42790939999998,32.189075999999986,0 -104.42832629999997,32.189096099999986,0 -104.42863939999997,32.189067499999986,0 -104.42892159999998,32.189001199999986,0 -104.42930979999998,32.188854499999984,0 -104.42963419999998,32.18865059999998,0 -104.42997219999998,32.18832529999998,0 -104.43012309999997,32.188091299999975,0 -104.43027209999998,32.18771839999998,0 -104.43031749999999,32.18740889999997,0 -104.43031559999999,32.18646029999997,0 -104.43036199999999,32.18623459999997,0 -104.4304375,32.18604689999997,0 -104.4305637,32.18586919999997,0 -104.43082869999999,32.18563889999997,0 -104.4310448,32.18552009999998,0 -104.4312671,32.18544789999998,0 -104.431494,32.18541579999998,0 -104.43175709999998,32.18541929999998,0 -104.43395189999998,32.18567339999998,0 -104.43429639999998,32.18575089999998,0 -104.43459599999998,32.18587389999998,0 -104.43492299999998,32.18608939999998,0 -104.43506689999998,32.18622649999998,0 -104.43532049999997,32.186582699999974,0 -104.43590699999997,32.18870679999998,0 -104.43602169999998,32.188870899999976,0 -104.43620739999999,32.188996699999976,0 -104.43645139999998,32.18906209999997,0 -104.43659699999998,32.189062199999974,0 -104.43672899999999,32.18903499999997,0 -104.43691619999998,32.18892959999997,0 -104.43702109999998,32.18882169999997,0 -104.43709479999997,32.18869369999997,0 -104.43714149999997,32.188542399999974,0 -104.43727759999997,32.18712819999997,0 -104.43725889999997,32.18672289999997,0 -104.43716899999997,32.18644279999997,0 -104.43703759999997,32.18621899999997,0 -104.43617019999996,32.185106599999976,0 -104.43584579999997,32.18486039999998,0 -104.43548649999997,32.184680999999976,0 -104.43478549999998,32.184501499999975,0 -104.43426919999997,32.184227999999976,0 -104.43347299999998,32.183520799999975,0 -104.43308829999997,32.18330839999997,0 -104.43229149999996,32.183003899999974,0 -104.43213209999998,32.18287359999997,0 -104.43206259999998,32.182758999999976,0 -104.43202459999998,32.18259429999998,0 -104.43207479999998,32.18233179999998,0 -104.4321646,32.182201399999975,0 -104.432323,32.18208139999998,0 -104.4323934,32.18204989999998,0 -104.4326312,32.18200119999998,0 -104.4358915,32.18173619999998,0 -104.43633659999999,32.181665199999976,0 -104.43800149999998,32.18121659999998,0 -104.43857879999999,32.18114599999997,0 -104.44115419999999,32.18122159999997,0 -104.44174749999998,32.18119049999997,0 -104.44202679999998,32.18114429999997,0 -104.44262679999999,32.180959799999975,0 -104.44331589999999,32.18059989999997,0 -104.44388299999999,32.18009009999997,0 -104.44419759999998,32.17965589999997,0 -104.44453419999999,32.17904859999997,0 -104.44471559999998,32.17885769999997,0 -104.44611949999998,32.17816259999997,0 -104.44847849999998,32.17648529999997,0 -104.44867909999998,32.17627719999997,0 -104.44893029999997,32.17582719999997,0 -104.44901339999997,32.175479599999974,0 -104.44901559999998,32.175162299999975,0 -104.44896039999998,32.17488729999997,0 -104.44884849999998,32.17462499999998,0 -104.44870309999997,32.17439879999998,0 -104.44853359999998,32.174211199999974,0 -104.44819969999998,32.173944899999974,0 -104.44794829999998,32.173814199999974,0 -104.44745499999998,32.17366149999997,0 -104.44714599999998,32.17362839999997,0 -104.44684119999998,32.17363719999997,0 -104.44656729999997,32.173679199999974,0 -104.44639899999997,32.17373659999997,0 -104.44616639999998,32.17385849999997,0 -104.44597369999997,32.17402549999997,0 -104.44556929999997,32.17455499999997,0 -104.44526609999997,32.174817499999975,0 -104.44500529999996,32.17494559999997,0 -104.44484849999996,32.174984799999976,0 -104.44459349999997,32.17500859999997,0 -104.44430159999996,32.17499609999997,0 -104.44417859999996,32.17496629999997,0 -104.44393139999995,32.174858099999966,0 -104.44373679999995,32.17472469999996,0 -104.44368919999995,32.17471859999996,0 -104.44355159999996,32.17473679999996,0 -104.44348139999995,32.174586699999956,0 -104.44343129999996,32.174569099999964,0 -104.44338879999995,32.17457189999996,0 -104.44325169999995,32.17462779999996,0 </coordinates></LineString><TimeSpan><begin>2022-05-27T16:25:15.000Z</begin><end>2022-05-27T18:19:49.000Z</end></TimeSpan></Placemark><Placemark><name>Carlsbad Caverns National Park</name><address>Carlsbad, NM 88220</address><ExtendedData><Data name="Email"><value>syugen.zhou@gmail.com</value></Data><Data name="Category"><value>National park</value></Data><Data name="Distance"><value>0</value></Data></ExtendedData><description> National park from 2022-05-27T18:19:49.000Z to 2022-05-27T20:52:30.000Z. Distance 0m </description><Point><coordinates>-104.5538893,32.1291301,0</coordinates></Point><TimeSpan><begin>2022-05-27T18:19:49.000Z</begin><end>2022-05-27T20:52:30.000Z</end></TimeSpan></Placemark><Placemark><name>Driving</name><address></address><ExtendedData><Data name="Email"><value>syugen.zhou@gmail.com</value></Data><Data name="Category"><value>Driving</value></Data><Data name="Distance"><value>63271</value></Data></ExtendedData><description> Driving from 2022-05-27T20:52:30.998Z to 2022-05-27T21:33:33.000Z. Distance 63271m </description><LineString><altitudeMode>clampToGround</altitudeMode><extrude>1</extrude><tesselate>1</tesselate><coordinates>-104.4436502,32.1749913,0 -104.44355159999999,32.174736800000005,0 -104.44373679999998,32.174724700000006,0 -104.44430159999999,32.1749961,0 -104.44500529999999,32.1749456,0 -104.4452661,32.174817499999996,0 -104.4461664,32.1738585,0 -104.4465673,32.173679199999995,0 -104.447146,32.1736284,0 -104.44794830000001,32.173814199999995,0 -104.4485336,32.174211199999995,0 -104.44884850000001,32.174625,0 -104.4490156,32.1751623,0 -104.4489303,32.17582719999999,0 -104.4486791,32.17627719999999,0 -104.44611950000001,32.17816259999999,0 -104.44471560000001,32.17885769999999,0 -104.44388300000001,32.180090099999994,0 -104.44331590000002,32.18059989999999,0 -104.44262680000001,32.18095979999999,0 -104.44202680000001,32.18114429999999,0 -104.44115420000001,32.181221599999986,0 -104.43857880000002,32.18114599999999,0 -104.43800150000001,32.18121659999999,0 -104.43633660000002,32.1816652,0 -104.43239340000002,32.1820499,0 -104.43216460000002,32.182201400000004,0 -104.43207480000002,32.1823318,0 -104.43202460000002,32.182594300000005,0 -104.43213210000002,32.18287360000001,0 -104.43229150000002,32.1830039,0 -104.43347300000002,32.183520800000004,0 -104.43426920000002,32.184228000000004,0 -104.43478550000002,32.1845015,0 -104.43548650000002,32.184681,0 -104.43617020000002,32.1851066,0 -104.43716900000003,32.1864428,0 -104.43725890000002,32.1867229,0 -104.43714150000002,32.188542399999996,0 -104.43702110000002,32.1888217,0 -104.43672900000003,32.189035000000004,0 -104.43645140000004,32.18906210000001,0 -104.43620740000004,32.188996700000004,0 -104.43602170000003,32.188870900000005,0 -104.43590700000003,32.188706800000006,0 -104.43532050000003,32.18658270000001,0 -104.43506690000002,32.18622650000001,0 -104.43459600000004,32.18587390000001,0 -104.43429640000004,32.18575090000001,0 -104.43149400000003,32.18541580000001,0 -104.43104480000004,32.185520100000005,0 -104.43056370000002,32.185869200000006,0 -104.43043750000002,32.1860469,0 -104.43031560000003,32.18646030000001,0 -104.43027210000004,32.1877184,0 -104.42997220000004,32.1883253,0 -104.42930980000003,32.1888545,0 -104.42863940000004,32.18906750000001,0 -104.42790940000003,32.18907600000001,0 -104.42706320000003,32.1887637,0 -104.42483740000004,32.18717790000001,0 -104.42450920000005,32.18702520000001,0 -104.42393330000004,32.18689250000001,0 -104.42351740000004,32.18689710000001,0 -104.42306410000003,32.187005100000015,0 -104.42269900000002,32.18717520000001,0 -104.42030090000003,32.18942340000002,0 -104.41980280000003,32.18958770000001,0 -104.41947860000003,32.189605100000016,0 -104.41915010000002,32.18954620000002,0 -104.41784950000003,32.189020800000016,0 -104.41749510000002,32.188981800000015,0 -104.41709360000003,32.18903850000002,0 -104.41660360000002,32.18928550000001,0 -104.41643210000002,32.189451300000016,0 -104.41540350000001,32.191718600000016,0 -104.414798,32.19231510000001,0 -104.4140713,32.19263130000001,0 -104.4135557,32.19271160000001,0 -104.4130564,32.19269570000001,0 -104.41236610000001,32.19251210000001,0 -104.41204160000001,32.19234630000001,0 -104.40993940000001,32.19039530000001,0 -104.4094974,32.19019330000001,0 -104.40892820000002,32.19012400000001,0 -104.40851070000002,32.19018550000002,0 -104.40822710000002,32.19029600000001,0 -104.40784140000001,32.19056900000001,0 -104.40623460000002,32.19273860000001,0 -104.40602580000001,32.19290870000002,0 -104.4055821,32.19308580000001,0 -104.4052714,32.19310100000001,0 -104.4040149,32.19274460000001,0 -104.39642730000001,32.18843910000001,0 -104.39330840000001,32.187203100000005,0 -104.39264670000001,32.187050000000006,0 -104.39097660000002,32.18698080000001,0 -104.39032060000001,32.18713150000001,0 -104.38991840000001,32.18738570000001,0 -104.38922220000002,32.18833100000001,0 -104.38892920000002,32.18853150000001,0 -104.38864190000002,32.18863470000001,0 -104.38804520000002,32.18866580000001,0 -104.38768690000002,32.188566400000006,0 -104.38715610000001,32.18816530000001,0 -104.38697100000002,32.18779510000001,0 -104.38653400000001,32.18494960000001,0 -104.38636780000002,32.18465410000001,0 -104.38408810000001,32.18280220000001,0 -104.38374010000001,32.182342200000015,0 -104.38238960000001,32.17875080000002,0 -104.38201970000001,32.17821730000002,0 -104.38122150000001,32.17748090000002,0 -104.38053760000003,32.177060900000015,0 -104.37642840000002,32.175671500000014,0 -104.37584100000002,32.17531620000002,0 -104.37583130000003,32.175207800000024,0 -104.37574100000002,32.175056400000024,0 -104.37573890000002,32.174905700000025,0 -104.37598700000002,32.17456230000003,0 -104.37730300000001,32.17374460000002,0 -104.37899790000002,32.17200960000002,0 -104.49047800000002,32.01362950000002,0 -104.49148300000003,32.01253340000002,0 -104.49275610000004,32.01156930000002,0 -104.49360280000003,32.01109220000002,0 -104.49501770000003,32.01052480000002,0 -104.57175950000003,31.98912240000002,0 -104.60224990000003,31.97613370000002,0 -104.60375690000005,31.975690800000024,0 -104.67999690000005,31.96086500000002,0 -104.68288820000005,31.95966570000002,0 -104.69760840000004,31.95061940000002,0 -104.71295380000005,31.939057000000016,0 -104.71402540000004,31.938499300000018,0 -104.72991130000005,31.931996000000016,0 -104.73255430000006,31.930623800000014,0 -104.74253770000006,31.924175500000015,0 -104.74833780000006,31.92083410000001,0 -104.75306730000005,31.91697290000001,0 -104.75561600000006,31.91558710000001,0 -104.75811850000005,31.914846700000012,0 -104.76042590000006,31.91458450000001,0 -104.76994300000005,31.91481440000001,0 -104.77123350000005,31.914618700000013,0 -104.77265860000004,31.914230300000014,0 -104.77392940000006,31.913684400000015,0 -104.77567530000005,31.912484800000016,0 -104.77893350000005,31.908585100000014,0 -104.78050510000006,31.907217000000013,0 -104.79270380000006,31.900235900000013,0 -104.80087490000005,31.897280700000014,0 -104.80938750000007,31.89311320000001,0 -104.81017970000006,31.89283190000001,0 -104.81260770000006,31.892411200000012,0 -104.81485660000006,31.892498200000013,0 -104.81731110000005,31.89295470000001,0 -104.81855570000005,31.89287960000001,0 -104.81929220000005,31.89265060000001,0 -104.82046920000005,31.892022900000008,0 -104.82101950000006,31.892960600000006,0 -104.82121630000005,31.893169400000005,0 -104.82225680000005,31.893687200000002,0 -104.82232660000005,31.893692700000006,0 </coordinates></LineString><TimeSpan><begin>2022-05-27T20:52:30.998Z</begin><end>2022-05-27T21:33:33.000Z</end></TimeSpan></Placemark><Placemark><name>Guadalupe Mountains National Park</name><address>Salt Flat, TX 79847</address><ExtendedData><Data name="Email"><value>syugen.zhou@gmail.com</value></Data><Data name="Category"><value>National park</value></Data><Data name="Distance"><value>0</value></Data></ExtendedData><description> National park from 2022-05-27T21:33:33.000Z to 2022-05-27T21:50:13.000Z. Distance 0m </description><Point><coordinates>-104.8848075,31.9211082,0</coordinates></Point><TimeSpan><begin>2022-05-27T21:33:33.000Z</begin><end>2022-05-27T21:50:13.000Z</end></TimeSpan></Placemark><Placemark><name>Driving</name><address></address><ExtendedData><Data name="Email"><value>syugen.zhou@gmail.com</value></Data><Data name="Category"><value>Driving</value></Data><Data name="Distance"><value>162821</value></Data></ExtendedData><description> Driving from 2022-05-27T21:50:13.000Z to 2022-05-27T23:28:28.999Z. Distance 162821m </description><LineString><altitudeMode>clampToGround</altitudeMode><extrude>1</extrude><tesselate>1</tesselate><coordinates>-104.8194427,31.861541499999998,0 -104.8219771,31.8610324,0 -104.82264629999999,31.860915799999997,0 -104.82365089999999,31.860843599999995,0 -104.8241444,31.8608408,0 -104.8247896,31.8608784,0 -104.8254248,31.8609448,0 -104.8260476,31.8610462,0 -104.82656229999999,31.8611627,0 -104.8271446,31.861333300000002,0 -104.8315607,31.862803700000004,0 -104.8320104,31.862928600000004,0 -104.8325653,31.863056800000003,0 -104.8333451,31.863177,0 -104.8338014,31.8632229,0 -104.83433280000001,31.863247100000002,0 -104.8351766,31.8632351,0 -104.8358745,31.86318,0 -104.83637300000001,31.863106800000004,0 -104.840301,31.862375000000004,0 -104.8407377,31.86227540000001,0 -104.8410646,31.862173100000007,0 -104.8413212,31.862077400000008,0 -104.84187659999999,31.861819900000008,0 -104.8420557,31.861720100000007,0 -104.8423877,31.86150080000001,0 -104.8427502,31.861211700000005,0 -104.8431407,31.860820800000003,0 -104.843303,31.860615600000006,0 -104.84348739999999,31.8603366,0 -104.84364989999999,31.8600389,0 -104.8437917,31.8597315,0 -104.8446388,31.857491699999997,0 -104.8447174,31.857224699999996,0 -104.84477969999999,31.8569058,0 -104.84482799999999,31.856279400000002,0 -104.8448252,31.8559395,0 -104.844792,31.855561700000006,0 -104.844596,31.85469490000001,0 -104.8443913,31.854183800000005,0 -104.8441052,31.853677400000006,0 -104.84243140000001,31.851200800000004,0 -104.84132410000001,31.849716900000008,0 -104.83970610000001,31.847774800000007,0 -104.8395388,31.84759180000001,0 -104.83784020000002,31.84596860000001,0 -104.8366168,31.844901300000007,0 -104.8361727,31.844546200000003,0 -104.8360438,31.84449130000001,0 -104.8326196,31.84165380000001,0 -104.8322576,31.84132040000001,0 -104.8319606,31.841003000000015,0 -104.8317348,31.840731000000012,0 -104.8315266,31.840452800000012,0 -104.83127280000001,31.840073100000012,0 -104.830875,31.83936840000001,0 -104.83077490000001,31.83915590000001,0 -104.8306437,31.838815600000007,0 -104.8304961,31.838323700000007,0 -104.83014250000001,31.836647100000008,0 -104.8292875,31.83213870000001,0 -104.82922090000001,31.83159940000001,0 -104.8283337,31.81949480000001,0 -104.8283445,31.81892090000001,0 -104.8283814,31.81861300000001,0 -104.828438,31.81829070000001,0 -104.82856380000001,31.817822000000014,0 -104.8287353,31.817368400000017,0 -104.8288607,31.81710100000002,0 -104.82907070000002,31.816745000000015,0 -104.82925030000001,31.81647200000002,0 -104.82947740000002,31.816189400000017,0 -104.82987510000002,31.81576420000002,0 -104.84748260000002,31.79977720000002,0 -104.84850910000003,31.798908300000015,0 -104.84905940000003,31.798502800000016,0 -104.84941100000003,31.798270300000016,0 -104.84982880000003,31.798027900000015,0 -104.85646500000003,31.794965900000015,0 -104.85752020000002,31.794504100000015,0 -104.86699540000004,31.790164000000015,0 -104.86799300000003,31.789685000000016,0 -104.87559180000004,31.786221100000017,0 -104.87710540000003,31.78547090000002,0 -104.87821690000004,31.784891300000023,0 -104.87926250000004,31.784295100000023,0 -104.88061640000004,31.783451400000025,0 -104.88152400000004,31.782845100000028,0 -104.90621260000003,31.765508300000025,0 -104.90673470000003,31.765195100000028,0 -104.90726090000004,31.764924900000025,0 -104.90778790000003,31.764692600000025,0 -104.90819160000004,31.764539500000026,0 -104.90866900000003,31.76438100000003,0 -104.90918490000003,31.764238200000033,0 -104.90977830000001,31.764109000000037,0 -104.91028150000002,31.764025700000037,0 -104.91104820000002,31.763950000000037,0 -104.91155840000002,31.76392980000004,0 -104.93068300000002,31.763732500000035,0 -104.93142840000002,31.76369450000004,0 -104.93206620000001,31.763628300000036,0 -104.94552080000001,31.761711900000037,0 -104.97828890000001,31.75536680000004,0 -104.97904110000002,31.75524550000004,0 -104.97968560000002,31.755164500000035,0 -105.07725170000002,31.745177900000037,0 -105.08148590000002,31.74470530000003,0 -105.12689080000001,31.740034700000034,0 -105.12847540000001,31.739844400000035,0 -105.13879940000001,31.738781400000036,0 -105.13940300000002,31.738754100000037,0 -105.13990860000001,31.73875430000004,0 -105.14062470000002,31.738783500000043,0 -105.14164200000002,31.738888900000042,0 -105.14248710000003,31.73903130000004,0 -105.17478220000002,31.74690010000004,0 -105.17545480000003,31.747032000000043,0 -105.17609900000002,31.74712910000004,0 -105.17661080000002,31.747184600000047,0 -105.17711890000002,31.747220400000046,0 -105.17808140000002,31.747239900000046,0 -105.19773400000001,31.747106200000044,0 -105.19781140000002,31.747121500000045,0 -105.20536990000002,31.747077300000047,0 -105.20543480000003,31.74705070000005,0 -105.28186040000003,31.746623800000048,0 -105.28244990000002,31.74664260000005,0 -105.28332080000003,31.746702300000056,0 -105.28424090000001,31.746795700000057,0 -105.28475490000001,31.74686990000006,0 -105.48344800000001,31.78157400000006,0 -105.71397940000001,31.82156830000006,0 -105.71447850000001,31.82167000000006,0 -105.71519940000002,31.821858500000065,0 -105.71555810000002,31.821968800000068,0 -105.71607090000002,31.822148600000062,0 -105.77145110000002,31.843122100000063,0 -105.77882820000002,31.845553400000064,0 -105.77958760000001,31.84578530000006,0 -105.77987300000002,31.84584830000006,0 -105.78011850000001,31.84591530000006,0 -105.78083750000003,31.84607510000006,0 -105.78349810000002,31.84658210000006,0 -105.78447870000002,31.846794500000065,0 -105.78620870000002,31.847097500000068,0 -105.79247830000001,31.848287100000068,0 -105.79314620000001,31.848362500000068,0 -105.79364740000003,31.848398300000067,0 -105.79450300000002,31.84840150000007,0 -105.79501330000002,31.848368800000074,0 -105.82283150000002,31.84551690000007,0 -105.82349610000003,31.845465700000073,0 -105.82422680000002,31.845430700000072,0 -105.82891440000002,31.845422900000077,0 -105.82926110000002,31.845407800000075,0 -105.82998470000001,31.845323100000076,0 -105.83024360000002,31.845279000000076,0 -105.83058510000002,31.845194900000077,0 -105.83115700000002,31.845021800000076,0 -105.83144800000002,31.844910900000073,0 -105.83194550000002,31.844682000000077,0 -105.83282210000002,31.844190400000073,0 -105.84301560000002,31.837782000000075,0 -105.84380090000002,31.837380000000078,0 -105.84433550000003,31.837150300000076,0 -105.84515490000003,31.836866100000076,0 -105.85959680000002,31.83292210000008,0 -105.86015040000002,31.83274790000008,0 -105.86815010000002,31.830024200000075,0 -105.86910570000002,31.829719700000073,0 -105.87789010000002,31.827118100000078,0 -105.87861880000001,31.826932900000074,0 -105.87932870000002,31.826808200000077,0 -105.87984390000001,31.826758000000073,0 -105.88030160000001,31.82673560000007,0 -105.88111770000002,31.826750700000073,0 -105.88323800000002,31.826884700000072,0 -105.88475980000003,31.826948200000075,0 -105.88950710000002,31.827253100000075,0 -105.89025230000003,31.827269600000076,0 -105.89111100000004,31.827262500000078,0 -105.89555470000003,31.827018000000077,0 -105.89678040000003,31.82698090000008,0 -105.90212610000002,31.826700700000078,0 -105.93329190000001,31.826686900000073,0 -105.93433620000002,31.826707100000075,0 -105.93541970000001,31.82678120000007,0 -105.93648750000001,31.82691360000007,0 -105.94266250000003,31.82801550000007,0 -105.94395270000001,31.82831250000007,0 -105.94513930000001,31.82864840000007,0 -105.9456904,31.82883600000007,0 -105.9461873,31.829025000000076,0 -105.9576275,31.833910700000075,0 -105.9596345,31.834809200000077,0 -105.9718913,31.840072000000077,0 -105.9727495,31.84036230000008,0 -105.97817680000001,31.84198680000008,0 -105.97851340000001,31.842061800000078,0 -105.9788374,31.842113900000076,0 -105.979242,31.842136800000073,0 -105.9795256,31.84212750000008,0 -105.97991250000001,31.842082000000076,0 -105.98025290000001,31.842002700000073,0 -105.98055710000001,31.84190190000007,0 -105.9808265,31.84178660000007,0 -105.98110520000002,31.84163230000007,0 -105.98128400000002,31.841512300000073,0 -105.98156850000002,31.841289600000074,0 -105.98243300000001,31.840464400000073,0 -105.98281260000002,31.840143000000072,0 -105.98293360000001,31.840051500000076,0 -105.983152,31.839909700000074,0 -105.98360120000001,31.83966740000007,0 -105.98389040000002,31.83954820000007,0 -105.98421030000002,31.83944950000007,0 -105.98446790000001,31.839389100000073,0 -105.9849042,31.839321300000073,0 -105.9852046,31.839294700000075,0 -105.9878066,31.839209700000072,0 -105.98811950000001,31.839181900000074,0 -105.9886981,31.839089200000075,0 -105.9890604,31.838995900000075,0 -105.9893461,31.83889010000008,0 -105.98960040000001,31.83877370000008,0 -105.9899029,31.83860020000008,0 -105.99002530000001,31.83851410000008,0 -105.99028360000001,31.838300300000082,0 -105.9905047,31.838091800000086,0 -105.9906964,31.837880300000084,0 -105.9909713,31.837535100000082,0 -105.9911602,31.837221600000085,0 -105.9913377,31.836845900000085,0 -105.99282570000001,31.83300200000009,0 -105.99312270000001,31.832301500000085,0 -105.9936715,31.831175400000088,0 -105.99396920000001,31.83077840000009,0 -105.99431060000002,31.83042390000009,0 -105.99444540000002,31.830310900000086,0 -105.99486320000003,31.830005200000084,0 -105.99518550000002,31.829813400000084,0 -105.99536710000002,31.829718700000083,0 -105.99568940000002,31.829577600000082,0 -105.9959874,31.829470700000083,0 -105.9963434,31.829367000000083,0 -105.99659840000001,31.829310400000086,0 -105.9969621,31.829252200000084,0 -105.99722530000001,31.829223100000085,0 -105.99762270000001,31.829205700000085,0 -105.99795990000001,31.829209900000084,0 -106.00805310000001,31.829837300000086,0 -106.00863480000001,31.829908200000087,0 -106.00904600000001,31.829988300000092,0 -106.00936660000002,31.83006800000009,0 -106.01004280000002,31.830290500000093,0 -106.01043620000003,31.830461500000094,0 -106.01075960000001,31.830627900000092,0 -106.01115090000002,31.83084970000009,0 -106.01299150000001,31.832016300000088,0 -106.01354880000001,31.83232820000009,0 -106.01402490000001,31.83256790000009,0 -106.01702840000002,31.833911800000088,0 -106.01748150000002,31.834089500000086,0 -106.01805990000001,31.834269000000084,0 -106.01828230000001,31.834324400000085,0 -106.01883030000002,31.834432700000086,0 -106.01949150000002,31.834498300000085,0 -106.01989380000002,31.834510500000086,0 -106.02049210000003,31.834491800000087,0 -106.02316170000003,31.83429460000009,0 -106.02343980000003,31.83428830000009,0 -106.02386670000004,31.83430010000009,0 -106.02424010000004,31.834332800000087,0 -106.02459770000004,31.83438250000009,0 -106.02514240000004,31.834491300000092,0 -106.02575940000004,31.83466810000009,0 -106.02626060000004,31.834858000000093,0 -106.02974190000005,31.836409900000092,0 -106.03018900000004,31.836592300000092,0 -106.03103230000005,31.83687690000009,0 -106.03137060000005,31.83697120000009,0 -106.04109680000005,31.83913120000009,0 -106.04146090000005,31.839196400000088,0 -106.04187010000004,31.839249700000085,0 -106.04241680000004,31.83928300000009,0 -106.04303490000004,31.83927670000009,0 -106.04689560000004,31.839037700000095,0 -106.04739140000005,31.83898100000009,0 -106.04787950000005,31.838895300000086,0 -106.04807010000006,31.838851600000087,0 -106.04860130000006,31.838702800000082,0 -106.04887110000006,31.83860880000008,0 -106.04962770000006,31.838276800000077,0 -106.05571750000006,31.83494920000008,0 -106.05628420000005,31.834656200000076,0 -106.05678330000005,31.834431000000077,0 -106.05726160000005,31.834259300000078,0 -106.05764230000005,31.834148700000075,0 -106.05828960000005,31.834017600000074,0 -106.05861230000005,31.83396860000007,0 -106.05943490000006,31.833875300000074,0 -106.05958020000004,31.83388540000007,0 -106.06002220000005,31.83383990000007,0 -106.06240820000005,31.83367420000007,0 -106.10810840000005,31.82923590000007,0 -106.10995080000004,31.82895540000007,0 -106.14358190000004,31.823010300000067,0 -106.14522850000004,31.82274870000007,0 -106.20724610000003,31.814673100000064,0 -106.21197910000004,31.813935400000066,0 -106.21446180000004,31.813609400000068,0 -106.21650860000003,31.81329560000007,0 -106.21845320000003,31.813099900000072,0 -106.26673010000003,31.806777700000072,0 -106.26686520000004,31.80674790000007,0 -106.26874300000003,31.80650120000007,0 -106.26909300000003,31.806474000000073,0 -106.26998470000002,31.806359400000073,0 -106.27037630000002,31.80642080000007,0 -106.27078390000003,31.806542100000073,0 -106.27097420000003,31.806586200000073,0 -106.27135360000003,31.806621600000074,0 -106.27173430000002,31.80660800000007,0 -106.27320220000003,31.806467600000076,0 -106.28275360000002,31.805189700000078,0 -106.28898790000002,31.80440940000008,0 -106.28980310000003,31.80427650000008,0 -106.29464180000004,31.80367120000008,0 -106.29508540000002,31.803639600000075,0 -106.32798550000003,31.799270300000078,0 -106.32863330000002,31.799203500000075,0 -106.32902620000003,31.799149700000076,0 -106.32993420000003,31.798925800000077,0 -106.33071560000003,31.798637900000074,0 -106.33109130000004,31.798455500000077,0 -106.33169260000004,31.79822270000008,0 -106.33249110000004,31.798114200000075,0 -106.33295820000004,31.79806710000008,0 -106.33659490000004,31.797580000000075,0 -106.33684290000004,31.797489100000075,0 -106.34411900000003,31.79653060000008,0 -106.34451380000004,31.796489800000074,0 -106.34750390000005,31.796087600000075,0 -106.34755360000004,31.79612260000007,0 -106.34759520000004,31.796134100000074,0 -106.34765210000003,31.796137600000076,0 -106.35190890000004,31.795570000000072,0 -106.35244010000004,31.795520500000073,0 -106.35572050000003,31.795078600000075,0 -106.35715510000003,31.794922900000074,0 -106.35769230000002,31.794838400000078,0 -106.35792320000003,31.794821900000073,0 -106.35842540000003,31.794735000000074,0 -106.35857310000002,31.79472500000007,0 -106.36126940000003,31.79439150000007,0 -106.36139480000003,31.79436640000007,0 -106.36156940000002,31.794272400000064,0 -106.37626470000002,31.792341400000062,0 -106.37635680000002,31.792320600000064,0 -106.39341030000003,31.790059400000068,0 -106.39350120000003,31.790099500000064,0 -106.39352950000004,31.790105100000066,0 -106.39361910000004,31.790101900000064,0 -106.39567300000003,31.789839000000065,0 -106.39564230000002,31.789319600000063,0 -106.39554200000003,31.78452300000006,0 -106.39554800000003,31.78426400000006,0 -106.39552390000003,31.783686400000065,0 -106.39552730000003,31.783613900000063,0 -106.39550260000003,31.78341570000006,0 -106.39547770000003,31.78330570000006,0 -106.39540930000001,31.783100900000058,0 -106.39537570000002,31.78302690000006,0 -106.39529510000001,31.782885800000056,0 -106.39518950000001,31.782751300000058,0 -106.39505310000003,31.78262430000006,0 -106.39489830000004,31.78250050000006,0 -106.39467150000003,31.78237620000006,0 -106.39440650000003,31.78227350000006,0 -106.39418440000003,31.782209400000056,0 -106.39365560000003,31.782100700000058,0 -106.39345890000004,31.782048100000058,0 -106.39323180000004,31.781965400000058,0 -106.39304500000003,31.781875000000063,0 -106.39278110000002,31.78171760000006,0 -106.39255680000002,31.78153640000006,0 -106.39243540000002,31.78141840000006,0 -106.39238500000003,31.781349600000063,0 -106.39250810000003,31.781262600000062,0 -106.39256480000003,31.781230800000063,0 -106.39267160000003,31.781311000000066,0 </coordinates></LineString><TimeSpan><begin>2022-05-27T21:50:13.000Z</begin><end>2022-05-27T23:28:28.999Z</end></TimeSpan></Placemark><Placemark><name>West Texas Chophouse</name><address>1135 Airway Blvd Suite 7B, El Paso, TX 79925</address><ExtendedData><Data name="Email"><value>syugen.zhou@gmail.com</value></Data><Data name="Category"><value>Steak</value></Data><Data name="Distance"><value>0</value></Data></ExtendedData><description> Steak from 2022-05-27T23:28:28.999Z to 2022-05-28T01:16:52.999Z. Distance 0m </description><Point><coordinates>-106.3926958,31.780940899999997,0</coordinates></Point><TimeSpan><begin>2022-05-27T23:28:28.999Z</begin><end>2022-05-28T01:16:52.999Z</end></TimeSpan></Placemark><Placemark><name>Driving</name><address></address><ExtendedData><Data name="Email"><value>syugen.zhou@gmail.com</value></Data><Data name="Category"><value>Driving</value></Data><Data name="Distance"><value>15207</value></Data></ExtendedData><description> Driving from 2022-05-28T01:16:52.999Z to 2022-05-28T01:28:15.999Z. Distance 15207m </description><LineString><altitudeMode>clampToGround</altitudeMode><extrude>1</extrude><tesselate>1</tesselate><coordinates>-106.3933029,31.7804871,0 -106.39273809999999,31.780320199999995,0 -106.39208529999999,31.780077199999997,0 -106.39197089999999,31.7800132,0 -106.39202669999999,31.7797443,0 -106.39208769999999,31.779580000000003,0 -106.39249389999999,31.778864200000005,0 -106.39386799999998,31.779503000000002,0 -106.3940093,31.7795364,0 -106.39594359999998,31.7803016,0 -106.39619339999999,31.7803215,0 -106.39943939999998,31.781800200000003,0 -106.39975999999999,31.781920300000003,0 -106.40059219999999,31.782156000000004,0 -106.4012089,31.782262200000005,0 -106.40168209999999,31.782304900000003,0 -106.40233059999998,31.782317800000005,0 -106.40286289999999,31.782284500000003,0 -106.40836139999999,31.7815224,0 -106.40909559999999,31.7814768,0 -106.40972699999999,31.7814996,0 -106.41276479999998,31.7817533,0 -106.41331279999999,31.7817402,0 -106.41397719999998,31.781670000000002,0 -106.41449929999997,31.781570700000003,0 -106.41501249999999,31.781429300000003,0 -106.41579819999998,31.781130800000007,0 -106.41632449999997,31.780863200000006,0 -106.42065439999998,31.778250100000008,0 -106.42111149999998,31.778036200000006,0 -106.42146569999997,31.777899500000004,0 -106.42195949999997,31.777747000000005,0 -106.42245719999997,31.777631900000003,0 -106.42282739999997,31.777571100000007,0 -106.42334729999996,31.777520100000007,0 -106.43085229999996,31.777520700000007,0 -106.43112669999996,31.77760440000001,0 -106.43331329999997,31.777620600000013,0 -106.43405159999998,31.777677600000015,0 -106.43467509999996,31.777781500000014,0 -106.43557529999997,31.777983700000014,0 -106.43618459999998,31.778085200000014,0 -106.43666499999996,31.77812910000001,0 -106.43822479999997,31.778140700000012,0 -106.43833909999996,31.77817480000001,0 -106.43912689999996,31.778319000000007,0 -106.43946229999997,31.778426100000008,0 -106.43988949999998,31.77861670000001,0 -106.44021759999997,31.77881650000001,0 -106.44049729999998,31.77903400000001,0 -106.44066849999997,31.779209700000013,0 -106.44085569999996,31.779451800000015,0 -106.44097729999996,31.779678300000015,0 -106.44105109999997,31.779868300000015,0 -106.44111829999997,31.780144200000013,0 -106.44106139999997,31.799395500000013,0 -106.44103009999996,31.799463900000013,0 -106.44109759999996,31.800042500000014,0 -106.44133359999998,31.801079900000015,0 -106.44136149999997,31.80114550000002,0 -106.44216799999997,31.804435200000018,0 -106.44226949999997,31.805630300000022,0 -106.44227079999996,31.806396300000024,0 -106.44195869999996,31.810096500000025,0 -106.44151609999996,31.813389500000024,0 -106.44152039999996,31.813476700000027,0 -106.44138079999995,31.81436550000003,0 -106.44106349999996,31.815664400000028,0 -106.44039219999995,31.81774840000003,0 -106.44007799999994,31.818577600000026,0 -106.43989219999995,31.81897350000003,0 -106.43950569999994,31.81965440000003,0 -106.43800569999995,31.822008300000025,0 -106.43775779999994,31.822521000000023,0 -106.43758319999993,31.823113300000024,0 -106.43751459999993,31.823597000000024,0 -106.43750849999994,31.823898500000027,0 -106.43755839999993,31.824406300000028,0 -106.43764879999993,31.824808700000027,0 -106.43784549999994,31.825411900000027,0 -106.43922959999993,31.829042900000026,0 -106.43936639999994,31.829562300000028,0 -106.43945499999994,31.83007170000003,0 -106.44000549999994,31.848623700000026,0 -106.44022339999994,31.852909700000026,0 -106.44054549999994,31.86390650000003,0 -106.44046449999993,31.86397580000003,0 -106.44034459999993,31.86583080000003,0 -106.44004299999993,31.86803650000003,0 -106.44005799999994,31.869307000000028,0 -106.44018039999993,31.86943650000003,0 -106.44023139999993,31.869463100000033,0 -106.44030899999993,31.86947850000003,0 -106.44127199999994,31.86945940000003,0 -106.44130949999993,31.86944880000003,0 -106.44137609999994,31.86940680000003,0 -106.44144429999993,31.869307600000027,0 -106.44123299999994,31.860693000000026,0 -106.44274199999994,31.860672000000026,0 -106.44275989999993,31.861619800000025,0 </coordinates></LineString><TimeSpan><begin>2022-05-28T01:16:52.999Z</begin><end>2022-05-28T01:28:15.999Z</end></TimeSpan></Placemark><Placemark><name>Holiday Inn Express &amp; Suites El Paso North, an IHG Hotel</name><address>8725 Gateway S Blvd, El Paso, TX 79904</address><ExtendedData><Data name="Email"><value>syugen.zhou@gmail.com</value></Data><Data name="Category"><value>Hotel</value></Data><Data name="Distance"><value>0</value></Data></ExtendedData><description> Hotel from 2022-05-28T01:28:15.999Z to 2022-05-28T16:28:02.999Z. Distance 0m </description><Point><coordinates>-106.4416279,31.861448499999998,0</coordinates></Point><TimeSpan><begin>2022-05-28T01:28:15.999Z</begin><end>2022-05-28T16:28:02.999Z</end></TimeSpan></Placemark></Document></kml>
