<?xml version="1.0" encoding="UTF-8"?><kml xmlns="http://www.opengis.net/kml/2.2" xmlns:gx="http://www.google.com/kml/ext/2.2"><Document><name> Location history from 2022-05-30 to 2022-05-30 </name><open>1</open><description></description><StyleMap id="multiTrack"><Pair><key>normal</key><styleUrl>#multiTrack_n</styleUrl></Pair><Pair><key>highlight</key><styleUrl>#multiTrack_h</styleUrl></Pair></StyleMap><Style id="multiTrack_n"><IconStyle><Icon><href>https://earth.google.com/images/kml-icons/track-directional/track-0.png</href></Icon></IconStyle><LineStyle><color>99ffac59</color><width>6</width></LineStyle></Style><Style id="multiTrack_h"><IconStyle><scale>1.2</scale><Icon><href>https://earth.google.com/images/kml-icons/track-directional/track-0.png</href></Icon></IconStyle><LineStyle><color>99ffac59</color><width>8</width></LineStyle></Style><Placemark><name>TownePlace Suites by Marriott Albuquerque North</name><address>5511 Office Blvd NE, Albuquerque, NM 87109</address><ExtendedData><Data name="Email"><value>syugen.zhou@gmail.com</value></Data><Data name="Category"><value>Hotel</value></Data><Data name="Distance"><value>0</value></Data></ExtendedData><description> Hotel from 2022-05-30T01:27:51.105Z to 2022-05-30T17:32:33.999Z. Distance 0m </description><Point><coordinates>-106.599108,35.1415333,0</coordinates></Point><TimeSpan><begin>2022-05-30T01:27:51.105Z</begin><end>2022-05-30T17:32:33.999Z</end></TimeSpan></Placemark><Placemark><name>Driving</name><address></address><ExtendedData><Data name="Email"><value>syugen.zhou@gmail.com</value></Data><Data name="Category"><value>Driving</value></Data><Data name="Distance"><value>8612</value></Data></ExtendedData><description> Driving from 2022-05-30T17:32:33.999Z to 2022-05-30T17:51:17.000Z. Distance 8612m </description><LineString><altitudeMode>clampToGround</altitudeMode><extrude>1</extrude><tesselate>1</tesselate><coordinates>-106.59953229999999,35.141193799999996,0 -106.59939039999999,35.1410461,0 -106.5992366,35.1408576,0 -106.59941459999999,35.140704099999994,0 -106.5998579,35.14118189999999,0 -106.6001493,35.14155109999999,0 -106.6003078,35.14178509999999,0 -106.60035649999999,35.14184219999999,0 -106.6005441,35.142225399999994,0 -106.6007919,35.14283519999999,0 -106.6008979,35.14316999999999,0 -106.60097350000001,35.1436509,0 -106.6010025,35.144275799999996,0 -106.6009938,35.14465409999999,0 -106.6034918,35.14464949999999,0 -106.6047958,35.14460559999999,0 -106.60542370000002,35.1446073,0 -106.60560280000001,35.14459969999999,0 -106.60561550000001,35.14469449999999,0 -106.6056233,35.14535179999999,0 -106.6055851,35.14546019999999,0 -106.6055774,35.14550309999999,0 -106.6055268,35.14648059999999,0 -106.60553650000001,35.14725989999999,0 -106.6055874,35.14761089999999,0 -106.6056028,35.147907999999994,0 -106.6055776,35.148348899999995,0 -106.6055893,35.1499096,0 -106.60555660000001,35.15050349999999,0 -106.6055557,35.1516075,0 -106.6055839,35.1518982,0 -106.6056315,35.152068899999996,0 -106.605728,35.1522684,0 -106.6060584,35.1526782,0 -106.6061174,35.152770499999995,0 -106.60626590000001,35.153099899999994,0 -106.6053734,35.1533813,0 -106.60455040000001,35.153610300000004,0 -106.6044767,35.1534661,0 -106.6044727,35.15344820000001,0 -106.6044751,35.15339900000001,0 -106.6043542,35.15339980000001,0 -106.6034842,35.153610400000005,0 -106.6035502,35.153707000000004,0 -106.6036132,35.15387440000001,0 -106.6022089,35.15430200000001,0 -106.6009968,35.15462220000001,0 -106.59620460000001,35.15603550000001,0 -106.5960087,35.156079100000014,0 -106.59559279999999,35.15614780000001,0 -106.5953979,35.15616050000001,0 -106.59526969999999,35.15617650000001,0 -106.5946841,35.156185600000015,0 -106.59437569999999,35.15617350000001,0 -106.59407859999999,35.15614590000001,0 -106.59357109999999,35.156060900000014,0 -106.59291759999999,35.15585470000001,0 -106.5924364,35.155664600000016,0 -106.59176149999999,35.15526430000001,0 -106.5896538,35.15382940000001,0 -106.58808219999999,35.15271900000001,0 -106.58765269999999,35.15237830000002,0 -106.58745039999998,35.152176400000016,0 -106.58715969999999,35.151857200000016,0 -106.5870837,35.151746500000016,0 -106.58695959999999,35.15153650000002,0 -106.58667859999998,35.15090170000002,0 -106.58659069999999,35.15059620000002,0 -106.58655189999998,35.15033960000002,0 -106.58652729999997,35.14993820000002,0 -106.58653899999997,35.148381200000024,0 -106.58655339999997,35.14811170000002,0 -106.58652619999997,35.147053300000024,0 -106.58655509999997,35.14268670000002,0 -106.58654579999997,35.14256810000002,0 -106.58651489999997,35.13859730000002,0 -106.58655469999997,35.13776230000002,0 -106.58652249999997,35.137185000000024,0 -106.58652959999998,35.13282180000002,0 -106.58650779999998,35.131952300000016,0 -106.58655059999997,35.12251080000002,0 -106.58646419999997,35.116411800000016,0 -106.58638729999997,35.11630060000002,0 -106.58634449999997,35.109376900000015,0 -106.58642189999998,35.10933050000001,0 -106.58643329999997,35.10931530000002,0 -106.58644109999997,35.10929090000002,0 -106.58644619999997,35.10922410000002,0 -106.59062999999998,35.10924360000002,0 -106.59080239999997,35.10925580000002,0 -106.59319619999997,35.109247900000014,0 -106.59562509999998,35.109279100000016,0 -106.59562479999997,35.10558320000001,0 -106.59698519999996,35.105593200000015,0 -106.59698849999997,35.105025900000015,0 -106.59698169999997,35.10500920000002,0 -106.59697089999999,35.104996600000014,0 -106.59695439999999,35.10498850000002,0 -106.59689899999998,35.104980900000015,0 -106.59677879999998,35.10498050000002,0 </coordinates></LineString><TimeSpan><begin>2022-05-30T17:32:33.999Z</begin><end>2022-05-30T17:51:17.000Z</end></TimeSpan></Placemark><Placemark><name>The Daily Grind</name><address>4360 Cutler Ave NE, Albuquerque, NM 87110</address><ExtendedData><Data name="Email"><value>syugen.zhou@gmail.com</value></Data><Data name="Category"><value>Breakfast</value></Data><Data name="Distance"><value>0</value></Data></ExtendedData><description> Breakfast from 2022-05-30T17:51:17.000Z to 2022-05-30T19:06:57.000Z. Distance 0m </description><Point><coordinates>-106.5969219,35.1047763,0</coordinates></Point><TimeSpan><begin>2022-05-30T17:51:17.000Z</begin><end>2022-05-30T19:06:57.000Z</end></TimeSpan></Placemark><Placemark><name>Driving</name><address></address><ExtendedData><Data name="Email"><value>syugen.zhou@gmail.com</value></Data><Data name="Category"><value>Driving</value></Data><Data name="Distance"><value>148204</value></Data></ExtendedData><description> Driving from 2022-05-30T19:06:57.998Z to 2022-05-30T20:34:21.000Z. Distance 148204m </description><LineString><altitudeMode>clampToGround</altitudeMode><extrude>1</extrude><tesselate>1</tesselate><coordinates>-106.59669489999999,35.1049802,0 -106.59695439999999,35.1049885,0 -106.59698849999998,35.105025899999994,0 -106.59698519999998,35.1055932,0 -106.58802369999998,35.105497299999996,0 -106.58800639999998,35.1049455,0 -106.58828019999999,35.1045657,0 -106.58846079999998,35.1044709,0 -106.59145119999998,35.1042146,0 -106.59270339999998,35.1042191,0 -106.59279649999998,35.1041825,0 -106.59286259999998,35.1041051,0 -106.59950609999997,35.1042824,0 -106.60202189999998,35.1046826,0 -106.61484289999997,35.1075177,0 -106.61658009999996,35.1076222,0 -106.61803169999997,35.1075534,0 -106.61966509999996,35.1073341,0 -106.61989109999998,35.1073755,0 -106.62529889999998,35.1065433,0 -106.62607809999997,35.1065933,0 -106.62667369999997,35.1067977,0 -106.62730469999997,35.1072739,0 -106.62764899999998,35.107844,0 -106.62775839999998,35.1084544,0 -106.62771539999997,35.1087863,0 -106.62692579999997,35.1110131,0 -106.62690269999997,35.1113013,0 -106.62346729999997,35.120703000000006,0 -106.62270459999998,35.122314700000004,0 -106.62152259999998,35.124098700000005,0 -106.62059379999997,35.1252014,0 -106.61931099999997,35.126451700000004,0 -106.61732909999996,35.1279608,0 -106.59299929999997,35.142845099999995,0 -106.59223429999997,35.143455499999995,0 -106.59125009999997,35.1444948,0 -106.59059609999996,35.14545979999999,0 -106.58993759999997,35.1469968,0 -106.56447729999996,35.2584264,0 -106.56414799999996,35.2593622,0 -106.56319719999996,35.2613068,0 -106.55848579999996,35.2685289,0 -106.55343349999997,35.2803374,0 -106.53673749999996,35.3041522,0 -106.53536859999997,35.3066783,0 -106.53476399999997,35.3085357,0 -106.53445919999997,35.3100903,0 -106.53391789999998,35.3158305,0 -106.53346619999998,35.3175514,0 -106.53250939999998,35.3197788,0 -106.53156109999998,35.3212549,0 -106.51797879999998,35.3386717,0 -106.51675629999998,35.3399859,0 -106.44959049999997,35.3940924,0 -106.44591959999998,35.3963928,0 -106.44390919999998,35.3974292,0 -106.42293419999997,35.4065651,0 -106.42157679999998,35.4072666,0 -106.41929709999998,35.4087818,0 -106.41568879999998,35.4117096,0 -106.41452519999997,35.4124517,0 -106.39247329999998,35.4245709,0 -106.38986039999998,35.426226400000004,0 -106.36330669999997,35.4455965,0 -106.36084809999997,35.446908900000004,0 -106.26659829999997,35.4857887,0 -106.26511029999996,35.4865727,0 -106.26302689999997,35.487968300000006,0 -106.26177979999996,35.489025600000005,0 -106.24415139999996,35.50649760000001,0 -106.24275819999997,35.50754080000001,0 -106.24116569999997,35.508512100000004,0 -106.21985129999997,35.5186866,0 -106.21854989999997,35.51919680000001,0 -106.21631769999998,35.51985000000001,0 -106.21475489999997,35.520162600000006,0 -106.20522609999998,35.521304300000004,0 -106.19685339999998,35.52180410000001,0 -106.19398079999998,35.52181520000001,0 -106.17207269999999,35.520704600000016,0 -106.17019729999998,35.520816500000016,0 -106.16907569999998,35.520988400000014,0 -106.16748869999998,35.521371000000016,0 -106.16626089999997,35.52180280000002,0 -106.16446759999998,35.52267990000002,0 -106.06574219999999,35.588072300000015,0 -106.06561839999999,35.58808540000001,0 -106.06404229999998,35.588949200000016,0 -106.06237999999999,35.58966790000001,0 -106.06170429999999,35.59011860000002,0 -106.0700276,35.598523000000014,0 -106.0706521,35.599358600000016,0 -106.07100279999999,35.60001850000002,0 -106.0713264,35.600958900000016,0 -106.07145849999999,35.60182500000001,0 -106.0715237,35.61644360000002,0 -106.0707031,35.627624400000016,0 -106.07110109999999,35.635015500000016,0 -106.0710431,35.63566090000001,0 -106.07082349999999,35.63650230000001,0 -106.0704379,35.63728290000001,0 -106.0696179,35.63830680000001,0 -106.0686648,35.63905980000001,0 -106.05023659999999,35.64998910000001,0 -106.0479292,35.65106020000002,0 -106.04312809999999,35.65280300000002,0 -106.0420918,35.653316900000014,0 -106.04128679999998,35.653894000000015,0 -106.03167359999998,35.66354740000002,0 -106.03099519999998,35.66408600000002,0 -106.03023529999997,35.66453160000002,0 -106.02036019999997,35.66787570000002,0 -106.01916119999999,35.66859400000002,0 -106.01843139999998,35.66924020000002,0 -106.00226539999997,35.68937210000002,0 -105.99420639999998,35.69702330000002,0 -105.99337429999997,35.69758780000002,0 -105.99224329999998,35.69817130000002,0 -105.99053639999998,35.69875920000002,0 -105.98020619999998,35.70111550000002,0 -105.97771069999999,35.70152100000002,0 -105.97694779999998,35.70174350000002,0 -105.97221969999998,35.70404610000002,0 -105.96914829999999,35.70633570000002,0 -105.96849629999998,35.706693200000025,0 -105.96709929999999,35.70711470000002,0 -105.96476759999999,35.70725640000003,0 -105.96416149999997,35.70737090000002,0 -105.96340919999997,35.70761270000003,0 -105.96229759999997,35.70821960000002,0 -105.96174519999997,35.70869990000003,0 -105.95758709999997,35.71436260000003,0 -105.95550289999997,35.71616470000002,0 -105.95460329999996,35.71662250000003,0 -105.95399439999996,35.71680910000003,0 -105.95190629999996,35.71722510000002,0 -105.95123059999996,35.717285100000026,0 -105.95044259999996,35.71725780000003,0 -105.94929349999997,35.717011400000025,0 -105.94358219999997,35.71496190000003,0 -105.94259509999996,35.71430430000002,0 -105.93962099999996,35.71122980000003,0 -105.93917389999997,35.710655600000024,0 -105.93862149999997,35.70946190000002,0 -105.93856429999997,35.708981700000024,0 -105.93859439999997,35.708832900000026,0 -105.93876659999997,35.708535400000024,0 -105.93904999999997,35.708327000000025,0 -105.93950699999998,35.70820580000003,0 -105.93975289999997,35.70821900000003,0 -105.94003609999996,35.70830190000003,0 -105.94034229999995,35.70850560000003,0 -105.94053759999996,35.70883020000003,0 -105.94055239999996,35.70921630000003,0 -105.94048379999995,35.70942780000003,0 -105.94018119999996,35.709902400000026,0 -105.94019599999996,35.710025400000035,0 -105.93834749999996,35.71257280000003,0 -105.93267069999997,35.72189790000003,0 -105.93213649999997,35.72320040000003,0 -105.93194309999997,35.72421230000003,0 -105.93163719999997,35.73858980000003,0 -105.93211309999997,35.74019650000003,0 -105.94397279999997,35.76136410000003,0 -105.94427209999996,35.76209070000003,0 -105.94447439999998,35.762941100000035,0 -105.94452409999997,35.76403550000003,0 -105.94368539999996,35.76955880000003,0 -105.94387919999997,35.77095470000003,0 -105.94762669999996,35.77932780000003,0 -105.94783789999997,35.78046820000004,0 -105.94788449999997,35.782928600000034,0 -105.94805569999997,35.78390810000003,0 -105.94849069999997,35.78503660000003,0 -105.94914649999997,35.78612950000003,0 -105.98878839999996,35.84012460000004,0 -105.99205899999997,35.84415720000003,0 -105.99403449999997,35.847438300000036,0 -106.00232049999997,35.86674210000004,0 -106.00874609999997,35.877609600000035,0 -106.00995329999996,35.87918710000003,0 -106.01114509999996,35.88035340000003,0 -106.01802699999996,35.88603940000004,0 -106.02089529999996,35.88793400000004,0 -106.02093239999996,35.88804290000004,0 -106.02116409999996,35.88836340000004,0 -106.02184909999997,35.889743500000044,0 -106.02210829999997,35.89003490000004,0 -106.02265069999996,35.89041730000004,0 -106.02270419999996,35.89057060000004,0 -106.02607889999996,35.89056400000004,0 -106.02682599999996,35.890467700000045,0 -106.02785089999996,35.89014880000005,0 -106.02797849999996,35.89006300000005,0 -106.03310059999997,35.88842550000005,0 -106.04069089999997,35.88689360000005,0 -106.04150839999997,35.886653000000045,0 -106.05586179999997,35.88093730000005,0 -106.05690869999997,35.88070720000005,0 -106.05712169999997,35.88072470000005,0 -106.05822639999997,35.88060160000005,0 -106.05990989999997,35.88062020000005,0 -106.06315379999998,35.88111380000005,0 -106.06331029999997,35.88107570000005,0 -106.06509189999997,35.881360400000055,0 -106.06519059999997,35.88143890000005,0 -106.07418659999996,35.88285500000005,0 -106.07436729999996,35.88284170000005,0 -106.08099119999996,35.883905900000045,0 -106.08112189999997,35.88396470000005,0 -106.09015809999997,35.88540830000005,0 -106.09035929999996,35.885403600000046,0 -106.09598819999997,35.88629680000005,0 -106.09706179999996,35.88636480000005,0 -106.10686939999997,35.88518210000005,0 -106.10818899999997,35.88478850000005,0 -106.11356039999995,35.882613900000045,0 -106.11373569999996,35.882587800000046,0 -106.12170669999996,35.87931610000005,0 -106.12184349999997,35.87921210000005,0 -106.12421329999997,35.87825070000005,0 -106.12435189999997,35.87824250000005,0 -106.13226569999996,35.87501920000005,0 -106.13243029999995,35.87489910000004,0 -106.13350189999996,35.87448200000004,0 -106.13468969999995,35.87414650000005,0 -106.13570149999995,35.87396390000005,0 -106.13836199999994,35.87379110000005,0 -106.13910149999995,35.87386650000005,0 -106.14021839999995,35.87414560000005,0 -106.14114179999996,35.874569000000044,0 -106.14221819999995,35.87536550000004,0 -106.14272399999994,35.87592610000005,0 -106.14365839999994,35.87736510000005,0 -106.14438139999993,35.87820660000005,0 -106.14532369999993,35.87897170000005,0 -106.14610429999995,35.879453500000054,0 -106.14616969999994,35.87953490000005,0 -106.14727989999993,35.88019330000005,0 -106.14824449999993,35.88112690000005,0 -106.14922109999993,35.88279480000005,0 -106.15009169999993,35.88359870000005,0 -106.15086839999994,35.88403400000006,0 -106.15174779999994,35.88432540000005,0 -106.15268889999993,35.88446200000005,0 -106.15768719999993,35.88449730000005,0 -106.15824319999993,35.88456440000005,0 -106.16004379999994,35.88501400000005,0 -106.16029709999994,35.88503730000005,0 -106.16043199999994,35.884996400000055,0 -106.16106049999995,35.884990800000054,0 -106.16210539999994,35.884795000000054,0 -106.16303929999995,35.884347700000056,0 -106.16630799999996,35.88164720000006,0 -106.16709819999996,35.88114190000006,0 -106.16793429999996,35.88077390000006,0 -106.16974659999995,35.880172600000066,0 -106.17031609999995,35.87989680000006,0 -106.17112039999995,35.87936670000006,0 -106.17326689999996,35.87744170000006,0 -106.17405619999995,35.87696660000007,0 -106.17605389999996,35.87608560000007,0 -106.17628009999996,35.876062900000065,0 -106.17914819999996,35.874796400000065,0 -106.18207999999996,35.873129800000065,0 -106.18212609999995,35.873038100000066,0 -106.18455959999996,35.87200230000007,0 -106.18572059999995,35.87133150000007,0 -106.18584809999996,35.871318100000074,0 -106.18692379999995,35.87060560000007,0 -106.18729789999995,35.87045120000007,0 -106.18799969999995,35.87033310000007,0 -106.18848689999994,35.87035500000007,0 -106.18907399999995,35.87051750000007,0 -106.19011739999995,35.87109530000007,0 -106.19079339999996,35.87134850000007,0 -106.19113049999996,35.87138630000007,0 -106.19169659999994,35.871352600000066,0 -106.19221449999995,35.87121910000007,0 -106.19255039999994,35.871069700000064,0 -106.19309499999994,35.87071620000007,0 -106.19350809999995,35.87032860000007,0 -106.19424629999995,35.86924230000007,0 -106.19468449999995,35.86893500000007,0 -106.19497949999995,35.86880240000007,0 -106.19536379999994,35.86870840000007,0 -106.19746429999994,35.86847500000007,0 -106.20059549999993,35.86777820000007,0 -106.20175169999993,35.867747700000066,0 -106.20477329999993,35.868246800000065,0 -106.20602429999992,35.86867650000007,0 -106.20761439999993,35.86957140000006,0 -106.20871259999993,35.86988380000006,0 -106.20941349999993,35.86987220000007,0 -106.21276359999993,35.86941280000006,0 -106.21711749999993,35.869484600000064,0 -106.21965949999993,35.86984710000007,0 -106.22348299999994,35.87061990000007,0 -106.22464419999994,35.87057290000007,0 -106.22545889999994,35.87065590000007,0 -106.22697429999994,35.87114320000006,0 -106.22803739999995,35.871268100000066,0 -106.22866719999995,35.87125800000007,0 -106.23031809999995,35.87097230000007,0 -106.23076229999995,35.870995700000066,0 -106.23283559999994,35.87154980000007,0 -106.23313089999995,35.87174460000006,0 -106.23324009999995,35.87190310000006,0 -106.23328299999993,35.872082200000065,0 -106.23323809999994,35.87244530000007,0 -106.23333589999993,35.87282840000006,0 -106.23346689999993,35.872986800000064,0 -106.23393759999993,35.87325240000006,0 -106.23419319999994,35.87331340000006,0 -106.23457769999992,35.873305400000056,0 -106.23613849999992,35.87305570000006,0 -106.23890059999994,35.87290920000006,0 -106.23975969999994,35.87276190000005,0 -106.24108869999993,35.87272350000005,0 -106.24219849999993,35.872940900000046,0 -106.25024729999993,35.87529170000005,0 -106.25306739999994,35.87579110000005,0 -106.25878629999993,35.87576720000005,0 -106.25969909999993,35.875912800000044,0 -106.25975419999993,35.87590450000005,0 -106.26081899999994,35.876289100000044,0 -106.26390579999993,35.87787550000005,0 -106.26486299999993,35.87825520000005,0 -106.26648759999993,35.87868770000005,0 -106.27852609999992,35.880630600000046,0 -106.27856189999991,35.88065460000005,0 -106.28131489999991,35.881113200000044,0 -106.2813683999999,35.88110500000005,0 -106.2826502999999,35.881307800000044,0 -106.2827023999999,35.88133380000004,0 -106.2850125999999,35.88171130000004,0 -106.2862968999999,35.88175730000004,0 -106.2869448999999,35.88167760000004,0 -106.2869639999999,35.88164090000004,0 -106.2897058999999,35.881239700000044,0 -106.29091939999991,35.88119500000004,0 -106.2912136999999,35.881262200000045,0 -106.2912819999999,35.88124040000004,0 -106.2915907999999,35.881321800000045,0 -106.2953291999999,35.881232400000044,0 -106.3017568999999,35.88144210000004,0 -106.3017986999999,35.88093890000004,0 </coordinates></LineString><TimeSpan><begin>2022-05-30T19:06:57.998Z</begin><end>2022-05-30T20:34:21.000Z</end></TimeSpan></Placemark><Placemark><name>Manhattan Project National Historical Park</name><address>475 20th St, Los Alamos, NM 87544</address><ExtendedData><Data name="Email"><value>syugen.zhou@gmail.com</value></Data><Data name="Category"><value>National park</value></Data><Data name="Distance"><value>0</value></Data></ExtendedData><description> National park from 2022-05-30T20:34:21.000Z to 2022-05-30T20:55:27.000Z. Distance 0m </description><Point><coordinates>-106.3029133,35.880894399999995,0</coordinates></Point><TimeSpan><begin>2022-05-30T20:34:21.000Z</begin><end>2022-05-30T20:55:27.000Z</end></TimeSpan></Placemark><Placemark><name>Driving</name><address></address><ExtendedData><Data name="Email"><value>syugen.zhou@gmail.com</value></Data><Data name="Category"><value>Driving</value></Data><Data name="Distance"><value>19749</value></Data></ExtendedData><description> Driving from 2022-05-30T20:55:27.999Z to 2022-05-30T21:17:04.000Z. Distance 19749m </description><LineString><altitudeMode>clampToGround</altitudeMode><extrude>1</extrude><tesselate>1</tesselate><coordinates>-106.3018804,35.8803869,0 -106.3018366,35.880416100000005,0 -106.3018121,35.879806300000006,0 -106.30239320000001,35.87983200000001,0 -106.307454,35.881805500000006,0 -106.31268380000002,35.8830247,0 -106.31792030000001,35.8826735,0 -106.31885480000003,35.8830201,0 -106.31917330000002,35.88274870000001,0 -106.32081440000002,35.8820464,0 -106.32125400000002,35.8816401,0 -106.32186170000003,35.878528,0 -106.32178480000003,35.878193100000004,0 -106.32144580000002,35.877975500000005,0 -106.32108420000002,35.877900600000004,0 -106.31932470000002,35.87834980000001,0 -106.31894620000003,35.87819190000001,0 -106.31887710000002,35.87792290000001,0 -106.31908570000002,35.87772760000001,0 -106.32140290000002,35.8777126,0 -106.33318840000001,35.875103700000004,0 -106.34001560000002,35.8742694,0 -106.34269500000002,35.8732433,0 -106.34669830000001,35.872584,0 -106.34792550000002,35.87214470000001,0 -106.34864350000002,35.8716401,0 -106.35384140000001,35.8650068,0 -106.35436460000001,35.8635843,0 -106.35456510000002,35.8621644,0 -106.35443780000003,35.8604732,0 -106.35328670000003,35.8562624,0 -106.35324480000003,35.855120799999995,0 -106.35426180000003,35.84991899999999,0 -106.35634810000002,35.847578299999995,0 -106.35855770000002,35.84393899999999,0 -106.35887320000002,35.84293689999999,0 -106.35907590000001,35.84053219999999,0 -106.36094710000002,35.83421729999999,0 -106.34481450000001,35.832812499999996,0 -106.34233360000002,35.8319668,0 -106.341659,35.83196409999999,0 -106.3410242,35.832145399999995,0 -106.33956230000001,35.8329847,0 -106.33875190000002,35.833132799999994,0 -106.33815530000001,35.83307059999999,0 -106.33717550000001,35.832617,0 -106.33610340000001,35.8309146,0 -106.33532930000001,35.830212599999996,0 -106.33180660000001,35.8282956,0 -106.3310124,35.8282046,0 -106.3260419,35.8285397,0 -106.3242749,35.828386300000005,0 -106.31948469999999,35.826899700000006,0 -106.31806999999999,35.8259641,0 -106.3160168,35.823778,0 -106.3104863,35.8207415,0 -106.3090334,35.8193774,0 -106.3073739,35.816817,0 -106.30634900000001,35.8161074,0 -106.3043609,35.8152672,0 -106.30367020000001,35.8147525,0 -106.30302490000001,35.8138722,0 -106.30212960000001,35.8119424,0 -106.29261800000002,35.804504099999996,0 -106.28982140000001,35.803157899999995,0 -106.28634990000002,35.8023521,0 -106.2845872,35.801623299999996,0 -106.2750592,35.7960491,0 -106.2757122,35.79517,0 -106.27617020000001,35.7949036,0 -106.27625040000001,35.794604,0 -106.2752259,35.7919792,0 -106.2749067,35.7916702,0 -106.27431659999999,35.791373,0 -106.2735935,35.79049989999999,0 -106.2727818,35.78887499999999,0 -106.27223000000001,35.78851189999999,0 -106.2713648,35.78819439999999,0 -106.26899300000001,35.78434839999999,0 -106.26609330000001,35.780991699999994,0 -106.26465940000001,35.780082099999994,0 -106.26397540000002,35.77936989999999,0 -106.2612423,35.77460299999999,0 -106.26107080000001,35.772501799999986,0 -106.26070350000002,35.772015199999984,0 -106.25930050000001,35.77131359999999,0 -106.25881610000002,35.77075159999999,0 -106.25866920000001,35.77021529999999,0 -106.25886920000002,35.76909159999999,0 -106.25920060000003,35.76871159999999,0 -106.25969740000002,35.76857489999998,0 -106.26008600000002,35.768660299999986,0 -106.26148180000001,35.76970989999999,0 -106.26299180000002,35.77186499999999,0 -106.26599620000002,35.77464989999999,0 -106.26712220000002,35.775226399999994,0 -106.27017670000002,35.7783884,0 -106.27001220000002,35.7785239,0 -106.27046320000002,35.7789147,0 -106.27056900000002,35.7789234,0 </coordinates></LineString><TimeSpan><begin>2022-05-30T20:55:27.999Z</begin><end>2022-05-30T21:17:04.000Z</end></TimeSpan></Placemark><Placemark><name>Bandelier Visitor Center</name><address>15 Entrance Rd, Los Alamos, NM 87544</address><ExtendedData><Data name="Email"><value>syugen.zhou@gmail.com</value></Data><Data name="Category"><value>Visitor center</value></Data><Data name="Distance"><value>0</value></Data></ExtendedData><description> Visitor center from 2022-05-30T21:17:04.000Z to 2022-05-30T21:43:51.643Z. Distance 0m </description><Point><coordinates>-106.2708964,35.7791035,0</coordinates></Point><TimeSpan><begin>2022-05-30T21:17:04.000Z</begin><end>2022-05-30T21:43:51.643Z</end></TimeSpan></Placemark><Placemark><name>Walking</name><address></address><ExtendedData><Data name="Email"><value>syugen.zhou@gmail.com</value></Data><Data name="Category"><value>Walking</value></Data><Data name="Distance"><value>1679</value></Data></ExtendedData><description> Walking from 2022-05-30T21:43:51.643Z to 2022-05-30T22:50:05.000Z. Distance 1679m </description><LineString><altitudeMode>clampToGround</altitudeMode><extrude>1</extrude><tesselate>1</tesselate><coordinates>-106.2711025,35.7789017,0 -106.2713696,35.7795182,0 -106.2715302,35.7796448,0 -106.27218989999999,35.780325500000004,0 -106.2723211,35.7804141,0 -106.27258929999999,35.7807541,0 -106.2726532,35.781012700000005,0 -106.27275,35.78117900000001,0 -106.27293150000001,35.781372600000005,0 -106.27315150000001,35.78145870000001,0 -106.2732629,35.781527800000006,0 -106.2733158,35.781674,0 -106.2734682,35.781815800000004,0 -106.273562,35.781974500000004,0 -106.27382949999999,35.782028000000004,0 -106.27387619999999,35.782066900000004,0 -106.2740255,35.7821434,0 -106.273962,35.7823289,0 -106.27418189999999,35.782490599999996,0 -106.2741736,35.7825305,0 -106.27411869999999,35.7825871,0 -106.27396259999999,35.7826124,0 -106.27378549999999,35.7826233,0 -106.2736461,35.7825907,0 -106.2734663,35.782494899999996,0 -106.27342079999998,35.782479699999996,0 -106.27333219999998,35.782505799999996,0 -106.27322229999997,35.7826211,0 -106.27301039999998,35.7827299,0 -106.27295669999998,35.7828126,0 -106.27304519999997,35.7828648,0 -106.27313109999997,35.7827887,0 -106.27343419999997,35.782795199999995,0 -106.27360579999997,35.7828626,0 -106.27364069999997,35.782978,0 -106.27372119999997,35.782978,0 -106.27380699999998,35.7830258,0 -106.27394109999997,35.78303449999999,0 -106.27399209999997,35.7831238,0 -106.27407519999997,35.7831238,0 -106.27413689999996,35.783167299999995,0 -106.27418789999996,35.7832369,0 -106.27426029999997,35.7833087,0 -106.27435419999996,35.7832869,0 -106.27446139999996,35.7833087,0 -106.27462239999997,35.7832957,0 -106.27484069999997,35.783254299999996,0 -106.27512639999998,35.783449999999995,0 -106.27510229999997,35.78358059999999,0 -106.27512099999997,35.783645799999995,0 -106.27518269999997,35.78371979999999,0 -106.27528989999998,35.78376759999999,0 -106.27541059999997,35.78380229999999,0 -106.27548289999997,35.78380889999999,0 -106.27552039999996,35.78379359999999,0 -106.27557139999996,35.783802299999984,0 -106.27557139999996,35.78382839999998,0 -106.27574289999997,35.783820599999984,0 -106.27596139999997,35.78391039999998,0 -106.27617019999997,35.78401689999998,0 -106.27632389999998,35.78413009999998,0 -106.27654769999998,35.78424719999998,0 -106.27674619999998,35.78431819999999,0 -106.27712179999996,35.784577599999984,0 -106.27749349999996,35.78470909999998,0 -106.27789299999996,35.78477199999998,0 -106.27815659999996,35.78472629999999,0 -106.27834979999996,35.78465319999999,0 -106.27844329999996,35.784587299999984,0 -106.27846409999997,35.78447769999998,0 -106.27840249999996,35.78433779999998,0 -106.27852239999997,35.78380639999998,0 -106.27838159999996,35.783762299999985,0 -106.27828739999997,35.783753699999984,0 -106.27820639999996,35.783735499999985,0 -106.27806239999997,35.78365399999999,0 -106.27799229999997,35.78359959999999,0 -106.27775709999997,35.78348939999999,0 -106.27724939999997,35.78332029999999,0 -106.27689649999998,35.78324599999999,0 -106.27675239999998,35.7831814,0 -106.27641269999998,35.7829865,0 -106.27581929999998,35.7827836,0 -106.27555029999999,35.7825541,0 -106.27547599999998,35.7825089,0 -106.27532529999998,35.7823773,0 -106.27512679999998,35.7820798,0 -106.27487539999997,35.7815489,0 -106.27459419999997,35.781160199999995,0 -106.27410249999997,35.7807537,0 -106.27394619999997,35.7806601,0 -106.27363799999996,35.7805095,0 -106.27325519999995,35.7803804,0 -106.27306129999995,35.7802907,0 -106.27294999999995,35.7802091,0 -106.27241789999995,35.7797359,0 -106.27222419999995,35.779503299999995,0 -106.27203919999995,35.7791673,0 -106.27193039999995,35.779016399999996,0 -106.27166319999995,35.77879479999999,0 </coordinates></LineString><TimeSpan><begin>2022-05-30T21:43:51.643Z</begin><end>2022-05-30T22:50:05.000Z</end></TimeSpan></Placemark><Placemark><name>Bandelier Visitor Center</name><address>15 Entrance Rd, Los Alamos, NM 87544</address><ExtendedData><Data name="Email"><value>syugen.zhou@gmail.com</value></Data><Data name="Category"><value>Visitor center</value></Data><Data name="Distance"><value>0</value></Data></ExtendedData><description> Visitor center from 2022-05-30T22:50:05.000Z to 2022-05-30T22:55:15.000Z. Distance 0m </description><Point><coordinates>-106.2708964,35.7791035,0</coordinates></Point><TimeSpan><begin>2022-05-30T22:50:05.000Z</begin><end>2022-05-30T22:55:15.000Z</end></TimeSpan></Placemark><Placemark><name>Driving</name><address></address><ExtendedData><Data name="Email"><value>syugen.zhou@gmail.com</value></Data><Data name="Category"><value>Driving</value></Data><Data name="Distance"><value>62773</value></Data></ExtendedData><description> Driving from 2022-05-30T22:55:15.000Z to 2022-05-30T23:53:07.079Z. Distance 62773m </description><LineString><altitudeMode>clampToGround</altitudeMode><extrude>1</extrude><tesselate>1</tesselate><coordinates>-106.2706226,35.7788988,0 -106.27078509999998,35.778786000000004,0 -106.2702588,35.7783299,0 -106.2701767,35.778388400000004,0 -106.26712219999999,35.7752264,0 -106.26599619999999,35.7746499,0 -106.26299179999998,35.771865,0 -106.26148179999998,35.769709899999995,0 -106.26008599999997,35.76866029999999,0 -106.25969739999998,35.76857489999999,0 -106.25920059999999,35.768711599999996,0 -106.25886919999998,35.769091599999996,0 -106.25866919999999,35.77021529999999,0 -106.25881609999998,35.7707516,0 -106.25930049999998,35.7713136,0 -106.26070349999998,35.77201519999999,0 -106.26107079999997,35.77250179999999,0 -106.26124229999998,35.774603,0 -106.26397539999998,35.7793699,0 -106.26465939999997,35.7800821,0 -106.26609329999997,35.7809917,0 -106.26899299999997,35.7843484,0 -106.27136479999996,35.788194399999995,0 -106.27278179999996,35.78887499999999,0 -106.27359349999996,35.79049989999999,0 -106.27431659999996,35.791373,0 -106.27522589999995,35.7919792,0 -106.27625039999997,35.794604,0 -106.27617019999997,35.7949036,0 -106.27571219999997,35.79517,0 -106.27505919999997,35.7960491,0 -106.26952899999996,35.792703499999995,0 -106.26733569999996,35.7908587,0 -106.26521719999995,35.7895949,0 -106.26366649999996,35.7877642,0 -106.26270459999996,35.787132899999996,0 -106.26048949999996,35.7864009,0 -106.25659069999996,35.784260599999996,0 -106.25614729999995,35.784162499999994,0 -106.25562449999995,35.7842789,0 -106.25524489999997,35.784628299999994,0 -106.25516969999995,35.78492219999999,0 -106.25531799999996,35.78540589999999,0 -106.25595769999997,35.78604109999999,0 -106.25893189999996,35.78724759999999,0 -106.26068399999997,35.78743959999999,0 -106.26130949999998,35.787670799999994,0 -106.26342329999999,35.78900999999999,0 -106.26364559999999,35.78952959999999,0 -106.2635873,35.78971779999999,0 -106.26317839999999,35.78996939999999,0 -106.2626485,35.78990719999999,0 -106.2617686,35.78938489999999,0 -106.2609457,35.78916359999999,0 -106.2585239,35.789105699999986,0 -106.2570926,35.78876769999998,0 -106.2543991,35.78745419999998,0 -106.25358759999999,35.78724559999998,0 -106.2508053,35.78738929999997,0 -106.2496743,35.78697809999998,0 -106.24913339999999,35.78648919999998,0 -106.2481675,35.784781799999976,0 -106.24716589999998,35.78410419999998,0 -106.2466015,35.78411769999998,0 -106.2462753,35.78438329999998,0 -106.24606849999999,35.78694919999998,0 -106.24732239999999,35.78993199999998,0 -106.24642809999999,35.79208449999998,0 -106.24687279999999,35.794544399999985,0 -106.24823649999999,35.79566759999999,0 -106.2483377,35.796133699999984,0 -106.248006,35.79663629999999,0 -106.24588569999999,35.797385599999984,0 -106.245543,35.79786819999998,0 -106.24550289999999,35.79857949999998,0 -106.24587129999999,35.799315499999985,0 -106.24591759999998,35.79989269999999,0 -106.24525449999999,35.80214929999998,0 -106.24528859999998,35.80277239999999,0 -106.2457324,35.80353089999999,0 -106.2480932,35.80533929999999,0 -106.24871379999999,35.80679689999999,0 -106.24874119999998,35.80796129999999,0 -106.24848019999999,35.80880189999999,0 -106.24765859999998,35.809954399999995,0 -106.24652069999999,35.81073829999999,0 -106.24265579999998,35.81223469999999,0 -106.23589759999997,35.813037499999986,0 -106.23391629999998,35.81301369999999,0 -106.23078769999998,35.81235539999999,0 -106.22759919999997,35.81081049999999,0 -106.22672439999997,35.81072339999999,0 -106.22601199999998,35.81088509999999,0 -106.22553229999998,35.81118589999999,0 -106.22307649999999,35.813976099999984,0 -106.22230339999999,35.81604789999999,0 -106.22225669999999,35.81829779999998,0 -106.22289369999999,35.82125699999998,0 -106.22263839999998,35.82215919999998,0 -106.22170439999998,35.82308309999998,0 -106.20214419999998,35.83073079999998,0 -106.20115559999998,35.83146049999998,0 -106.20077769999999,35.832008099999975,0 -106.20052399999999,35.83296679999998,0 -106.20064559999997,35.83373079999998,0 -106.20105219999998,35.834443899999975,0 -106.21577089999998,35.845832199999975,0 -106.21938109999998,35.850265199999974,0 -106.22046739999998,35.85306049999998,0 -106.22456459999998,35.859532099999974,0 -106.22495299999997,35.86075629999998,0 -106.22507929999998,35.86298719999998,0 -106.22483339999998,35.86402269999997,0 -106.22371269999998,35.865635999999974,0 -106.22218919999997,35.86635209999997,0 -106.21521429999997,35.86729169999997,0 -106.21276229999997,35.86816889999997,0 -106.21020269999997,35.86956479999997,0 -106.20951729999996,35.86975129999997,0 -106.20833799999997,35.86969139999997,0 -106.20524079999996,35.868243999999976,0 -106.20153179999997,35.86762149999997,0 -106.19502779999996,35.86865149999998,0 -106.19406939999996,35.869190499999974,0 -106.19301239999996,35.87062159999998,0 -106.19241079999996,35.87101189999998,0 -106.19170279999997,35.87123329999998,0 -106.19072919999996,35.871211699999975,0 -106.18871169999996,35.87027499999998,0 -106.18757389999996,35.870268099999976,0 -106.18682329999996,35.870527099999975,0 -106.18575739999996,35.87124469999998,0 -106.18572059999995,35.871331499999975,0 -106.18212609999995,35.873038099999974,0 -106.18196039999995,35.87304529999997,0 -106.17326689999996,35.87744169999998,0 -106.17031609999995,35.879896799999976,0 -106.16709819999994,35.88114189999997,0 -106.16303929999995,35.88434769999997,0 -106.16210539999994,35.884794999999976,0 -106.16043199999994,35.88499639999997,0 -106.15786069999994,35.88439309999997,0 -106.15169339999994,35.88420249999997,0 -106.15021119999994,35.88354609999997,0 -106.14943679999995,35.88287669999996,0 -106.14839889999995,35.88113289999997,0 -106.14711529999995,35.87996369999997,0 -106.14438139999994,35.87820659999997,0 -106.14221819999995,35.87536549999997,0 -106.14114179999996,35.87456899999997,0 -106.14021839999995,35.87414559999997,0 -106.13836199999994,35.87379109999997,0 -106.13570149999995,35.87396389999997,0 -106.13350189999994,35.87448199999997,0 -106.10686939999994,35.885182099999966,0 -106.09706179999995,35.88636479999997,0 -106.06522759999994,35.88131649999997,0 -106.06509189999996,35.88136039999997,0 -106.06036129999995,35.88055129999997,0 -106.05819969999996,35.880483499999976,0 -106.05586179999996,35.88093729999997,0 -106.04150839999996,35.886652999999974,0 -106.03310059999997,35.88842549999997,0 -106.02670789999996,35.89037199999997,0 -106.02474839999995,35.89039129999997,0 -106.02370149999996,35.89001799999997,0 -106.01065859999997,35.879650799999965,0 -106.00892949999997,35.877540999999965,0 -106.00257619999996,35.866778399999966,0 -105.99348819999997,35.84598749999997,0 -105.94873749999996,35.785267299999965,0 -105.94800929999997,35.783058399999966,0 -105.94765809999997,35.77907109999997,0 -105.94403969999998,35.77104049999996,0 -105.94381439999997,35.76951359999997,0 -105.94468179999997,35.76403369999997,0 -105.94460039999996,35.76269889999996,0 -105.94418049999996,35.76141529999996,0 -105.93232339999997,35.740289299999965,0 -105.93174849999997,35.73836219999996,0 -105.93216089999997,35.72367209999996,0 -105.93280579999997,35.721912299999964,0 -105.93668249999997,35.715505699999966,0 -105.93679409999999,35.715467999999966,0 -105.93789799999999,35.71400589999996,0 -105.93890029999999,35.713158099999966,0 -105.93941829999999,35.712949499999965,0 -105.94058039999999,35.71297029999996,0 -105.94141399999998,35.71334219999996,0 -105.94261179999998,35.71456999999996,0 -105.94374519999998,35.71523969999996,0 -105.95005359999998,35.71738099999996,0 -105.95111439999998,35.71746269999996,0 -105.95432909999998,35.71690729999996,0 -105.95545739999997,35.71641599999996,0 -105.95771939999997,35.71450989999996,0 -105.96183399999997,35.70888479999996,0 -105.96337759999997,35.70780879999996,0 -105.96449779999996,35.70746829999996,0 -105.96705459999997,35.70728569999996,0 -105.96838589999997,35.70694769999996,0 -105.97223879999996,35.70426119999996,0 -105.97756069999997,35.70173909999996,0 -105.99093159999997,35.698835199999955,0 -105.99320559999995,35.69789599999996,0 -105.99456229999997,35.696993499999955,0 -106.00266179999997,35.68923219999996,0 -106.01287959999996,35.67648019999996,0 -106.01181479999997,35.67581289999996,0 -106.01115619999996,35.67493069999996,0 -106.00887009999995,35.66901379999996,0 -106.00541809999996,35.670615099999964,0 -106.00340179999995,35.67053299999996,0 -106.00147899999996,35.66923299999996,0 -106.00085559999995,35.66903959999997,0 -106.00020309999995,35.66905419999996,0 -105.99968309999996,35.66921659999997,0 -105.99964429999996,35.669160099999964,0 -105.99945639999996,35.669124899999964,0 -105.99730719999997,35.663226999999964,0 -105.99257769999997,35.658105699999965,0 -105.99397459999997,35.65724789999996,0 -105.99550359999998,35.65664349999996,0 -105.99785189999997,35.65508899999996,0 -105.99749449999997,35.65469379999996,0 -105.99741599999997,35.65432289999996,0 -105.99695259999997,35.65447669999996,0 -105.99680859999997,35.65433269999997,0 </coordinates></LineString><TimeSpan><begin>2022-05-30T22:55:15.000Z</begin><end>2022-05-30T23:53:07.079Z</end></TimeSpan></Placemark><Placemark><name>Meow Wolf Santa Fe</name><address>1352 Rufina Cir, Santa Fe, NM 87507</address><ExtendedData><Data name="Email"><value>syugen.zhou@gmail.com</value></Data><Data name="Category"><value>Tourist attraction</value></Data><Data name="Distance"><value>0</value></Data></ExtendedData><description> Tourist attraction from 2022-05-30T23:53:07.079Z to 2022-05-31T00:06:54.238Z. Distance 0m </description><Point><coordinates>-105.99683209999999,35.6545961,0</coordinates></Point><TimeSpan><begin>2022-05-30T23:53:07.079Z</begin><end>2022-05-31T00:06:54.238Z</end></TimeSpan></Placemark><Placemark><name>Driving</name><address></address><ExtendedData><Data name="Email"><value>syugen.zhou@gmail.com</value></Data><Data name="Category"><value>Driving</value></Data><Data name="Distance"><value>5649</value></Data></ExtendedData><description> Driving from 2022-05-31T00:06:54.238Z to 2022-05-31T00:13:49.978Z. Distance 5649m </description><LineString><altitudeMode>clampToGround</altitudeMode><extrude>1</extrude><tesselate>1</tesselate><coordinates>-105.9964428,35.6539431,0 -105.9963579,35.6538315,0 -105.99624969999999,35.6537032,0 -105.9960211,35.653770800000004,0 -105.9956457,35.6540147,0 -105.9955929,35.6539486,0 -105.9949292,35.6532562,0 -105.99428960000002,35.653651100000005,0 -105.99407420000001,35.6537999,0 -105.99387090000002,35.6539285,0 -105.99356310000002,35.6541047,0 -105.99283220000001,35.654552,0 -105.9927496,35.6546096,0 -105.9926681,35.6546711,0 -105.9921877,35.6549266,0 -105.99195180000001,35.6550593,0 -105.99092900000001,35.6556156,0 -105.99051460000001,35.6558354,0 -105.98626420000001,35.657981799999995,0 -105.98613970000001,35.6580411,0 -105.98489280000001,35.658677499999996,0 -105.98466120000002,35.6587592,0 -105.98439750000001,35.658889099999996,0 -105.98370260000002,35.6592087,0 -105.98329290000002,35.6594398,0 -105.98326350000002,35.6594615,0 -105.98294420000002,35.659623499999995,0 -105.98269780000003,35.659740299999996,0 -105.98085390000001,35.6606868,0 -105.98009920000001,35.6610654,0 -105.97856200000001,35.6618551,0 -105.9781183,35.662095199999996,0 -105.9780104,35.6621587,0 -105.9774562,35.6624613,0 -105.9771367,35.6626265,0 -105.9767281,35.662850899999995,0 -105.97630280000001,35.6630634,0 -105.97564880000002,35.6634023,0 -105.97519700000001,35.6636266,0 -105.97449170000002,35.663986400000006,0 -105.97386990000003,35.664312900000006,0 -105.97348870000002,35.6644973,0 -105.97232080000002,35.665096000000005,0 -105.97197860000001,35.6652934,0 -105.97149360000003,35.665582400000005,0 -105.97121980000001,35.665781700000004,0 -105.97061230000001,35.6662443,0 -105.97011300000003,35.6666005,0 -105.96967410000003,35.6669398,0 -105.96869090000003,35.667652399999994,0 -105.96682620000003,35.66894959999999,0 -105.96361090000003,35.671216599999994,0 -105.96343450000003,35.6713337,0 -105.96218670000003,35.672198599999994,0 -105.96031180000003,35.67345639999999,0 -105.96019710000003,35.67354019999999,0 -105.95865810000002,35.674560099999994,0 -105.95831350000002,35.67477889999999,0 -105.95799740000002,35.674952999999995,0 -105.95743350000002,35.675276499999995,0 -105.95689190000002,35.675598199999996,0 -105.95536360000001,35.676561,0 -105.9545374,35.6771372,0 -105.95418020000001,35.6773926,0 -105.95394440000001,35.6775368,0 -105.95389500000002,35.6775716,0 -105.95379510000002,35.67761350000001,0 -105.95287140000002,35.678274800000004,0 -105.95277520000002,35.6783398,0 -105.9526658,35.678409800000004,0 -105.9525552,35.678471,0 -105.9524365,35.678526700000006,0 -105.95230190000001,35.678581400000006,0 -105.9522603,35.67865690000001,0 -105.95194540000001,35.678785100000006,0 -105.95174390000001,35.678872000000005,0 -105.95140630000002,35.679035000000006,0 -105.95114790000002,35.67916470000001,0 -105.95102070000003,35.679163,0 -105.95010990000002,35.67962500000001,0 -105.94996240000002,35.67969250000001,0 -105.94987510000003,35.67973690000001,0 -105.94964980000002,35.67982560000001,0 -105.94936420000002,35.67991860000001,0 -105.94888280000002,35.680061300000006,0 -105.94838860000003,35.68019200000001,0 -105.94762920000002,35.68040760000001,0 -105.94743740000003,35.680481900000004,0 -105.94740450000002,35.680504000000006,0 -105.94723980000002,35.68064040000001,0 -105.94715850000003,35.680693700000006,0 -105.94650980000002,35.68122900000001,0 -105.94613420000003,35.681551000000006,0 -105.94608080000003,35.6816091,0 -105.94548710000002,35.682129,0 -105.94569050000003,35.682228,0 -105.94591190000003,35.6820072,0 -105.94598900000003,35.682046899999996,0 -105.94602170000003,35.6820793,0 -105.94602320000003,35.682082799999996,0 </coordinates></LineString><TimeSpan><begin>2022-05-31T00:06:54.238Z</begin><end>2022-05-31T00:13:49.978Z</end></TimeSpan></Placemark><Placemark><name>Hotel Santa Fe, Hacienda &amp; Spa</name><address>1501 Paseo De Peralta, Santa Fe, NM 87501</address><ExtendedData><Data name="Email"><value>syugen.zhou@gmail.com</value></Data><Data name="Category"><value>Hotel</value></Data><Data name="Distance"><value>0</value></Data></ExtendedData><description> Hotel from 2022-05-31T00:13:49.978Z to 2022-05-31T02:00:04.850Z. Distance 0m </description><Point><coordinates>-105.946389,35.682265,0</coordinates></Point><TimeSpan><begin>2022-05-31T00:13:49.978Z</begin><end>2022-05-31T02:00:04.850Z</end></TimeSpan></Placemark><Placemark><name>Driving</name><address></address><ExtendedData><Data name="Email"><value>syugen.zhou@gmail.com</value></Data><Data name="Category"><value>Driving</value></Data><Data name="Distance"><value>2076</value></Data></ExtendedData><description> Driving from 2022-05-31T02:00:04.850Z to 2022-05-31T02:02:53.000Z. Distance 2076m </description><LineString><altitudeMode>clampToGround</altitudeMode><extrude>1</extrude><tesselate>1</tesselate><coordinates>-105.9460433,35.682238999999996,0 -105.9460562,35.6822004,0 -105.9460519,35.6821504,0 -105.9460217,35.682079300000005,0 -105.94598900000001,35.6820469,0 -105.94591190000001,35.68200720000001,0 -105.94597200000001,35.6819557,0 -105.94601740000002,35.68191100000001,0 -105.94606160000002,35.6818785,0 -105.94619010000002,35.68183200000001,0 -105.94625600000002,35.681811,0 -105.94630460000002,35.681807500000005,0 -105.94641580000003,35.681825,0 -105.9465528,35.6818546,0 -105.94658880000001,35.681868200000004,0 -105.94660460000001,35.6818316,0 -105.94666470000003,35.681732600000004,0 -105.94669200000003,35.68161260000001,0 -105.94634630000003,35.68155910000001,0 -105.94613420000003,35.681551000000006,0 -105.94556800000004,35.68141830000001,0 -105.94488250000003,35.681275200000016,0 -105.94479250000003,35.68126100000001,0 -105.94409520000004,35.68120560000001,0 -105.94373250000002,35.681170600000016,0 -105.94346350000004,35.68112510000001,0 -105.94319180000004,35.68106610000002,0 -105.94305210000003,35.681031400000016,0 -105.94294650000003,35.68101870000002,0 -105.94280370000004,35.681022100000014,0 -105.94271460000003,35.68103690000001,0 -105.94265450000003,35.68105330000001,0 -105.94253240000003,35.681099400000015,0 -105.94246570000003,35.68113030000001,0 -105.94238990000002,35.68117590000001,0 -105.94231790000002,35.68123330000001,0 -105.94225270000003,35.681307100000005,0 -105.94219840000002,35.68138110000001,0 -105.94211810000002,35.681501700000005,0 -105.94203630000001,35.68159610000001,0 -105.94195210000002,35.681662100000004,0 -105.94182930000002,35.68172650000001,0 -105.94169890000003,35.68176940000001,0 -105.94158510000003,35.681788200000014,0 -105.94149420000002,35.68178980000001,0 -105.94141220000002,35.681782500000004,0 -105.94126320000001,35.68175990000001,0 -105.94097080000002,35.68170060000001,0 -105.94071330000001,35.68166350000001,0 -105.93998090000002,35.68153870000001,0 -105.93979810000002,35.681517500000005,0 -105.9395456,35.68151160000001,0 -105.9380881,35.68152400000001,0 -105.93699620000001,35.68141880000001,0 -105.93657770000002,35.681367400000006,0 -105.93643490000001,35.68135420000001,0 -105.93640600000002,35.68135710000001,0 -105.93633100000001,35.68137710000001,0 -105.93545280000002,35.68108020000001,0 -105.9353796,35.68106330000001,0 -105.93530590000002,35.68105450000001,0 -105.93521380000001,35.68105360000001,0 -105.93510200000001,35.68106100000001,0 -105.93499940000001,35.68109450000001,0 -105.9349504,35.68111350000001,0 -105.93490940000001,35.6811349,0 -105.93482120000002,35.68119840000001,0 -105.93468140000002,35.68132100000001,0 -105.93456010000001,35.68143560000001,0 -105.93445900000002,35.68156510000001,0 -105.9344166,35.68164630000001,0 -105.93437250000001,35.68176020000001,0 -105.93404010000002,35.682743300000006,0 -105.93403170000002,35.68278060000001,0 -105.93403070000002,35.68285390000001,0 -105.93403400000003,35.68288730000001,0 -105.93407540000003,35.68308900000001,0 -105.93407400000002,35.68324350000001,0 -105.93402870000003,35.68378180000001,0 -105.93397470000002,35.684944900000005,0 -105.93393150000003,35.68542250000001,0 -105.93380210000002,35.68655510000001,0 -105.93378750000002,35.68660650000001,0 -105.9337505,35.686936400000015,0 -105.93370360000002,35.68752880000001,0 -105.93368950000001,35.687629000000015,0 -105.93365100000001,35.687837400000014,0 -105.93360690000002,35.688033400000016,0 -105.93355360000001,35.68817270000002,0 -105.93348870000001,35.688375100000016,0 -105.93347290000001,35.688473600000016,0 -105.93352000000002,35.688661400000015,0 -105.93355250000002,35.688753100000014,0 -105.93359470000001,35.688847500000016,0 -105.93366750000001,35.688974600000016,0 -105.93374210000002,35.68907860000001,0 -105.93381040000001,35.68915610000001,0 -105.9339168,35.689254900000016,0 -105.93405200000001,35.68936650000001,0 -105.9343713,35.68960240000001,0 </coordinates></LineString><TimeSpan><begin>2022-05-31T02:00:04.850Z</begin><end>2022-05-31T02:02:53.000Z</end></TimeSpan></Placemark><Placemark><name>Cross of the Martyrs</name><address>617 Paseo De Peralta, Santa Fe, NM 87501</address><ExtendedData><Data name="Email"><value>syugen.zhou@gmail.com</value></Data><Data name="Category"><value>Park</value></Data><Data name="Distance"><value>0</value></Data></ExtendedData><description> Park from 2022-05-31T02:02:53.000Z to 2022-05-31T02:28:23.519Z. Distance 0m </description><Point><coordinates>-105.9329236,35.6895016,0</coordinates></Point><TimeSpan><begin>2022-05-31T02:02:53.000Z</begin><end>2022-05-31T02:28:23.519Z</end></TimeSpan></Placemark><Placemark><name>Driving</name><address></address><ExtendedData><Data name="Email"><value>syugen.zhou@gmail.com</value></Data><Data name="Category"><value>Driving</value></Data><Data name="Distance"><value>92703</value></Data></ExtendedData><description> Driving from 2022-05-31T02:28:23.519Z to 2022-05-31T03:17:12.887Z. Distance 92703m </description><LineString><altitudeMode>clampToGround</altitudeMode><extrude>1</extrude><tesselate>1</tesselate><coordinates>-105.933742,35.6890785,0 -105.9335947,35.6888475,0 -105.9334729,35.6884736,0 -105.9334887,35.6883751,0 -105.9336069,35.68803340000001,0 -105.9337036,35.6875288,0 -105.9339747,35.684944900000005,0 -105.9340754,35.68308900000001,0 -105.93403169999999,35.68278060000001,0 -105.934459,35.68156510000001,0 -105.9345601,35.68143560000001,0 -105.9348212,35.68119840000001,0 -105.93495039999999,35.68111350000001,0 -105.935102,35.68106100000001,0 -105.93530589999999,35.68105450000001,0 -105.9354528,35.68108020000001,0 -105.93633099999998,35.68137710000001,0 -105.93641649999998,35.68144010000001,0 -105.93661149999997,35.68148210000001,0 -105.93780949999997,35.68162140000001,0 -105.93809549999997,35.68162300000001,0 -105.93808809999997,35.68152400000002,0 -105.93735569999997,35.67856230000002,0 -105.93727669999998,35.67750340000001,0 -105.93697929999998,35.67664650000002,0 -105.93711099999997,35.675287900000015,0 -105.93707289999998,35.674906000000014,0 -105.93698859999999,35.67454510000002,0 -105.9357718,35.671921400000016,0 -105.9357272,35.67153530000002,0 -105.93573799999999,35.67122730000002,0 -105.93584179999999,35.67057470000002,0 -105.9362139,35.66946890000001,0 -105.93630339999999,35.66933990000001,0 -105.93659249999999,35.66767100000001,0 -105.936557,35.666315400000016,0 -105.93666739999998,35.66483010000002,0 -105.93682209999997,35.66422600000001,0 -105.93715529999997,35.663551100000014,0 -105.93981709999997,35.65922670000001,0 -105.94002199999997,35.65849240000001,0 -105.94005809999997,35.65817180000001,0 -105.94005619999997,35.65775330000001,0 -105.93999659999997,35.657474900000004,0 -105.93990109999997,35.657232300000004,0 -105.93890909999998,35.65550710000001,0 -105.93882609999997,35.65530130000001,0 -105.93878599999996,35.65510470000001,0 -105.93877459999997,35.654633200000006,0 -105.93879529999998,35.65448150000001,0 -105.93846079999997,35.6542048,0 -105.93786299999998,35.6535761,0 -105.93761819999996,35.653253500000005,0 -105.92955029999997,35.6401977,0 -105.92944509999997,35.6399077,0 -105.92939599999997,35.6396013,0 -105.92939249999996,35.639251200000004,0 -105.92944569999997,35.6389228,0 -105.92984649999997,35.638013300000004,0 -105.92990479999996,35.637979200000004,0 -105.93014759999996,35.637690600000006,0 -105.93044629999996,35.63751380000001,0 -105.93059609999996,35.637485600000005,0 -105.93122639999997,35.637480100000005,0 -105.93387519999996,35.637767600000004,0 -105.93404719999997,35.6377462,0 -105.93578639999997,35.63793940000001,0 -105.93734499999998,35.637950100000005,0 -105.94238029999998,35.6374719,0 -105.94764129999997,35.637252200000006,0 -105.94871079999999,35.6371422,0 -105.95055399999998,35.636835,0 -105.95148839999999,35.6366211,0 -105.95276969999998,35.6362584,0 -105.95394539999998,35.6358586,0 -105.96249959999999,35.6324888,0 -105.96458049999998,35.6317982,0 -105.97336729999998,35.629349399999995,0 -105.97475379999999,35.6289016,0 -105.97690079999998,35.6281116,0 -105.98124609999999,35.6263187,0 -105.98421159999998,35.625291,0 -105.98717039999998,35.624491799999994,0 -105.99885509999999,35.6221004,0 -106.00039449999998,35.6217138,0 -106.00256199999997,35.621061000000005,0 -106.00454979999998,35.620358200000005,0 -106.00612849999997,35.6197177,0 -106.01299769999997,35.616622400000004,0 -106.01518209999998,35.61574,0 -106.01677999999997,35.615172300000005,0 -106.02248489999998,35.61338560000001,0 -106.02444829999997,35.6126901,0 -106.02567309999998,35.612169800000004,0 -106.02762529999998,35.611192900000006,0 -106.02936209999999,35.610133700000006,0 -106.03062059999999,35.60925420000001,0 -106.03584869999999,35.60498640000001,0 -106.03652969999999,35.60448320000001,0 -106.03790399999997,35.603589800000016,0 -106.03912359999997,35.60290670000001,0 -106.04029719999997,35.602321400000015,0 -106.05061479999998,35.598145500000015,0 -106.05157919999998,35.597706400000014,0 -106.05348479999998,35.59665250000001,0 -106.16398939999998,35.52342870000001,0 -106.16540139999998,35.52261150000001,0 -106.16685709999997,35.52197960000001,0 -106.16815899999997,35.521569800000016,0 -106.16895349999997,35.52138160000001,0 -106.17024149999997,35.521173200000014,0 -106.17099729999998,35.52110250000001,0 -106.17247059999998,35.52107190000002,0 -106.19320359999998,35.52211680000001,0 -106.19588319999997,35.52205460000002,0 -106.20654319999997,35.521378800000015,0 -106.20980239999997,35.52103440000001,0 -106.21473829999996,35.520348700000014,0 -106.21593259999996,35.52012500000001,0 -106.21723739999996,35.51980470000001,0 -106.21825469999996,35.51949740000001,0 -106.21962469999995,35.51899310000001,0 -106.24099589999996,35.50881670000001,0 -106.24226359999994,35.50810950000001,0 -106.24303069999995,35.50762070000001,0 -106.24462449999994,35.50642280000001,0 -106.24543489999995,35.50569360000001,0 -106.26207399999996,35.48910680000001,0 -106.26308489999995,35.48824700000001,0 -106.26402729999995,35.487554200000005,0 -106.26505879999995,35.486892600000004,0 -106.26637129999995,35.486170800000004,0 -106.26710709999995,35.48582030000001,0 -106.36105559999994,35.447074900000004,0 -106.36226849999996,35.446477300000005,0 -106.36331439999995,35.4458816,0 -106.36408359999994,35.445382800000004,0 -106.38976929999994,35.4265918,0 -106.39175059999995,35.4252858,0 -106.41507409999994,35.4124034,0 -106.41623549999994,35.4116211,0 -106.41922299999995,35.4091576,0 -106.42002589999994,35.4085486,0 -106.42159679999995,35.4075399,0 -106.42294339999995,35.4068235,0 -106.44394009999995,35.3976785,0 -106.44611879999995,35.3965372,0 -106.44727109999994,35.3958634,0 -106.44922929999994,35.3945881,0 -106.45056209999994,35.3936132,0 -106.47661429999994,35.3730168,0 -106.51616459999995,35.3407703,0 -106.51723799999995,35.3397674,0 -106.51812179999995,35.3387897,0 -106.53196749999995,35.321016400000005,0 -106.53245619999996,35.320224,0 -106.53306859999995,35.3190502,0 -106.53371149999994,35.3173947,0 -106.53402359999994,35.316234900000005,0 -106.53420659999995,35.3152422,0 -106.53450519999994,35.3118537,0 -106.53454949999994,35.3117533,0 -106.53469179999993,35.3101414,0 -106.53508599999994,35.3081547,0 -106.53562159999994,35.3066573,0 -106.53652989999993,35.3048813,0 -106.55316999999994,35.2811413,0 -106.55387289999993,35.279944300000004,0 -106.55435229999993,35.2789366,0 -106.55828889999994,35.269415,0 -106.55913309999994,35.2677889,0 -106.56347619999994,35.2612957,0 -106.56389319999992,35.2605657,0 -106.56457549999993,35.259079400000005,0 -106.56499769999994,35.2578351,0 -106.59015769999993,35.147235300000006,0 -106.59055099999992,35.1461357,0 -106.59091769999992,35.1454365,0 -106.59136179999992,35.144783100000005,0 -106.59151619999992,35.144744700000004,0 -106.59172959999991,35.14449000000001,0 -106.59209119999991,35.14413410000001,0 -106.59245619999992,35.14384410000001,0 -106.59330629999992,35.143328800000006,0 -106.59409129999992,35.14295740000001,0 -106.59577309999992,35.142285400000006,0 -106.59709769999994,35.141083200000004,0 -106.59800569999993,35.140344400000004,0 -106.59867479999993,35.13987730000001,0 -106.59941459999993,35.1407041,0 -106.59923659999993,35.140857600000004,0 -106.59950949999993,35.14117,0 </coordinates></LineString><TimeSpan><begin>2022-05-31T02:28:23.519Z</begin><end>2022-05-31T03:17:12.887Z</end></TimeSpan></Placemark><Placemark><name>TownePlace Suites by Marriott Albuquerque North</name><address>5511 Office Blvd NE, Albuquerque, NM 87109</address><ExtendedData><Data name="Email"><value>syugen.zhou@gmail.com</value></Data><Data name="Category"><value>Hotel</value></Data><Data name="Distance"><value>0</value></Data></ExtendedData><description> Hotel from 2022-05-31T03:17:12.887Z to 2022-05-31T13:00:49.000Z. Distance 0m </description><Point><coordinates>-106.599108,35.1415333,0</coordinates></Point><TimeSpan><begin>2022-05-31T03:17:12.887Z</begin><end>2022-05-31T13:00:49.000Z</end></TimeSpan></Placemark></Document></kml>
