<?xml version="1.0" encoding="UTF-8"?><kml xmlns="http://www.opengis.net/kml/2.2" xmlns:gx="http://www.google.com/kml/ext/2.2"><Document><name> Location history from 2022-05-29 to 2022-05-29 </name><open>1</open><description></description><StyleMap id="multiTrack"><Pair><key>normal</key><styleUrl>#multiTrack_n</styleUrl></Pair><Pair><key>highlight</key><styleUrl>#multiTrack_h</styleUrl></Pair></StyleMap><Style id="multiTrack_n"><IconStyle><Icon><href>https://earth.google.com/images/kml-icons/track-directional/track-0.png</href></Icon></IconStyle><LineStyle><color>99ffac59</color><width>6</width></LineStyle></Style><Style id="multiTrack_h"><IconStyle><scale>1.2</scale><Icon><href>https://earth.google.com/images/kml-icons/track-directional/track-0.png</href></Icon></IconStyle><LineStyle><color>99ffac59</color><width>8</width></LineStyle></Style><Placemark><name>Holiday Inn Express &amp; Suites El Paso North, an IHG Hotel</name><address>8725 Gateway S Blvd, El Paso, TX 79904</address><ExtendedData><Data name="Email"><value>syugen.zhou@gmail.com</value></Data><Data name="Category"><value>Hotel</value></Data><Data name="Distance"><value>0</value></Data></ExtendedData><description> Hotel from 2022-05-29T02:33:20.999Z to 2022-05-29T17:33:50.999Z. Distance 0m </description><Point><coordinates>-106.4416279,31.861448499999998,0</coordinates></Point><TimeSpan><begin>2022-05-29T02:33:20.999Z</begin><end>2022-05-29T17:33:50.999Z</end></TimeSpan></Placemark><Placemark><name>Driving</name><address></address><ExtendedData><Data name="Email"><value>syugen.zhou@gmail.com</value></Data><Data name="Category"><value>Driving</value></Data><Data name="Distance"><value>18079</value></Data></ExtendedData><description> Driving from 2022-05-29T17:33:50.999Z to 2022-05-29T17:52:13.000Z. Distance 18079m </description><LineString><altitudeMode>clampToGround</altitudeMode><extrude>1</extrude><tesselate>1</tesselate><coordinates>-106.44209280000001,31.862072599999998,0 -106.44277040000001,31.862056299999995,0 -106.44274200000001,31.860671999999994,0 -106.44123300000001,31.860692999999994,0 -106.44116020000001,31.856714499999995,0 -106.44113800000001,31.85655179999999,0 -106.441,31.851855999999994,0 -106.4407314,31.849409699999992,0 -106.44055650000001,31.843979299999994,0 -106.4405009,31.843875099999995,0 -106.44021020000001,31.842355499999993,0 -106.44014840000001,31.841819599999994,0 -106.44006770000001,31.841705999999995,0 -106.43979920000001,31.830727199999995,0 -106.4397069,31.829785499999996,0 -106.43960790000001,31.829343999999992,0 -106.4380778,31.825263599999996,0 -106.4378762,31.824611499999996,0 -106.4377869,31.82403679999999,0 -106.437787,31.82354469999999,0 -106.43790659999999,31.822918499999986,0 -106.4381156,31.822352699999986,0 -106.4400773,31.81919449999998,0 -106.4404657,31.81834599999998,0 -106.4411282,31.816276999999978,0 -106.441191,31.81615409999998,0 -106.4414455,31.815288499999983,0 -106.4417212,31.813986399999983,0 -106.44222590000001,31.81013559999998,0 -106.4425363,31.806487299999983,0 -106.4425379,31.80559369999998,0 -106.4423865,31.804330099999984,0 -106.4416211,31.801222899999985,0 -106.4415457,31.801101199999987,0 -106.4413179,31.800057599999985,0 -106.4412352,31.798945799999984,0 -106.44135990000001,31.781347699999984,0 -106.44143340000001,31.781226499999985,0 -106.44159970000001,31.780267699999985,0 -106.44191380000001,31.779312399999988,0 -106.44196110000001,31.779002699999992,0 -106.44196200000002,31.77878289999999,0 -106.44192690000003,31.778559199999986,0 -106.44185310000002,31.778340399999987,0 -106.44169230000001,31.778041499999986,0 -106.44153040000002,31.77782349999999,0 -106.44131170000003,31.77759669999999,0 -106.44092870000003,31.777304699999995,0 -106.44055060000002,31.777101399999992,0 -106.4402531,31.776988799999994,0 -106.43975230000001,31.776873099999996,0 -106.43937740000001,31.776841199999993,0 -106.43858760000002,31.776853799999998,0 -106.43789490000002,31.776931899999997,0 -106.43719950000002,31.777072499999996,0 -106.43656890000001,31.777160799999994,0 -106.43298190000002,31.777294499999996,0 -106.43272560000003,31.777355399999998,0 -106.42365410000002,31.7773057,0 -106.42264040000002,31.7773938,0 -106.42188390000001,31.777556200000003,0 -106.42131260000002,31.777736,0 -106.42094310000002,31.7778843,0 -106.42018190000002,31.778270099999997,0 -106.41646280000002,31.7805524,0 -106.41579370000002,31.7809209,0 -106.41549500000002,31.781047200000003,0 -106.41471740000001,31.781312200000002,0 -106.41385430000001,31.7814925,0 -106.41297170000001,31.78156,0 -106.41239090000002,31.7815461,0 -106.4097047,31.7813052,0 -106.40921010000001,31.781288399999998,0 -106.4085811,31.781310599999998,0 -106.4031818,31.782059399999998,0 -106.4024555,31.7821244,0 -106.40195779999999,31.782129600000005,0 -106.40129139999999,31.7820803,0 -106.4007862,31.782002100000003,0 -106.40023469999998,31.781870600000005,0 -106.39957989999999,31.781646600000002,0 -106.3723814,31.769111100000003,0 -106.37121549999999,31.768493000000003,0 -106.33118520000001,31.743775700000004,0 -106.3310988,31.743707200000006,0 -106.330292,31.743202900000007,0 -106.3302101,31.743078000000004,0 -106.32620630000001,31.740301800000008,0 -106.32502570000001,31.739411200000006,0 -106.3239207,31.740707000000008,0 -106.3232943,31.74116660000001,0 -106.32306870000001,31.741371800000007,0 -106.3226226,31.741892300000004,0 -106.3217178,31.741410400000003,0 -106.3190716,31.740344200000006,0 -106.315839,31.738517000000005,0 -106.31670600000001,31.73741400000001,0 -106.317027,31.73708000000001,0 -106.319504,31.73517700000001,0 -106.3212645,31.736865200000008,0 </coordinates></LineString><TimeSpan><begin>2022-05-29T17:33:50.999Z</begin><end>2022-05-29T17:52:13.000Z</end></TimeSpan></Placemark><Placemark><name>Desert Oak Barbecue</name><address>11411 Gateway Blvd W, El Paso, TX 79936</address><ExtendedData><Data name="Email"><value>syugen.zhou@gmail.com</value></Data><Data name="Category"><value>Barbecue</value></Data><Data name="Distance"><value>0</value></Data></ExtendedData><description> Barbecue from 2022-05-29T17:52:13.000Z to 2022-05-29T18:58:11.000Z. Distance 0m </description><Point><coordinates>-106.3206974,31.7369925,0</coordinates></Point><TimeSpan><begin>2022-05-29T17:52:13.000Z</begin><end>2022-05-29T18:58:11.000Z</end></TimeSpan></Placemark><Placemark><name>Driving</name><address></address><ExtendedData><Data name="Email"><value>syugen.zhou@gmail.com</value></Data><Data name="Category"><value>Driving</value></Data><Data name="Distance"><value>117637</value></Data></ExtendedData><description> Driving from 2022-05-29T18:58:11.999Z to 2022-05-29T19:56:54.000Z. Distance 117637m </description><LineString><altitudeMode>clampToGround</altitudeMode><extrude>1</extrude><tesselate>1</tesselate><coordinates>-106.32091369999999,31.7368996,0 -106.3214582,31.737417999999998,0 -106.3214895,31.7374253,0 -106.3215663,31.7374084,0 -106.3217094,31.7373024,0 -106.3235879,31.7391155,0 -106.32371200000001,31.739219300000002,0 -106.32425530000002,31.7397657,0 -106.32435290000002,31.739878700000002,0 -106.32451810000002,31.740019600000004,0 -106.32462910000002,31.740134400000002,0 -106.32489330000001,31.740294600000002,0 -106.32592100000002,31.741000200000002,0 -106.32621630000003,31.741173900000003,0 -106.32634560000001,31.741209100000006,0 -106.32804140000002,31.742104100000006,0 -106.32874940000002,31.742541400000004,0 -106.32902110000002,31.742611900000004,0 -106.37106980000003,31.7686411,0 -106.37209090000003,31.7691894,0 -106.39907700000002,31.781646499999997,0 -106.39976000000003,31.7819203,0 -106.40033870000003,31.7820948,0 -106.40059220000003,31.782156000000004,0 -106.40120890000003,31.782262200000005,0 -106.40168210000003,31.782304900000003,0 -106.40233060000003,31.782317800000005,0 -106.40286290000002,31.782284500000003,0 -106.40696560000002,31.7817136,0 -106.40696780000002,31.7817145,0 -106.40836140000002,31.7815224,0 -106.40868150000003,31.7814933,0 -106.40909560000001,31.7814768,0 -106.40972700000002,31.7814996,0 -106.41191320000003,31.7817034,0 -106.41276480000003,31.781753300000005,0 -106.41331280000003,31.78174020000001,0 -106.41397720000003,31.78167000000001,0 -106.41449930000003,31.78157070000001,0 -106.41501250000003,31.78142930000001,0 -106.41552540000002,31.781246400000008,0 -106.41579820000003,31.781130800000007,0 -106.41632450000003,31.780863200000006,0 -106.41700890000003,31.780456600000004,0 -106.41702170000003,31.7804529,0 -106.42000780000004,31.778615500000004,0 -106.42065440000003,31.778250100000008,0 -106.42111150000002,31.778036200000006,0 -106.42146570000003,31.777899500000004,0 -106.42195950000003,31.777747000000005,0 -106.42245720000003,31.777631900000003,0 -106.42282740000002,31.777571100000007,0 -106.42334730000002,31.777520100000007,0 -106.42386650000002,31.77750220000001,0 -106.44626410000002,31.777616700000014,0 -106.44723660000002,31.77767390000001,0 -106.44785430000002,31.777746400000012,0 -106.44996700000002,31.778076700000014,0 -106.45064320000002,31.778149100000014,0 -106.45162800000001,31.778198300000014,0 -106.46130150000002,31.77825550000001,0 -106.46208160000003,31.77822780000001,0 -106.46251430000002,31.778187100000007,0 -106.46290780000004,31.778126300000007,0 -106.46342970000003,31.77801110000001,0 -106.46409480000003,31.777799800000007,0 -106.46419680000002,31.77778110000001,0 -106.46475940000002,31.77752710000001,0 -106.46518330000002,31.77729970000001,0 -106.48285460000002,31.765962300000016,0 -106.48331780000001,31.765640700000016,0 -106.48427980000001,31.765044700000015,0 -106.484621,31.764876600000015,0 -106.48471930000001,31.764810600000015,0 -106.4851877,31.764626500000013,0 -106.485524,31.76452300000001,0 -106.4859082,31.764429700000015,0 -106.4879605,31.76406840000001,0 -106.48845580000001,31.76393600000001,0 -106.48900520000001,31.76372410000001,0 -106.48937140000001,31.763548500000013,0 -106.48976930000002,31.76333130000001,0 -106.49495800000001,31.760005400000015,0 -106.49544760000002,31.759726600000015,0 -106.49604540000001,31.759459200000016,0 -106.49635050000002,31.759352700000015,0 -106.49719720000002,31.759144900000013,0 -106.49777770000001,31.759057600000013,0 -106.49845010000001,31.759016100000014,0 -106.49892110000002,31.759025300000015,0 -106.49967790000002,31.759105100000017,0 -106.50018500000002,31.759191900000015,0 -106.50097860000002,31.75937860000002,0 -106.50145380000004,31.75952300000002,0 -106.50202760000003,31.759749500000016,0 -106.50238910000003,31.759925600000017,0 -106.50270030000004,31.760103000000015,0 -106.50308400000003,31.760356500000015,0 -106.50336300000004,31.760570000000012,0 -106.50372640000003,31.76089150000001,0 -106.50415320000003,31.76135330000001,0 -106.50626670000003,31.76401520000001,0 -106.50670700000003,31.764618000000013,0 -106.50890890000002,31.768132100000013,0 -106.51020610000003,31.77001710000001,0 -106.51063910000002,31.77057840000001,0 -106.51165170000002,31.77168450000001,0 -106.51336030000002,31.77327110000001,0 -106.51373330000001,31.773657500000006,0 -106.51445610000002,31.774515600000004,0 -106.51498830000001,31.775265400000006,0 -106.5161812,31.777147700000004,0 -106.5166566,31.7780215,0 -106.516925,31.7786067,0 -106.51723940000001,31.779435100000004,0 -106.5175114,31.780390600000004,0 -106.5195699,31.7912156,0 -106.51966970000001,31.791883300000002,0 -106.5197373,31.7928377,0 -106.5196614,31.798139000000003,0 -106.5196844,31.7986721,0 -106.5197556,31.7993891,0 -106.51983,31.7998577,0 -106.51999620000001,31.800629499999996,0 -106.520155,31.801191999999993,0 -106.5204066,31.801917299999992,0 -106.52184550000001,31.80510499999999,0 -106.5221387,31.805679299999987,0 -106.5225947,31.806401299999987,0 -106.5228365,31.806717699999986,0 -106.5231334,31.807060399999987,0 -106.5234331,31.80735839999999,0 -106.523831,31.807703399999994,0 -106.52432139999999,31.808068699999993,0 -106.52492989999999,31.808441099999992,0 -106.5256946,31.80880849999999,0 -106.5264105,31.80906929999999,0 -106.52693099999999,31.80921399999999,0 -106.5274252,31.80931849999999,0 -106.5279223,31.809392999999993,0 -106.5285688,31.80945349999999,0 -106.5294486,31.80948299999999,0 -106.54110579999998,31.80952009999999,0 -106.54167139999998,31.809564099999992,0 -106.54211409999999,31.80961949999999,0 -106.54259059999998,31.80970949999999,0 -106.54327669999999,31.809905299999986,0 -106.54379329999999,31.81010199999999,0 -106.5441456,31.81026859999999,0 -106.54477389999998,31.810627599999993,0 -106.54540329999999,31.811112099999992,0 -106.54557809999999,31.811270399999994,0 -106.56623829999998,31.832227899999992,0 -106.56631119999997,31.832284599999998,0 -106.56726209999998,31.833274199999995,0 -106.56774369999998,31.833860099999992,0 -106.56807419999997,31.834323499999996,0 -106.56843829999997,31.834911999999992,0 -106.56868869999998,31.835399099999997,0 -106.56904549999997,31.836236199999995,0 -106.57276189999997,31.8463343,0 -106.57303239999999,31.8472633,0 -106.58251149999998,31.8859636,0 -106.58258349999998,31.886403499999997,0 -106.58267549999998,31.887263799999996,0 -106.58270229999998,31.887802899999993,0 -106.58266509999997,31.975542499999992,0 -106.58263919999997,31.976089299999988,0 -106.58266409999997,32.00905829999999,0 -106.58278839999997,32.01039709999999,0 -106.58287789999997,32.01094829999999,0 -106.58319509999997,32.012304599999986,0 -106.58341439999997,32.01299659999999,0 -106.58373089999996,32.01383359999999,0 -106.60116999999997,32.05354529999999,0 -106.60493029999996,32.06074549999999,0 -106.60621879999998,32.063501299999984,0 -106.60626139999998,32.06356659999999,0 -106.60789289999998,32.06669019999999,0 -106.60792159999997,32.06676739999999,0 -106.64944659999996,32.145431999999985,0 -106.65038259999997,32.14701849999999,0 -106.65112329999997,32.148128099999994,0 -106.72771579999996,32.254785199999986,0 -106.72770149999997,32.254923199999986,0 -106.72796269999996,32.25536859999999,0 -106.72846369999995,32.25633889999999,0 -106.72890379999994,32.25737249999999,0 -106.73988589999995,32.29112059999999,0 -106.73994369999996,32.29134419999999,0 -106.74799329999995,32.31616769999999,0 -106.74829119999994,32.31690439999999,0 -106.74869939999995,32.31775919999999,0 -106.74919429999996,32.318645799999985,0 -106.74951639999995,32.31914909999998,0 -106.77655469999995,32.35812389999999,0 -106.77718989999994,32.358969299999984,0 -106.77772029999994,32.359593099999984,0 -106.81370319999994,32.39643899999999,0 -106.81449569999994,32.397305899999985,0 -106.81539539999994,32.398377799999984,0 -106.81651499999994,32.399860899999986,0 -106.82032799999995,32.40549399999999,0 -106.82103999999995,32.40648379999999,0 -106.82195609999994,32.40764939999999,0 -106.82263209999995,32.40844179999999,0 -106.82393689999994,32.40983419999999,0 -106.82513999999993,32.410993699999985,0 -106.82602199999994,32.41177279999999,0 -106.82945039999994,32.41460379999999,0 -106.82955689999994,32.414703899999985,0 -106.85770249999995,32.437891999999984,0 -106.85936199999993,32.439312999999984,0 -106.87083339999995,32.448745899999984,0 -106.87163269999995,32.44948239999999,0 -106.87228469999994,32.450161399999985,0 -106.87281819999994,32.45078019999999,0 -106.87337579999993,32.45150899999999,0 -106.89771209999994,32.48570059999999,0 -106.89828129999994,32.48657399999998,0 -106.89882149999994,32.48756749999998,0 -106.89927859999993,32.48858909999998,0 -106.89958469999993,32.48942629999998,0 -106.91239649999994,32.532654099999974,0 -106.91285789999993,32.53401829999998,0 -106.91330499999992,32.53515899999998,0 -106.91419289999993,32.53708609999998,0 -106.92012889999992,32.54848379999998,0 -106.92010609999993,32.54854229999999,0 -106.92010349999993,32.54856539999998,0 -106.92064639999992,32.55020129999998,0 -106.92094149999993,32.550808899999986,0 </coordinates></LineString><TimeSpan><begin>2022-05-29T18:58:11.999Z</begin><end>2022-05-29T19:56:54.000Z</end></TimeSpan></Placemark><Placemark><name>Rest Area Northbound</name><address>Las Cruces, NM 88007</address><ExtendedData><Data name="Email"><value>syugen.zhou@gmail.com</value></Data><Data name="Category"><value>Rest stop</value></Data><Data name="Distance"><value>0</value></Data></ExtendedData><description> Rest stop from 2022-05-29T19:56:54.000Z to 2022-05-29T20:08:17.999Z. Distance 0m </description><Point><coordinates>-106.92050499999999,32.550661,0</coordinates></Point><TimeSpan><begin>2022-05-29T19:56:54.000Z</begin><end>2022-05-29T20:08:17.999Z</end></TimeSpan></Placemark><Placemark><name>Driving</name><address></address><ExtendedData><Data name="Email"><value>syugen.zhou@gmail.com</value></Data><Data name="Category"><value>Driving</value></Data><Data name="Distance"><value>85746</value></Data></ExtendedData><description> Driving from 2022-05-29T20:08:17.999Z to 2022-05-29T20:48:39.000Z. Distance 85746m </description><LineString><altitudeMode>clampToGround</altitudeMode><extrude>1</extrude><tesselate>1</tesselate><coordinates>-106.9209415,32.5508089,0 -106.92118919999999,32.551321200000004,0 -106.9223892,32.55296980000001,0 -106.92241039999999,32.55298330000001,0 -106.9224926,32.552999400000004,0 -106.9582295,32.621430700000005,0 -106.9594375,32.6234714,0 -106.9606265,32.6251619,0 -106.962223,32.627138099999996,0 -107.0006708,32.666465699999996,0 -107.0015476,32.66726439999999,0 -107.0029993,32.6683677,0 -107.00413079999998,32.669083099999995,0 -107.0053727,32.66974739999999,0 -107.00659739999999,32.67029899999999,0 -107.0081415,32.67086239999999,0 -107.00887459999998,32.671083499999995,0 -107.0103425,32.6714407,0 -107.0116305,32.6716688,0 -107.0129168,32.671816199999995,0 -107.0138375,32.6718766,0 -107.03340779999999,32.6724208,0 -107.0350345,32.672508799999996,0 -107.03800229999999,32.6728282,0 -107.0660528,32.6776364,0 -107.06760159999999,32.6778195,0 -107.06870219999999,32.6778826,0 -107.07040789999998,32.6778761,0 -107.09807709999998,32.6760934,0 -107.10044899999998,32.6760715,0 -107.10174719999999,32.6761428,0 -107.10393959999998,32.676393299999994,0 -107.14018139999999,32.682507699999995,0 -107.1412106,32.6826441,0 -107.15948319999998,32.6841131,0 -107.17466189999999,32.6864947,0 -107.17557739999998,32.6867002,0 -107.17622289999998,32.686892799999995,0 -107.17692919999998,32.6871644,0 -107.17761449999998,32.687485,0 -107.17799869999997,32.6876966,0 -107.17876529999998,32.6881864,0 -107.17922789999997,32.6885422,0 -107.18000759999998,32.689261200000004,0 -107.18700349999999,32.6971674,0 -107.18856179999997,32.6991794,0 -107.20310459999997,32.720635,0 -107.20443469999998,32.7224074,0 -107.20565329999998,32.723835,0 -107.23139469999997,32.7493773,0 -107.23326429999997,32.751472699999994,0 -107.23409299999997,32.7525353,0 -107.24173109999997,32.763250199999995,0 -107.24290749999997,32.764714399999995,0 -107.24384169999996,32.7657692,0 -107.24494779999996,32.7669092,0 -107.26694349999995,32.78748469999999,0 -107.27793059999995,32.79698689999999,0 -107.27875819999996,32.797607799999994,0 -107.28070189999994,32.79891739999999,0 -107.28133299999995,32.79939409999999,0 -107.28189309999995,32.79989279999999,0 -107.28244879999995,32.800460099999995,0 -107.28297439999994,32.80108209999999,0 -107.28351459999996,32.80183509999999,0 -107.28393109999996,32.8025421,0 -107.28425649999997,32.803207799999996,0 -107.28600549999996,32.80755459999999,0 -107.28688219999997,32.80939339999999,0 -107.28807659999997,32.81157189999999,0 -107.28858579999996,32.81269619999999,0 -107.28883399999997,32.81340299999999,0 -107.28901799999997,32.814068299999995,0 -107.28917179999996,32.8148212,0 -107.28925739999997,32.815472199999995,0 -107.28931089999996,32.816348199999986,0 -107.28877979999997,32.83798299999999,0 -107.28713719999996,32.85243789999999,0 -107.28707759999996,32.85354569999999,0 -107.28710339999996,32.854527399999995,0 -107.28727769999996,32.85599299999999,0 -107.28764699999996,32.85754479999999,0 -107.29274199999996,32.8730317,0 -107.29318929999997,32.8741676,0 -107.29363279999995,32.8750744,0 -107.29420579999996,32.876058900000004,0 -107.29519259999996,32.8774402,0 -107.31600079999996,32.9005026,0 -107.31689009999995,32.9017171,0 -107.31741039999996,32.9026046,0 -107.31792859999996,32.9037309,0 -107.31825559999994,32.9046763,0 -107.31848939999995,32.9055923,0 -107.31860909999995,32.9062798,0 -107.31867829999995,32.907169,0 -107.31882389999996,32.92334400000001,0 -107.31879639999995,32.923917,0 -107.31856159999995,32.925612,0 -107.31489329999994,32.941216000000004,0 -107.31472319999995,32.94254110000001,0 -107.31470039999994,32.944089700000006,0 -107.31548159999994,32.95832710000001,0 -107.31540179999995,32.96053230000001,0 -107.31290349999995,32.98163460000001,0 -107.31290199999994,32.98243080000001,0 -107.31299699999994,32.98351470000001,0 -107.31313089999993,32.98429340000001,0 -107.31356009999993,32.98578830000001,0 -107.31487779999993,32.989185600000006,0 -107.31499089999993,32.98959430000001,0 -107.31762699999993,32.996498200000005,0 -107.31796809999993,32.997570700000004,0 -107.31829599999993,32.9992079,0 -107.31840969999993,33.0006685,0 -107.31839239999994,33.001651200000005,0 -107.31827669999994,33.00282300000001,0 -107.31169989999994,33.041998500000005,0 -107.30952609999993,33.05086320000001,0 -107.30932749999994,33.05194920000001,0 -107.30923049999994,33.052827600000015,0 -107.30714809999994,33.09009620000001,0 -107.30693579999993,33.09139200000002,0 -107.30665919999993,33.092478800000016,0 -107.30641129999992,33.09322890000002,0 -107.29921259999993,33.110887900000016,0 -107.29884289999994,33.112131200000015,0 -107.29864939999993,33.11303080000001,0 -107.29800109999994,33.11745530000002,0 -107.29772569999994,33.11851580000002,0 -107.29749639999994,33.11909780000001,0 -107.29692509999994,33.120136400000014,0 -107.29636489999994,33.12087970000001,0 -107.29578669999994,33.12149450000001,0 -107.29517429999994,33.12202720000001,0 -107.29446399999995,33.12254470000001,0 -107.27505019999994,33.13489420000001,0 -107.27373739999994,33.13580360000002,0 -107.25592799999994,33.14928580000001,0 -107.25516219999993,33.15001990000001,0 -107.25456439999994,33.15075110000001,0 -107.25403989999992,33.15157690000001,0 -107.25365519999993,33.15241000000001,0 -107.25344419999993,33.15303270000001,0 -107.25331909999994,33.153532100000014,0 -107.25321489999993,33.15421790000001,0 -107.25315169999993,33.15428730000001,0 -107.25311939999993,33.15436860000001,0 -107.25288279999992,33.15542220000001,0 -107.25280889999992,33.15564480000001,0 -107.25243309999992,33.15640220000001,0 -107.25231819999992,33.156719900000006,0 -107.25225279999992,33.15684110000001,0 -107.25218379999993,33.15690400000001,0 -107.25205109999992,33.15696100000001,0 -107.25184179999992,33.15700440000001,0 -107.25150559999992,33.15688430000001,0 -107.25095199999991,33.15662670000001,0 -107.25052989999992,33.15635190000002,0 -107.24936099999991,33.155335100000016,0 -107.24950659999992,33.15523010000002,0 </coordinates></LineString><TimeSpan><begin>2022-05-29T20:08:17.999Z</begin><end>2022-05-29T20:48:39.000Z</end></TimeSpan></Placemark><Placemark><name>Chevron</name><address>2200 N Date St, Truth or Consequences, NM 87901</address><ExtendedData><Data name="Email"><value>syugen.zhou@gmail.com</value></Data><Data name="Category"><value>Gas station</value></Data><Data name="Distance"><value>0</value></Data></ExtendedData><description> Gas station from 2022-05-29T20:48:39.000Z to 2022-05-29T20:58:57.000Z. Distance 0m </description><Point><coordinates>-107.24923059999999,33.154908299999995,0</coordinates></Point><TimeSpan><begin>2022-05-29T20:48:39.000Z</begin><end>2022-05-29T20:58:57.000Z</end></TimeSpan></Placemark><Placemark><name>Driving</name><address></address><ExtendedData><Data name="Email"><value>syugen.zhou@gmail.com</value></Data><Data name="Category"><value>Driving</value></Data><Data name="Distance"><value>238686</value></Data></ExtendedData><description> Driving from 2022-05-29T20:58:57.000Z to 2022-05-29T22:52:51.835Z. Distance 238686m </description><LineString><altitudeMode>clampToGround</altitudeMode><extrude>1</extrude><tesselate>1</tesselate><coordinates>-107.2495421,33.1552046,0 -107.2492432,33.1554286,0 -107.25040680000001,33.156435,0 -107.2505598,33.1566171,0 -107.2509473,33.1569944,0 -107.2512533,33.157328099999994,0 -107.2517218,33.157919299999996,0 -107.2522026,33.158626899999994,0 -107.2525744,33.159301199999994,0 -107.2526996,33.15960619999999,0 -107.25288079999999,33.1601383,0 -107.25295249999999,33.160414599999996,0 -107.25303709999999,33.16086779999999,0 -107.25309539999999,33.16135659999999,0 -107.25315769999999,33.16146069999999,0 -107.25305179999998,33.19414509999999,0 -107.25309619999999,33.19497609999999,0 -107.25323469999998,33.19625279999999,0 -107.25515879999998,33.207494299999986,0 -107.25522989999997,33.208199399999984,0 -107.25597359999998,33.22242469999998,0 -107.25606399999998,33.22312359999998,0 -107.25620379999998,33.22386019999998,0 -107.25644479999997,33.22479809999999,0 -107.26241909999997,33.243443099999986,0 -107.26258619999997,33.24405269999998,0 -107.26361659999998,33.24725239999999,0 -107.26370319999998,33.247481399999984,0 -107.27451609999997,33.28119799999998,0 -107.27477089999996,33.28181269999998,0 -107.27507139999997,33.28242689999998,0 -107.27534409999998,33.282915199999984,0 -107.27584479999999,33.28369809999999,0 -107.27629379999998,33.28431219999999,0 -107.27685029999998,33.28497149999998,0 -107.27715849999998,33.285300099999986,0 -107.27768189999998,33.28580699999999,0 -107.28671469999998,33.29388369999999,0 -107.28726789999997,33.29441939999999,0 -107.28761199999997,33.294805199999985,0 -107.28794889999996,33.295249699999985,0 -107.28817679999996,33.295589499999984,0 -107.28840429999995,33.295972099999986,0 -107.28860879999995,33.29638339999999,0 -107.28889339999996,33.29708599999999,0 -107.28907839999997,33.297724699999996,0 -107.28962669999996,33.300494799999996,0 -107.28985719999996,33.301349800000004,0 -107.29014199999996,33.3021962,0 -107.29038729999995,33.3028006,0 -107.29121419999996,33.3045877,0 -107.29132339999995,33.3048577,0 -107.29147259999995,33.3052911,0 -107.29155819999995,33.3055983,0 -107.29167919999995,33.3061523,0 -107.29174319999994,33.3065897,0 -107.29179259999994,33.307233000000004,0 -107.29177689999993,33.3079733,0 -107.29111889999994,33.313914200000006,0 -107.29109969999995,33.3145747,0 -107.29111039999995,33.3149523,0 -107.29114829999995,33.3154399,0 -107.29122019999994,33.315970500000006,0 -107.29140409999994,33.3168244,0 -107.29162949999994,33.31755750000001,0 -107.29187339999994,33.318172100000005,0 -107.29205539999994,33.3185688,0 -107.29232059999994,33.3190697,0 -107.29255379999994,33.3194605,0 -107.29289329999993,33.3199728,0 -107.29442809999995,33.3219158,0 -107.29468989999994,33.3222759,0 -107.29498689999994,33.322765,0 -107.29518329999995,33.3231647,0 -107.29531069999994,33.3234778,0 -107.29543949999994,33.323869699999996,0 -107.29552719999995,33.3242109,0 -107.29562199999995,33.324790400000005,0 -107.29565139999995,33.3252795,0 -107.29562789999994,33.3258284,0 -107.29557399999995,33.32622799999999,0 -107.29550489999994,33.3265688,0 -107.29533829999995,33.32713759999999,0 -107.25581059999995,33.4176381,0 -107.25579939999996,33.417724,0 -107.24772189999995,33.435866999999995,0 -107.24729249999996,33.436673299999995,0 -107.24681129999995,33.43744889999999,0 -107.24620339999994,33.43830409999999,0 -107.24382459999995,33.44119039999999,0 -107.24375479999995,33.441260699999994,0 -107.23437909999996,33.45254349999999,0 -107.23392809999996,33.45311579999999,0 -107.23347799999996,33.45375049999999,0 -107.23299759999996,33.454506899999984,0 -107.18604359999996,33.543303499999986,0 -107.18427939999997,33.54642579999998,0 -107.15115019999996,33.608974599999975,0 -107.15050809999995,33.610058799999976,0 -107.14994499999996,33.610854299999986,0 -107.14935829999996,33.61159189999998,0 -107.14871029999996,33.612314699999985,0 -107.14803609999996,33.61298049999998,0 -107.09893749999995,33.65566969999998,0 -107.09683569999996,33.65730709999998,0 -107.08982219999996,33.66224279999999,0 -107.08932539999996,33.662620199999985,0 -107.08851859999996,33.663307899999985,0 -107.06052869999995,33.690285999999986,0 -107.04808559999995,33.70206469999998,0 -107.04799859999996,33.702126499999984,0 -107.04070749999995,33.709039699999984,0 -107.01889789999996,33.73003229999999,0 -107.01744649999995,33.73147569999998,0 -106.93543839999995,33.81691309999999,0 -106.93525589999996,33.817062599999986,0 -106.92857179999996,33.82402239999999,0 -106.92787679999996,33.82480229999999,0 -106.92744099999996,33.82534739999999,0 -106.92683289999997,33.8262101,0 -106.92629739999995,33.827082,0 -106.90398039999995,33.8702075,0 -106.90034089999996,33.8770963,0 -106.89891239999996,33.8799559,0 -106.87947589999996,33.9175721,0 -106.87928189999995,33.917986299999995,0 -106.87910509999995,33.91842569999999,0 -106.87889999999996,33.919064999999996,0 -106.87878569999995,33.91955169999999,0 -106.87869539999996,33.92005529999999,0 -106.87864579999994,33.92051879999999,0 -106.87862729999995,33.92094219999999,0 -106.87863079999995,33.92144429999998,0 -106.87866429999995,33.92192889999998,0 -106.87872459999996,33.92236949999999,0 -106.89125589999996,33.97989659999999,0 -106.89155019999995,33.98153029999999,0 -106.89478329999996,34.002481999999986,0 -106.89486049999995,34.003171399999985,0 -106.89495159999996,34.004358899999986,0 -106.89498079999994,34.00514729999998,0 -106.89498259999995,34.00624029999999,0 -106.89407719999996,34.02151609999999,0 -106.89395859999996,34.022822099999985,0 -106.89381729999995,34.02383989999999,0 -106.89353849999995,34.025324499999996,0 -106.89316569999994,34.0268373,0 -106.88850179999996,34.043307299999995,0 -106.88824009999995,34.04438569999999,0 -106.88797149999995,34.04574919999999,0 -106.88783289999995,34.046648799999986,0 -106.88710109999995,34.05312099999999,0 -106.88705019999995,34.053791199999985,0 -106.88703739999994,34.05444869999999,0 -106.88705039999995,34.05508419999998,0 -106.88709689999995,34.055729699999986,0 -106.88851259999994,34.066436299999985,0 -106.88869749999995,34.06729949999998,0 -106.88884259999995,34.067831699999985,0 -106.88910519999995,34.06864219999998,0 -106.88931099999995,34.06917499999998,0 -106.88961589999995,34.06986939999998,0 -106.88983419999995,34.070312999999985,0 -106.89386089999995,34.077569699999984,0 -106.89428589999996,34.07840799999998,0 -106.89467589999995,34.07931889999998,0 -106.89496979999996,34.08016209999998,0 -106.89515459999996,34.08081149999998,0 -106.90181599999994,34.10782659999998,0 -106.90889439999995,34.131529899999975,0 -106.91823359999995,34.15894349999998,0 -106.91851859999994,34.160025999999974,0 -106.92459309999994,34.18998499999998,0 -106.92471929999994,34.19086169999998,0 -106.92478579999994,34.19165669999998,0 -106.92480139999994,34.19241849999998,0 -106.92468169999994,34.206031299999985,0 -106.92465049999993,34.20681029999999,0 -106.92455309999993,34.208128299999984,0 -106.92447949999993,34.20878719999999,0 -106.92426239999993,34.21019039999999,0 -106.92404719999992,34.21128909999999,0 -106.92389329999992,34.21193969999999,0 -106.92355829999991,34.21311069999999,0 -106.92317649999991,34.21427529999998,0 -106.88782269999992,34.31010819999999,0 -106.88058239999992,34.327629499999986,0 -106.88014109999992,34.32883169999999,0 -106.87964629999992,34.33044859999999,0 -106.87934209999992,34.3316727,0 -106.87912869999992,34.3327318,0 -106.87544559999992,34.355898599999996,0 -106.87520779999991,34.3570923,0 -106.87504889999992,34.357763,0 -106.87464559999992,34.35921259999999,0 -106.87441809999993,34.35991539999999,0 -106.87407989999993,34.360850899999996,0 -106.87353979999993,34.362158199999996,0 -106.87290409999993,34.3635052,0 -106.87258939999992,34.3641072,0 -106.85305979999994,34.398825200000005,0 -106.85212899999993,34.400377500000005,0 -106.85143149999995,34.4014108,0 -106.83430989999994,34.424183600000006,0 -106.83389539999995,34.424768400000005,0 -106.83346209999995,34.425449,0 -106.83301859999995,34.4262455,0 -106.83276949999994,34.4267558,0 -106.83245679999995,34.4274846,0 -106.83218429999995,34.4282222,0 -106.79838919999995,34.5412126,0 -106.79822259999995,34.54186010000001,0 -106.79801869999996,34.54282630000001,0 -106.78269459999996,34.627662900000004,0 -106.78263769999995,34.628098400000006,0 -106.78258099999995,34.62879280000001,0 -106.78257089999995,34.62994950000001,0 -106.78258779999996,34.63003770000001,0 -106.78259039999995,34.63012150000001,0 -106.78260159999995,34.6301922,0 -106.78259569999996,34.630346900000006,0 -106.78276099999995,34.63161670000001,0 -106.78288959999995,34.63225780000001,0 -106.78319059999994,34.63339420000001,0 -106.78332009999994,34.633771100000004,0 -106.78396379999994,34.63530100000001,0 -106.78446369999993,34.63626550000001,0 -106.78501879999993,34.6371491,0 -106.78547819999994,34.63779280000001,0 -106.79019169999994,34.643784200000006,0 -106.79067569999994,34.644440200000005,0 -106.79141239999994,34.645507300000006,0 -106.79206619999994,34.6465491,0 -106.79240739999993,34.6471358,0 -106.79314919999993,34.6485431,0 -106.79394559999993,34.6502872,0 -106.79443919999993,34.6515097,0 -106.79490169999993,34.6529748,0 -106.79642979999991,34.6587192,0 -106.79659079999992,34.6594629,0 -106.79668939999992,34.660202500000004,0 -106.79678379999991,34.66131330000001,0 -106.79677359999992,34.6623888,0 -106.79676579999992,34.66242460000001,0 -106.79668129999992,34.66346730000001,0 -106.79643879999992,34.665558600000004,0 -106.79633269999992,34.66678600000001,0 -106.79597279999992,34.669931000000005,0 -106.79596989999992,34.670015500000005,0 -106.79590039999992,34.670520700000004,0 -106.79572259999992,34.67232140000001,0 -106.79564319999993,34.67287870000001,0 -106.79558109999992,34.67365120000001,0 -106.79539129999992,34.67522560000001,0 -106.79521359999993,34.67729500000001,0 -106.79495619999992,34.67929270000001,0 -106.79450279999992,34.68360750000001,0 -106.79440439999992,34.68430390000001,0 -106.79383819999993,34.689899300000015,0 -106.79329319999992,34.694381600000014,0 -106.79311189999993,34.69624440000001,0 -106.79305779999993,34.696590000000015,0 -106.79286329999992,34.69837900000001,0 -106.79250679999993,34.700865600000014,0 -106.79211839999994,34.702852700000015,0 -106.78871459999992,34.71786670000001,0 -106.78803019999992,34.72138510000001,0 -106.78767469999993,34.72393500000002,0 -106.78747319999992,34.725988000000015,0 -106.78733169999992,34.729724400000016,0 -106.78729059999993,34.73634850000002,0 -106.78723989999993,34.73807810000002,0 -106.78727089999992,34.73925580000002,0 -106.78719299999992,34.74180060000001,0 -106.78711329999992,34.748923800000014,0 -106.78700089999991,34.750408100000016,0 -106.78691319999992,34.75115390000002,0 -106.78674909999991,34.752113700000024,0 -106.78652139999991,34.75306610000003,0 -106.78639029999992,34.753728000000024,0 -106.78581529999992,34.755926700000025,0 -106.78560249999992,34.75657880000002,0 -106.78524899999992,34.75753100000002,0 -106.78274889999993,34.76343680000002,0 -106.78234069999992,34.76432510000002,0 -106.77382659999992,34.784226900000014,0 -106.77345569999991,34.78515460000002,0 -106.76220789999992,34.81138570000002,0 -106.76218079999991,34.81151670000002,0 -106.75223429999991,34.83477770000002,0 -106.7515738999999,34.836420400000016,0 -106.74937679999991,34.84268210000002,0 -106.74899089999991,34.84362260000002,0 -106.74742809999991,34.847021800000014,0 -106.7466781999999,34.84853190000002,0 -106.73011439999989,34.87860630000002,0 -106.7296661999999,34.87950730000002,0 -106.72948239999991,34.87992150000002,0 -106.7290490999999,34.88104440000002,0 -106.72861489999991,34.88230070000002,0 -106.72817809999991,34.88369340000002,0 -106.72779869999991,34.88517600000002,0 -106.7276111999999,34.88614370000002,0 -106.72746049999989,34.887117900000014,0 -106.7265473999999,34.89416390000002,0 -106.72613339999991,34.896345400000016,0 -106.7258132999999,34.89783970000001,0 -106.7250187999999,34.900696900000014,0 -106.7250136999999,34.90079880000001,0 -106.7217059999999,34.91267110000001,0 -106.7215673999999,34.91323440000001,0 -106.7173098999999,34.92842430000001,0 -106.7170756999999,34.92906850000001,0 -106.7167247999999,34.929900100000005,0 -106.7165252999999,34.93031860000001,0 -106.71608599999989,34.9311268,0 -106.71566119999989,34.931814900000006,0 -106.7151252999999,34.9325765,0 -106.71475579999989,34.933047300000005,0 -106.7137955999999,34.93412450000001,0 -106.7131838999999,34.93473680000001,0 -106.7128280999999,34.93505890000001,0 -106.71167679999989,34.935992600000006,0 -106.7060910999999,34.940290700000006,0 -106.70535369999989,34.94090550000001,0 -106.70434569999989,34.941802900000006,0 -106.70355859999988,34.94255840000001,0 -106.70285159999989,34.9432753,0 -106.70094209999988,34.945352500000006,0 -106.70049349999988,34.94577460000001,0 -106.70012699999988,34.946071,0 -106.69979999999988,34.9463129,0 -106.69922519999989,34.946696,0 -106.6985559999999,34.947065800000004,0 -106.6982076999999,34.947233000000004,0 -106.6976214999999,34.9474742,0 -106.6972460999999,34.947607000000005,0 -106.6967151999999,34.947763200000004,0 -106.69649759999989,34.94784980000001,0 -106.69583769999988,34.94799010000001,0 -106.69518849999989,34.94809790000001,0 -106.6822353999999,34.94984850000001,0 -106.66975939999989,34.951436900000004,0 -106.66926469999989,34.9515157,0 -106.66611109999988,34.951929400000004,0 -106.66558179999988,34.952030400000005,0 -106.66493839999988,34.952186000000005,0 -106.66425899999987,34.95239350000001,0 -106.66357859999988,34.952653700000006,0 -106.66296759999987,34.95293310000001,0 -106.66220249999989,34.95335480000001,0 -106.6616439999999,34.953737000000004,0 -106.6612530999999,34.954040600000006,0 -106.6608889999999,34.95435210000001,0 -106.66058899999989,34.95463600000001,0 -106.66024709999989,34.95499160000001,0 -106.65984789999989,34.9554641,0 -106.65949629999989,34.955968,0 -106.6592396999999,34.9563776,0 -106.6589818999999,34.9568609,0 -106.6587866999999,34.957316600000006,0 -106.6532717999999,34.9758068,0 -106.65317199999988,34.9760893,0 -106.65042539999989,34.9853336,0 -106.63961719999989,35.0159972,0 -106.63956869999988,35.0160985,0 -106.63884289999989,35.018232399999995,0 -106.63867059999988,35.01886759999999,0 -106.63855049999988,35.01941469999999,0 -106.63839149999988,35.02034929999999,0 -106.63830999999988,35.021212899999995,0 -106.63826869999987,35.02272489999999,0 -106.63825549999987,35.02285009999999,0 -106.63822829999988,35.02291799999999,0 -106.63823479999988,35.02305289999999,0 -106.63808599999989,35.029456399999994,0 -106.63793739999988,35.03243479999999,0 -106.63788799999989,35.03586239999999,0 -106.63790499999989,35.03596309999999,0 -106.6378605999999,35.03794039999999,0 -106.6378689999999,35.038020999999986,0 -106.63763039999989,35.05162199999999,0 -106.6376082999999,35.05173169999999,0 -106.6375733999999,35.0546868,0 -106.63761089999988,35.05535559999999,0 -106.63769749999989,35.05623109999999,0 -106.63772659999988,35.056314799999996,0 -106.63995559999988,35.073554099999996,0 -106.63997519999988,35.073997999999996,0 -106.63996759999988,35.07421289999999,0 -106.63993849999989,35.07443529999999,0 -106.63989249999987,35.07464819999999,0 -106.63982139999987,35.07486569999999,0 -106.63973049999987,35.07507879999999,0 -106.63956919999988,35.07536619999999,0 -106.63942739999987,35.07556929999999,0 -106.63812849999987,35.07715669999999,0 -106.63798549999987,35.07734959999999,0 -106.63776999999986,35.07767629999999,0 -106.63763999999986,35.0779071,0 -106.63754659999987,35.0781035,0 -106.63743259999985,35.078396100000006,0 -106.63735619999986,35.07863720000001,0 -106.63682199999985,35.08138960000001,0 -106.63678229999987,35.08149290000001,0 -106.63645249999986,35.083195200000006,0 -106.63641729999986,35.083489000000014,0 -106.63566179999987,35.08727170000002,0 -106.63541929999987,35.088270500000014,0 -106.63505539999986,35.089536400000014,0 -106.63500189999986,35.089630200000016,0 -106.63486289999986,35.090056400000016,0 -106.63206849999986,35.09773620000002,0 -106.63184549999987,35.09841680000002,0 -106.62879829999987,35.10674880000002,0 -106.62841269999987,35.10771130000002,0 -106.62740789999988,35.11004570000002,0 -106.62695659999989,35.111200000000025,0 -106.62690269999987,35.11130130000002,0 -106.62346729999989,35.12070300000002,0 -106.62323079999989,35.121255600000026,0 -106.62270459999989,35.122314700000025,0 -106.62212999999988,35.123253400000024,0 -106.62152259999988,35.12409870000002,0 -106.62112339999989,35.12459690000002,0 -106.62059379999988,35.12520140000002,0 -106.62010779999989,35.125706500000014,0 -106.61931099999988,35.12645170000002,0 -106.61848899999987,35.127127700000024,0 -106.61790939999987,35.127562500000025,0 -106.61732909999988,35.127960800000025,0 -106.59831189999987,35.13957350000002,0 -106.59822729999988,35.139575100000016,0 -106.59812609999987,35.13958780000002,0 -106.59700179999987,35.14005760000002,0 -106.59671449999988,35.14012420000002,0 -106.59561449999988,35.14055670000002,0 -106.59534229999988,35.140651900000016,0 -106.59478659999988,35.14087530000002,0 -106.59441689999989,35.141041800000025,0 -106.59432099999988,35.14110060000002,0 -106.59566209999988,35.14233610000002,0 -106.59577309999989,35.14228540000003,0 -106.59599199999988,35.14210450000003,0 -106.59709769999989,35.14108320000003,0 -106.59800569999989,35.14034440000003,0 -106.5985749999999,35.13993480000003,0 -106.5986747999999,35.13987730000003,0 -106.5994145999999,35.14070410000003,0 -106.5992365999999,35.14085760000003,0 -106.5993903999999,35.14104610000003,0 -106.5995568999999,35.14121940000003,0 </coordinates></LineString><TimeSpan><begin>2022-05-29T20:58:57.000Z</begin><end>2022-05-29T22:52:51.835Z</end></TimeSpan></Placemark><Placemark><name>TownePlace Suites by Marriott Albuquerque North</name><address>5511 Office Blvd NE, Albuquerque, NM 87109</address><ExtendedData><Data name="Email"><value>syugen.zhou@gmail.com</value></Data><Data name="Category"><value>Hotel</value></Data><Data name="Distance"><value>0</value></Data></ExtendedData><description> Hotel from 2022-05-29T22:52:51.835Z to 2022-05-29T23:56:45.700Z. Distance 0m </description><Point><coordinates>-106.599108,35.1415333,0</coordinates></Point><TimeSpan><begin>2022-05-29T22:52:51.835Z</begin><end>2022-05-29T23:56:45.700Z</end></TimeSpan></Placemark><Placemark><name>Driving</name><address></address><ExtendedData><Data name="Email"><value>syugen.zhou@gmail.com</value></Data><Data name="Category"><value>Driving</value></Data><Data name="Distance"><value>4199</value></Data></ExtendedData><description> Driving from 2022-05-29T23:56:45.700Z to 2022-05-30T00:05:23.000Z. Distance 4199m </description><LineString><altitudeMode>clampToGround</altitudeMode><extrude>1</extrude><tesselate>1</tesselate><coordinates>-106.5997043,35.1413851,0 -106.599922,35.1412616,0 -106.60014930000001,35.1415511,0 -106.60030780000001,35.14178510000001,0 -106.6003565,35.141842200000006,0 -106.60054410000001,35.14222540000001,0 -106.60079190000002,35.14283520000001,0 -106.60085760000001,35.14302550000001,0 -106.6008979,35.143170000000005,0 -106.60097350000002,35.143650900000004,0 -106.60100250000002,35.14427580000001,0 -106.60099380000001,35.144654100000004,0 -106.59992260000001,35.144654300000006,0 -106.59844680000002,35.1446911,0 -106.59824700000001,35.14468610000001,0 -106.59793320000001,35.144665200000006,0 -106.59790100000002,35.144659000000004,0 -106.59781870000002,35.1446108,0 -106.59779150000001,35.14460030000001,0 -106.59767510000002,35.144575200000006,0 -106.59702390000001,35.144468200000006,0 -106.59703860000002,35.14414120000001,0 -106.59702990000001,35.14395050000001,0 -106.59701690000001,35.14385930000001,0 -106.59698710000002,35.14372490000001,0 -106.59689490000001,35.143477000000004,0 -106.59673500000001,35.143202,0 -106.59668040000001,35.143126300000006,0 -106.59650040000001,35.14293120000001,0 -106.59625830000002,35.1427007,0 -106.59577310000002,35.142285400000006,0 -106.59532250000001,35.1418776,0 -106.5950392,35.1416409,0 -106.59441690000001,35.141041799999996,0 -106.59432100000001,35.1411006,0 -106.5941695,35.1412602,0 -106.59401650000001,35.1414064,0 -106.59352310000003,35.141973,0 -106.59339940000002,35.1421006,0 -106.59310700000002,35.1423453,0 -106.59202830000002,35.143307899999996,0 -106.59177950000003,35.1435447,0 -106.59139520000002,35.1439505,0 -106.59106450000002,35.144343,0 -106.59094990000001,35.1444896,0 -106.59071470000002,35.1448216,0 -106.59042690000003,35.1452763,0 -106.58984910000002,35.1450372,0 -106.58960770000002,35.1449557,0 -106.58941490000001,35.1449118,0 -106.58926520000001,35.1449004,0 -106.58727470000002,35.1448991,0 -106.58654170000003,35.1448782,0 -106.58636730000002,35.1448986,0 -106.58509630000002,35.144886,0 -106.58384190000001,35.1448909,0 -106.58356090000001,35.144897199999996,0 -106.58309270000001,35.144894199999996,0 -106.58308980000001,35.145184699999994,0 -106.5831117,35.145480799999994,0 -106.5831047,35.147490299999994,0 -106.5826499,35.147287399999996,0 -106.58224500000001,35.147123,0 -106.58215420000002,35.1470773,0 -106.58175790000001,35.1468988,0 -106.58172320000001,35.1468873,0 -106.58070600000002,35.146450900000005,0 -106.57945390000002,35.145882,0 -106.57899920000001,35.1456947,0 -106.57875760000002,35.1456039,0 -106.57843870000002,35.1455031,0 -106.57814990000001,35.1454265,0 -106.57781320000001,35.14535229999999,0 -106.57730780000001,35.145280699999994,0 -106.57692870000001,35.14524839999999,0 -106.57341450000001,35.1452312,0 -106.57258620000002,35.1452397,0 -106.57004750000002,35.14522049999999,0 -106.56978390000002,35.1452293,0 -106.56638320000003,35.145236999999995,0 -106.56435560000003,35.145218,0 -106.56387210000003,35.145226699999995,0 -106.55709050000002,35.145212199999996,0 -106.55679460000002,35.145221799999995,0 -106.55655700000003,35.14523869999999,0 -106.55585610000003,35.14533349999999,0 -106.55553520000002,35.14540309999999,0 -106.55515910000003,35.14551559999999,0 -106.55497330000003,35.14557769999999,0 -106.55447890000003,35.14576569999999,0 -106.55380730000003,35.14604529999999,0 -106.55367010000003,35.146093799999996,0 -106.55373400000003,35.14623509999999,0 -106.55402530000003,35.14667209999999,0 -106.55430250000003,35.14702769999999,0 -106.55443670000004,35.14717129999999,0 -106.55498700000004,35.147677299999984,0 -106.55528630000005,35.14791269999998,0 -106.55540120000005,35.147816099999986,0 -106.55622520000004,35.14731239999998,0 </coordinates></LineString><TimeSpan><begin>2022-05-29T23:56:45.700Z</begin><end>2022-05-30T00:05:23.000Z</end></TimeSpan></Placemark><Placemark><name>Noodle Works</name><address>5901 Wyoming Blvd NE s, Albuquerque, NM 87109</address><ExtendedData><Data name="Email"><value>syugen.zhou@gmail.com</value></Data><Data name="Category"><value>Restaurant</value></Data><Data name="Distance"><value>0</value></Data></ExtendedData><description> Restaurant from 2022-05-30T00:05:23.000Z to 2022-05-30T01:21:20.000Z. Distance 0m </description><Point><coordinates>-106.556671,35.147310999999995,0</coordinates></Point><TimeSpan><begin>2022-05-30T00:05:23.000Z</begin><end>2022-05-30T01:21:20.000Z</end></TimeSpan></Placemark><Placemark><name>Driving</name><address></address><ExtendedData><Data name="Email"><value>syugen.zhou@gmail.com</value></Data><Data name="Category"><value>Driving</value></Data><Data name="Distance"><value>4016</value></Data></ExtendedData><description> Driving from 2022-05-30T01:21:20.547Z to 2022-05-30T01:27:51.105Z. Distance 4016m </description><LineString><altitudeMode>clampToGround</altitudeMode><extrude>1</extrude><tesselate>1</tesselate><coordinates>-106.55609009999999,35.1471679,0 -106.5555644,35.1465455,0 -106.5553508,35.1463071,0 -106.5552431,35.146154,0 -106.55504209999998,35.145701300000006,0 -106.55547109999999,35.145565100000006,0 -106.5556582,35.145515200000006,0 -106.55599409999998,35.14544780000001,0 -106.55609439999998,35.1454316,0 -106.55663759999999,35.145364199999996,0 -106.55700939999998,35.145345299999995,0 -106.56914639999998,35.145369099999996,0 -106.56993079999998,35.145352499999994,0 -106.57690889999998,35.145384799999995,0 -106.57728899999998,35.1454063,0 -106.57799929999999,35.1455213,0 -106.57839699999998,35.145627999999995,0 -106.57871999999999,35.145732599999995,0 -106.57901639999999,35.14584639999999,0 -106.5793935,35.14600469999999,0 -106.5801273,35.1463349,0 -106.5830666,35.147599799999995,0 -106.583305,35.14768949999999,0 -106.58361359999999,35.147786599999996,0 -106.58407799999999,35.14790409999999,0 -106.58484529999998,35.14805429999999,0 -106.5850993,35.14808189999999,0 -106.5852128,35.14808879999999,0 -106.58525379999999,35.148082999999986,0 -106.5853703,35.14805799999999,0 -106.58634779999998,35.14806569999999,0 -106.5863476,35.14861949999999,0 -106.58636299999999,35.14896719999999,0 -106.5863565,35.149482199999994,0 -106.58633649999999,35.14992869999999,0 -106.58634339999999,35.15009579999999,0 -106.58637069999999,35.15037559999999,0 -106.58644059999999,35.150706599999985,0 -106.5864749,35.15083079999999,0 -106.5865818,35.15114069999999,0 -106.5868008,35.15160459999999,0 -106.5870024,35.151889199999985,0 -106.58713480000002,35.152058899999986,0 -106.58735190000002,35.152291199999986,0 -106.58774520000001,35.152669299999985,0 -106.58821320000001,35.15302969999998,0 -106.58971610000002,35.15407709999999,0 -106.58984930000001,35.15396029999999,0 -106.59011500000003,35.15370389999999,0 -106.59032510000002,35.153468099999984,0 -106.59039250000002,35.15337469999998,0 -106.59049600000003,35.15320419999998,0 -106.59056030000004,35.15305859999998,0 -106.59058610000004,35.15297969999998,0 -106.59063810000004,35.15276909999998,0 -106.59065750000003,35.15264339999998,0 -106.59066050000004,35.152585199999976,0 -106.59065110000004,35.15239809999998,0 -106.59063240000003,35.15226879999998,0 -106.59060490000005,35.15215569999998,0 -106.59051550000004,35.15192509999998,0 -106.59031860000003,35.15152159999998,0 -106.59025850000003,35.15137669999998,0 -106.59019060000003,35.15117549999997,0 -106.59008330000003,35.150798099999975,0 -106.59005180000003,35.15065319999997,0 -106.59002430000004,35.15048179999997,0 -106.58998490000003,35.15012529999998,0 -106.58996920000003,35.149758299999974,0 -106.58997530000002,35.14956669999997,0 -106.59000420000002,35.149225699999974,0 -106.59016010000002,35.148322899999975,0 -106.59038610000002,35.147287499999976,0 -106.59049170000002,35.14690179999997,0 -106.59056290000001,35.146686799999976,0 -106.59073450000001,35.14626169999998,0 -106.59086500000001,35.145980999999985,0 -106.5910041,35.14571369999998,0 -106.59125790000002,35.145291499999985,0 -106.591524,35.14490579999998,0 -106.59171140000001,35.14467359999999,0 -106.59188400000002,35.144476799999985,0 -106.59227250000002,35.14413469999999,0 -106.59258210000002,35.143880299999985,0 -106.59278710000001,35.143727799999986,0 -106.59324680000002,35.14342699999999,0 -106.59368420000001,35.14316559999999,0 -106.59409130000002,35.14295739999999,0 -106.59566210000001,35.142336099999994,0 -106.59577310000003,35.1422854,0 -106.59599200000002,35.142104499999995,0 -106.59631580000003,35.1418112,0 -106.59669000000002,35.1414524,0 -106.59709770000003,35.1410832,0 -106.59800570000003,35.1403444,0 -106.59857500000004,35.1399348,0 -106.59867480000004,35.1398773,0 -106.59985790000003,35.1411819,0 -106.59992200000003,35.14126159999999,0 -106.59970430000003,35.141385099999994,0 </coordinates></LineString><TimeSpan><begin>2022-05-30T01:21:20.547Z</begin><end>2022-05-30T01:27:51.105Z</end></TimeSpan></Placemark><Placemark><name>TownePlace Suites by Marriott Albuquerque North</name><address>5511 Office Blvd NE, Albuquerque, NM 87109</address><ExtendedData><Data name="Email"><value>syugen.zhou@gmail.com</value></Data><Data name="Category"><value>Hotel</value></Data><Data name="Distance"><value>0</value></Data></ExtendedData><description> Hotel from 2022-05-30T01:27:51.105Z to 2022-05-30T17:32:33.999Z. Distance 0m </description><Point><coordinates>-106.599108,35.1415333,0</coordinates></Point><TimeSpan><begin>2022-05-30T01:27:51.105Z</begin><end>2022-05-30T17:32:33.999Z</end></TimeSpan></Placemark></Document></kml>
