<?xml version="1.0" encoding="UTF-8"?><kml xmlns="http://www.opengis.net/kml/2.2" xmlns:gx="http://www.google.com/kml/ext/2.2"><Document><name> Location history from 2022-06-01 to 2022-06-01 </name><open>1</open><description></description><StyleMap id="multiTrack"><Pair><key>normal</key><styleUrl>#multiTrack_n</styleUrl></Pair><Pair><key>highlight</key><styleUrl>#multiTrack_h</styleUrl></Pair></StyleMap><Style id="multiTrack_n"><IconStyle><Icon><href>https://earth.google.com/images/kml-icons/track-directional/track-0.png</href></Icon></IconStyle><LineStyle><color>99ffac59</color><width>6</width></LineStyle></Style><Style id="multiTrack_h"><IconStyle><scale>1.2</scale><Icon><href>https://earth.google.com/images/kml-icons/track-directional/track-0.png</href></Icon></IconStyle><LineStyle><color>99ffac59</color><width>8</width></LineStyle></Style><Placemark><name>TownePlace Suites by Marriott Albuquerque North</name><address>5511 Office Blvd NE, Albuquerque, NM 87109</address><ExtendedData><Data name="Email"><value>syugen.zhou@gmail.com</value></Data><Data name="Category"><value>Hotel</value></Data><Data name="Distance"><value>0</value></Data></ExtendedData><description> Hotel from 2022-06-01T01:46:34.998Z to 2022-06-01T14:29:31.000Z. Distance 0m </description><Point><coordinates>-106.599108,35.1415333,0</coordinates></Point><TimeSpan><begin>2022-06-01T01:46:34.998Z</begin><end>2022-06-01T14:29:31.000Z</end></TimeSpan></Placemark><Placemark><name>Driving</name><address></address><ExtendedData><Data name="Email"><value>syugen.zhou@gmail.com</value></Data><Data name="Category"><value>Driving</value></Data><Data name="Distance"><value>10210</value></Data></ExtendedData><description> Driving from 2022-06-01T14:29:31.000Z to 2022-06-01T14:44:29.000Z. Distance 10210m </description><LineString><altitudeMode>clampToGround</altitudeMode><extrude>1</extrude><tesselate>1</tesselate><coordinates>-106.59951219999999,35.1411729,0 -106.59939039999999,35.141046100000004,0 -106.5992366,35.140857600000004,0 -106.59941459999999,35.1407041,0 -106.5986748,35.1398773,0 -106.60147159999998,35.1382062,0 -106.60255629999999,35.1375038,0 -106.60617329999998,35.1352902,0 -106.60690529999998,35.1348847,0 -106.60736329999999,35.1346829,0 -106.60759049999999,35.1346141,0 -106.60781859999999,35.1345654,0 -106.60817719999999,35.1345192,0 -106.6086014,35.1344843,0 -106.6092267,35.134405599999994,0 -106.60941109999997,35.1343703,0 -106.60995849999999,35.1342125,0 -106.61021299999999,35.1341044,0 -106.61051089999998,35.1339387,0 -106.61090699999998,35.1336301,0 -106.61215799999998,35.13445219999999,0 -106.61260059999998,35.13472169999999,0 -106.61294449999998,35.13489799999999,0 -106.61359259999999,35.135130399999994,0 -106.614121,35.135265999999994,0 -106.6144332,35.13532139999999,0 -106.6148527,35.13536879999999,0 -106.61523229999999,35.13538489999999,0 -106.62117899999998,35.13535609999999,0 -106.62163699999999,35.13537659999999,0 -106.6220781,35.13543419999999,0 -106.62689219999999,35.13649619999999,0 -106.62746589999999,35.13659859999999,0 -106.6296069,35.13691239999999,0 -106.63064589999999,35.13712789999999,0 -106.6307482,35.137085699999986,0 -106.6313471,35.137235799999985,0 -106.6314389,35.13733129999999,0 -106.634361,35.13804849999999,0 -106.6353902,35.13819019999999,0 -106.63982290000001,35.13864629999999,0 -106.64070190000001,35.1386287,0 -106.64243040000001,35.1387953,0 -106.64248330000001,35.13874859999999,0 -106.6454825,35.1391017,0 -106.64722180000001,35.13925989999999,0 -106.6484336,35.13933629999999,0 -106.65033660000002,35.13956659999999,0 -106.65114880000002,35.13970559999999,0 -106.65152760000001,35.13981019999999,0 -106.65235720000001,35.14014359999999,0 -106.6525912,35.14022209999999,0 -106.6529869,35.14031649999999,0 -106.65571990000001,35.14078469999999,0 -106.656324,35.14091669999999,0 -106.65640540000001,35.140977499999984,0 -106.66118580000001,35.14193509999998,0 -106.66744310000001,35.14335209999999,0 -106.6676393,35.14338549999999,0 -106.6680666,35.143429699999984,0 -106.66870630000001,35.14352309999999,0 -106.67458170000002,35.14461339999998,0 -106.67623580000001,35.14500649999999,0 -106.67671170000001,35.145152299999985,0 -106.67752910000002,35.14543899999999,0 -106.67853730000002,35.145854599999986,0 -106.6832195,35.148146899999986,0 -106.68994040000001,35.15154699999999,0 -106.6903709,35.151737299999986,0 -106.6911407,35.15202449999998,0 -106.6917523,35.152222299999984,0 -106.6923852,35.15236859999998,0 -106.6930739,35.15249739999998,0 -106.6938337,35.15258079999998,0 -106.70110249999999,35.15259529999998,0 -106.70213089999999,35.15262339999998,0 -106.70280819999998,35.15267439999998,0 -106.70386729999998,35.15280079999998,0 -106.70463249999999,35.15286129999998,0 -106.70555429999999,35.15288789999998,0 -106.71439809999998,35.15290909999998,0 -106.7152373,35.15289209999998,0 -106.71583609999999,35.15284479999998,0 -106.71623169999998,35.152752599999985,0 -106.71641359999998,35.152693499999984,0 -106.71663319999998,35.15259179999998,0 -106.71670439999998,35.15257349999998,0 -106.71736319999998,35.15227579999998,0 -106.71547639999999,35.14942309999998,0 -106.71537719999998,35.14925029999998,0 -106.71345739999998,35.146374799999975,0 -106.71338859999997,35.146248899999975,0 -106.71055809999999,35.14205179999997,0 -106.71017919999998,35.14133089999997,0 -106.71005449999998,35.14099959999998,0 -106.70961649999998,35.139384999999976,0 -106.70954369999997,35.139011099999976,0 -106.70952979999998,35.13886479999998,0 -106.70952899999999,35.13851619999998,0 -106.70953989999998,35.13842759999998,0 </coordinates></LineString><TimeSpan><begin>2022-06-01T14:29:31.000Z</begin><end>2022-06-01T14:44:29.000Z</end></TimeSpan></Placemark><Placemark><name>Petroglyph National Monument Visitor Center</name><address>6510 Western Trail NW, Albuquerque, NM 87120</address><ExtendedData><Data name="Email"><value>syugen.zhou@gmail.com</value></Data><Data name="Category"><value>Visitor center</value></Data><Data name="Distance"><value>0</value></Data></ExtendedData><description> Visitor center from 2022-06-01T14:44:29.000Z to 2022-06-01T14:54:36.000Z. Distance 0m </description><Point><coordinates>-106.7112784,35.138875299999995,0</coordinates></Point><TimeSpan><begin>2022-06-01T14:44:29.000Z</begin><end>2022-06-01T14:54:36.000Z</end></TimeSpan></Placemark><Placemark><name>Driving</name><address></address><ExtendedData><Data name="Email"><value>syugen.zhou@gmail.com</value></Data><Data name="Category"><value>Driving</value></Data><Data name="Distance"><value>3214</value></Data></ExtendedData><description> Driving from 2022-06-01T14:54:36.000Z to 2022-06-01T15:05:14.000Z. Distance 3214m </description><LineString><altitudeMode>clampToGround</altitudeMode><extrude>1</extrude><tesselate>1</tesselate><coordinates>-106.71157459999999,35.1387012,0 -106.7112239,35.138666,0 -106.7111404,35.1385986,0 -106.71115959999999,35.1385817,0 -106.71117849999999,35.1385545,0 -106.711202,35.1384849,0 -106.7104647,35.138564599999995,0 -106.7104258,35.1385608,0 -106.7103968,35.138548699999994,0 -106.7103807,35.1385363,0 -106.7103688,35.1385192,0 -106.7103608,35.138478899999996,0 -106.710365,35.13845439999999,0 -106.7103774,35.1384288,0 -106.710431,35.138346,0 -106.7102872,35.13826939999999,0 -106.7108493,35.13746999999999,0 -106.71091100000001,35.13741319999999,0 -106.7109823,35.13736259999999,0 -106.71104960000001,35.137324099999994,0 -106.71114170000001,35.13728179999999,0 -106.7140533,35.136440799999995,0 -106.7141843,35.136389799999996,0 -106.7142493,35.136354399999995,0 -106.71434690000001,35.13628099999999,0 -106.7143867,35.13624319999999,0 -106.7144269,35.13618129999999,0 -106.71445990000001,35.13611349999999,0 -106.71447810000001,35.13605589999999,0 -106.71448980000001,35.13596939999999,0 -106.71448850000002,35.135896499999994,0 -106.71447890000002,35.13583439999999,0 -106.71443990000002,35.13573489999999,0 -106.71439140000001,35.13565249999999,0 -106.7143934,35.13557719999999,0 -106.714386,35.135555999999994,0 -106.7141362,35.1350912,0 -106.7140751,35.134950999999994,0 -106.7139569,35.13498919999999,0 -106.711601,35.1358549,0 -106.7110893,35.136073499999995,0 -106.71085120000001,35.136209199999996,0 -106.7104624,35.13647649999999,0 -106.71024270000001,35.136677199999994,0 -106.7100387,35.13688659999999,0 -106.7098935,35.13706799999999,0 -106.7097372,35.137301099999995,0 -106.70956509999999,35.137616599999994,0 -106.7094412,35.137935199999994,0 -106.7093757,35.1382352,0 -106.7093369,35.1385064,0 -106.70933999999998,35.138779899999996,0 -106.70937699999999,35.139141699999996,0 -106.709761,35.14071889999999,0 -106.70997030000001,35.14130119999999,0 -106.7101452,35.141679399999994,0 -106.7103674,35.14207729999999,0 -106.7120303,35.14455669999999,0 -106.71203639999999,35.14457009999999,0 -106.7123676,35.14507239999998,0 -106.71257569999999,35.145361499999986,0 -106.71276289999999,35.14567109999999,0 -106.7141061,35.14768619999999,0 -106.71447329999998,35.148191299999986,0 -106.71714209999999,35.15225699999999,0 -106.71721999999998,35.15234729999999,0 -106.71774109999998,35.15312489999999,0 -106.71833709999999,35.15378549999999,0 -106.71854689999998,35.15407069999999,0 -106.71863039999998,35.154213899999995,0 -106.71869779999999,35.154363399999994,0 -106.71906309999999,35.15486249999999,0 -106.71889709999999,35.15497489999999,0 -106.7188046,35.155049399999996,0 -106.71876669999999,35.155086,0 -106.7187295,35.155131399999995,0 -106.7186708,35.1552358,0 -106.71865729999999,35.1552808,0 -106.7186436,35.1554157,0 -106.71865009999999,35.15550699999999,0 -106.7186716,35.155617799999995,0 -106.7193983,35.158479699999994,0 -106.7194505,35.158628799999995,0 -106.71953059999998,35.1588181,0 -106.7196671,35.1590652,0 -106.7197819,35.1592305,0 -106.7198452,35.159308800000005,0 -106.71999999999998,35.1594661,0 -106.7205475,35.1599403,0 -106.72062649999998,35.1599995,0 -106.72032409999998,35.1602821,0 -106.72014079999998,35.160437,0 -106.71989659999997,35.160626,0 -106.71984109999997,35.1606603,0 -106.71974509999997,35.16069600000001,0 -106.71959419999997,35.160712800000006,0 -106.71935809999997,35.16075770000001,0 -106.71928029999998,35.16076320000001,0 -106.71917569999997,35.160761000000015,0 -106.71903609999997,35.160739700000015,0 </coordinates></LineString><TimeSpan><begin>2022-06-01T14:54:36.000Z</begin><end>2022-06-01T15:05:14.000Z</end></TimeSpan></Placemark><Placemark><name>Boca Negra Canyon</name><address>Atrisco Dr NW, Albuquerque, NM 87120</address><ExtendedData><Data name="Email"><value>syugen.zhou@gmail.com</value></Data><Data name="Category"><value>Hiking area</value></Data><Data name="Distance"><value>0</value></Data></ExtendedData><description> Hiking area from 2022-06-01T15:05:14.000Z to 2022-06-01T15:28:15.000Z. Distance 0m </description><Point><coordinates>-106.71785279999999,35.1611147,0</coordinates></Point><TimeSpan><begin>2022-06-01T15:05:14.000Z</begin><end>2022-06-01T15:28:15.000Z</end></TimeSpan></Placemark><Placemark><name>Driving</name><address></address><ExtendedData><Data name="Email"><value>syugen.zhou@gmail.com</value></Data><Data name="Category"><value>Driving</value></Data><Data name="Distance"><value>12482</value></Data></ExtendedData><description> Driving from 2022-06-01T15:28:15.999Z to 2022-06-01T15:47:21.000Z. Distance 12482m </description><LineString><altitudeMode>clampToGround</altitudeMode><extrude>1</extrude><tesselate>1</tesselate><coordinates>-106.7166805,35.160953,0 -106.71667049999999,35.1610406,0 -106.716688,35.1611492,0 -106.7167242,35.1612303,0 -106.7170541,35.1616656,0 -106.7172459,35.161853099999995,0 -106.7174082,35.16195939999999,0 -106.71752479999999,35.162,0 -106.7180961,35.16209859999999,0 -106.71815649999999,35.162085499999996,0 -106.71821419999999,35.162025199999995,0 -106.71831069999999,35.161731399999994,0 -106.71836969999998,35.16164469999999,0 -106.71845959999999,35.16157789999999,0 -106.7190376,35.16133659999999,0 -106.71919579999998,35.16119959999999,0 -106.71926019999998,35.16110639999999,0 -106.71974509999998,35.160695999999994,0 -106.71984109999998,35.16066029999999,0 -106.72062649999998,35.15999949999999,0 -106.71984519999998,35.1593088,0 -106.71953059999998,35.1588181,0 -106.7193983,35.158479699999994,0 -106.7186436,35.1554157,0 -106.7186708,35.1552358,0 -106.71876669999999,35.155086,0 -106.7190631,35.1548625,0 -106.719235,35.154784,0 -106.7184421,35.1536486,0 -106.7177903,35.1529193,0 -106.71731650000001,35.1521997,0 -106.7164784,35.152530999999996,0 -106.7157979,35.1527069,0 -106.71492129999999,35.1527628,0 -106.70495109999999,35.1527446,0 -106.7040653,35.1526904,0 -106.70282449999999,35.1525353,0 -106.701883,35.152471999999996,0 -106.6938325,35.1524604,0 -106.69272089999998,35.152283600000004,0 -106.69177389999999,35.1520725,0 -106.69118849999998,35.1518968,0 -106.69017319999999,35.151499699999995,0 -106.67858459999998,35.145781,0 -106.67757659999998,35.145364799999996,0 -106.67605479999997,35.144863900000004,0 -106.67513749999996,35.1446417,0 -106.66872679999996,35.1434066,0 -106.66775719999997,35.1433147,0 -106.66209949999997,35.141997599999996,0 -106.65641479999995,35.1408591,0 -106.65632399999996,35.140916700000005,0 -106.65259119999997,35.1402221,0 -106.65152759999997,35.1398102,0 -106.65114879999996,35.1397056,0 -106.64843359999996,35.1393363,0 -106.64548249999996,35.1391017,0 -106.64248329999995,35.13874859999999,0 -106.64244799999996,35.138691699999995,0 -106.64125739999996,35.13855769999999,0 -106.64050409999996,35.138526899999995,0 -106.63982309999997,35.13855129999999,0 -106.63436929999996,35.137934099999995,0 -106.63148889999995,35.13720629999999,0 -106.63134709999996,35.13723579999999,0 -106.63074819999994,35.13708569999999,0 -106.63071239999995,35.137004999999995,0 -106.62848539999995,35.136580699999996,0 -106.62833869999994,35.13657669999999,0 -106.62694929999995,35.13636319999999,0 -106.62239639999994,35.135358599999996,0 -106.62139209999995,35.13521929999999,0 -106.61937709999995,35.13521049999999,0 -106.61932549999995,35.13650289999999,0 -106.61919129999994,35.13678999999999,0 -106.61890289999995,35.13709809999999,0 -106.61874439999994,35.13720569999999,0 -106.61833929999995,35.13737019999999,0 -106.61789339999996,35.137435999999994,0 -106.60747849999996,35.137438599999996,0 -106.60701569999995,35.13748619999999,0 -106.60672199999995,35.13756889999999,0 -106.60643329999995,35.13768909999999,0 -106.60613759999995,35.13787529999999,0 -106.60572159999995,35.138317699999995,0 -106.60555199999996,35.138624899999996,0 -106.60547359999995,35.1392366,0 -106.60548179999996,35.141128599999995,0 -106.60551129999996,35.1413535,0 -106.60555589999996,35.1414263,0 -106.60560279999996,35.1445997,0 -106.60099379999996,35.1446541,0 -106.60097349999995,35.143650900000004,0 -106.60089789999995,35.14317,0 -106.60079189999995,35.1428352,0 -106.60035649999996,35.1418422,0 -106.59985789999996,35.1411819,0 -106.59941459999996,35.1407041,0 -106.59923659999995,35.140857600000004,0 -106.59956209999996,35.1412248,0 </coordinates></LineString><TimeSpan><begin>2022-06-01T15:28:15.999Z</begin><end>2022-06-01T15:47:21.000Z</end></TimeSpan></Placemark><Placemark><name>TownePlace Suites by Marriott Albuquerque North</name><address>5511 Office Blvd NE, Albuquerque, NM 87109</address><ExtendedData><Data name="Email"><value>syugen.zhou@gmail.com</value></Data><Data name="Category"><value>Hotel</value></Data><Data name="Distance"><value>0</value></Data></ExtendedData><description> Hotel from 2022-06-01T15:47:21.000Z to 2022-06-01T16:34:04.999Z. Distance 0m </description><Point><coordinates>-106.599108,35.1415333,0</coordinates></Point><TimeSpan><begin>2022-06-01T15:47:21.000Z</begin><end>2022-06-01T16:34:04.999Z</end></TimeSpan></Placemark><Placemark><name>Driving</name><address></address><ExtendedData><Data name="Email"><value>syugen.zhou@gmail.com</value></Data><Data name="Category"><value>Driving</value></Data><Data name="Distance"><value>12215</value></Data></ExtendedData><description> Driving from 2022-06-01T16:34:04.999Z to 2022-06-01T16:48:02.999Z. Distance 12215m </description><LineString><altitudeMode>clampToGround</altitudeMode><extrude>1</extrude><tesselate>1</tesselate><coordinates>-106.59944809999999,35.141106199999996,0 -106.59871129999998,35.1402649,0 -106.5986519,35.1402547,0 -106.59858309999998,35.1402724,0 -106.59818229999999,35.140538299999996,0 -106.5970662,35.1415171,0 -106.59699739999999,35.1417044,0 -106.59779909999999,35.1423348,0 -106.5977863,35.142376500000005,0 -106.59714129999999,35.14291660000001,0 -106.59714039999997,35.14293570000001,0 -106.59748799999997,35.14325820000001,0 -106.59689489999998,35.14347700000001,0 -106.59668039999998,35.143126300000006,0 -106.59441689999997,35.14104180000001,0 -106.59432099999997,35.141100600000016,0 -106.59339939999997,35.14210060000001,0 -106.59334469999997,35.14221550000001,0 -106.59271529999998,35.14293210000001,0 -106.59265979999998,35.14310110000001,0 -106.59179259999998,35.14387840000001,0 -106.59125009999998,35.144494800000004,0 -106.59059609999997,35.145459800000005,0 -106.58993759999998,35.14699680000001,0 -106.57784119999998,35.20004290000001,0 -106.57777389999998,35.200045200000005,0 -106.57775289999998,35.200059800000005,0 -106.57737869999998,35.2009327,0 -106.57696539999999,35.201581600000004,0 -106.57681459999998,35.2016791,0 -106.57628969999998,35.2024682,0 -106.57606679999998,35.202936400000006,0 -106.57584929999997,35.203754700000005,0 -106.57170629999999,35.20318920000001,0 -106.56987419999999,35.20309730000001,0 -106.56901419999998,35.20291890000001,0 -106.56704229999998,35.202228200000015,0 -106.56585989999998,35.20202580000001,0 -106.56507299999998,35.20202060000001,0 -106.56250739999999,35.20230370000001,0 -106.56143289999999,35.20230250000001,0 -106.55923319999998,35.20212420000001,0 -106.55810299999997,35.20212630000001,0 -106.55581579999998,35.20238350000001,0 -106.55500989999997,35.20233660000001,0 -106.55023009999998,35.20141810000001,0 -106.54791079999998,35.201165500000016,0 -106.53739989999998,35.201295400000014,0 -106.53668039999998,35.20137720000001,0 -106.53473269999998,35.201796500000015,0 -106.53421099999998,35.20186180000002,0 -106.53324509999999,35.20188490000002,0 -106.52264429999998,35.20028820000002,0 -106.52065309999998,35.20014110000002,0 -106.51947589999997,35.200132500000024,0 -106.51726139999997,35.200281000000025,0 -106.51143259999996,35.20135190000002,0 -106.51063359999996,35.20142260000002,0 -106.50953899999996,35.201382800000026,0 -106.50818769999995,35.201113400000025,0 -106.50694759999995,35.20061540000003,0 -106.50617289999995,35.20015430000003,0 -106.50568019999996,35.19975960000003,0 -106.50251209999995,35.19643160000003,0 -106.50183379999994,35.19594620000003,0 -106.50080749999994,35.19543610000004,0 -106.49838829999993,35.19454600000004,0 -106.49748859999993,35.19395880000003,0 -106.49680199999993,35.193231300000036,0 -106.49650329999993,35.19275220000003,0 -106.49626159999993,35.192181700000035,0 -106.49612709999992,35.19149360000003,0 -106.49613129999993,35.19043090000003,0 -106.49403509999992,35.19016110000003,0 -106.49302779999992,35.190117500000035,0 -106.49188879999993,35.190177100000035,0 -106.49048829999992,35.19038920000004,0 -106.48814179999991,35.191011800000034,0 -106.4879359999999,35.191017400000035,0 -106.48767119999991,35.19096220000004,0 -106.4869698999999,35.19069620000004,0 -106.4866211999999,35.19065670000004,0 -106.48604269999991,35.19072720000004,0 -106.48519239999992,35.19097020000004,0 -106.48386909999992,35.191695200000034,0 -106.48348599999993,35.19180210000004,0 -106.48312679999992,35.191846700000035,0 -106.48226179999992,35.19186030000004,0 -106.48087579999992,35.19227930000004,0 -106.48072979999992,35.192280900000036,0 -106.48058739999992,35.19223060000004,0 -106.48017529999991,35.19170570000004,0 -106.4800729999999,35.19163380000004,0 -106.48004259999992,35.19165980000004,0 -106.47950939999991,35.19183310000004,0 -106.47936979999992,35.191840000000035,0 -106.47927559999991,35.19181670000003,0 -106.4792217999999,35.191769000000036,0 -106.4792382999999,35.191123100000034,0 -106.47918059999992,35.19085670000003,0 </coordinates></LineString><TimeSpan><begin>2022-06-01T16:34:04.999Z</begin><end>2022-06-01T16:48:02.999Z</end></TimeSpan></Placemark><Placemark><name>Sandia Peak Tramway</name><address>30 Tramway Rd NE, Albuquerque, NM 87122</address><ExtendedData><Data name="Email"><value>syugen.zhou@gmail.com</value></Data><Data name="Category"><value>Tourist attraction</value></Data><Data name="Distance"><value>0</value></Data></ExtendedData><description> Tourist attraction from 2022-06-01T16:48:02.999Z to 2022-06-01T17:10:47.059Z. Distance 0m </description><Point><coordinates>-106.479402,35.1907104,0</coordinates></Point><TimeSpan><begin>2022-06-01T16:48:02.999Z</begin><end>2022-06-01T17:10:47.059Z</end></TimeSpan></Placemark><Placemark><name>In a gondola lift</name><address></address><ExtendedData><Data name="Email"><value>syugen.zhou@gmail.com</value></Data><Data name="Category"><value>In a gondola lift</value></Data><Data name="Distance"><value>4204</value></Data></ExtendedData><description> In a gondola lift from 2022-06-01T17:10:47.059Z to 2022-06-01T17:25:25.885Z. Distance 4204m </description><LineString><altitudeMode>clampToGround</altitudeMode><extrude>1</extrude><tesselate>1</tesselate><coordinates>-106.47935845279797,35.19080769278417,0 -106.47935845279797,35.19080769278417,0 -106.4795667,35.1908011,0 -106.4422973,35.194532,0 -106.4341494,35.1959845,0 -106.4342078,35.1961168,0 -106.4342078,35.1961168,0 </coordinates></LineString><TimeSpan><begin>2022-06-01T17:10:47.059Z</begin><end>2022-06-01T17:25:25.885Z</end></TimeSpan></Placemark><Placemark><name>TEN 3</name><address>30 Tramway Rd NE, Albuquerque, NM 87122</address><ExtendedData><Data name="Email"><value>syugen.zhou@gmail.com</value></Data><Data name="Category"><value>Restaurant</value></Data><Data name="Distance"><value>0</value></Data></ExtendedData><description> Restaurant from 2022-06-01T17:25:25.885Z to 2022-06-01T17:57:52.638Z. Distance 0m </description><Point><coordinates>-106.4342078,35.1961168,0</coordinates></Point><TimeSpan><begin>2022-06-01T17:25:25.885Z</begin><end>2022-06-01T17:57:52.638Z</end></TimeSpan></Placemark><Placemark><name>In a gondola lift</name><address></address><ExtendedData><Data name="Email"><value>syugen.zhou@gmail.com</value></Data><Data name="Category"><value>In a gondola lift</value></Data><Data name="Distance"><value>4184</value></Data></ExtendedData><description> In a gondola lift from 2022-06-01T17:57:52.638Z to 2022-06-01T18:08:03.475Z. Distance 4184m </description><LineString><altitudeMode>clampToGround</altitudeMode><extrude>1</extrude><tesselate>1</tesselate><coordinates>-106.4342078,35.1961168,0 -106.4342078,35.1961168,0 -106.4340588,35.1958491,0 -106.4649322,35.1922732,0 -106.4785547,35.1909689,0 -106.4793063,35.19075149999999,0 -106.4793063,35.19075149999999,0 </coordinates></LineString><TimeSpan><begin>2022-06-01T17:57:52.638Z</begin><end>2022-06-01T18:08:03.475Z</end></TimeSpan></Placemark><Placemark><name>Sandia Peak Tramway</name><address>30 Tramway Rd NE, Albuquerque, NM 87122</address><ExtendedData><Data name="Email"><value>syugen.zhou@gmail.com</value></Data><Data name="Category"><value>Tourist attraction</value></Data><Data name="Distance"><value>0</value></Data></ExtendedData><description> Tourist attraction from 2022-06-01T18:08:03.475Z to 2022-06-01T18:16:51.000Z. Distance 0m </description><Point><coordinates>-106.479402,35.1907104,0</coordinates></Point><TimeSpan><begin>2022-06-01T18:08:03.475Z</begin><end>2022-06-01T18:16:51.000Z</end></TimeSpan></Placemark><Placemark><name>Driving</name><address></address><ExtendedData><Data name="Email"><value>syugen.zhou@gmail.com</value></Data><Data name="Category"><value>Driving</value></Data><Data name="Distance"><value>15151</value></Data></ExtendedData><description> Driving from 2022-06-01T18:16:51.000Z to 2022-06-01T18:30:43.000Z. Distance 15151m </description><LineString><altitudeMode>clampToGround</altitudeMode><extrude>1</extrude><tesselate>1</tesselate><coordinates>-106.4961355,35.1915585,0 -106.4961271,35.1914936,0 -106.4961162,35.1910661,0 -106.4961313,35.1904309,0 -106.4961669,35.1897522,0 -106.4962533,35.1895205,0 -106.4963351,35.1880638,0 -106.4964003,35.1866767,0 -106.4964146,35.1858711,0 -106.4964001,35.1791567,0 -106.4964468,35.1754822,0 -106.49659050000001,35.1753249,0 -106.49663950000001,35.175281600000005,0 -106.49675370000001,35.17522110000001,0 -106.49689230000001,35.17515740000001,0 -106.49693770000002,35.17512260000001,0 -106.5008492,35.1745692,0 -106.50133560000002,35.174539300000006,0 -106.50396560000002,35.1745577,0 -106.50577680000002,35.1745954,0 -106.51404660000001,35.1745837,0 -106.52301890000001,35.1746505,0 -106.523058,35.1746535,0 -106.5243509,35.1746676,0 -106.52457340000001,35.174683099999996,0 -106.5381268,35.1746893,0 -106.5394962,35.1746502,0 -106.5475839,35.1741453,0 -106.55098910000001,35.1740635,0 -106.55268310000001,35.1740593,0 -106.55548370000001,35.1741129,0 -106.55917550000001,35.1742728,0 -106.55969950000001,35.1743056,0 -106.56058320000001,35.1743325,0 -106.56433630000001,35.174510000000005,0 -106.56727690000001,35.1745486,0 -106.5731075,35.1744986,0 -106.57417280000001,35.1744761,0 -106.57711370000001,35.1743219,0 -106.57749850000002,35.1742907,0 -106.57767590000002,35.174290400000004,0 -106.57956130000002,35.1742179,0 -106.58076850000002,35.174223700000006,0 -106.58139120000003,35.1742451,0 -106.58194090000003,35.174275200000004,0 -106.58219470000003,35.174277100000005,0 -106.58327700000002,35.1743174,0 -106.58406430000004,35.174364700000005,0 -106.58444520000003,35.1743961,0 -106.58472740000003,35.1745868,0 -106.58479650000004,35.1746806,0 -106.58484650000003,35.174771,0 -106.58484220000003,35.1749014,0 -106.58480820000004,35.175004900000005,0 -106.58477200000004,35.175088300000006,0 -106.58468700000003,35.175187400000006,0 -106.58460830000003,35.17523260000001,0 -106.58449550000003,35.17525870000001,0 -106.58436150000003,35.175274300000005,0 -106.58420670000004,35.175238500000006,0 -106.58413900000004,35.175193300000004,0 -106.58410710000004,35.17515860000001,0 -106.58408160000005,35.17512550000001,0 -106.58404270000004,35.175030500000005,0 -106.58401510000003,35.17485400000001,0 -106.58402500000004,35.174693700000006,0 -106.58402180000004,35.1746849,0 -106.58394340000005,35.174592600000004,0 -106.59007250000005,35.1475943,0 -106.59013250000004,35.1473616,0 -106.59015770000005,35.147235300000006,0 -106.59021730000005,35.14702270000001,0 -106.59037820000005,35.1465486,0 -106.59055100000005,35.1461357,0 -106.59075150000005,35.14573420000001,0 -106.59091770000006,35.1454365,0 -106.59110180000006,35.145148,0 -106.59136180000006,35.1447831,0 -106.59151620000006,35.1447447,0 -106.59172960000005,35.144490000000005,0 -106.59188900000005,35.1443234,0 -106.59209120000006,35.144134099999995,0 -106.59245620000006,35.143844099999995,0 -106.59252540000006,35.14381279999999,0 -106.59302590000006,35.143490099999994,0 -106.59330630000007,35.1433288,0 -106.59368420000006,35.143165599999996,0 -106.59409130000006,35.1429574,0 -106.59566210000006,35.1423361,0 -106.59577310000006,35.142285400000006,0 -106.59599200000007,35.1421045,0 -106.59631580000007,35.1418112,0 -106.59669000000007,35.141452400000006,0 -106.59709770000006,35.141083200000004,0 -106.59800570000007,35.140344400000004,0 -106.59857500000008,35.139934800000006,0 -106.59867480000008,35.13987730000001,0 -106.59941460000009,35.1407041,0 -106.59923660000008,35.140857600000004,0 -106.59939090000009,35.14104660000001,0 </coordinates></LineString><TimeSpan><begin>2022-06-01T18:16:51.000Z</begin><end>2022-06-01T18:30:43.000Z</end></TimeSpan></Placemark><Placemark><name>TownePlace Suites by Marriott Albuquerque North</name><address>5511 Office Blvd NE, Albuquerque, NM 87109</address><ExtendedData><Data name="Email"><value>syugen.zhou@gmail.com</value></Data><Data name="Category"><value>Hotel</value></Data><Data name="Distance"><value>0</value></Data></ExtendedData><description> Hotel from 2022-06-01T18:30:43.000Z to 2022-06-01T18:37:47.998Z. Distance 0m </description><Point><coordinates>-106.599108,35.1415333,0</coordinates></Point><TimeSpan><begin>2022-06-01T18:30:43.000Z</begin><end>2022-06-01T18:37:47.998Z</end></TimeSpan></Placemark><Placemark><name>Driving</name><address></address><ExtendedData><Data name="Email"><value>syugen.zhou@gmail.com</value></Data><Data name="Category"><value>Driving</value></Data><Data name="Distance"><value>11371</value></Data></ExtendedData><description> Driving from 2022-06-01T18:37:47.998Z to 2022-06-01T18:55:15.000Z. Distance 11371m </description><LineString><altitudeMode>clampToGround</altitudeMode><extrude>1</extrude><tesselate>1</tesselate><coordinates>-106.5994339,35.1394196,0 -106.6061733,35.13529019999999,0 -106.6069053,35.13488469999999,0 -106.6073633,35.134682899999994,0 -106.6078186,35.13456539999999,0 -106.60941109999999,35.13437029999999,0 -106.6099585,35.1342125,0 -106.610213,35.13410439999999,0 -106.6105109,35.133938699999995,0 -106.610907,35.13363009999999,0 -106.6113622,35.13306099999999,0 -106.61182409999999,35.13228939999998,0 -106.6118685,35.13214329999998,0 -106.61196819999999,35.13197839999999,0 -106.61223589999999,35.131643199999985,0 -106.61254299999999,35.131348799999984,0 -106.61304059999999,35.13099219999998,0 -106.6130725,35.13085359999999,0 -106.6171744,35.128352499999984,0 -106.6185333,35.12740199999998,0 -106.61989709999999,35.12624259999998,0 -106.6205908,35.12554739999998,0 -106.6214444,35.12456669999998,0 -106.62200370000001,35.12383089999998,0 -106.6226492,35.12284209999998,0 -106.62335739999999,35.12151729999998,0 -106.6241757,35.11947929999998,0 -106.62424709999999,35.11921189999998,0 -106.62757319999999,35.11017179999998,0 -106.62869399999998,35.10756269999998,0 -106.63177029999999,35.099186699999976,0 -106.63191889999999,35.09894949999998,0 -106.6349185,35.09073059999998,0 -106.63491819999999,35.09061929999998,0 -106.63556889999998,35.08857149999998,0 -106.63591359999998,35.08717889999998,0 -106.63649529999998,35.08405379999998,0 -106.63649109999999,35.083973899999975,0 -106.637357,35.07939139999998,0 -106.63752059999999,35.07871729999998,0 -106.63774039999998,35.07807959999998,0 -106.63788489999997,35.07779369999998,0 -106.63815009999998,35.07739589999998,0 -106.63950749999998,35.07572819999998,0 -106.63977079999998,35.07533979999998,0 -106.6399228,35.07505329999998,0 -106.64004789999998,35.07473549999998,0 -106.64011879999998,35.07440939999998,0 -106.64014899999998,35.073855699999974,0 -106.63832649999998,35.05965269999997,0 -106.63839479999997,35.05960579999997,0 -106.63839389999997,35.05940139999997,0 -106.63842709999997,35.059281999999975,0 -106.63852899999996,35.059088699999975,0 -106.63863549999996,35.05898379999998,0 -106.63871719999997,35.05893689999998,0 -106.63881459999998,35.05890369999998,0 -106.63890249999997,35.05889039999998,0 -106.63899059999997,35.05889199999998,0 -106.63907699999997,35.05891259999998,0 -106.63916309999996,35.05895209999998,0 -106.63924849999997,35.059013999999976,0 -106.63931469999997,35.05908909999998,0 -106.63936629999996,35.05920809999998,0 -106.63936719999997,35.05926889999998,0 -106.63934489999997,35.05936009999998,0 -106.63927219999997,35.05948469999998,0 -106.63915669999996,35.059565999999975,0 -106.63902849999995,35.05960959999997,0 -106.63888309999996,35.059621299999975,0 -106.63876439999994,35.05961449999998,0 -106.63862249999994,35.05963399999998,0 -106.63235509999994,35.058627299999976,0 -106.63084779999994,35.05845459999998,0 -106.63085809999994,35.056782699999985,0 -106.63138709999994,35.056797799999984,0 -106.63221169999994,35.057208799999984,0 -106.63225049999996,35.057247899999986,0 -106.63227219999996,35.05729219999999,0 -106.63226519999995,35.057972099999986,0 -106.63229179999995,35.05801179999999,0 -106.63236289999995,35.058046899999994,0 -106.63529369999996,35.05805739999999,0 -106.63544429999995,35.05855889999999,0 -106.63543599999996,35.059117599999986,0 -106.63235509999996,35.05862729999999,0 -106.63224759999994,35.05925369999999,0 -106.63227129999994,35.05928569999999,0 -106.63229919999995,35.05943959999999,0 -106.63229449999994,35.059590599999986,0 -106.63228239999995,35.05961379999999,0 -106.63222119999996,35.05964909999999,0 -106.63127839999996,35.05964369999999,0 -106.63124759999995,35.05962719999999,0 -106.63122479999994,35.059600799999984,0 -106.63119259999995,35.059442799999985,0 -106.63120459999995,35.05931649999998,0 -106.63123269999994,35.05924199999998,0 -106.63117769999994,35.05911719999998,0 -106.63124859999995,35.05910639999998,0 </coordinates></LineString><TimeSpan><begin>2022-06-01T18:37:47.998Z</begin><end>2022-06-01T18:55:15.000Z</end></TimeSpan></Placemark><Placemark><name>ALON</name><address>1517 Gibson Blvd SE, Albuquerque, NM 87106</address><ExtendedData><Data name="Email"><value>syugen.zhou@gmail.com</value></Data><Data name="Category"><value>Gas station</value></Data><Data name="Distance"><value>0</value></Data></ExtendedData><description> Gas station from 2022-06-01T18:55:15.000Z to 2022-06-01T19:01:07.000Z. Distance 0m </description><Point><coordinates>-106.6314749,35.0589744,0</coordinates></Point><TimeSpan><begin>2022-06-01T18:55:15.000Z</begin><end>2022-06-01T19:01:07.000Z</end></TimeSpan></Placemark><Placemark><name>Driving</name><address></address><ExtendedData><Data name="Email"><value>syugen.zhou@gmail.com</value></Data><Data name="Category"><value>Driving</value></Data><Data name="Distance"><value>138</value></Data></ExtendedData><description> Driving from 2022-06-01T19:01:07.000Z to 2022-06-01T19:02:07.000Z. Distance 138m </description><LineString><altitudeMode>clampToGround</altitudeMode><extrude>1</extrude><tesselate>1</tesselate><coordinates>-106.63124859999999,35.0591064,0 -106.6312432,35.0591069,0 -106.6311777,35.0591172,0 -106.63110869999998,35.059128,0 -106.63098469999998,35.0591455,0 -106.6308586,35.0591584,0 -106.63085769999998,35.0591585,0 -106.63085769999998,35.0591585,0 -106.63083229999998,35.0590132,0 -106.63084529999999,35.058592399999995,0 -106.63084779999998,35.0584546,0 -106.63085149999998,35.0578619,0 -106.63085379999998,35.057480999999996,0 -106.63085379999998,35.057480999999996,0 -106.63078279999998,35.0574793,0 -106.63067269999998,35.0574799,0 -106.63056309999997,35.0574805,0 -106.63047349999998,35.057480999999996,0 -106.6302674,35.057482199999995,0 -106.63006879999999,35.057483299999994,0 -106.63006479999999,35.057483299999994,0 -106.63006479999999,35.057483299999994,0 -106.63006349999999,35.0576878,0 -106.63006349999999,35.0576878,0 -106.62994409999999,35.0576928,0 -106.62994409999999,35.0576928,0 -106.62994989999999,35.0578527,0 -106.62994869999999,35.0579905,0 -106.62994129999998,35.058128700000005,0 -106.62994129999998,35.058128700000005,0 -106.6300565,35.0581406,0 -106.63011409999999,35.058178899999994,0 -106.63027029999999,35.0581902,0 -106.63046209999999,35.058208199999996,0 -106.63054159999999,35.058185699999996,0 -106.63058819999999,35.058070699999995,0 </coordinates></LineString><TimeSpan><begin>2022-06-01T19:01:07.000Z</begin><end>2022-06-01T19:02:07.000Z</end></TimeSpan></Placemark><Placemark><name>Chick-fil-A</name><address>1600 Gibson Blvd SE, Albuquerque, NM 87106</address><ExtendedData><Data name="Email"><value>syugen.zhou@gmail.com</value></Data><Data name="Category"><value>Fast Food</value></Data><Data name="Distance"><value>0</value></Data></ExtendedData><description> Fast Food from 2022-06-01T19:02:07.000Z to 2022-06-01T19:18:45.000Z. Distance 0m </description><Point><coordinates>-106.63046089999999,35.0580474,0</coordinates></Point><TimeSpan><begin>2022-06-01T19:02:07.000Z</begin><end>2022-06-01T19:18:45.000Z</end></TimeSpan></Placemark><Placemark><name>Driving</name><address></address><ExtendedData><Data name="Email"><value>syugen.zhou@gmail.com</value></Data><Data name="Category"><value>Driving</value></Data><Data name="Distance"><value>2127</value></Data></ExtendedData><description> Driving from 2022-06-01T19:18:45.000Z to 2022-06-01T19:23:16.000Z. Distance 2127m </description><LineString><altitudeMode>clampToGround</altitudeMode><extrude>1</extrude><tesselate>1</tesselate><coordinates>-106.63058819999999,35.0580707,0 -106.63054159999999,35.0581857,0 -106.63046209999999,35.0582082,0 -106.63027029999999,35.058190200000006,0 -106.63011409999999,35.0581789,0 -106.6300565,35.05814060000001,0 -106.62994129999998,35.058128700000005,0 -106.62994869999999,35.05799050000001,0 -106.62994989999999,35.057852700000005,0 -106.62994409999999,35.057692800000005,0 -106.63006349999999,35.057687800000004,0 -106.63006479999999,35.0574833,0 -106.63078279999999,35.057479300000004,0 -106.63076729999999,35.058064,0 -106.6307138,35.05844,0 -106.6293562,35.058377799999995,0 -106.6290894,35.058374199999996,0 -106.6221168,35.0583632,0 -106.6221099,35.0573711,0 -106.62207939999999,35.056470499999996,0 -106.6220511,35.054128199999994,0 -106.6220568,35.05371629999999,0 -106.62392419999999,35.05371459999999,0 -106.62431339999998,35.05371889999999,0 -106.62470589999998,35.05369979999999,0 -106.62487539999998,35.053672899999995,0 -106.62505539999998,35.05363439999999,0 -106.62535329999997,35.05352519999999,0 -106.62567829999998,35.05335999999999,0 -106.62609659999998,35.0531258,0 -106.62638829999999,35.052971799999995,0 -106.62643139999999,35.05295649999999,0 -106.62669899999999,35.05285249999999,0 -106.62688479999998,35.0527982,0 -106.62703139999999,35.052769899999994,0 -106.6271455,35.05275219999999,0 -106.6273148,35.05273449999999,0 -106.6275153,35.052724399999995,0 -106.6296926,35.05271139999999,0 -106.62994189999999,35.052727999999995,0 -106.6303346,35.052733499999995,0 -106.63039389999999,35.052728099999996,0 -106.63044489999999,35.0527186,0 -106.63049479999998,35.052704199999994,0 -106.63054289999998,35.05268649999999,0 -106.63060829999998,35.0526565,0 -106.63066109999997,35.052621099999996,0 -106.63070909999998,35.05258419999999,0 -106.63075749999997,35.05253039999999,0 -106.63080839999998,35.05243639999999,0 -106.63082199999998,35.05235769999999,0 -106.63082009999998,35.05220759999999,0 -106.63086029999998,35.05215429999999,0 -106.63087089999998,35.05131449999999,0 -106.63088099999997,35.051165099999984,0 -106.63088669999999,35.05066809999999,0 -106.63088169999999,35.05046129999999,0 -106.63088179999998,35.05007909999999,0 -106.63086429999998,35.04914319999999,0 -106.63086329999997,35.04882829999998,0 -106.63080069999998,35.04791799999999,0 -106.63076929999998,35.04764309999999,0 -106.63049809999998,35.04713269999999,0 -106.63026639999998,35.04683799999999,0 -106.6301513,35.04672489999999,0 -106.62950099999999,35.04613349999999,0 -106.6291167,35.04569609999999,0 -106.62898589999999,35.04549979999999,0 -106.62886719999999,35.04522089999999,0 -106.62878129999999,35.044903699999985,0 -106.6287368,35.044492799999986,0 -106.6287402,35.044364899999984,0 -106.62874269999999,35.04370139999998,0 -106.6287493,35.043411099999986,0 -106.62876279999999,35.04177049999998,0 -106.62874679999999,35.04032429999998,0 -106.62858179999999,35.04032369999998,0 -106.62704919999999,35.04033819999998,0 -106.6267275,35.04034879999998,0 -106.62664509999999,35.040357599999986,0 -106.6265928,35.04035659999999,0 -106.6265443,35.04034009999998,0 -106.62650450000001,35.04031649999998,0 -106.6264843,35.04029749999998,0 -106.6264591,35.04026389999998,0 -106.6264487,35.040233799999974,0 -106.62643759999999,35.04018579999998,0 -106.62642639999999,35.040116599999976,0 -106.62641699999999,35.040090899999974,0 -106.6263925,35.040057599999976,0 -106.62635169999999,35.04002179999997,0 -106.6263101,35.04000369999997,0 -106.62626049999999,35.039994899999975,0 -106.62619049999999,35.039996099999975,0 -106.6260844,35.04002809999997,0 -106.6260494,35.04005549999997,0 -106.62602270000001,35.040100099999975,0 -106.62600880000001,35.04016169999998,0 -106.6260077,35.040239199999974,0 -106.6260245,35.04046959999997,0 </coordinates></LineString><TimeSpan><begin>2022-06-01T19:18:45.000Z</begin><end>2022-06-01T19:23:16.000Z</end></TimeSpan></Placemark><Placemark><name>Avis Car Rental</name><address>3400 University Blvd SE, Albuquerque, NM 87106</address><ExtendedData><Data name="Email"><value>syugen.zhou@gmail.com</value></Data><Data name="Category"><value>Car rental agency</value></Data><Data name="Distance"><value>0</value></Data></ExtendedData><description> Car rental agency from 2022-06-01T19:23:16.000Z to 2022-06-01T19:35:12.000Z. Distance 0m </description><Point><coordinates>-106.625874,35.040476999999996,0</coordinates></Point><TimeSpan><begin>2022-06-01T19:23:16.000Z</begin><end>2022-06-01T19:35:12.000Z</end></TimeSpan></Placemark><Placemark><name>On a bus</name><address></address><ExtendedData><Data name="Email"><value>syugen.zhou@gmail.com</value></Data><Data name="Category"><value>On a bus</value></Data><Data name="Distance"><value>2350</value></Data></ExtendedData><description> On a bus from 2022-06-01T19:35:12.449Z to 2022-06-01T19:37:44.374Z. Distance 2350m </description><LineString><altitudeMode>clampToGround</altitudeMode><extrude>1</extrude><tesselate>1</tesselate><coordinates>-106.62587400000001,35.040476999999996,0 -106.6263936,35.0410372,0 -106.6306835,35.047621,0 -106.6171876,35.0493955,0 -106.61755151927447,35.0476359826117,0 -106.61755151927447,35.0476359826117,0 </coordinates></LineString><TimeSpan><begin>2022-06-01T19:35:12.449Z</begin><end>2022-06-01T19:37:44.374Z</end></TimeSpan></Placemark><Placemark><name>Albuquerque International Sunport</name><address>2200 Sunport Blvd, Albuquerque, NM 87106</address><ExtendedData><Data name="Email"><value>syugen.zhou@gmail.com</value></Data><Data name="Category"><value>International airport</value></Data><Data name="Distance"><value>0</value></Data></ExtendedData><description> International airport from 2022-06-01T19:37:44.374Z to 2022-06-01T21:50:53.695Z. Distance 0m </description><Point><coordinates>-106.61290849999999,35.0433333,0</coordinates></Point><TimeSpan><begin>2022-06-01T19:37:44.374Z</begin><end>2022-06-01T21:50:53.695Z</end></TimeSpan></Placemark><Placemark><name>Flying</name><address></address><ExtendedData><Data name="Email"><value>syugen.zhou@gmail.com</value></Data><Data name="Category"><value>Flying</value></Data><Data name="Distance"><value>531813</value></Data></ExtendedData><description> Flying from 2022-06-01T21:50:53.695Z to 2022-06-01T22:51:41.000Z. Distance 531813m </description><LineString><altitudeMode>clampToGround</altitudeMode><extrude>1</extrude><tesselate>1</tesselate><coordinates>-106.61755151927447,35.0476359826117,0 -106.61755151927447,35.0476359826117,0 -106.6174447,35.0478136,0 -106.6426942,35.0116224,0 -106.9808029,35.0707098,0 -112.0008583,33.4393193,0 -112.0008583,33.4393193,0 </coordinates></LineString><TimeSpan><begin>2022-06-01T21:50:53.695Z</begin><end>2022-06-01T22:51:41.000Z</end></TimeSpan></Placemark><Placemark><name>Phoenix Sky Harbor International Airport</name><address>3400 E Sky Harbor Blvd, Phoenix, AZ 85034</address><ExtendedData><Data name="Email"><value>syugen.zhou@gmail.com</value></Data><Data name="Category"><value>International airport</value></Data><Data name="Distance"><value>0</value></Data></ExtendedData><description> International airport from 2022-06-01T22:51:41.000Z to 2022-06-01T23:05:04.000Z. Distance 0m </description><Point><coordinates>-112.01012399999999,33.435249,0</coordinates></Point><TimeSpan><begin>2022-06-01T22:51:41.000Z</begin><end>2022-06-01T23:05:04.000Z</end></TimeSpan></Placemark><Placemark><name>Flying</name><address></address><ExtendedData><Data name="Email"><value>syugen.zhou@gmail.com</value></Data><Data name="Category"><value>Flying</value></Data><Data name="Distance"><value>1002052</value></Data></ExtendedData><description> Flying from 2022-06-01T23:05:04.000Z to 2022-06-02T01:29:58.604Z. Distance 1002052m </description><LineString><altitudeMode>clampToGround</altitudeMode><extrude>1</extrude><tesselate>1</tesselate><coordinates>-112.0008583,33.4393193,0 -112.0008583,33.4393193,0 -111.9968865,33.4377529,0 -111.9968797,33.4378003,0 -111.9968986,33.4377485,0 -111.9973831,33.4376458,0 -111.9971312,33.4375909,0 -111.9925355,33.4323129,0 -111.9968986,33.4377485,0 -111.9973831,33.4376458,0 -111.9971312,33.4375909,0 -121.92947286293688,37.36987641104389,0 -121.92947286293688,37.36987641104389,0 </coordinates></LineString><TimeSpan><begin>2022-06-01T23:05:04.000Z</begin><end>2022-06-02T01:29:58.604Z</end></TimeSpan></Placemark><Placemark><name>Norman Y. Mineta San Jose International Airport</name><address>1701 Airport Blvd, San Jose, CA 95110</address><ExtendedData><Data name="Email"><value>syugen.zhou@gmail.com</value></Data><Data name="Category"><value>Airport</value></Data><Data name="Distance"><value>0</value></Data></ExtendedData><description> Airport from 2022-06-02T01:29:58.604Z to 2022-06-02T01:48:52.172Z. Distance 0m </description><Point><coordinates>-121.92893749999999,37.3639472,0</coordinates></Point><TimeSpan><begin>2022-06-02T01:29:58.604Z</begin><end>2022-06-02T01:48:52.172Z</end></TimeSpan></Placemark><Placemark><name>In a taxi</name><address></address><ExtendedData><Data name="Email"><value>syugen.zhou@gmail.com</value></Data><Data name="Category"><value>In a taxi</value></Data><Data name="Distance"><value>7586</value></Data></ExtendedData><description> In a taxi from 2022-06-02T01:48:52.172Z to 2022-06-02T02:06:32.625Z. Distance 7586m </description><LineString><altitudeMode>clampToGround</altitudeMode><extrude>1</extrude><tesselate>1</tesselate><coordinates>-121.91928899999999,37.3620805,0 -121.91950579999998,37.3623747,0 -121.91953489999999,37.3624885,0 -121.92099029999999,37.364560899999994,0 -121.92142749999998,37.36500029999999,0 -121.92198359999999,37.36542489999999,0 -121.924607,37.36655049999999,0 -121.92506329999999,37.36683699999999,0 -121.92512669999999,37.36704329999999,0 -121.92512129999999,37.36710119999999,0 -121.92508379999998,37.36715949999999,0 -121.92000659999998,37.371582599999996,0 -121.91960899999998,37.37167339999999,0 -121.91927569999997,37.37167719999999,0 -121.91640819999996,37.370982299999994,0 -121.91739529999997,37.37227939999999,0 -121.91741249999998,37.372516399999995,0 -121.91729069999998,37.37271509999999,0 -121.9170937,37.372823399999994,0 -121.91684959999999,37.37284799999999,0 -121.9166371,37.37281959999999,0 -121.91638680000001,37.37273379999999,0 -121.91623300000002,37.37264259999999,0 -121.91612590000003,37.372543699999994,0 -121.91606820000003,37.37244129999999,0 -121.91606080000003,37.372266399999994,0 -121.91615160000003,37.372114999999994,0 -121.91623500000003,37.372037399999996,0 -121.91631560000002,37.3719944,0 -121.9165162,37.3719543,0 -121.91701540000003,37.3719996,0 -121.91731110000002,37.3719398,0 -121.92373180000003,37.372897300000005,0 -121.93397050000004,37.375309300000005,0 -121.95086750000003,37.378635200000005,0 -121.95090260000003,37.3786556,0 -121.95409840000003,37.3793462,0 -121.95869430000005,37.3806199,0 -121.95935720000004,37.380926099999996,0 -121.96426070000005,37.38239,0 -121.96431710000007,37.3824407,0 -121.96452100000006,37.3825394,0 -121.96461060000007,37.382696499999994,0 -121.96460230000007,37.3828518,0 -121.96450890000007,37.382982399999996,0 -121.96438920000007,37.3830575,0 -121.96423820000005,37.3830935,0 -121.96409060000005,37.3830858,0 -121.96395040000006,37.3830381,0 -121.96387990000005,37.3829919,0 -121.96381370000005,37.3829115,0 -121.96378160000005,37.3828194,0 -121.96383580000006,37.382436000000006,0 -121.96472060000005,37.380422300000006,0 -121.96528630000005,37.3794047,0 -121.96566300000005,37.378484400000005,0 -121.96592430000005,37.3773396,0 -121.96594720000004,37.3764038,0 -121.96609450000004,37.3762103,0 -121.96618320000003,37.376151099999994,0 -121.96637140000004,37.37609379999999,0 -121.96808990000002,37.37608959999999,0 -121.96814970000004,37.37607489999999,0 -121.96824690000004,37.37601359999999,0 -121.96829330000003,37.3758935,0 -121.96828780000003,37.375275099999996,0 -121.96818470000002,37.37493919999999,0 -121.96826460000001,37.374713899999996,0 -121.9683753,37.37462159999999,0 -121.97498329999999,37.37457359999999,0 -121.9756273,37.374704699999995,0 -121.97629330000001,37.374994699999995,0 -121.97979120000001,37.377334399999995,0 -121.98020009999999,37.37754549999999,0 -121.9806828,37.37770739999999,0 -121.9812759,37.37781999999999,0 -122.0012226,37.37768769999999,0 -122.00181450000001,37.37762649999999,0 -122.00254710000002,37.37747789999999,0 -122.00468770000002,37.37685819999999,0 -122.0056733,37.376681099999985,0 -122.0066682,37.37664859999999,0 -122.00738199999999,37.376717699999986,0 -122.00827149999999,37.37690329999998,0 -122.0103779,37.37756899999999,0 -122.0119509,37.37832139999998,0 -122.0129302,37.37863869999998,0 -122.01382809999998,37.37599859999999,0 -122.01395509999998,37.37300599999999,0 -122.01383589999998,37.37056179999998,0 -122.01469119999996,37.370676199999984,0 -122.01547719999996,37.370912899999986,0 -122.01602339999995,37.371211299999985,0 -122.01627189999996,37.37139049999998,0 -122.01679509999997,37.37190029999998,0 -122.01672379999997,37.37193609999998,0 -122.01646269999996,37.37219889999998,0 -122.01592959999996,37.37365139999998,0 -122.01534119999997,37.37355689999998,0 -122.01547589999997,37.37314989999998,0 </coordinates></LineString><TimeSpan><begin>2022-06-02T01:48:52.172Z</begin><end>2022-06-02T02:06:32.625Z</end></TimeSpan></Placemark><Placemark><name>116 Lemmon Ter</name><address>116 Lemmon Ter, Sunnyvale, CA 94086</address><ExtendedData><Data name="Email"><value>syugen.zhou@gmail.com</value></Data><Data name="Category"><value></value></Data><Data name="Distance"><value>0</value></Data></ExtendedData><description>  from 2022-06-02T02:06:32.625Z to 2022-06-02T02:14:52.607Z. Distance 0m </description><Point><coordinates>-122.0152313,37.3730988,0</coordinates></Point><TimeSpan><begin>2022-06-02T02:06:32.625Z</begin><end>2022-06-02T02:14:52.607Z</end></TimeSpan></Placemark><Placemark><name>Driving</name><address></address><ExtendedData><Data name="Email"><value>syugen.zhou@gmail.com</value></Data><Data name="Category"><value>Driving</value></Data><Data name="Distance"><value>1638</value></Data></ExtendedData><description> Driving from 2022-06-02T02:14:52.607Z to 2022-06-02T02:18:01.000Z. Distance 1638m </description><LineString><altitudeMode>clampToGround</altitudeMode><extrude>1</extrude><tesselate>1</tesselate><coordinates>-122.0154759,37.3731499,0 -122.0153412,37.3735569,0 -122.01592959999999,37.3736514,0 -122.01652259999999,37.373778,0 -122.01713609999999,37.3738972,0 -122.01737,37.373071700000004,0 -122.0173782,37.373022999999996,0 -122.01742829999999,37.372804599999995,0 -122.0174397,37.372732199999994,0 -122.0174398,37.372731599999995,0 -122.0174602,37.37265609999999,0 -122.0174804,37.372600899999995,0 -122.0175704,37.37245239999999,0 -122.0176446,37.372492199999996,0 -122.01783970000001,37.37258409999999,0 -122.0180236,37.37264789999999,0 -122.0181618,37.37270089999999,0 -122.01826810000001,37.37273439999999,0 -122.01834050000001,37.372755299999994,0 -122.01837690000002,37.372765599999994,0 -122.01842020000002,37.37277589999999,0 -122.01850240000002,37.3727924,0 -122.01881320000003,37.3728595,0 -122.01899670000003,37.3729,0 -122.01947010000004,37.3730067,0 -122.01996410000002,37.373114900000004,0 -122.02006230000002,37.3731293,0 -122.02032060000002,37.3731969,0 -122.02039650000002,37.3732163,0 -122.02048270000003,37.37324520000001,0 -122.02061790000002,37.37329640000001,0 -122.02074560000003,37.3733604,0 -122.02080350000003,37.37339000000001,0 -122.02105430000003,37.373519300000005,0 -122.02117020000003,37.37356600000001,0 -122.02127960000003,37.37322290000001,0 -122.02131140000003,37.37312520000001,0 -122.02131800000004,37.37308810000001,0 -122.02131860000006,37.37305230000001,0 -122.02131470000006,37.37302120000001,0 -122.02129720000005,37.37296970000001,0 -122.02133700000006,37.37280990000001,0 -122.02140370000005,37.372617000000005,0 -122.02146490000007,37.372443800000006,0 -122.02159330000005,37.37203650000001,0 -122.02169400000005,37.371742200000014,0 -122.02182970000005,37.37131210000001,0 -122.02184640000006,37.371222900000014,0 -122.02185940000005,37.37116910000001,0 -122.02188710000004,37.371088600000014,0 -122.02197370000005,37.37083430000001,0 -122.02217300000004,37.37022790000001,0 -122.02222020000004,37.370084200000015,0 -122.02238520000003,37.36960540000001,0 -122.02255700000002,37.36913460000001,0 -122.02287530000004,37.368155400000006,0 -122.02296330000003,37.367883500000005,0 -122.02305190000003,37.36760970000001,0 -122.02315260000003,37.367298700000006,0 -122.02322890000002,37.3670868,0 -122.0232922,37.3668977,0 -122.0233323,37.3667808,0 -122.02336850000002,37.366675300000004,0 -122.02352710000002,37.36614660000001,0 -122.02354240000003,37.366095400000006,0 -122.02357460000002,37.365986500000005,0 -122.02370320000003,37.365619900000006,0 -122.02385350000003,37.365179,0 -122.02403300000003,37.364685099999996,0 -122.02413940000004,37.364273,0 -122.02415110000004,37.3642276,0 -122.02418090000003,37.3641124,0 -122.02422010000004,37.3639822,0 -122.02425610000003,37.3638661,0 -122.02428910000003,37.3637682,0 -122.02436640000002,37.3635608,0 -122.02444270000001,37.3633641,0 -122.024488,37.3632382,0 -122.0245157,37.3631586,0 -122.0245497,37.3630606,0 -122.02455660000001,37.3630358,0 -122.0246183,37.362835,0 -122.02475160000002,37.3624526,0 -122.0247968,37.3623229,0 -122.02487580000002,37.3620835,0 -122.02490560000001,37.3619932,0 -122.0249568,37.3618588,0 -122.025042,37.3617103,0 -122.0251454,37.3613846,0 -122.02522180000001,37.3611853,0 -122.02524900000002,37.361107100000005,0 -122.02531880000001,37.360903,0 -122.02539920000001,37.3609166,0 -122.02544440000001,37.360931199999996,0 -122.02550440000002,37.360957400000004,0 -122.02557680000001,37.3610138,0 -122.02558870000001,37.361023100000004,0 -122.02567940000002,37.3611026,0 -122.02570480000001,37.361124800000006,0 -122.0258758,37.3612747,0 </coordinates></LineString><TimeSpan><begin>2022-06-02T02:14:52.607Z</begin><end>2022-06-02T02:18:01.000Z</end></TimeSpan></Placemark><Placemark><name>Hunan Mifen</name><address>592 E El Camino Real, Sunnyvale, CA 94087</address><ExtendedData><Data name="Email"><value>syugen.zhou@gmail.com</value></Data><Data name="Category"><value>Chinese Noodles</value></Data><Data name="Distance"><value>0</value></Data></ExtendedData><description> Chinese Noodles from 2022-06-02T02:18:01.000Z to 2022-06-02T03:10:33.000Z. Distance 0m </description><Point><coordinates>-122.025989,37.3611678,0</coordinates></Point><TimeSpan><begin>2022-06-02T02:18:01.000Z</begin><end>2022-06-02T03:10:33.000Z</end></TimeSpan></Placemark><Placemark><name>Driving</name><address></address><ExtendedData><Data name="Email"><value>syugen.zhou@gmail.com</value></Data><Data name="Category"><value>Driving</value></Data><Data name="Distance"><value>5604</value></Data></ExtendedData><description> Driving from 2022-06-02T03:10:33.845Z to 2022-06-02T03:26:57.100Z. Distance 5604m </description><LineString><altitudeMode>clampToGround</altitudeMode><extrude>1</extrude><tesselate>1</tesselate><coordinates>-122.0258936,37.3612903,0 -122.02558869999999,37.361023100000004,0 -122.02550439999999,37.360957400000004,0 -122.02544439999998,37.360931199999996,0 -122.02539919999998,37.3609166,0 -122.02531879999998,37.360903,0 -122.02522179999998,37.3611853,0 -122.02514539999997,37.3613846,0 -122.02504199999998,37.3617103,0 -122.02495679999998,37.3618588,0 -122.02490559999998,37.3619932,0 -122.02461829999997,37.362835,0 -122.02454969999998,37.3630606,0 -122.02428909999998,37.3637682,0 -122.02418089999999,37.3641124,0 -122.02403299999999,37.3646851,0 -122.02357459999999,37.365986500000005,0 -122.02336849999999,37.366675300000004,0 -122.0231526,37.367298700000006,0 -122.022557,37.3691346,0 -122.0223852,37.369605400000005,0 -122.02185940000001,37.3711691,0 -122.02182970000001,37.371312100000004,0 -122.02146490000001,37.3724438,0 -122.02133700000002,37.37280990000001,0 -122.0212972,37.372969700000006,0 -122.0211953,37.37306610000001,0 -122.02118410000001,37.37308970000001,0 -122.0210543,37.373519300000005,0 -122.0209826,37.37393270000001,0 -122.0209764,37.374010700000014,0 -122.0209448,37.37417390000001,0 -122.0208865,37.37438190000001,0 -122.02072119999998,37.37479540000001,0 -122.02055419999999,37.375145300000014,0 -122.02036589999999,37.375569100000014,0 -122.02020309999997,37.376054900000014,0 -122.01979499999997,37.37705720000001,0 -122.01969199999996,37.37735530000001,0 -122.01956979999997,37.37794630000001,0 -122.01950219999998,37.37832550000001,0 -122.01859779999998,37.38105210000001,0 -122.01850649999997,37.38129050000001,0 -122.01838799999997,37.38165070000001,0 -122.01822889999998,37.38164410000001,0 -122.01685409999999,37.381353900000015,0 -122.01669229999999,37.381323600000016,0 -122.01585559999998,37.381141200000016,0 -122.01559589999998,37.381090700000016,0 -122.01544479999997,37.38106770000002,0 -122.01517419999996,37.38104660000002,0 -122.01495849999996,37.38169940000002,0 -122.01542619999996,37.381801300000014,0 -122.01495849999996,37.38169940000002,0 -122.01517419999996,37.38104660000002,0 -122.01544479999997,37.38106770000002,0 -122.01559589999998,37.381090700000016,0 -122.01822889999998,37.38164410000002,0 -122.0183517,37.381742500000016,0 -122.01864730000001,37.38181150000002,0 -122.01921150000001,37.38192650000002,0 -122.01927670000002,37.38193550000002,0 -122.01954530000002,37.381957100000015,0 -122.02007470000001,37.38198470000002,0 -122.02023590000002,37.382002600000014,0 -122.0219931,37.38226130000001,0 -122.0222647,37.382288400000014,0 -122.0285555,37.38361780000001,0 -122.02938559999998,37.38377050000001,0 -122.03141409999998,37.384226200000015,0 -122.03202389999998,37.384371500000015,0 -122.03468899999999,37.38504300000002,0 -122.03537789999999,37.38520020000002,0 -122.04300299999998,37.38681440000002,0 -122.04354219999998,37.38691850000002,0 -122.04375399999998,37.38626420000002,0 -122.04396489999998,37.38555780000002,0 -122.04414689999997,37.385226400000015,0 -122.04432579999998,37.38464880000002,0 -122.04433859999997,37.38452850000002,0 -122.04441599999997,37.38422850000002,0 -122.04442519999998,37.38416780000002,0 -122.0444187,37.384144200000016,0 -122.04466279999998,37.383358600000015,0 -122.04477079999998,37.383086100000014,0 -122.04527829999999,37.38155890000001,0 -122.04528289999999,37.38149780000001,0 -122.0452794,37.38139930000001,0 -122.0455642,37.38053140000002,0 -122.0460473,37.379142000000016,0 -122.0461873,37.37877680000001,0 -122.0465897,37.37886840000001,0 -122.0467532,37.37892160000001,0 -122.0467924,37.37894260000001,0 -122.04708419999999,37.379124800000014,0 -122.04716819999999,37.379169400000016,0 -122.04728259999999,37.37922200000002,0 -122.047332,37.37924170000002,0 -122.04738400000001,37.37925840000002,0 -122.0474386,37.379271000000024,0 </coordinates></LineString><TimeSpan><begin>2022-06-02T03:10:33.845Z</begin><end>2022-06-02T03:26:57.100Z</end></TimeSpan></Placemark><Placemark><name>Home (1040 W Washington Ave)</name><address>1040 W Washington Ave, Sunnyvale, CA 94086</address><ExtendedData><Data name="Email"><value>syugen.zhou@gmail.com</value></Data><Data name="Category"><value>Building</value></Data><Data name="Distance"><value>0</value></Data></ExtendedData><description> Building from 2022-06-02T03:26:57.100Z to 2022-06-03T17:35:25.000Z. Distance 0m </description><Point><coordinates>-122.04754319999999,37.379098,0</coordinates></Point><TimeSpan><begin>2022-06-02T03:26:57.100Z</begin><end>2022-06-03T17:35:25.000Z</end></TimeSpan></Placemark></Document></kml>
