<?xml version="1.0" encoding="UTF-8"?><kml xmlns="http://www.opengis.net/kml/2.2" xmlns:gx="http://www.google.com/kml/ext/2.2"><Document><name> Location history from 2021-12-17 to 2021-12-17 </name><open>1</open><description></description><StyleMap id="multiTrack"><Pair><key>normal</key><styleUrl>#multiTrack_n</styleUrl></Pair><Pair><key>highlight</key><styleUrl>#multiTrack_h</styleUrl></Pair></StyleMap><Style id="multiTrack_n"><IconStyle><Icon><href>https://earth.google.com/images/kml-icons/track-directional/track-0.png</href></Icon></IconStyle><LineStyle><color>99ffac59</color><width>6</width></LineStyle></Style><Style id="multiTrack_h"><IconStyle><scale>1.2</scale><Icon><href>https://earth.google.com/images/kml-icons/track-directional/track-0.png</href></Icon></IconStyle><LineStyle><color>99ffac59</color><width>8</width></LineStyle></Style><Placemark><name>Best Western Plus Twin View Inn &amp; Suites</name><address>1080 Twin View Blvd, Redding, CA 96003</address><ExtendedData><Data name="Email"><value>syugen.zhou@gmail.com</value></Data><Data name="Category"><value>Hotel</value></Data><Data name="Distance"><value>0</value></Data></ExtendedData><description> Hotel from 2021-12-17T01:30:52.000Z to 2021-12-17T17:22:05.164Z. Distance 0m </description><Point><coordinates>-122.368037,40.623208,0</coordinates></Point><TimeSpan><begin>2021-12-17T01:30:52.000Z</begin><end>2021-12-17T17:22:05.164Z</end></TimeSpan></Placemark><Placemark><name>Driving</name><address></address><ExtendedData><Data name="Email"><value>syugen.zhou@gmail.com</value></Data><Data name="Category"><value>Driving</value></Data><Data name="Distance"><value>2086</value></Data></ExtendedData><description> Driving from 2021-12-17T17:22:05.164Z to 2021-12-17T17:25:42.208Z. Distance 2086m </description><LineString><altitudeMode>clampToGround</altitudeMode><extrude>1</extrude><tesselate>1</tesselate><coordinates>-122.367607,40.6230812,0 -122.36760670000001,40.6230732,0 -122.3676072,40.623070500000004,0 -122.3676257,40.6230271,0 -122.3676273,40.623024900000004,0 -122.36768740000001,40.6229806,0 -122.3677376,40.6229542,0 -122.36780110000001,40.6229408,0 -122.36785760000001,40.6229376,0 -122.36788910000001,40.6229408,0 -122.36815840000001,40.6230453,0 -122.3684169,40.6231517,0 -122.36858439999999,40.6232277,0 -122.36869429999999,40.6230609,0 -122.3687358,40.6230106,0 -122.3687769,40.6229021,0 -122.36878759999999,40.622775399999995,0 -122.36877530000001,40.62268699999999,0 -122.36874420000001,40.622584399999994,0 -122.3689755,40.62251189999999,0 -122.36903810000001,40.62248269999999,0 -122.369087,40.62245499999999,0 -122.36919759999999,40.62235819999999,0 -122.36926059999999,40.62228589999999,0 -122.369581,40.621834599999985,0 -122.37060089999999,40.620431199999985,0 -122.37092589999997,40.619960099999986,0 -122.37400229999996,40.615673999999984,0 -122.37412049999996,40.61548409999998,0 -122.37421069999996,40.61532709999999,0 -122.37426179999996,40.61521909999998,0 -122.37429189999995,40.61513799999999,0 -122.37439409999993,40.61489799999998,0 -122.37445429999994,40.61473389999998,0 -122.37452649999994,40.61451199999998,0 -122.37454459999994,40.614368099999986,0 -122.37451329999995,40.61391829999998,0 -122.37451179999995,40.61369079999998,0 -122.37453009999994,40.61354329999998,0 -122.37455519999993,40.61347759999998,0 -122.37459759999994,40.613431699999985,0 -122.37463869999995,40.613403199999986,0 -122.37471079999995,40.61336999999998,0 -122.37478569999995,40.613351999999985,0 -122.37489439999995,40.61335589999998,0 -122.37501239999996,40.61337669999998,0 -122.37530679999996,40.61344059999998,0 -122.37550739999996,40.61348769999998,0 -122.37564859999995,40.61313189999998,0 -122.37621199999995,40.61162129999998,0 -122.37630609999994,40.61135629999998,0 -122.37638569999993,40.61111419999999,0 -122.37642499999993,40.61098169999998,0 -122.37649069999992,40.61072939999998,0 -122.37661929999993,40.610119099999984,0 -122.37666279999993,40.60983669999998,0 -122.37670489999995,40.60948329999999,0 -122.37672459999996,40.609355499999985,0 -122.37650739999997,40.60935349999998,0 -122.37627089999997,40.609389399999976,0 -122.37622289999995,40.60939879999998,0 -122.37609229999995,40.60942809999998,0 -122.37598799999996,40.60945489999998,0 -122.37545799999995,40.609624199999985,0 -122.37449189999995,40.609955499999984,0 -122.37393579999994,40.61012789999998,0 -122.37379029999994,40.60981989999998,0 -122.37377889999993,40.60977629999998,0 -122.37377569999992,40.60975409999998,0 -122.37377319999992,40.60971239999998,0 -122.37377319999992,40.60965419999997,0 -122.37377879999993,40.609597899999976,0 -122.37378699999994,40.60955339999998,0 -122.37380689999993,40.60948449999998,0 -122.37383089999993,40.60943439999998,0 -122.37388119999991,40.60935319999998,0 -122.37389979999992,40.60932629999998,0 -122.37394279999992,40.60927839999998,0 -122.37403209999991,40.60918969999998,0 -122.3738972999999,40.60914139999998,0 -122.37381659999991,40.60911719999998,0 -122.3737231999999,40.609111899999974,0 -122.37361829999989,40.60912829999997,0 -122.37349669999989,40.60914259999997,0 -122.37292729999989,40.60928609999997,0 -122.37265289999988,40.60936759999997,0 -122.37257439999989,40.60941629999997,0 -122.37260889999988,40.60949769999998,0 -122.37322149999987,40.609420399999976,0 -122.37325129999986,40.609415399999975,0 -122.37326899999987,40.60941679999998,0 -122.37328849999986,40.609420399999976,0 -122.37330059999985,40.609423899999975,0 -122.37331019999985,40.60943259999998,0 -122.37343469999985,40.60989239999997,0 -122.37343279999983,40.60990999999997,0 -122.37343279999983,40.609923399999964,0 -122.37342629999985,40.609933299999966,0 -122.37340489999985,40.60994109999996,0 -122.37331399999984,40.609958799999966,0 </coordinates></LineString><TimeSpan><begin>2021-12-17T17:22:05.164Z</begin><end>2021-12-17T17:25:42.208Z</end></TimeSpan></Placemark><Placemark><name>Walgreens Pharmacy</name><address>115 Lake Blvd E, Redding, CA 96003</address><ExtendedData><Data name="Email"><value>syugen.zhou@gmail.com</value></Data><Data name="Category"><value>Pharmacy</value></Data><Data name="Distance"><value>0</value></Data></ExtendedData><description> Pharmacy from 2021-12-17T17:25:42.208Z to 2021-12-17T17:47:12.003Z. Distance 0m </description><Point><coordinates>-122.3732313,40.6097543,0</coordinates></Point><TimeSpan><begin>2021-12-17T17:25:42.208Z</begin><end>2021-12-17T17:47:12.003Z</end></TimeSpan></Placemark><Placemark><name>Driving</name><address></address><ExtendedData><Data name="Email"><value>syugen.zhou@gmail.com</value></Data><Data name="Category"><value>Driving</value></Data><Data name="Distance"><value>15045</value></Data></ExtendedData><description> Driving from 2021-12-17T17:47:12.003Z to 2021-12-17T18:03:20.124Z. Distance 15045m </description><LineString><altitudeMode>clampToGround</altitudeMode><extrude>1</extrude><tesselate>1</tesselate><coordinates>-122.372685,40.609699899999995,0 -122.37257440000002,40.6094163,0 -122.3726529,40.6093676,0 -122.37349670000002,40.6091426,0 -122.3737232,40.609111899999995,0 -122.37381660000001,40.60911719999999,0 -122.37403210000001,40.609189699999995,0 -122.3738998,40.60932629999999,0 -122.37380690000002,40.60948449999999,0 -122.37377320000003,40.60965419999999,0 -122.37379030000001,40.60981989999999,0 -122.3739625,40.61021919999999,0 -122.37610040000001,40.60956169999999,0 -122.3765053,40.60948239999999,0 -122.37670490000002,40.609483299999994,0 -122.37704780000003,40.60748479999999,0 -122.37750060000002,40.60644019999999,0 -122.37803410000004,40.60560409999999,0 -122.37836890000004,40.605199699999986,0 -122.38389380000002,40.59980689999999,0 -122.38423870000003,40.599519699999995,0 -122.39316940000002,40.590829199999995,0 -122.39325380000001,40.59069169999999,0 -122.39335330000002,40.590385699999985,0 -122.39333800000001,40.59006739999999,0 -122.39324500000001,40.58995909999999,0 -122.39228070000001,40.58766139999999,0 -122.39783980000001,40.58628359999999,0 -122.39863510000002,40.586200099999985,0 -122.3989978,40.586217699999985,0 -122.40088690000002,40.58651459999998,0 -122.40151940000001,40.58657299999998,0 -122.40279650000002,40.58660769999998,0 -122.41915520000003,40.58527209999998,0 -122.42122570000004,40.584958499999985,0 -122.42804900000004,40.58350759999998,0 -122.43309140000004,40.58214099999998,0 -122.43411450000004,40.58198059999998,0 -122.43476550000004,40.581971299999985,0 -122.43570730000003,40.582056899999984,0 -122.43630980000003,40.582177899999984,0 -122.43702660000002,40.58241539999998,0 -122.43912570000003,40.58335549999998,0 -122.43994190000002,40.58359979999998,0 -122.44042060000001,40.58368659999998,0 -122.4451488,40.58415859999998,0 -122.44583150000001,40.584285899999976,0 -122.44588130000001,40.58432739999998,0 -122.4546845,40.586636499999976,0 -122.45540849999999,40.58689709999997,0 -122.45597459999999,40.58717889999998,0 -122.45658169999999,40.58758589999997,0 -122.4579475,40.58875369999997,0 -122.45832370000001,40.58900379999997,0 -122.45836990000001,40.58907519999997,0 -122.45931200000001,40.589524499999975,0 -122.46031150000002,40.589812699999975,0 -122.46087130000002,40.58991259999998,0 -122.46181680000002,40.58995109999998,0 -122.46191320000001,40.589917299999975,0 -122.46413770000002,40.589881499999976,0 -122.46486960000001,40.58992679999998,0 -122.46597880000003,40.59009579999998,0 -122.46658720000002,40.59024599999997,0 -122.46759450000003,40.59058859999997,0 -122.46899270000003,40.590924799999975,0 -122.46992220000003,40.591071899999974,0 -122.47090300000002,40.59114749999997,0 -122.47185040000002,40.59115649999997,0 -122.47897790000002,40.590650499999974,0 -122.47943700000003,40.590655899999966,0 -122.48043160000003,40.590754299999965,0 -122.48145780000003,40.590974499999966,0 -122.48266960000002,40.59144769999997,0 -122.48358350000002,40.591952299999974,0 -122.48464750000004,40.592892899999974,0 -122.48629720000002,40.59479089999997,0 -122.48691980000002,40.59536919999997,0 -122.48816490000004,40.59635239999997,0 -122.49729390000003,40.60274189999997,0 -122.49801540000001,40.60318099999997,0 -122.4985499,40.603445799999974,0 -122.4992342,40.60372169999997,0 -122.50015330000001,40.60399959999997,0 -122.50184120000002,40.60433599999997,0 -122.50950660000001,40.605551199999965,0 -122.51004970000001,40.60572249999997,0 -122.51075040000002,40.60604839999997,0 -122.51115440000001,40.60629979999997,0 -122.51719990000001,40.611375999999964,0 -122.51755580000003,40.611743899999965,0 -122.51774460000001,40.61200449999996,0 -122.5179602,40.612419999999965,0 -122.51839840000001,40.61368799999996,0 -122.5186391,40.61414049999996,0 -122.5194026,40.615101899999964,0 -122.52072950000002,40.61421469999997,0 -122.52075,40.614420999999965,0 -122.5204137,40.61467669999997,0 -122.5201556,40.61482879999997,0 </coordinates></LineString><TimeSpan><begin>2021-12-17T17:47:12.003Z</begin><end>2021-12-17T18:03:20.124Z</end></TimeSpan></Placemark><Placemark><name>Whiskeytown National Recreation Area Visitor Center</name><address>14412 J.F. Kennedy Memorial Drive, Whiskeytown, CA 96095</address><ExtendedData><Data name="Email"><value>syugen.zhou@gmail.com</value></Data><Data name="Category"><value>Visitor center</value></Data><Data name="Distance"><value>0</value></Data></ExtendedData><description> Visitor center from 2021-12-17T18:03:20.124Z to 2021-12-17T18:10:16.379Z. Distance 0m </description><Point><coordinates>-122.52016789999999,40.6150137,0</coordinates></Point><TimeSpan><begin>2021-12-17T18:03:20.124Z</begin><end>2021-12-17T18:10:16.379Z</end></TimeSpan></Placemark><Placemark><name>Driving</name><address></address><ExtendedData><Data name="Email"><value>syugen.zhou@gmail.com</value></Data><Data name="Category"><value>Driving</value></Data><Data name="Distance"><value>248115</value></Data></ExtendedData><description> Driving from 2021-12-17T18:10:16.379Z to 2021-12-17T20:37:19.893Z. Distance 248115m </description><LineString><altitudeMode>clampToGround</altitudeMode><extrude>1</extrude><tesselate>1</tesselate><coordinates>-122.5185251,40.6139369,0 -122.5175558,40.61174389999999,0 -122.51115439999998,40.606299799999995,0 -122.51004969999998,40.6057225,0 -122.50015329999998,40.6039996,0 -122.49801539999997,40.60318099999999,0 -122.48629719999997,40.5947909,0 -122.48358349999998,40.591952299999996,0 -122.48145779999999,40.5909745,0 -122.48043159999997,40.5907543,0 -122.47897789999998,40.590650499999995,0 -122.47185039999997,40.5911565,0 -122.46899269999996,40.59092479999999,0 -122.46486959999997,40.589926799999986,0 -122.46087939999997,40.58982929999999,0 -122.45954359999998,40.58952609999999,0 -122.45832369999998,40.58900379999999,0 -122.45597459999999,40.58717889999999,0 -122.45468449999997,40.5866365,0 -122.44589099999997,40.5842601,0 -122.44583149999998,40.5842859,0 -122.4399419,40.583599799999995,0 -122.43630979999999,40.5821779,0 -122.4347655,40.58197129999999,0 -122.4330914,40.58214099999999,0 -122.42804899999999,40.5835076,0 -122.41915519999998,40.58527209999999,0 -122.40279649999997,40.586607699999995,0 -122.39863509999996,40.58620009999999,0 -122.39783979999996,40.586283599999994,0 -122.39228069999996,40.587661399999995,0 -122.39324499999995,40.589959099999994,0 -122.39320499999995,40.59038399999999,0 -122.39292769999994,40.59094549999999,0 -122.37791009999995,40.60555709999999,0 -122.37707019999996,40.60695489999999,0 -122.37632249999994,40.610540799999995,0 -122.37053689999993,40.62617189999999,0 -122.37006319999993,40.62697829999999,0 -122.36820229999992,40.628806799999985,0 -122.36784119999993,40.62957629999999,0 -122.36774629999994,40.630658299999986,0 -122.36798709999992,40.63223869999998,0 -122.36739589999993,40.63456799999998,0 -122.36742429999993,40.63466459999998,0 -122.36188709999992,40.649305099999985,0 -122.34882579999991,40.67798349999998,0 -122.34388729999992,40.69470139999998,0 -122.32779669999992,40.72037689999998,0 -122.32427669999991,40.72428009999998,0 -122.3143198999999,40.73990319999998,0 -122.31384709999992,40.741080499999974,0 -122.31373449999992,40.742040699999976,0 -122.31431129999991,40.74530729999998,0 -122.31543079999993,40.74738379999997,0 -122.31663669999993,40.748694199999974,0 -122.32122999999996,40.75257979999997,0 -122.32178869999996,40.75370839999997,0 -122.32173179999995,40.75470849999998,0 -122.32111309999995,40.75582789999998,0 -122.31974399999996,40.75704289999998,0 -122.31916689999997,40.75785389999998,0 -122.31899299999996,40.758406899999976,0 -122.31843189999996,40.766486799999974,0 -122.31803379999997,40.76750849999998,0 -122.31761509999995,40.76795359999998,0 -122.31429749999995,40.769504199999986,0 -122.31329419999997,40.77032939999999,0 -122.31255709999995,40.77157549999998,0 -122.31232619999996,40.772944399999986,0 -122.31256019999996,40.774050899999985,0 -122.31463409999998,40.77783499999998,0 -122.31477499999997,40.779013599999985,0 -122.31453559999999,40.77981659999999,0 -122.31393799999998,40.78061959999999,0 -122.31281589999996,40.78138289999999,0 -122.31019429999998,40.782364599999994,0 -122.30907799999997,40.78319679999999,0 -122.30845199999996,40.78425949999999,0 -122.30834469999995,40.785054699999996,0 -122.30856469999996,40.786009099999994,0 -122.30918499999996,40.78689179999999,0 -122.31199509999995,40.7889394,0 -122.31397809999996,40.7910001,0 -122.31660569999994,40.7927372,0 -122.31973439999996,40.794035799999996,0 -122.32036689999995,40.794438199999995,0 -122.32114699999995,40.795320999999994,0 -122.32146619999996,40.79607409999999,0 -122.32262679999995,40.80404929999999,0 -122.32238989999996,40.806108899999984,0 -122.32085849999997,40.81126649999998,0 -122.32079779999998,40.81285549999998,0 -122.32111709999998,40.81443499999998,0 -122.32457529999999,40.82392869999998,0 -122.3246257,40.82711989999998,0 -122.3260084,40.83061869999998,0 -122.32782910000002,40.838284799999975,0 -122.32815980000001,40.842581099999975,0 -122.32860840000001,40.84336299999998,0 -122.32951740000001,40.844143099999975,0 -122.34025150000001,40.84868159999998,0 -122.34076780000001,40.84903339999998,0 -122.3414975,40.84984859999998,0 -122.3417936,40.85052059999998,0 -122.3419026,40.85345949999998,0 -122.3426046,40.85471999999998,0 -122.34977780000001,40.86065879999998,0 -122.35100840000001,40.86143459999998,0 -122.35353610000001,40.86259019999998,0 -122.3626303,40.86536829999998,0 -122.36399960000001,40.86605079999998,0 -122.36472620000004,40.866607499999986,0 -122.36575620000004,40.86785099999999,0 -122.36700140000004,40.87032979999998,0 -122.36790670000005,40.87129159999998,0 -122.37094380000005,40.87310339999998,0 -122.37235420000003,40.87439829999998,0 -122.37417980000004,40.876944399999985,0 -122.37568730000004,40.87801649999998,0 -122.37862570000004,40.87940049999998,0 -122.38095330000004,40.88112109999999,0 -122.38211290000004,40.88258949999999,0 -122.38325710000002,40.88492919999998,0 -122.38357910000002,40.88660879999998,0 -122.38280890000001,40.89872569999998,0 -122.3830557,40.90294759999998,0 -122.38453760000002,40.90903789999998,0 -122.38558870000001,40.91086529999998,0 -122.38747450000002,40.912596599999986,0 -122.40091960000002,40.92127929999999,0 -122.40193920000003,40.92169589999998,0 -122.40341580000002,40.921979399999984,0 -122.40692860000003,40.92202249999999,0 -122.40836630000001,40.92238719999999,0 -122.40963280000003,40.923100599999984,0 -122.41066090000001,40.924321599999985,0 -122.41166820000002,40.92858949999999,0 -122.4130717,40.93197329999999,0 -122.41321850000001,40.93414259999999,0 -122.413624,40.93500829999999,0 -122.41447980000001,40.935856199999996,0 -122.4152657,40.9362922,0 -122.41625410000002,40.936608799999995,0 -122.42030190000001,40.936892699999994,0 -122.42126940000001,40.937237599999996,0 -122.42459570000001,40.939884,0 -122.4260735,40.9405561,0 -122.4341162,40.9415812,0 -122.43512340000001,40.941971,0 -122.43616890000001,40.942676199999994,0 -122.43663760000001,40.94317709999999,0 -122.43724490000001,40.94441059999999,0 -122.43727720000001,40.945745499999994,0 -122.43559830000001,40.95026399999999,0 -122.43516240000001,40.956864599999996,0 -122.43559020000001,40.957930499999996,0 -122.43629650000001,40.9586918,0 -122.43980070000002,40.960600299999996,0 -122.44031240000002,40.9610702,0 -122.44083220000002,40.9618926,0 -122.44100710000002,40.96275609999999,0 -122.44079160000003,40.96380429999999,0 -122.43992430000002,40.96489329999999,0 -122.43925890000001,40.96533039999999,0 -122.43634580000003,40.96664259999999,0 -122.43583460000002,40.96702689999999,0 -122.43396760000002,40.96984639999999,0 -122.4325105,40.97132909999999,0 -122.43200120000002,40.97228579999999,0 -122.43189900000002,40.97296749999999,0 -122.43207520000003,40.973934599999986,0 -122.43295090000004,40.97601479999999,0 -122.43296200000003,40.977163099999984,0 -122.43071260000002,40.980983299999984,0 -122.42905250000003,40.98570339999998,0 -122.42732110000003,40.98866529999998,0 -122.42574170000003,40.99047659999998,0 -122.41050480000004,41.00236529999998,0 -122.40972690000004,41.003502099999984,0 -122.40927050000005,41.005026999999984,0 -122.40972400000005,41.010142399999985,0 -122.40957970000004,41.01114709999999,0 -122.40917670000006,41.01210539999999,0 -122.40839880000006,41.01313959999999,0 -122.39769390000006,41.02274589999999,0 -122.39684060000006,41.023980299999984,0 -122.39654860000005,41.02492739999999,0 -122.39735770000004,41.032219099999985,0 -122.39714850000003,41.03391119999999,0 -122.39568180000002,41.03743649999999,0 -122.39533540000001,41.041228999999994,0 -122.39464670000001,41.04286299999999,0 -122.393598,41.04404139999999,0 -122.3898944,41.04657649999999,0 -122.38822,41.04729389999999,0 -122.38355899999999,41.0484369,0 -122.38173689999999,41.049268899999994,0 -122.38083660000001,41.05006,0 -122.37862960000001,41.0544865,0 -122.37737100000001,41.0554293,0 -122.3742659,41.0565373,0 -122.3733482,41.0571196,0 -122.3729113,41.05754769999999,0 -122.36919300000001,41.06308979999999,0 -122.36841140000001,41.06379929999999,0 -122.36766070000002,41.064211199999995,0 -122.3636333,41.06548469999999,0 -122.3624953,41.06613809999999,0 -122.36158660000002,41.06690919999999,0 -122.35648550000003,41.07429809999999,0 -122.35593740000003,41.076479699999986,0 -122.35598350000004,41.08075599999999,0 -122.35576420000004,41.081324499999994,0 -122.35532030000003,41.08189139999999,0 -122.35457530000004,41.08242389999999,0 -122.35309830000006,41.083093199999986,0 -122.35244710000005,41.08356369999999,0 -122.35191140000006,41.08435519999999,0 -122.35178610000006,41.085052899999994,0 -122.35278380000007,41.089178899999986,0 -122.35274050000005,41.08982369999999,0 -122.35216920000005,41.09080119999999,0 -122.35138740000005,41.09134019999998,0 -122.34744890000006,41.09282059999998,0 -122.34659520000007,41.09339409999998,0 -122.34606610000006,41.094051999999984,0 -122.34430900000007,41.098824999999984,0 -122.34363350000005,41.099613799999986,0 -122.33387000000006,41.10639149999999,0 -122.32723900000005,41.11013249999999,0 -122.32684280000004,41.11052009999999,0 -122.32634990000005,41.11155969999999,0 -122.32639820000006,41.112495899999985,0 -122.32767940000005,41.11565689999998,0 -122.32807300000003,41.118424199999986,0 -122.32796600000005,41.119373899999985,0 -122.32325600000004,41.127613199999985,0 -122.32264200000004,41.12913469999998,0 -122.32147390000003,41.13651449999998,0 -122.32102440000001,41.13757839999998,0 -122.31851510000003,41.14087669999998,0 -122.31813210000004,41.141735499999974,0 -122.31746010000003,41.14607719999998,0 -122.31710150000002,41.14700189999998,0 -122.31611420000003,41.14833769999998,0 -122.31483340000001,41.14931249999998,0 -122.3136073,41.14989509999997,0 -122.3073973,41.15149959999998,0 -122.30309930000001,41.151255999999975,0 -122.3019981,41.15141209999997,0 -122.2966895,41.15300509999997,0 -122.2958125,41.15342319999998,0 -122.295076,41.153985399999975,0 -122.2944115,41.15491249999997,0 -122.294169,41.15570749999998,0 -122.29417450000001,41.156378099999976,0 -122.2943994,41.157139799999975,0 -122.2973362,41.162434399999974,0 -122.29752339999999,41.16317769999998,0 -122.29766239999998,41.171679999999974,0 -122.29694869999997,41.17371209999997,0 -122.28640859999999,41.18778079999997,0 -122.28394529999997,41.194816599999974,0 -122.28308499999996,41.195966499999976,0 -122.27866409999996,41.19989229999997,0 -122.27778039999997,41.20131549999997,0 -122.27686659999996,41.20592449999997,0 -122.27527879999997,41.210397199999974,0 -122.27410519999997,41.212713899999976,0 -122.27398719999997,41.21354139999998,0 -122.27551549999997,41.22329129999998,0 -122.27538939999995,41.229003499999976,0 -122.27493459999995,41.23045049999998,0 -122.27404539999996,41.231596799999984,0 -122.27119159999997,41.234319599999985,0 -122.26486919999996,41.23810119999999,0 -122.26233639999997,41.24002809999999,0 -122.26086309999998,41.241597599999984,0 -122.25827149999998,41.245616699999985,0 -122.25779829999996,41.247046099999984,0 -122.25792649999995,41.248660999999984,0 -122.25835209999995,41.24962919999998,0 -122.25891259999993,41.25038869999998,0 -122.25999749999993,41.251330799999984,0 -122.27061999999994,41.257569299999986,0 -122.27189769999993,41.25853819999998,0 -122.27332509999994,41.260224399999984,0 -122.27737749999994,41.26837239999998,0 -122.27903059999994,41.27024319999998,0 -122.28758479999995,41.27686319999998,0 -122.30631999999996,41.28755699999998,0 -122.30797439999995,41.28888769999998,0 -122.30885779999994,41.289969999999975,0 -122.33252059999995,41.332597399999976,0 -122.33799929999994,41.33797589999998,0 -122.34295169999994,41.344576699999976,0 -122.35224679999996,41.352586199999976,0 -122.35648499999996,41.35552269999998,0 -122.36877899999998,41.366877899999984,0 -122.37328469999999,41.37171139999999,0 -122.37460659999998,41.37384669999999,0 -122.37514499999999,41.37573729999998,0 -122.37490949999999,41.39053329999999,0 -122.37568719999999,41.392715899999985,0 -122.37713669999998,41.39447949999999,0 -122.38025509999999,41.39675969999998,0 -122.3818908,41.39868939999998,0 -122.38248899999999,41.40003719999998,0 -122.38271379999999,41.40224999999998,0 -122.3823762,41.40372549999998,0 -122.38013659999999,41.40747279999998,0 -122.37974679999999,41.408685099999985,0 -122.3796564,41.41039699999998,0 -122.3799549,41.41174529999998,0 -122.3823888,41.41573999999998,0 -122.38358240000001,41.418601199999976,0 -122.38444380000001,41.41958449999998,0 -122.3862191,41.42084699999998,0 -122.387724,41.42147939999998,0 -122.3894172,41.42187869999998,0 -122.3926615,41.42214629999998,0 -122.3941956,41.42244069999998,0 -122.3964866,41.42341699999998,0 -122.3981535,41.42480849999998,0 -122.39968150000001,41.42745239999998,0 -122.40060420000002,41.428462699999976,0 -122.4016064,41.42910489999998,0 -122.4023674,41.42942319999998,0 -122.40845180000001,41.43068049999998,0 -122.40966780000001,41.43066709999998,0 -122.42094500000002,41.428863999999976,0 -122.4221648,41.42884939999998,0 -122.423838,41.42918039999998,0 -122.42758459999999,41.430671799999985,0 -122.4286498,41.431470699999984,0 -122.4294066,41.432496399999984,0 -122.4301326,41.43599349999998,0 -122.43097369999998,41.437628299999986,0 -122.43440849999998,41.44110819999999,0 -122.43512169999997,41.44223839999999,0 -122.43641869999996,41.44582899999999,0 -122.43779789999996,41.44784759999999,0 -122.44183059999996,41.45126099999999,0 -122.44272469999996,41.45239569999999,0 -122.44835399999997,41.46653479999999,0 -122.45685499999998,41.479391299999996,0 -122.46188529999998,41.48990489999999,0 -122.46340429999998,41.49591409999999,0 -122.46434129999997,41.497799799999996,0 -122.46494319999996,41.4985637,0 -122.46836799999997,41.5016682,0 -122.47080619999997,41.504729399999995,0 -122.47175069999997,41.50671259999999,0 -122.47232599999998,41.5087632,0 -122.47378999999997,41.5202303,0 -122.47646779999997,41.528045299999995,0 -122.47749239999996,41.535117099999994,0 -122.47851389999997,41.537304999999996,0 -122.48135259999998,41.541870499999995,0 -122.48195919999998,41.54338609999999,0 -122.48331439999998,41.549292799999996,0 -122.48460359999999,41.55165379999999,0 -122.48969139999998,41.55886639999999,0 -122.49681309999998,41.572344599999994,0 -122.50189819999999,41.584128699999994,0 -122.50213989999997,41.58597259999999,0 -122.50199179999998,41.58897689999999,0 -122.50245119999998,41.59146159999999,0 -122.51568129999998,41.61955789999999,0 -122.51750129999998,41.62256099999999,0 -122.52309539999997,41.62938439999999,0 -122.53420509999997,41.64512729999999,0 -122.53536029999998,41.646275499999994,0 -122.53786849999997,41.64784549999999,0 -122.56658149999997,41.65892949999999,0 -122.57040889999998,41.65976339999999,0 -122.57952229999997,41.66096409999999,0 -122.59226989999998,41.661203499999985,0 -122.59537689999998,41.66156119999998,0 -122.59931379999998,41.66245669999998,0 -122.60409549999999,41.66431999999998,0 -122.62156919999997,41.67470449999998,0 -122.63298999999996,41.68324479999998,0 -122.63478259999997,41.68495689999998,0 -122.63648669999996,41.687391699999985,0 -122.64262399999997,41.70310559999998,0 -122.64290919999998,41.70482519999999,0 -122.64277059999998,41.706258699999985,0 -122.64059169999999,41.71341299999998,0 -122.6305841,41.73605399999999,0 -122.6296683,41.73748449999999,0 -122.62768590000002,41.739490299999986,0 -122.6243177,41.74216529999998,0 -122.62177700000001,41.74556049999998,0 -122.6205364,41.74664439999998,0 -122.6193322,41.74741359999999,0 -122.61349700000002,41.749853999999985,0 -122.60577310000001,41.754290199999986,0 -122.59986940000002,41.75651719999999,0 -122.59490800000003,41.759466899999985,0 -122.59157120000003,41.76090039999998,0 -122.59011220000004,41.76175219999999,0 -122.58898210000005,41.762663299999986,0 -122.58791470000004,41.763868399999986,0 -122.58390240000003,41.769852399999984,0 -122.58290250000002,41.77184469999998,0 -122.58222540000001,41.77508679999998,0 -122.58233790000001,41.77706329999998,0 -122.58486460000002,41.78584729999998,0 -122.5852995,41.78670619999998,0 -122.5879652,41.78943779999998,0 -122.58843099999999,41.79026819999998,0 -122.58871209999998,41.791402499999975,0 -122.58866609999997,41.79231299999997,0 -122.58824869999997,41.793484399999976,0 -122.58746519999995,41.794508199999974,0 -122.58652339999996,41.795253699999975,0 -122.58441609999996,41.79636959999998,0 -122.58331179999995,41.79723779999998,0 -122.58272719999995,41.79794769999997,0 -122.58209189999994,41.79949539999998,0 -122.58203889999993,41.80201629999998,0 -122.58142719999992,41.80350839999998,0 -122.58064859999992,41.80440869999998,0 -122.5799158999999,41.804975699999986,0 -122.5784210999999,41.80569889999998,0 -122.5749035999999,41.80679859999998,0 -122.5737617999999,41.80752349999998,0 -122.57295939999989,41.808311299999986,0 -122.5722336999999,41.80958369999998,0 -122.57203609999989,41.811177999999984,0 -122.57233689999988,41.81235919999999,0 -122.57287019999988,41.81325099999999,0 -122.57729509999987,41.81823809999998,0 -122.57869279999989,41.82067459999998,0 -122.57937959999988,41.82311269999998,0 -122.58018129999988,41.830357699999986,0 -122.58008709999987,41.83124939999999,0 -122.57963319999988,41.83236749999998,0 -122.57920539999988,41.832970299999985,0 -122.5774184999999,41.83460439999999,0 -122.57657709999988,41.83574999999999,0 -122.57621519999988,41.836775399999986,0 -122.57641169999988,41.839639599999984,0 -122.57617159999987,41.840944599999986,0 -122.57572379999988,41.84180349999998,0 -122.57449209999989,41.843051999999986,0 -122.5737788999999,41.843501299999986,0 -122.5706289999999,41.844876599999985,0 -122.5700099999999,41.84530549999999,0 -122.5688895999999,41.846509099999984,0 -122.5683904999999,41.84755449999999,0 -122.5682424999999,41.84828129999998,0 -122.56830329999988,41.84941289999998,0 -122.56862279999989,41.85032649999999,0 -122.57103199999989,41.85367979999999,0 -122.5715240999999,41.854791099999986,0 -122.5716447999999,41.85573139999999,0 -122.5714045999999,41.857018199999985,0 -122.57094439999989,41.85789759999999,0 -122.5701386999999,41.858803999999985,0 -122.5669833999999,41.861126099999986,0 -122.5658386999999,41.862633299999985,0 -122.5641321999999,41.866638299999984,0 -122.5632195999999,41.86800369999999,0 -122.5602543999999,41.870696999999986,0 -122.5595430999999,41.87158019999999,0 -122.55627799999989,41.87871899999999,0 -122.5559000999999,41.88099599999999,0 -122.55609799999989,41.88505089999999,0 -122.5567713999999,41.886392499999985,0 -122.55993239999991,41.890176899999986,0 -122.56318669999992,41.894963799999985,0 -122.56537939999993,41.89937819999999,0 -122.57128999999992,41.91487069999999,0 -122.57984179999993,41.92816939999999,0 -122.58084719999992,41.93027149999998,0 -122.58325209999991,41.938462399999985,0 -122.5906864999999,41.95255739999999,0 -122.59411519999992,41.95772079999998,0 -122.5958383999999,41.961679299999986,0 -122.5965000999999,41.96262999999998,0 -122.6000901999999,41.96633559999999,0 -122.60269179999989,41.97012059999998,0 -122.60354839999988,41.97204689999998,0 -122.60690359999988,41.98322109999998,0 -122.60789699999988,41.98954759999999,0 -122.61028089999988,41.99450199999998,0 -122.61031649999987,41.99520179999998,0 -122.60985149999986,41.99754979999999,0 -122.60989789999986,41.998219199999994,0 -122.61025149999986,41.99922079999999,0 -122.61218569999988,42.00227259999999,0 -122.61501199999988,42.00495379999999,0 -122.61565229999988,42.00628979999999,0 -122.61566529999988,42.00744889999999,0 -122.61416299999988,42.014321599999995,0 -122.61375679999988,42.01522469999999,0 -122.61294979999987,42.01626529999999,0 -122.60617269999987,42.022740799999994,0 -122.60561299999986,42.023806099999995,0 -122.60207889999985,42.0343222,0 -122.59858989999985,42.0376509,0 -122.59808619999987,42.0383232,0 -122.59785939999985,42.0390451,0 -122.59795379999986,42.039911,0 -122.59834229999986,42.04061289999999,0 -122.60482849999985,42.04577449999999,0 -122.60660229999985,42.049944499999995,0 -122.60710249999984,42.0505912,0 -122.60959179999982,42.0527301,0 -122.60995619999983,42.053473999999994,0 -122.60991779999983,42.05598059999999,0 -122.60969149999984,42.05678089999999,0 -122.60673959999984,42.06114899999999,0 -122.60590399999984,42.061904199999994,0 -122.60175609999985,42.06452049999999,0 -122.60125309999985,42.06500039999999,0 -122.60095259999984,42.06549909999999,0 -122.60083419999984,42.06599639999999,0 -122.60095009999985,42.066698899999984,0 -122.60134389999985,42.06748969999999,0 -122.60546479999987,42.07306519999999,0 -122.60563179999987,42.07380069999999,0 -122.60546869999986,42.07454629999999,0 -122.60497979999985,42.07516189999999,0 -122.60127149999985,42.07738619999999,0 -122.60038649999987,42.0784118,0 -122.59919639999987,42.0821469,0 -122.59922589999988,42.082697499999995,0 -122.59944469999988,42.08327979999999,0 -122.60301199999988,42.08795059999999,0 -122.60320059999988,42.0884946,0 -122.60317759999988,42.089025199999995,0 -122.6025628999999,42.0907064,0 -122.6032835999999,42.0933203,0 -122.6036728999999,42.093966599999995,0 -122.60411449999991,42.094342299999994,0 -122.6063476999999,42.0955532,0 -122.60694879999991,42.0962333,0 -122.6071195999999,42.096801899999996,0 -122.60711649999989,42.098790799999996,0 -122.60793239999988,42.1017562,0 -122.60858059999987,42.102846799999995,0 -122.61186889999986,42.10601049999999,0 -122.61286429999987,42.10808929999999,0 -122.61355609999987,42.108717299999995,0 -122.61703409999988,42.11023289999999,0 -122.61762509999987,42.11084879999999,0 -122.61855899999988,42.112676799999996,0 -122.61943789999987,42.113548699999996,0 -122.62170809999986,42.114917999999996,0 -122.62203229999987,42.1153001,0 -122.62440079999986,42.120824999999996,0 -122.62514739999986,42.121897,0 -122.62733159999988,42.1236798,0 -122.62983829999986,42.1280618,0 -122.63510909999988,42.1349691,0 -122.63677219999988,42.140513399999996,0 -122.6396429999999,42.147647899999996,0 -122.6436124999999,42.152001,0 -122.67169229999989,42.1937862,0 -122.6728721999999,42.1951028,0 -122.67406009999989,42.196026800000006,0 -122.70841039999989,42.216111000000005,0 -122.7392906999999,42.22751900000001,0 -122.7696132999999,42.242727900000006,0 -122.7718609999999,42.244234600000006,0 -122.8034297999999,42.27022420000001,0 -122.8151084999999,42.28152290000001,0 -122.84697409999991,42.30992550000001,0 -122.8668311999999,42.32435200000001,0 -122.8680541999999,42.32569750000002,0 -122.8687979999999,42.327001400000015,0 -122.8779651999999,42.35470820000002,0 -122.8795622999999,42.35778490000001,0 -122.8812625999999,42.35983680000001,0 -122.90054789999989,42.375825700000014,0 -122.90057079999988,42.375918900000016,0 -122.9013173999999,42.376642300000015,0 -122.90178559999988,42.377412700000015,0 -122.9019332999999,42.378409900000015,0 -122.90174259999989,42.378611800000016,0 -122.9014851999999,42.37873800000001,0 -122.8853269999999,42.378376500000016,0 -122.8853096999999,42.372092000000016,0 -122.8858870999999,42.372090000000014,0 </coordinates></LineString><TimeSpan><begin>2021-12-17T18:10:16.379Z</begin><end>2021-12-17T20:37:19.893Z</end></TimeSpan></Placemark><Placemark><name>Costco Wholesale</name><address>3075 Hamrick Rd, Central Point, OR 97502</address><ExtendedData><Data name="Email"><value>syugen.zhou@gmail.com</value></Data><Data name="Category"><value>Warehouse store</value></Data><Data name="Distance"><value>0</value></Data></ExtendedData><description> Warehouse store from 2021-12-17T20:37:19.893Z to 2021-12-17T20:57:45.293Z. Distance 0m </description><Point><coordinates>-122.88732599999999,42.374245599999995,0</coordinates></Point><TimeSpan><begin>2021-12-17T20:37:19.893Z</begin><end>2021-12-17T20:57:45.293Z</end></TimeSpan></Placemark><Placemark><name>Driving</name><address></address><ExtendedData><Data name="Email"><value>syugen.zhou@gmail.com</value></Data><Data name="Category"><value>Driving</value></Data><Data name="Distance"><value>144405</value></Data></ExtendedData><description> Driving from 2021-12-17T20:57:45.293Z to 2021-12-17T22:20:17.238Z. Distance 144405m </description><LineString><altitudeMode>clampToGround</altitudeMode><extrude>1</extrude><tesselate>1</tesselate><coordinates>-122.88633610000001,42.3749122,0 -122.8863563,42.3753731,0 -122.8926353,42.375398999999994,0 -122.89284289999999,42.375530999999995,0 -122.89294369999999,42.3786834,0 -122.90194009999998,42.378738799999994,0 -122.90208399999999,42.3790388,0 -122.90266049999998,42.3794172,0 -122.90557799999998,42.3800758,0 -122.93746629999998,42.4034263,0 -122.94126729999998,42.405489,0 -122.95581649999997,42.4111151,0 -122.96061699999998,42.412184100000005,0 -122.96460309999999,42.412447400000005,0 -122.9852313,42.412114800000005,0 -122.9888912,42.4124266,0 -123.05376449999999,42.4290076,0 -123.07467739999998,42.4325704,0 -123.08750549999999,42.4322955,0 -123.0896294,42.4318062,0 -123.09121019999999,42.4312104,0 -123.0950806,42.429189099999995,0 -123.09753110000001,42.428368299999995,0 -123.1128211,42.4257254,0 -123.1149325,42.424813099999994,0 -123.1341214,42.4095188,0 -123.1358643,42.4087185,0 -123.1378897,42.4084104,0 -123.14012140000001,42.408690899999996,0 -123.1531825,42.4132112,0 -123.1547334,42.414055499999996,0 -123.1557567,42.41498239999999,0 -123.1687152,42.431163199999986,0 -123.16982180000001,42.43206249999999,0 -123.1734144,42.43381069999999,0 -123.17566620000001,42.43423819999999,0 -123.1774885,42.43415229999999,0 -123.1849584,42.432664899999985,0 -123.18747150000002,42.43168249999999,0 -123.18924810000003,42.43049899999999,0 -123.19497180000002,42.42544669999999,0 -123.19660350000001,42.42462519999999,0 -123.2074056,42.42191639999999,0 -123.2090647,42.42180499999999,0 -123.2263197,42.42298339999999,0 -123.2284509,42.42379249999999,0 -123.2324379,42.42646389999999,0 -123.23385419999998,42.42711499999999,0 -123.23636889999999,42.427605799999995,0 -123.2450387,42.42747389999999,0 -123.24652959999999,42.42767579999999,0 -123.24959169999998,42.428662999999986,0 -123.26317399999999,42.436285599999984,0 -123.2651492,42.43686429999998,0 -123.26693379999999,42.43712259999999,0 -123.29354899999997,42.43825119999999,0 -123.29490459999998,42.438500799999986,0 -123.29619759999997,42.43903789999999,0 -123.29706479999997,42.43966069999999,0 -123.31197259999996,42.45839129999999,0 -123.31333359999998,42.45963439999999,0 -123.31711819999997,42.46208029999999,0 -123.35201329999995,42.477872299999994,0 -123.35472969999994,42.47973069999999,0 -123.35879659999995,42.48360679999999,0 -123.36073829999995,42.486449399999984,0 -123.36184739999995,42.48882889999999,0 -123.36275139999996,42.492416699999985,0 -123.36326279999997,42.51462399999998,0 -123.36873789999996,42.52873439999998,0 -123.36921579999996,42.53080139999999,0 -123.37274169999996,42.574775299999985,0 -123.37361149999998,42.57683689999999,0 -123.37469629999997,42.57817819999998,0 -123.37633949999997,42.579477099999984,0 -123.38077979999997,42.581982299999986,0 -123.38865189999997,42.588168999999986,0 -123.38916299999998,42.588817699999986,0 -123.38944249999999,42.58951339999999,0 -123.38942949999998,42.590273199999984,0 -123.38926019999998,42.590760799999984,0 -123.38793379999998,42.59240309999998,0 -123.38598139999999,42.596142999999984,0 -123.38377709999997,42.59895329999998,0 -123.38322029999999,42.60001979999998,0 -123.3830862,42.60112959999998,0 -123.38356369999998,42.60422609999998,0 -123.3806425,42.612857399999974,0 -123.378678,42.61527689999998,0 -123.378529,42.61584509999997,0 -123.3786251,42.61659339999998,0 -123.37923839999999,42.61747799999998,0 -123.3815383,42.61948419999998,0 -123.3841269,42.62355949999998,0 -123.3842937,42.624321199999976,0 -123.38416489999999,42.625062799999974,0 -123.383705,42.62586629999998,0 -123.38161370000002,42.62757199999998,0 -123.38108600000001,42.62823019999998,0 -123.3807697,42.629194799999986,0 -123.3808276,42.629857999999984,0 -123.38755750000001,42.640424199999984,0 -123.38769110000001,42.64193219999999,0 -123.38734500000002,42.64298109999999,0 -123.38657280000002,42.644152899999995,0 -123.38326370000001,42.647585799999995,0 -123.38138190000004,42.65043429999999,0 -123.37634490000003,42.655040199999995,0 -123.37592240000004,42.655606399999996,0 -123.37573700000003,42.656447899999996,0 -123.37583080000002,42.656901299999994,0 -123.37704760000003,42.6587743,0 -123.37720360000003,42.6596178,0 -123.37621170000003,42.662706899999996,0 -123.37627730000001,42.6639234,0 -123.37658160000001,42.6646643,0 -123.37743980000002,42.6656916,0 -123.38049190000002,42.6674478,0 -123.38107190000002,42.6682976,0 -123.38112440000002,42.669080400000006,0 -123.38070110000001,42.67069670000001,0 -123.38075530000002,42.67177790000001,0 -123.38133770000002,42.67291980000001,0 -123.38389550000001,42.67583830000001,0 -123.38437040000001,42.677041900000006,0 -123.3843679,42.68002210000001,0 -123.38456760000001,42.680877900000006,0 -123.38504080000003,42.6817295,0 -123.39258970000003,42.6881952,0 -123.39328610000003,42.68914650000001,0 -123.39363130000004,42.690634900000006,0 -123.39349430000003,42.691388700000005,0 -123.39303750000002,42.692306900000005,0 -123.39237930000002,42.6930271,0 -123.37837650000002,42.70152,0 -123.36738160000003,42.707355500000006,0 -123.36643750000003,42.7080834,0 -123.36546840000003,42.709422700000005,0 -123.3652107,42.710294100000006,0 -123.3652348,42.71148300000001,0 -123.3658066,42.71283470000001,0 -123.36636170000001,42.71350350000001,0 -123.3714995,42.717305200000006,0 -123.37186929999999,42.71776330000001,0 -123.37215749999999,42.718811600000016,0 -123.37142479999997,42.721485500000014,0 -123.37206879999998,42.724372400000014,0 -123.37192889999999,42.725212200000016,0 -123.37151999999999,42.726053600000014,0 -123.36970159999998,42.728041300000015,0 -123.36926639999997,42.72886780000002,0 -123.36918919999998,42.729629400000015,0 -123.37103309999998,42.733897100000014,0 -123.37095409999996,42.734452300000015,0 -123.36925879999995,42.73668900000001,0 -123.36915929999996,42.737337400000015,0 -123.36956879999997,42.738317500000015,0 -123.37167809999998,42.740189700000016,0 -123.37244499999998,42.741382600000016,0 -123.37261919999997,42.74236010000001,0 -123.37245309999999,42.74344220000001,0 -123.3718878,42.74444720000001,0 -123.3710624,42.74522320000001,0 -123.3396728,42.76471800000001,0 -123.3380623,42.76550470000001,0 -123.3355887,42.76621210000001,0 -123.3187132,42.76698630000001,0 -123.31397500000001,42.76791760000001,0 -123.2733221,42.78039920000001,0 -123.27031430000001,42.781599100000015,0 -123.2661445,42.784223800000014,0 -123.2644142,42.78583720000002,0 -123.25285440000002,42.80113920000001,0 -123.25229210000002,42.80270880000001,0 -123.25221750000001,42.804701500000014,0 -123.25265070000002,42.80625680000001,0 -123.25342860000002,42.80762730000001,0 -123.25946680000003,42.81351980000001,0 -123.26021620000003,42.81458290000001,0 -123.26090630000003,42.81612220000001,0 -123.26117630000003,42.81743900000001,0 -123.26039780000002,42.82541030000001,0 -123.25918820000001,42.82896750000001,0 -123.25449820000001,42.83600600000001,0 -123.25201610000002,42.843232500000006,0 -123.25208170000002,42.84411330000001,0 -123.2525368,42.84493060000001,0 -123.2545316,42.84690410000001,0 -123.25519540000002,42.84836620000001,0 -123.25523670000003,42.84914620000001,0 -123.25480770000003,42.85043230000001,0 -123.25391700000003,42.85147000000001,0 -123.24842230000003,42.85497040000001,0 -123.24744210000003,42.85622730000001,0 -123.24625560000003,42.86140010000001,0 -123.24648740000003,42.867638100000015,0 -123.24566120000003,42.87034600000001,0 -123.24400260000003,42.87296790000001,0 -123.23788080000004,42.89341620000001,0 -123.23806180000004,42.89431250000001,0 -123.23869200000004,42.89516730000002,0 -123.23958510000003,42.89574910000002,0 -123.24054250000003,42.89609480000002,0 -123.24769670000003,42.89770670000002,0 -123.24886920000002,42.89817180000002,0 -123.24991020000002,42.89900160000001,0 -123.25044300000002,42.89988810000002,0 -123.25138100000001,42.902586800000016,0 -123.2517958,42.90305530000001,0 -123.25577329999999,42.905835400000015,0 -123.256817,42.906300000000016,0 -123.2601095,42.90709360000002,0 -123.261172,42.90769800000002,0 -123.26371999999999,42.910191800000014,0 -123.266284,42.91345660000002,0 -123.27401239999999,42.91830920000002,0 -123.2818641,42.92819630000002,0 -123.2852926,42.93787630000002,0 -123.28625480000002,42.93935270000002,0 -123.29508170000001,42.94713190000002,0 -123.29675150000001,42.94784390000002,0 -123.2982078,42.94803320000002,0 -123.32702730000001,42.948045000000015,0 -123.32831970000002,42.94835810000002,0 -123.3296461,42.94915400000002,0 -123.33040030000001,42.950175700000024,0 -123.33061620000001,42.95124670000002,0 -123.3305263,42.95173190000002,0 -123.33003659999999,42.952657000000016,0 -123.3251526,42.95800430000001,0 -123.32473329999999,42.95905540000001,0 -123.3247378,42.95982010000001,0 -123.32533389999999,42.96106660000001,0 -123.3262937,42.96188130000001,0 -123.3271781,42.96229940000001,0 -123.33107050000001,42.96341720000001,0 -123.33298309999999,42.964244900000004,0 -123.3349308,42.96560990000001,0 -123.3358311,42.96661770000001,0 -123.33656359999999,42.967925000000015,0 -123.3369412,42.96975710000002,0 -123.33680199999999,42.971064200000015,0 -123.3312539,42.98458650000002,0 -123.32449439999999,42.994110200000016,0 -123.3236295,42.99500120000002,0 -123.3022893,43.010113300000015,0 -123.3012245,43.011179900000016,0 -123.30063990000001,43.01217000000001,0 -123.30036319999999,43.01311670000001,0 -123.3004031,43.014565200000014,0 -123.30165190000001,43.01781240000001,0 -123.3017104,43.01930930000001,0 -123.3009704,43.02082330000001,0 -123.30022369999999,43.02153350000001,0 -123.2981644,43.02287340000001,0 -123.29778510000001,43.02332710000001,0 -123.29760830000002,43.02385330000001,0 -123.2976311,43.02432270000001,0 -123.29796570000002,43.02497380000002,0 -123.30010350000003,43.02645850000002,0 -123.30165570000003,43.029040600000016,0 -123.30224870000004,43.02956610000001,0 -123.30332160000003,43.03012110000002,0 -123.30464190000002,43.030415900000015,0 -123.31347550000002,43.02970230000001,0 -123.31541960000003,43.02989820000001,0 -123.31913800000004,43.03095290000001,0 -123.32931170000005,43.034793100000016,0 -123.33080290000004,43.03571890000001,0 -123.33251510000004,43.037608900000016,0 -123.33326510000002,43.03947760000001,0 -123.33337000000003,43.04077070000002,0 -123.33121430000003,43.04860500000001,0 -123.33137330000001,43.05130000000001,0 -123.33185410000002,43.052693800000014,0 -123.33314530000003,43.054766100000016,0 -123.33467700000003,43.056290900000015,0 -123.33769310000002,43.05815760000001,0 -123.34394310000003,43.060655600000004,0 -123.34546740000002,43.061502100000006,0 -123.3468744,43.06262620000001,0 -123.35436280000002,43.070846900000014,0 -123.36372250000001,43.079657800000014,0 -123.36761380000002,43.089175800000014,0 -123.36778470000002,43.09100380000002,0 -123.366851,43.102385800000015,0 -123.3665782,43.10322150000001,0 -123.36587500000002,43.10409520000002,0 -123.3650736,43.104607600000016,0 -123.36376370000002,43.105007700000016,0 -123.36018750000002,43.10523160000001,0 -123.35899660000003,43.105478200000015,0 -123.35776960000003,43.10609780000001,0 -123.35524330000003,43.10890910000001,0 -123.35476490000002,43.10971570000001,0 -123.35459520000003,43.110798300000006,0 -123.35515170000004,43.11202610000001,0 -123.35766580000002,43.11459080000001,0 -123.35890930000002,43.11739410000001,0 -123.3632693,43.12406340000002,0 -123.36375790000001,43.12530360000002,0 -123.3654681,43.165478700000016,0 -123.3663595,43.16818670000002,0 -123.3736129,43.18065810000002,0 -123.37402680000001,43.182587300000016,0 -123.37378730000002,43.18388800000002,0 -123.37254590000003,43.18590550000002,0 -123.37007180000002,43.188286200000015,0 -123.36491650000002,43.191407200000015,0 -123.36310090000003,43.192856700000014,0 -123.36064420000004,43.19599800000002,0 -123.35955170000003,43.19860400000002,0 -123.35874390000004,43.206694200000015,0 -123.35835590000002,43.20758540000002,0 -123.35740260000003,43.208779800000016,0 -123.35557940000002,43.210369700000015,0 -123.35492650000003,43.21123260000002,0 -123.35469240000003,43.212110400000014,0 -123.35494100000004,43.213289400000015,0 -123.35935030000003,43.22253850000001,0 -123.35963280000004,43.22415740000001,0 -123.35922770000005,43.22588910000001,0 -123.35936440000003,43.22668670000001,0 -123.36154660000003,43.22698530000002,0 -123.36934640000004,43.22940360000001,0 -123.37126280000005,43.23038320000001,0 -123.37262980000006,43.23134720000001,0 -123.37203240000005,43.23175060000001,0 </coordinates></LineString><TimeSpan><begin>2021-12-17T20:57:45.293Z</begin><end>2021-12-17T22:20:17.238Z</end></TimeSpan></Placemark><Placemark><name>Walgreens</name><address>1236 NW Garden Valley Blvd, Roseburg, OR 97471</address><ExtendedData><Data name="Email"><value>syugen.zhou@gmail.com</value></Data><Data name="Category"><value>Drug store</value></Data><Data name="Distance"><value>0</value></Data></ExtendedData><description> Drug store from 2021-12-17T22:20:17.238Z to 2021-12-17T22:38:31.791Z. Distance 0m </description><Point><coordinates>-123.3723289,43.2318893,0</coordinates></Point><TimeSpan><begin>2021-12-17T22:20:17.238Z</begin><end>2021-12-17T22:38:31.791Z</end></TimeSpan></Placemark><Placemark><name>Driving</name><address></address><ExtendedData><Data name="Email"><value>syugen.zhou@gmail.com</value></Data><Data name="Category"><value>Driving</value></Data><Data name="Distance"><value>4173</value></Data></ExtendedData><description> Driving from 2021-12-17T22:38:31.791Z to 2021-12-17T22:46:10.874Z. Distance 4173m </description><LineString><altitudeMode>clampToGround</altitudeMode><extrude>1</extrude><tesselate>1</tesselate><coordinates>-123.37234300000001,43.2329101,0 -123.37234140000002,43.2331994,0 -123.37234870000002,43.233477199999996,0 -123.37234870000002,43.233785999999995,0 -123.3723327,43.2355844,0 -123.3722484,43.23599359999999,0 -123.37220230000001,43.2361309,0 -123.37211200000002,43.2362844,0 -123.3719691,43.236488699999995,0 -123.3718002,43.236646799999995,0 -123.3701961,43.2378247,0 -123.36780030000001,43.23951579999999,0 -123.3676477,43.23960949999999,0 -123.3674692,43.239697799999995,0 -123.36728389999999,43.239779999999996,0 -123.36705789999998,43.239862099999996,0 -123.3666976,43.239939299999996,0 -123.36638519999998,43.239984299999996,0 -123.36430869999998,43.2402065,0 -123.36361439999999,43.240303499999996,0 -123.36284989999999,43.240414799999996,0 -123.36263719999998,43.2404288,0 -123.36248929999998,43.24042359999999,0 -123.36232729999998,43.24040299999999,0 -123.36208419999998,43.240340999999994,0 -123.36183139999997,43.24021849999999,0 -123.36156669999995,43.24045449999999,0 -123.36149239999995,43.24059279999999,0 -123.36144879999995,43.240699499999984,0 -123.36142809999996,43.240796899999985,0 -123.36142299999996,43.241083799999984,0 -123.36143409999995,43.24142899999998,0 -123.36142829999996,43.24195979999998,0 -123.36141799999994,43.24220339999998,0 -123.36139819999994,43.24307469999999,0 -123.36140369999994,43.244233399999985,0 -123.36142439999993,43.24450709999999,0 -123.36141589999994,43.24500879999999,0 -123.36141399999993,43.245478199999994,0 -123.36141789999992,43.246135999999986,0 -123.36139069999992,43.24651389999999,0 -123.36138259999991,43.24657109999999,0 -123.36136999999991,43.24662899999999,0 -123.3613472999999,43.2467109,0 -123.3613002999999,43.246829899999994,0 -123.36127399999991,43.246883499999996,0 -123.36124979999992,43.246926599999995,0 -123.36122079999993,43.24697,0 -123.36118919999993,43.2470127,0 -123.36114699999992,43.247063399999995,0 -123.36110439999992,43.24711229999999,0 -123.3610547999999,43.24716149999999,0 -123.36099529999991,43.24721089999999,0 -123.36093069999991,43.247253699999995,0 -123.3608417999999,43.24730829999999,0 -123.3605568999999,43.24743359999999,0 -123.3601200999999,43.24761589999999,0 -123.3597448999999,43.24776149999999,0 -123.35971319999989,43.24777489999999,0 -123.3593305999999,43.24792819999999,0 -123.3592110999999,43.24797729999999,0 -123.3589443999999,43.24808149999999,0 -123.3588072999999,43.248137099999994,0 -123.35862379999989,43.24820819999999,0 -123.35786599999989,43.24842919999999,0 -123.35771829999989,43.24846629999999,0 -123.35743079999989,43.24852639999999,0 -123.35728779999988,43.24854629999999,0 -123.35715099999986,43.24856279999999,0 -123.35701149999986,43.248577499999996,0 -123.35679419999985,43.2485966,0 -123.35601349999986,43.24860499999999,0 -123.35469019999985,43.2485904,0 -123.35340789999985,43.248585299999995,0 -123.35297669999986,43.248588,0 -123.35272169999986,43.248592099999996,0 -123.35261559999985,43.2493959,0 -123.35238939999985,43.2509885,0 -123.35228919999984,43.2517698,0 -123.35217599999984,43.2527054,0 -123.35208059999982,43.2533943,0 -123.35201819999982,43.253792499999996,0 -123.35178449999982,43.2555917,0 -123.35170829999984,43.2561324,0 -123.35153139999984,43.2577095,0 -123.35142269999984,43.2586081,0 -123.35141379999983,43.258723499999995,0 -123.35099399999982,43.2587135,0 -123.35092379999983,43.25871479999999,0 -123.35076759999983,43.25872819999999,0 -123.35069579999981,43.25874899999999,0 -123.3506616999998,43.25876849999999,0 -123.35061349999981,43.25880859999999,0 -123.3505623999998,43.25887309999999,0 -123.35054079999982,43.25891029999999,0 -123.35053349999981,43.258923999999986,0 -123.35053029999982,43.25894289999999,0 -123.3505293999998,43.258954599999996,0 -123.3505487999998,43.259247499999994,0 -123.35077649999978,43.25924129999999,0 </coordinates></LineString><TimeSpan><begin>2021-12-17T22:38:31.791Z</begin><end>2021-12-17T22:46:10.874Z</end></TimeSpan></Placemark><Placemark><name>Costco Wholesale</name><address>4141 NE Stephens St, Roseburg, OR 97470</address><ExtendedData><Data name="Email"><value>syugen.zhou@gmail.com</value></Data><Data name="Category"><value>Warehouse store</value></Data><Data name="Distance"><value>0</value></Data></ExtendedData><description> Warehouse store from 2021-12-17T22:46:10.874Z to 2021-12-17T23:06:26.999Z. Distance 0m </description><Point><coordinates>-123.3499145,43.2594947,0</coordinates></Point><TimeSpan><begin>2021-12-17T22:46:10.874Z</begin><end>2021-12-17T23:06:26.999Z</end></TimeSpan></Placemark><Placemark><name>Driving</name><address></address><ExtendedData><Data name="Email"><value>syugen.zhou@gmail.com</value></Data><Data name="Category"><value>Driving</value></Data><Data name="Distance"><value>284133</value></Data></ExtendedData><description> Driving from 2021-12-17T23:06:26.999Z to 2021-12-18T02:09:42.238Z. Distance 284133m </description><LineString><altitudeMode>clampToGround</altitudeMode><extrude>1</extrude><tesselate>1</tesselate><coordinates>-123.350738,43.2587368,0 -123.3507676,43.25872820000001,0 -123.3509238,43.25871480000001,0 -123.3514138,43.2587235,0 -123.3514131,43.2594793,0 -123.3515086,43.260131,0 -123.3518311,43.261306600000005,0 -123.3519635,43.2615476,0 -123.35270519999999,43.2626228,0 -123.35281589999998,43.262866100000004,0 -123.35288739999997,43.2632185,0 -123.35284579999997,43.2691667,0 -123.35288589999998,43.269416899999996,0 -123.35293779999998,43.269542799999996,0 -123.35342039999999,43.2702922,0 -123.35356359999999,43.2705748,0 -123.3535941,43.2707126,0 -123.3535937,43.270912900000006,0 -123.35330800000001,43.27289480000001,0 -123.35329000000002,43.273616200000006,0 -123.35425720000002,43.27929980000001,0 -123.35436160000002,43.27955560000001,0 -123.35464290000003,43.2800518,0 -123.35481210000003,43.2805051,0 -123.35574680000002,43.2849694,0 -123.35576290000003,43.285202000000005,0 -123.35573640000004,43.2854411,0 -123.35563050000005,43.285778400000005,0 -123.35544740000005,43.28610570000001,0 -123.35512780000003,43.286472200000006,0 -123.35418410000004,43.28738020000001,0 -123.35365980000003,43.28814070000001,0 -123.35240140000003,43.290583000000005,0 -123.35218100000003,43.290931400000005,0 -123.35098660000003,43.29235990000001,0 -123.35086580000004,43.2925483,0 -123.35082120000003,43.2926586,0 -123.35143970000001,43.29287550000001,0 -123.35180050000002,43.2930331,0 -123.35199610000001,43.293188,0 -123.35209180000003,43.293328800000005,0 -123.35214870000001,43.293528800000004,0 -123.35212040000002,43.2937603,0 -123.35126640000003,43.29566170000001,0 -123.35129250000001,43.29576160000001,0 -123.35070120000003,43.29701930000001,0 -123.34979370000005,43.29949940000001,0 -123.34934560000005,43.30130970000001,0 -123.34689180000007,43.31666830000002,0 -123.34645140000006,43.31837140000002,0 -123.34595630000007,43.31985040000002,0 -123.34532000000009,43.32143330000002,0 -123.34465030000007,43.32280540000002,0 -123.34376730000007,43.324373700000024,0 -123.34312910000007,43.32537250000002,0 -123.32930800000007,43.344230900000014,0 -123.32881730000008,43.345143700000015,0 -123.3285612000001,43.345949400000016,0 -123.32848710000009,43.34639950000002,0 -123.32850620000008,43.35011870000002,0 -123.32836040000008,43.35098420000002,0 -123.32742750000008,43.354289200000025,0 -123.32732790000009,43.35483800000002,0 -123.32727390000008,43.35572320000002,0 -123.32733650000007,43.356579000000025,0 -123.32825670000007,43.36226110000002,0 -123.32880880000006,43.36425110000002,0 -123.32947470000005,43.36602290000002,0 -123.33060880000006,43.368337400000016,0 -123.33165580000005,43.37005850000002,0 -123.33240770000005,43.371132000000024,0 -123.33360660000007,43.37264640000002,0 -123.33613420000006,43.37547670000002,0 -123.33694490000008,43.37662750000002,0 -123.33744800000008,43.37755570000002,0 -123.33791320000007,43.37878260000002,0 -123.33812960000009,43.37966240000002,0 -123.33823250000009,43.38041440000002,0 -123.33826850000007,43.381281800000025,0 -123.33822760000007,43.38206800000002,0 -123.33579130000005,43.40161020000002,0 -123.33565470000006,43.402221000000026,0 -123.33545890000008,43.40277460000002,0 -123.33530640000006,43.403090400000025,0 -123.33488170000007,43.40377180000002,0 -123.32000660000006,43.422823900000026,0 -123.31953140000006,43.423618000000026,0 -123.31909240000006,43.424671600000025,0 -123.31889810000006,43.42553090000003,0 -123.31864320000007,43.428823300000026,0 -123.31848370000006,43.429578400000025,0 -123.31832030000005,43.429984500000025,0 -123.31809050000005,43.430388800000024,0 -123.31780080000006,43.43076370000003,0 -123.31745180000004,43.43113840000003,0 -123.31450600000005,43.43392900000003,0 -123.31420360000006,43.43431050000003,0 -123.31401360000007,43.43460750000003,0 -123.31380640000006,43.43502420000003,0 -123.31369770000006,43.43534180000003,0 -123.31362880000007,43.43566570000003,0 -123.31358850000007,43.43621150000003,0 -123.31361850000006,43.43656290000003,0 -123.31374390000006,43.437083800000025,0 -123.31396630000006,43.43760270000003,0 -123.31408630000006,43.43780700000003,0 -123.31451510000005,43.438387500000026,0 -123.32211950000006,43.44621120000003,0 -123.32239420000006,43.44658320000003,0 -123.32264610000007,43.44701110000003,0 -123.32288030000007,43.44753860000003,0 -123.32496950000008,43.454367000000026,0 -123.32504950000009,43.45479650000003,0 -123.32506780000008,43.45544710000003,0 -123.32497990000009,43.45595000000003,0 -123.32471460000009,43.45660660000003,0 -123.3244754000001,43.45701090000003,0 -123.31864240000009,43.46470840000003,0 -123.31860920000008,43.464732600000026,0 -123.31695070000008,43.46693580000002,0 -123.31659130000007,43.46753080000003,0 -123.31627570000005,43.46822180000002,0 -123.31611980000004,43.46866890000002,0 -123.31594540000005,43.46941010000002,0 -123.31587470000005,43.46998910000002,0 -123.31589380000004,43.47096910000002,0 -123.31605450000005,43.47186950000002,0 -123.31633510000005,43.472686500000016,0 -123.31662170000004,43.47327510000002,0 -123.31697490000003,43.47385710000002,0 -123.31751110000005,43.47455770000002,0 -123.32154200000005,43.47878810000002,0 -123.32217750000007,43.47956420000002,0 -123.32306670000006,43.48086740000002,0 -123.32462690000007,43.48351070000002,0 -123.32545920000007,43.48468320000002,0 -123.32608290000007,43.48543170000002,0 -123.32938910000006,43.48886580000002,0 -123.32980090000007,43.48940230000002,0 -123.33001590000008,43.48977260000002,0 -123.33023510000008,43.490336500000026,0 -123.33032400000008,43.49077760000002,0 -123.33034460000006,43.49106740000002,0 -123.33031840000007,43.491511100000025,0 -123.33019900000006,43.49204270000002,0 -123.33003220000006,43.49245190000002,0 -123.32973130000006,43.49295040000002,0 -123.32951040000005,43.49323710000002,0 -123.32917330000005,43.493600200000024,0 -123.32373920000003,43.49879970000002,0 -123.32296080000005,43.49962790000002,0 -123.32116820000005,43.50172000000003,0 -123.32016470000003,43.503033200000026,0 -123.31895780000005,43.50479160000003,0 -123.31742130000003,43.50743030000003,0 -123.31614750000003,43.510147100000026,0 -123.31526580000002,43.51256190000003,0 -123.31183400000002,43.523808700000025,0 -123.311653,43.52421320000003,0 -123.31140210000001,43.52463590000003,0 -123.31090910000002,43.52521910000003,0 -123.31046230000003,43.525603700000026,0 -123.30979490000001,43.52602830000002,0 -123.30921670000004,43.52630080000002,0 -123.30850400000003,43.52652990000002,0 -123.30803120000003,43.52664620000002,0 -123.30562710000002,43.52704070000003,0 -123.30484010000002,43.52723020000003,0 -123.3042545,43.527414200000024,0 -123.3033891,43.52776610000003,0 -123.30252460000001,43.528218200000026,0 -123.3019614,43.52858560000002,0 -123.30135779999999,43.529061500000026,0 -123.30072209999999,43.529682200000025,0 -123.29985140000001,43.53073090000002,0 -123.29932750000002,43.53128250000003,0 -123.29885270000001,43.53171700000003,0 -123.29804050000001,43.53233110000003,0 -123.29436870000002,43.53477990000003,0 -123.29365430000003,43.53535660000003,0 -123.29318610000004,43.53579780000003,0 -123.29237640000004,43.53671870000003,0 -123.29193170000002,43.537353100000026,0 -123.29150030000004,43.53812490000003,0 -123.28099630000003,43.561944500000024,0 -123.28066060000002,43.56250820000002,0 -123.28002540000003,43.56331070000002,0 -123.27954960000002,43.563788600000024,0 -123.25124680000002,43.589447900000025,0 -123.24973810000002,43.590672600000026,0 -123.24748160000001,43.59230000000003,0 -123.24581820000002,43.593356400000026,0 -123.22447040000003,43.605742400000025,0 -123.22348200000002,43.60639930000003,0 -123.22241860000003,43.60721460000003,0 -123.22135990000002,43.608140300000024,0 -123.21620160000002,43.61359680000002,0 -123.21584360000003,43.61405790000002,0 -123.21545290000003,43.61465290000002,0 -123.21510530000002,43.61529640000002,0 -123.21485510000004,43.61589130000002,0 -123.21454650000003,43.61700020000002,0 -123.21445780000002,43.617623600000016,0 -123.21445290000003,43.61881250000002,0 -123.21459120000003,43.61970770000002,0 -123.21480450000003,43.62045300000002,0 -123.21506410000002,43.62110090000002,0 -123.21550710000001,43.621932100000016,0 -123.21881900000001,43.62699120000002,0 -123.21899660000001,43.62731300000002,0 -123.21927230000001,43.62794920000002,0 -123.21940740000001,43.62838010000002,0 -123.21954060000002,43.62905260000002,0 -123.21957950000002,43.62951630000002,0 -123.21953260000001,43.630398200000016,0 -123.21936720000001,43.63115710000002,0 -123.21908840000002,43.63191850000002,0 -123.21121730000002,43.64913740000002,0 -123.21076670000001,43.64990530000002,0 -123.20388510000001,43.659832000000016,0 -123.20329040000001,43.66083470000002,0 -123.20286130000002,43.66183010000002,0 -123.20265890000003,43.662599900000025,0 -123.20256820000002,43.66327710000002,0 -123.2025806,43.66438060000002,0 -123.20288830000001,43.666404300000025,0 -123.20292920000001,43.66745890000002,0 -123.20285460000002,43.66830900000002,0 -123.20261200000002,43.669417000000024,0 -123.20238640000001,43.670074400000026,0 -123.19779550000001,43.67920030000002,0 -123.19759810000001,43.67969190000002,0 -123.19748930000002,43.68016650000002,0 -123.1974637,43.68074640000002,0 -123.19752329999999,43.681187900000026,0 -123.1976498,43.68162690000002,0 -123.19778749999999,43.681950200000024,0 -123.19803069999998,43.68235670000002,0 -123.19936119999998,43.68399990000002,0 -123.19965529999997,43.68450470000001,0 -123.19996459999997,43.68533400000002,0 -123.20007969999996,43.68613640000002,0 -123.20005979999996,43.686690200000015,0 -123.20000829999996,43.68702170000002,0 -123.19943199999996,43.689327300000016,0 -123.19933919999997,43.68999370000002,0 -123.19933129999997,43.69055190000002,0 -123.19941359999997,43.691219300000014,0 -123.19967049999998,43.69209350000001,0 -123.20402139999999,43.70190020000001,0 -123.2043525,43.70253240000002,0 -123.2048294,43.70323360000001,0 -123.20516619999998,43.70363480000001,0 -123.20598199999999,43.704411700000016,0 -123.2065346,43.704833600000015,0 -123.20760499999999,43.70548220000001,0 -123.20839029999999,43.70585240000001,0 -123.20963249999998,43.70629500000001,0 -123.2106336,43.70654590000001,0 -123.21465699999999,43.70731440000001,0 -123.21551239999998,43.707555800000016,0 -123.21607359999997,43.707780000000014,0 -123.21675549999998,43.70816230000001,0 -123.21718189999997,43.70848630000002,0 -123.21757299999996,43.708871500000015,0 -123.21779519999997,43.709155400000014,0 -123.21802769999996,43.709534800000014,0 -123.21826239999996,43.71013230000002,0 -123.21833849999994,43.71059100000002,0 -123.21831999999993,43.711162000000016,0 -123.21817979999996,43.711716500000016,0 -123.21801949999997,43.712077600000015,0 -123.21767479999997,43.712604200000015,0 -123.21733969999997,43.71299660000002,0 -123.20766449999996,43.72245250000002,0 -123.19856849999995,43.73221890000002,0 -123.19783329999994,43.73292890000002,0 -123.19731329999995,43.73337190000002,0 -123.19627339999995,43.73412560000002,0 -123.19521369999995,43.734754000000024,0 -123.19420499999995,43.735249700000026,0 -123.19355649999994,43.73552470000002,0 -123.18949629999996,43.737037200000024,0 -123.18847449999996,43.737502300000024,0 -123.18713619999997,43.73822860000002,0 -123.18623849999997,43.73880620000002,0 -123.18508039999998,43.73968590000002,0 -123.18396599999998,43.74072020000002,0 -123.18315289999997,43.74164550000002,0 -123.18250849999998,43.74253510000002,0 -123.18213729999997,43.74313710000002,0 -123.18108379999997,43.74513680000002,0 -123.18090069999995,43.74539220000002,0 -123.18039269999996,43.74593520000002,0 -123.18003039999995,43.74623350000002,0 -123.17542799999995,43.74937530000002,0 -123.17487279999996,43.749700300000015,0 -123.17400899999994,43.75010550000002,0 -123.17328589999994,43.75033610000002,0 -123.17246079999994,43.75050130000002,0 -123.17178389999992,43.75057880000002,0 -123.16721369999993,43.75078090000002,0 -123.16645429999994,43.75088810000002,0 -123.16596149999994,43.75099990000002,0 -123.16530899999995,43.75120540000002,0 -123.16320009999995,43.75209390000002,0 -123.16252879999995,43.752339700000014,0 -123.16195149999994,43.75249910000002,0 -123.16123159999994,43.75262760000002,0 -123.16032499999993,43.75269980000002,0 -123.15380029999993,43.75282080000002,0 -123.15288299999992,43.75275390000002,0 -123.15230229999993,43.75265280000002,0 -123.15145079999994,43.75241990000002,0 -123.15008059999995,43.75196250000002,0 -123.14937439999996,43.75176430000002,0 -123.14864639999995,43.751614300000014,0 -123.14757489999995,43.75149750000001,0 -123.14696999999995,43.75148220000001,0 -123.14619889999996,43.751517000000014,0 -123.14545879999996,43.75160610000001,0 -123.14472029999996,43.75175330000001,0 -123.14374249999995,43.75204700000001,0 -123.14333279999995,43.75220990000001,0 -123.14117709999995,43.75322760000001,0 -123.14063139999995,43.75341960000001,0 -123.13991429999993,43.75359160000001,0 -123.13916529999992,43.75368360000001,0 -123.13856879999992,43.75369690000001,0 -123.13782759999992,43.75364350000001,0 -123.1372278999999,43.753542900000014,0 -123.1299854999999,43.751694500000006,0 -123.12646149999992,43.75063830000001,0 -123.12534119999992,43.75034690000001,0 -123.12408459999993,43.75010780000001,0 -123.12264349999994,43.74993820000001,0 -123.12168849999992,43.74988540000002,0 -123.12021749999994,43.749891800000015,0 -123.11395289999993,43.75019370000002,0 -123.11292979999993,43.75029190000002,0 -123.11196969999993,43.75044980000002,0 -123.11122239999995,43.75061330000001,0 -123.10994319999995,43.751004600000016,0 -123.06749589999995,43.76743820000001,0 -123.06631499999996,43.76797590000002,0 -123.06536269999997,43.76847900000001,0 -123.06434829999996,43.76910260000002,0 -123.06370299999996,43.769551100000015,0 -123.06269999999996,43.77035450000002,0 -123.06187389999997,43.77113180000001,0 -123.06137509999996,43.77167080000002,0 -123.06062339999997,43.772622900000016,0 -123.05976729999996,43.77401060000002,0 -123.05362929999997,43.78654570000002,0 -123.05339859999997,43.78726670000002,0 -123.05332399999996,43.78767720000002,0 -123.05320079999997,43.789217200000024,0 -123.05297679999997,43.79017640000002,0 -123.05278129999998,43.79058070000003,0 -123.05252699999997,43.79097040000003,0 -123.05220969999998,43.79133640000003,0 -123.04904639999997,43.794124000000025,0 -123.04823399999997,43.79491920000003,0 -123.04728549999997,43.79602390000003,0 -123.04610689999998,43.79771150000003,0 -123.04526959999998,43.799230200000025,0 -123.01309749999997,43.86723680000003,0 -123.01278449999998,43.868152700000024,0 -123.01264239999999,43.868863000000026,0 -123.0125744,43.86964950000003,0 -123.014714,43.89686950000002,0 -123.0147316,43.89829450000002,0 -123.0145973,43.90039030000002,0 -123.00873360000003,43.94314220000002,0 -123.00866010000003,43.94405600000002,0 -123.00872020000003,43.94580910000002,0 -123.01080580000004,43.95950070000002,0 -123.01080550000005,43.959629200000016,0 -123.01178850000004,43.96614990000002,0 -123.01185710000004,43.96728750000002,0 -123.01177780000005,43.968727700000024,0 -123.01162850000004,43.96966740000002,0 -123.00547270000006,43.993397100000024,0 -123.00540290000005,43.99403970000002,0 -123.00542150000005,43.99459290000003,0 -123.00554590000006,43.995249100000024,0 -123.00582610000006,43.99599760000003,0 -123.00624490000007,43.996702500000026,0 -123.00657930000006,43.997123100000024,0 -123.00689670000006,43.997453200000024,0 -123.00738580000005,43.99787570000002,0 -123.00826420000006,43.998452200000024,0 -123.00891730000006,43.99877850000002,0 -123.00945060000006,43.999001300000025,0 -123.01518590000006,44.00105950000002,0 -123.01625560000005,44.00152850000002,0 -123.01714630000004,44.00204570000002,0 -123.01767200000003,44.00244190000002,0 -123.01813990000004,44.00287840000002,0 -123.01861210000004,44.00344070000002,0 -123.01921330000005,44.004441200000024,0 -123.02868280000004,44.025846700000024,0 -123.02912240000003,44.027060300000024,0 -123.02934210000005,44.02790280000002,0 -123.02999090000004,44.03135810000002,0 -123.03010560000006,44.03177580000002,0 -123.03034540000006,44.03233690000002,0 -123.03057550000005,44.03270150000002,0 -123.03081610000005,44.03300520000003,0 -123.03111240000004,44.03331400000002,0 -123.03158060000003,44.033695700000024,0 -123.03196450000003,44.03394970000002,0 -123.03257930000002,44.03427100000002,0 -123.03300730000001,44.03444410000002,0 -123.0335252,44.03460940000002,0 -123.03408999999999,44.03474030000002,0 -123.0349684,44.034855700000016,0 -123.0409589,44.03491310000002,0 -123.04199670000003,44.03501890000002,0 -123.04257380000001,44.03512000000002,0 -123.04355980000001,44.03536710000002,0 -123.0447582,44.03580560000002,0 -123.0453886,44.03611170000001,0 -123.0463334,44.03669280000002,0 -123.0470419,44.03726390000001,0 -123.04757409999998,44.03780770000001,0 -123.04823189999999,44.03868350000001,0 -123.04866089999997,44.03939180000001,0 -123.04921169999997,44.040568600000014,0 -123.04964559999996,44.04204930000001,0 -123.04976469999997,44.042734400000015,0 -123.04986899999997,44.043856900000016,0 -123.05007499999996,44.050726800000014,0 -123.05002949999998,44.054790400000016,0 -123.04404019999997,44.104822900000016,0 -123.04401289999997,44.10582190000001,0 -123.04407109999997,44.10678170000001,0 -123.04419989999997,44.10768750000001,0 -123.05972109999996,44.168363100000015,0 -123.06017349999996,44.17058030000002,0 -123.06027619999998,44.17136370000002,0 -123.06038539999997,44.173507700000016,0 -123.06110879999997,44.39053240000001,0 -123.06187319999998,44.62852640000001,0 -123.06239109999997,44.64388850000001,0 -123.06228409999997,44.64598830000001,0 -123.06213049999997,44.64718670000001,0 -123.05788389999996,44.67025880000001,0 -123.05745989999997,44.671877500000015,0 -123.05376799999996,44.68236180000001,0 -123.05326519999996,44.684002100000015,0 -123.05273739999996,44.68647780000001,0 -123.05253959999996,44.68810410000001,0 -123.05187649999996,44.698604300000014,0 -123.05188509999995,44.70110490000001,0 -123.05196669999995,44.702349900000016,0 -123.05199329999994,44.702413000000014,0 -123.05214539999993,44.70370000000001,0 -123.05270999999993,44.70632380000001,0 -123.05359159999995,44.70911760000001,0 -123.05410409999995,44.71121530000001,0 -123.05445549999995,44.71369210000002,0 -123.05453229999995,44.71593900000001,0 -123.05447359999994,44.71726140000002,0 -123.05295889999995,44.73254140000002,0 -123.05280679999996,44.734923000000016,0 -123.05101549999996,44.751831500000016,0 -123.05082149999996,44.75309180000002,0 -123.05049329999996,44.75457530000002,0 -123.04988429999997,44.75658790000002,0 -123.02538489999998,44.81495240000002,0 -123.02475129999998,44.81613380000002,0 -123.0237138,44.81778280000002,0 -123.02365389999999,44.81783410000001,0 -123.02311329999996,44.81858840000001,0 -123.02200409999996,44.81995930000001,0 -123.02109989999995,44.82095600000001,0 -123.01915609999995,44.82280660000001,0 -123.01424079999997,44.82687380000001,0 -123.01341559999996,44.82761960000001,0 -123.01242629999994,44.82863540000001,0 -123.01108479999995,44.83029540000001,0 -123.01007169999994,44.83188230000001,0 -123.00948399999996,44.833039800000016,0 -123.00906469999995,44.83406640000001,0 -123.00855959999994,44.83570660000001,0 -123.00839919999996,44.83646660000001,0 -123.00820799999997,44.83812930000001,0 -123.00818179999997,44.83937040000001,0 -123.00912079999998,44.84792000000001,0 -123.00935709999999,44.84886320000001,0 -123.00959479999999,44.84950860000001,0 -123.0114093,44.85345680000001,0 -123.01169060000001,44.854319300000014,0 -123.0118664,44.85514770000002,0 -123.01194040000001,44.855866200000015,0 -123.01194050000001,44.85667520000001,0 -123.01188080000001,44.85730010000001,0 -123.01166210000001,44.85834940000001,0 -123.01147490000001,44.85892820000001,0 -123.0111854,44.85961010000001,0 -123.0106549,44.86056020000001,0 -123.01024840000001,44.86117460000001,0 -123.00946070000002,44.86215440000001,0 -123.00336220000001,44.86867880000001,0 -123.00235250000001,44.869849900000006,0 -123.00132190000002,44.871346,0 -123.00074710000003,44.8724362,0 -123.00029870000003,44.8735136,0 -123.00002630000003,44.87435440000001,0 -122.99978220000003,44.87535270000001,0 -122.99813000000005,44.88504420000001,0 -122.99785870000005,44.88613280000001,0 -122.99746190000005,44.887166700000016,0 -122.99718840000006,44.88768730000002,0 -122.99647270000007,44.88874370000001,0 -122.99560590000007,44.88969400000002,0 -122.99508550000006,44.89016310000002,0 -122.99445260000005,44.890661600000016,0 -122.99329310000005,44.89142430000002,0 -122.98940960000004,44.893534700000025,0 -122.98834800000004,44.89416900000002,0 -122.98761050000005,44.894696700000026,0 -122.98699740000004,44.895209100000024,0 -122.98634640000003,44.89585040000003,0 -122.98588970000003,44.896385700000025,0 -122.98533560000003,44.89717050000002,0 -122.98484290000003,44.89810790000002,0 -122.98463260000001,44.89863840000002,0 -122.98438540000001,44.89955660000002,0 -122.9842699,44.90062080000002,0 -122.9843258,44.90163780000002,0 -122.9845007,44.90252070000002,0 -122.9893815,44.91878980000002,0 -122.9897199,44.92019850000002,0 -122.9900334,44.922260100000024,0 -122.9901348,44.92396110000002,0 -122.9900214,44.97349250000002,0 -122.99008870000002,44.974593500000026,0 -122.99027550000001,44.975524800000024,0 -122.99045930000001,44.97610050000002,0 -122.99446420000002,44.985343800000024,0 -122.99496220000003,44.98630320000002,0 -122.99536740000002,44.98696130000002,0 -122.99627170000004,44.98812930000002,0 -122.99854550000002,44.99075440000002,0 -122.99907310000003,44.99144560000002,0 -122.99942550000004,44.99200130000002,0 -122.99994720000005,44.99302160000002,0 -123.00027340000005,44.993993500000016,0 -123.00048320000006,44.99524090000001,0 -123.00050220000006,44.995992700000016,0 -123.00045270000005,44.996677100000014,0 -123.00027220000005,44.99761570000001,0 -123.00001100000006,44.99842670000002,0 -122.99971560000006,44.99906940000001,0 -122.96040090000007,45.071942000000014,0 -122.95941690000008,45.07328380000001,0 -122.95845550000007,45.07434770000001,0 -122.83936540000006,45.19135930000001,0 -122.83658900000006,45.194438800000015,0 -122.83505300000007,45.196331100000016,0 -122.83361120000006,45.19825920000002,0 -122.81599800000008,45.22339500000001,0 -122.81399890000009,45.225971600000015,0 -122.77038310000009,45.278752200000014,0 -122.76982730000009,45.279571800000014,0 -122.7695914000001,45.28006200000001,0 -122.76943840000011,45.28052470000001,0 -122.7693407000001,45.28101430000001,0 -122.76929980000008,45.28145320000001,0 -122.7692945000001,45.29397640000001,0 -122.76907330000009,45.297702700000016,0 -122.7690978000001,45.33763800000001,0 -122.7688788000001,45.33966100000002,0 -122.76858220000008,45.34125690000002,0 -122.76797420000007,45.34345070000003,0 -122.75875610000007,45.366437500000025,0 -122.75871140000005,45.36661160000003,0 -122.75300910000006,45.380814200000025,0 -122.75017000000005,45.38854500000002,0 -122.74495320000007,45.40177080000002,0 -122.74437940000006,45.40390360000002,0 -122.74402020000007,45.406044700000024,0 -122.74387740000006,45.407979500000025,0 -122.74408770000007,45.43682390000002,0 -122.74401350000005,45.43747380000003,0 -122.74388250000004,45.43801790000003,0 -122.74369650000004,45.438509700000026,0 -122.74331040000006,45.43928250000003,0 -122.74257790000004,45.440407400000026,0 -122.74021680000004,45.44318460000003,0 -122.73967890000006,45.44371650000003,0 -122.73930590000006,45.44400780000003,0 -122.73888740000007,45.44427480000003,0 -122.73840350000006,45.44451970000003,0 -122.73764430000007,45.44480880000003,0 -122.73715850000008,45.44493850000003,0 -122.73414340000006,45.445588900000025,0 -122.73345410000007,45.44580880000002,0 -122.73278180000007,45.44608600000002,0 -122.73202800000006,45.446485800000026,0 -122.73158120000006,45.44677960000003,0 -122.73108600000008,45.44716330000003,0 -122.73040950000008,45.44785490000003,0 -122.73004250000008,45.44834680000003,0 -122.72836170000006,45.45101720000003,0 -122.72798370000008,45.45148920000003,0 -122.72743170000008,45.45201270000004,0 -122.72687740000009,45.45241080000004,0 -122.7263928000001,45.45268760000004,0 -122.7258525000001,45.452938400000036,0 -122.72532380000008,45.45313390000003,0 -122.72463910000009,45.453327300000026,0 -122.72365340000009,45.45349770000003,0 -122.72302730000008,45.45354530000003,0 -122.72196010000009,45.453544400000034,0 -122.71962200000009,45.45342670000003,0 -122.71879940000008,45.45342700000003,0 -122.71819570000008,45.453468400000034,0 -122.71762110000009,45.45355320000003,0 -122.71689570000008,45.453722300000024,0 -122.71638120000006,45.45389160000003,0 -122.71544080000007,45.45431440000002,0 -122.70644620000006,45.459263200000024,0 -122.69858330000007,45.46377440000003,0 -122.69513080000007,45.46551770000003,0 -122.69252190000007,45.46715870000003,0 -122.69193970000008,45.46760750000003,0 -122.69028310000007,45.469259200000025,0 -122.68991560000009,45.469541900000024,0 -122.68965260000009,45.46969780000003,0 -122.6892105000001,45.46989280000003,0 -122.6886491000001,45.470055100000025,0 -122.68823110000011,45.47013820000003,0 -122.68690440000009,45.47026990000003,0 -122.6863476000001,45.47028470000003,0 -122.68557130000009,45.47026230000003,0 -122.6844476000001,45.470145700000025,0 -122.6812344000001,45.46960270000003,0 -122.68076550000009,45.46955940000003,0 -122.6801863000001,45.46955920000003,0 -122.67964740000009,45.46962990000003,0 -122.6791714000001,45.46975080000003,0 -122.6786065000001,45.469985900000026,0 -122.67830410000012,45.470158000000026,0 -122.67806790000013,45.470326300000025,0 -122.67777800000012,45.470584200000026,0 -122.67759860000011,45.47079530000002,0 -122.67734650000011,45.47124540000002,0 -122.67724570000011,45.471636700000026,0 -122.67723590000011,45.472010000000026,0 -122.67730000000012,45.47236770000002,0 -122.67834920000011,45.47518870000002,0 -122.6785423000001,45.47584170000002,0 -122.6786907000001,45.476818500000014,0 -122.67875300000011,45.48224420000002,0 -122.67907010000012,45.484786100000015,0 -122.67910470000011,45.48490570000002,0 -122.6791546000001,45.48557610000002,0 -122.6791277000001,45.48597390000002,0 -122.67904680000011,45.486326800000015,0 -122.67882610000012,45.486841300000016,0 -122.67852060000011,45.48725420000002,0 -122.67813550000012,45.487642600000015,0 -122.67622510000011,45.489083500000014,0 -122.67564950000012,45.48958990000002,0 -122.67489130000013,45.49041060000002,0 -122.67454070000012,45.49087620000002,0 -122.67416320000012,45.491486700000024,0 -122.67377560000013,45.49232450000002,0 -122.67354550000015,45.49309970000002,0 -122.67342130000014,45.493952000000014,0 -122.67297110000014,45.50149680000001,0 -122.67300730000015,45.501975500000015,0 -122.67308270000017,45.50225310000001,0 -122.67363420000017,45.50359640000001,0 -122.67375600000017,45.50411300000001,0 -122.67375010000018,45.50454870000001,0 -122.67366700000018,45.50484780000001,0 -122.67344560000018,45.505240900000004,0 -122.67328970000017,45.5054257,0 -122.67290610000016,45.50575830000001,0 -122.67245780000016,45.50604740000001,0 -122.67090830000015,45.50685210000001,0 -122.66742160000015,45.50896270000001,0 -122.66715460000013,45.50917150000001,0 -122.66697050000015,45.509386000000006,0 -122.66687980000013,45.50953360000001,0 -122.66674600000015,45.50987100000001,0 -122.66669730000014,45.51015130000001,0 -122.66669660000014,45.51047230000001,0 -122.66672930000014,45.510694500000014,0 -122.66687310000013,45.51112370000001,0 -122.66742880000012,45.51213280000001,0 -122.66761610000012,45.512584200000006,0 -122.66773610000011,45.51309630000001,0 -122.66776080000011,45.51342820000001,0 -122.6677374000001,45.51396240000001,0 -122.6676239000001,45.514622200000005,0 -122.6667560000001,45.51803260000001,0 -122.66581170000009,45.520472600000005,0 -122.66550540000009,45.52169350000001,0 -122.66544030000009,45.522203000000005,0 -122.66519510000009,45.52784080000001,0 -122.66518800000009,45.53107630000001,0 -122.66524650000008,45.531758100000005,0 -122.66540380000008,45.532517000000006,0 -122.66562190000008,45.53316200000001,0 -122.66586060000009,45.53368270000001,0 -122.66634180000007,45.53448770000001,0 -122.67159150000008,45.54080220000001,0 -122.67210060000008,45.54131540000001,0 -122.67727640000007,45.54563900000001,0 -122.67773570000007,45.546077200000006,0 -122.67810930000007,45.54655600000001,0 -122.67828330000007,45.54685740000001,0 -122.67849480000008,45.54738180000001,0 -122.6785881000001,45.54781970000001,0 -122.67861780000008,45.54821560000001,0 -122.67845030000011,45.56029450000001,0 -122.67852900000008,45.56923300000001,0 -122.6785123000001,45.569278100000005,0 -122.67846110000009,45.58129640000001,0 -122.67850680000011,45.58206400000001,0 -122.67870190000012,45.5831457,0 -122.6789048000001,45.583804900000004,0 -122.68133890000011,45.5892679,0 -122.6814161000001,45.589391600000006,0 -122.6821050000001,45.590909100000005,0 -122.6820565000001,45.591030200000006,0 -122.6824888000001,45.5923052,0 </coordinates></LineString><TimeSpan><begin>2021-12-17T23:06:26.999Z</begin><end>2021-12-18T02:09:42.238Z</end></TimeSpan></Placemark><Placemark><name>Best Western Inn At The Meadows</name><address>1215 N Hayden Meadows Dr, Portland, OR 97217</address><ExtendedData><Data name="Email"><value>syugen.zhou@gmail.com</value></Data><Data name="Category"><value>Hotel</value></Data><Data name="Distance"><value>0</value></Data></ExtendedData><description> Hotel from 2021-12-18T02:09:42.238Z to 2021-12-18T16:06:52.999Z. Distance 0m </description><Point><coordinates>-122.6806919,45.5942849,0</coordinates></Point><TimeSpan><begin>2021-12-18T02:09:42.238Z</begin><end>2021-12-18T16:06:52.999Z</end></TimeSpan></Placemark></Document></kml>
