<?xml version="1.0" encoding="UTF-8"?><kml xmlns="http://www.opengis.net/kml/2.2" xmlns:gx="http://www.google.com/kml/ext/2.2"><Document><name> Location history from 2021-12-19 to 2021-12-19 </name><open>1</open><description></description><StyleMap id="multiTrack"><Pair><key>normal</key><styleUrl>#multiTrack_n</styleUrl></Pair><Pair><key>highlight</key><styleUrl>#multiTrack_h</styleUrl></Pair></StyleMap><Style id="multiTrack_n"><IconStyle><Icon><href>https://earth.google.com/images/kml-icons/track-directional/track-0.png</href></Icon></IconStyle><LineStyle><color>99ffac59</color><width>6</width></LineStyle></Style><Style id="multiTrack_h"><IconStyle><scale>1.2</scale><Icon><href>https://earth.google.com/images/kml-icons/track-directional/track-0.png</href></Icon></IconStyle><LineStyle><color>99ffac59</color><width>8</width></LineStyle></Style><Placemark><name>Best Western Inn At The Meadows</name><address>1215 N Hayden Meadows Dr, Portland, OR 97217</address><ExtendedData><Data name="Email"><value>syugen.zhou@gmail.com</value></Data><Data name="Category"><value>Hotel</value></Data><Data name="Distance"><value>0</value></Data></ExtendedData><description> Hotel from 2021-12-19T00:42:27.999Z to 2021-12-19T16:21:24.154Z. Distance 0m </description><Point><coordinates>-122.6806919,45.5942849,0</coordinates></Point><TimeSpan><begin>2021-12-19T00:42:27.999Z</begin><end>2021-12-19T16:21:24.154Z</end></TimeSpan></Placemark><Placemark><name>Driving</name><address></address><ExtendedData><Data name="Email"><value>syugen.zhou@gmail.com</value></Data><Data name="Category"><value>Driving</value></Data><Data name="Distance"><value>264229</value></Data></ExtendedData><description> Driving from 2021-12-19T16:21:24.154Z to 2021-12-19T18:42:41.478Z. Distance 264229m </description><LineString><altitudeMode>clampToGround</altitudeMode><extrude>1</extrude><tesselate>1</tesselate><coordinates>-122.6820378,45.5938503,0 -122.6820934,45.5938382,0 -122.68243109999999,45.594554200000005,0 -122.682424,45.5946517,0 -122.68247670000001,45.5947003,0 -122.6826827,45.5948065,0 -122.6832052,45.5948941,0 -122.6840406,45.5968163,0 -122.68410850000001,45.5972936,0 -122.68351030000001,45.6008295,0 -122.6835908,45.600905600000004,0 -122.68220550000001,45.605569700000004,0 -122.6812967,45.6075829,0 -122.6727744,45.6218529,0 -122.67189749999999,45.622755000000005,0 -122.66970289999998,45.6244349,0 -122.66874889999997,45.625373100000004,0 -122.66800279999997,45.6263269,0 -122.66254849999997,45.6353967,0 -122.66201529999998,45.63671110000001,0 -122.66183939999996,45.637630900000005,0 -122.66165969999996,45.64989430000001,0 -122.66184989999996,45.65069220000001,0 -122.66685779999997,45.66320580000001,0 -122.66712049999998,45.664351,0 -122.66714689999998,45.66525700000001,0 -122.66699939999997,45.6662869,0 -122.66685599999997,45.66679330000001,0 -122.66649299999995,45.66764930000001,0 -122.66487329999995,45.67065000000001,0 -122.66449139999995,45.67189270000001,0 -122.66439259999996,45.67277920000001,0 -122.66449639999996,45.68400400000001,0 -122.66429419999996,45.68600740000001,0 -122.66391689999995,45.6874504,0 -122.66324479999994,45.6890711,0 -122.65340609999993,45.7079219,0 -122.65311449999994,45.70876150000001,0 -122.65289339999994,45.70977900000001,0 -122.65275979999993,45.71153120000001,0 -122.65292759999994,45.71305640000001,0 -122.65333689999994,45.714579100000016,0 -122.65461339999995,45.71749860000001,0 -122.65489039999994,45.71838900000001,0 -122.65504929999993,45.71923740000001,0 -122.65510059999993,45.72022640000001,0 -122.65471289999994,45.723256500000005,0 -122.65470269999993,45.72452010000001,0 -122.65494309999993,45.725754800000004,0 -122.65565689999993,45.72807180000001,0 -122.65563359999993,45.72815310000001,0 -122.67644409999994,45.79548040000001,0 -122.67721499999993,45.79745700000001,0 -122.70479739999993,45.857014400000004,0 -122.70524659999992,45.85884610000001,0 -122.7058484999999,45.863881400000004,0 -122.70614469999991,45.865295700000004,0 -122.7066575999999,45.866779900000004,0 -122.70709979999988,45.8677225,0 -122.70779849999988,45.8689179,0 -122.7090730999999,45.870584900000004,0 -122.7127985999999,45.8745037,0 -122.71470239999991,45.8761377,0 -122.71591309999992,45.8769722,0 -122.72942789999993,45.8851294,0 -122.73019179999993,45.8857396,0 -122.73099249999991,45.8866537,0 -122.73298309999991,45.88993669999999,0 -122.73306459999992,45.890004499999996,0 -122.7407693999999,45.90288699999999,0 -122.7420796999999,45.905370999999995,0 -122.7519054999999,45.92138789999999,0 -122.75480159999991,45.92557359999999,0 -122.75777409999992,45.930495099999995,0 -122.75840579999993,45.9313359,0 -122.75920149999993,45.932131299999995,0 -122.76006469999993,45.932841499999995,0 -122.76270659999992,45.934729,0 -122.79176949999993,45.9535364,0 -122.79616669999993,45.95613449999999,0 -122.80309809999993,45.9597621,0 -122.80472519999992,45.9608024,0 -122.80833439999991,45.963562399999994,0 -122.80956939999992,45.96467929999999,0 -122.82691099999991,45.982735399999996,0 -122.84214059999992,45.999768599999996,0 -122.84314539999993,46.00126319999999,0 -122.84362349999994,46.00231499999999,0 -122.84465369999992,46.005940999999986,0 -122.84845569999992,46.014532999999986,0 -122.84923499999992,46.01783959999999,0 -122.84953289999993,46.018629799999985,0 -122.85229679999992,46.02354529999999,0 -122.85616419999991,46.033374499999994,0 -122.8638083999999,46.05581989999999,0 -122.86416279999989,46.05657799999999,0 -122.8663459999999,46.060275299999994,0 -122.8669246999999,46.061766999999996,0 -122.8680148999999,46.06801939999999,0 -122.86805389999991,46.068897299999996,0 -122.86797289999991,46.07022039999999,0 -122.86646449999992,46.07718619999999,0 -122.86639049999991,46.07939389999999,0 -122.86653269999991,46.08068469999999,0 -122.8668553999999,46.08201139999999,0 -122.86968609999991,46.0893538,0 -122.8734219999999,46.0970495,0 -122.8803568999999,46.10901619999999,0 -122.8894406999999,46.12285149999999,0 -122.88995989999991,46.12346589999999,0 -122.89055369999993,46.12399069999999,0 -122.89107779999993,46.1243662,0 -122.89191339999994,46.1248386,0 -122.89557509999995,46.126447299999995,0 -122.89624309999994,46.126841999999996,0 -122.89686889999994,46.12730869999999,0 -122.89750819999995,46.127916299999995,0 -122.89821179999994,46.128895899999996,0 -122.89852599999993,46.129602999999996,0 -122.89870339999995,46.13034569999999,0 -122.89873229999993,46.1311099,0 -122.89729929999994,46.14309279999999,0 -122.89740469999994,46.14447779999999,0 -122.89766779999994,46.14543009999999,0 -122.89791009999995,46.14601919999999,0 -122.89918289999994,46.14829949999999,0 -122.90053959999995,46.15125959999999,0 -122.90122009999995,46.153321199999986,0 -122.90156479999995,46.154731099999985,0 -122.90440209999994,46.17097159999999,0 -122.90442279999992,46.17162529999999,0 -122.90434129999993,46.172380199999985,0 -122.90409099999994,46.173269699999985,0 -122.90367459999992,46.174166399999976,0 -122.89891199999991,46.18082329999998,0 -122.89851019999992,46.18150199999998,0 -122.89784229999992,46.18293779999998,0 -122.89273479999991,46.19761649999999,0 -122.8923964999999,46.19901679999999,0 -122.89221409999992,46.20044089999998,0 -122.8918851999999,46.20881129999999,0 -122.89125049999991,46.21350039999999,0 -122.88883989999991,46.22333009999999,0 -122.88570849999991,46.24250649999999,0 -122.8835439999999,46.2516373,0 -122.88348819999992,46.25308209999999,0 -122.8837322999999,46.25444379999999,0 -122.8841480999999,46.25554179999999,0 -122.88465749999989,46.25645339999999,0 -122.88978229999988,46.26374189999999,0 -122.89851829999988,46.277708999999994,0 -122.90556569999987,46.28999829999999,0 -122.91081739999987,46.30042769999999,0 -122.91170009999989,46.3027429,0 -122.91474349999987,46.3149581,0 -122.91494939999988,46.316887699999995,0 -122.91487859999988,46.3182263,0 -122.91461849999986,46.319663399999996,0 -122.91435359999986,46.320579099999996,0 -122.91387349999987,46.3217758,0 -122.91317629999986,46.323080399999995,0 -122.90933539999988,46.3286788,0 -122.90869209999988,46.330149999999996,0 -122.90843519999987,46.331181199999996,0 -122.90581869999987,46.354088499999996,0 -122.90586939999987,46.35568489999999,0 -122.90599389999987,46.3565547,0 -122.90772329999989,46.363457,0 -122.90792449999988,46.36489889999999,0 -122.9079074999999,46.366546199999995,0 -122.9077969999999,46.367432699999995,0 -122.9000194999999,46.397144,0 -122.8997388999999,46.3978147,0 -122.8992468999999,46.39865089999999,0 -122.89823829999989,46.399831799999994,0 -122.8918290999999,46.4050076,0 -122.8911171999999,46.4057142,0 -122.8903143999999,46.406782099999994,0 -122.88990039999989,46.4075673,0 -122.88955089999989,46.4086106,0 -122.88942309999989,46.4094323,0 -122.88941589999989,46.4102429,0 -122.89102519999989,46.4194528,0 -122.8910582999999,46.4207851,0 -122.88356019999989,46.4738007,0 -122.88336659999987,46.4746438,0 -122.88241429999988,46.4773628,0 -122.88235429999988,46.477457,0 -122.87696479999988,46.492262499999995,0 -122.87664299999987,46.493736999999996,0 -122.87655689999987,46.4947625,0 -122.87651869999988,46.5637117,0 -122.87667919999988,46.5646982,0 -122.87692769999988,46.5655437,0 -122.88224059999988,46.5767683,0 -122.88284169999989,46.577749299999994,0 -122.88370509999989,46.5788198,0 -122.90013089999988,46.5959321,0 -122.90094689999987,46.596893699999995,0 -122.90784619999987,46.6071317,0 -122.90840449999988,46.6077976,0 -122.90914439999987,46.608511,0 -122.90988029999988,46.609088299999996,0 -122.92259419999988,46.6178533,0 -122.95152419999988,46.641897199999995,0 -122.95357329999989,46.64327359999999,0 -122.95461029999989,46.6438528,0 -122.97145769999987,46.6519984,0 -122.97216679999988,46.6524028,0 -122.97295109999988,46.65294299999999,0 -122.97594169999988,46.65536899999999,0 -122.97689099999988,46.65636009999999,0 -122.97723549999988,46.656867,0 -122.97772619999986,46.6579207,0 -122.97951269999987,46.665243999999994,0 -122.98039909999989,46.66735799999999,0 -122.98057819999987,46.66810819999999,0 -122.98056939999988,46.66919279999999,0 -122.98042899999987,46.66973459999999,0 -122.98000589999988,46.67062589999999,0 -122.97938769999989,46.67143449999999,0 -122.9725235999999,46.67881759999999,0 -122.9720165999999,46.67962789999999,0 -122.9716067999999,46.68056849999999,0 -122.9714030999999,46.68132539999999,0 -122.96970689999989,46.692651899999994,0 -122.9697193999999,46.6939765,0 -122.96988569999989,46.69496099999999,0 -122.9750528999999,46.71028069999999,0 -122.97541559999988,46.711802399999996,0 -122.97692439999987,46.724458899999995,0 -122.97692339999988,46.7273709,0 -122.97674879999988,46.72864789999999,0 -122.97635739999987,46.730203599999996,0 -122.97558629999988,46.73230649999999,0 -122.97519499999989,46.733740299999994,0 -122.97506999999987,46.73544889999999,0 -122.97513669999987,46.73626449999999,0 -122.97534609999987,46.737335999999985,0 -122.97565139999988,46.73827839999999,0 -122.97652129999989,46.739984599999985,0 -122.98206159999988,46.74776059999999,0 -123.00939829999989,46.792581899999995,0 -123.00977999999988,46.7933623,0 -123.01001409999988,46.794066199999996,0 -123.01020179999989,46.79514139999999,0 -123.01013809999989,46.79652259999999,0 -123.00998079999988,46.79719929999999,0 -123.00949069999989,46.79840339999999,0 -122.9730244999999,46.85929449999999,0 -122.97215949999989,46.86117569999998,0 -122.96322769999988,46.88883119999999,0 -122.96317559999989,46.88891039999999,0 -122.96010419999989,46.898508699999994,0 -122.9592892999999,46.900355999999995,0 -122.9472669999999,46.92028109999999,0 -122.9468532999999,46.92110749999999,0 -122.94634979999991,46.92242629999999,0 -122.93093149999991,46.974772899999984,0 -122.93049529999993,46.97580149999999,0 -122.92979979999994,46.97707209999999,0 -122.92921019999994,46.97792879999999,0 -122.91556159999993,46.99424899999998,0 -122.91453299999992,46.99571989999998,0 -122.90666819999991,47.00930179999998,0 -122.9063536999999,47.01011409999998,0 -122.90577779999991,47.01634049999998,0 -122.9062848999999,47.02014659999998,0 -122.90627029999992,47.02051679999998,0 -122.90615089999991,47.021089099999976,0 -122.9060080999999,47.02144069999998,0 -122.90567589999989,47.02197889999998,0 -122.90497519999988,47.02271049999998,0 -122.90438959999987,47.023124199999984,0 -122.90375939999988,47.02345289999998,0 -122.90314479999988,47.02369499999998,0 -122.9008450999999,47.02431959999998,0 -122.90078639999989,47.02431229999998,0 -122.89988209999987,47.02463089999998,0 -122.89907739999987,47.025010799999976,0 -122.89841889999987,47.02540479999997,0 -122.89792999999987,47.025768299999974,0 -122.89423019999987,47.02938649999997,0 -122.89149289999986,47.032858399999974,0 -122.89082299999986,47.033476799999974,0 -122.88965789999986,47.03424189999998,0 -122.88838119999987,47.03480889999998,0 -122.88774179999987,47.03501269999998,0 -122.88673709999986,47.035247099999985,0 -122.88563859999985,47.03539769999998,0 -122.87822849999985,47.03593119999998,0 -122.87705899999983,47.03614099999998,0 -122.87600649999983,47.036420599999985,0 -122.87502419999983,47.036800499999984,0 -122.87425749999981,47.037197699999986,0 -122.87151909999982,47.03904739999998,0 -122.8703920999998,47.03966419999998,0 -122.86956079999982,47.039992199999986,0 -122.86821319999981,47.04033659999999,0 -122.8672733999998,47.04046779999999,0 -122.86648089999981,47.04051459999999,0 -122.85647409999982,47.04028059999998,0 -122.85524099999982,47.040345899999984,0 -122.85462269999984,47.04042829999998,0 -122.85354529999982,47.04066469999999,0 -122.85295849999981,47.04084429999998,0 -122.84303289999983,47.04465059999998,0 -122.84190919999983,47.04499659999998,0 -122.84082749999982,47.04518689999998,0 -122.82427849999982,47.04663209999998,0 -122.82306549999981,47.046799499999985,0 -122.82175499999981,47.04711709999999,0 -122.82085739999981,47.04745359999998,0 -122.8199983999998,47.04787539999999,0 -122.80880669999979,47.055567799999984,0 -122.80805609999979,47.05596459999999,0 -122.80666029999978,47.05651009999999,0 -122.8058439999998,47.05673349999999,0 -122.7660239999998,47.06326889999999,0 -122.75712069999979,47.06404269999999,0 -122.7348457999998,47.067312499999986,0 -122.7248762999998,47.06793529999999,0 -122.71581369999981,47.06788019999999,0 -122.71476829999982,47.06793379999999,0 -122.71329579999981,47.06817349999999,0 -122.7121309999998,47.06852109999999,0 -122.6880843999998,47.07773989999999,0 -122.6781189999998,47.080691999999985,0 -122.67183949999978,47.08236439999999,0 -122.66144229999978,47.083849999999984,0 -122.66021549999978,47.08409359999999,0 -122.64374729999977,47.088159699999984,0 -122.63947959999976,47.08900139999999,0 -122.62208739999977,47.09331079999999,0 -122.61986049999977,47.09398409999999,0 -122.61720279999976,47.095055599999995,0 -122.60740299999976,47.09990559999999,0 -122.60677959999975,47.10013579999999,0 -122.59919789999974,47.10231039999999,0 -122.59797449999975,47.10256079999999,0 -122.59687209999974,47.1026993,0 -122.59351779999974,47.10283689999999,0 -122.59273749999976,47.1029151,0 -122.59194849999976,47.10306789999999,0 -122.58560929999976,47.10489379999999,0 -122.58373289999976,47.1056372,0 -122.57999779999975,47.1076086,0 -122.57869029999976,47.1080818,0 -122.57251779999977,47.109842799999996,0 -122.57138509999976,47.11024,0 -122.57020039999975,47.110783299999994,0 -122.56404839999975,47.1144118,0 -122.56398779999975,47.114474799999996,0 -122.56109389999976,47.116170399999994,0 -122.55719939999976,47.11825199999999,0 -122.55393449999976,47.12033509999999,0 -122.55317589999974,47.120712999999995,0 -122.54361179999974,47.126298299999995,0 -122.54306579999975,47.126500199999995,0 -122.53659599999976,47.130602599999996,0 -122.52995959999976,47.1344831,0 -122.52149839999977,47.1388874,0 -122.52058049999978,47.139286799999994,0 -122.51726129999979,47.140272499999995,0 -122.5166344999998,47.1405342,0 -122.50233599999979,47.1481892,0 -122.48453439999979,47.1585621,0 -122.48371789999979,47.1591137,0 -122.46688699999979,47.1757866,0 -122.46640989999979,47.176439,0 -122.46578469999979,47.177663700000004,0 -122.46260289999981,47.18910950000001,0 -122.46235739999982,47.190346100000006,0 -122.4621471999998,47.19640220000001,0 -122.46123419999981,47.20276110000001,0 -122.4611797999998,47.203856300000005,0 -122.46325119999982,47.22057300000001,0 -122.46328889999982,47.22278010000001,0 -122.46323869999982,47.222989500000004,0 -122.46317859999982,47.225835700000005,0 -122.46302449999982,47.22660820000001,0 -122.46284119999981,47.22708240000001,0 -122.46224889999982,47.228021600000005,0 -122.46160629999981,47.22868750000001,0 -122.46106499999982,47.22911780000001,0 -122.46053709999983,47.229452500000015,0 -122.4595820999998,47.22992080000001,0 -122.45867049999981,47.23024870000001,0 -122.45807519999981,47.23040550000002,0 -122.4566754999998,47.23062460000001,0 -122.4558692999998,47.23066940000001,0 -122.4550631999998,47.23065640000001,0 -122.45015979999981,47.23011840000001,0 -122.44800019999981,47.23006410000001,0 -122.44660589999981,47.23016800000001,0 -122.44291869999981,47.23079460000001,0 -122.43889139999982,47.232015700000005,0 -122.4373124999998,47.23239790000001,0 -122.43530459999981,47.232735600000005,0 -122.43146479999982,47.23316630000001,0 -122.42912639999982,47.23368980000001,0 -122.4276297999998,47.23418110000001,0 -122.4199579999998,47.23758720000001,0 -122.4189896999998,47.23789000000001,0 -122.4171624999998,47.238297900000006,0 -122.4148610999998,47.23861680000001,0 -122.4033709999998,47.23950310000001,0 -122.4009231999998,47.2399812,0 -122.39780489999978,47.240830200000005,0 -122.39509749999978,47.2413054,0 -122.39331369999977,47.2414575,0 -122.39240039999979,47.2414795,0 -122.37716199999979,47.240519,0 -122.36981189999979,47.2404115,0 -122.34137129999979,47.2411556,0 -122.34012329999979,47.2413339,0 -122.3391791999998,47.2415599,0 -122.33820619999979,47.2418876,0 -122.3375420999998,47.2421763,0 -122.33635839999978,47.24285989999999,0 -122.33568279999977,47.2433924,0 -122.33498759999978,47.24411619999999,0 -122.3345669999998,47.24471129999999,0 -122.33423129999977,47.24537309999999,0 -122.33229249999977,47.252378099999994,0 -122.33153369999977,47.254399799999995,0 -122.33055959999976,47.25623199999999,0 -122.32966249999974,47.2575769,0 -122.32851059999975,47.25900239999999,0 -122.32710539999974,47.260454599999996,0 -122.31784339999973,47.2689725,0 -122.31545909999973,47.2715763,0 -122.31433909999973,47.27303419999999,0 -122.30992279999973,47.280046299999995,0 -122.30875869999973,47.2825351,0 -122.30446769999973,47.295307699999995,0 -122.30439979999974,47.2956569,0 -122.30027269999974,47.3078522,0 -122.29550689999974,47.319506,0 -122.29546999999975,47.31954369999999,0 -122.29460629999976,47.32230459999999,0 -122.29424009999977,47.324152999999995,0 -122.29258739999976,47.34307469999999,0 -122.29267009999977,47.34508079999999,0 -122.29309669999977,47.34692909999998,0 -122.29358109999976,47.34818619999999,0 -122.29534009999976,47.35175499999999,0 -122.29587959999978,47.35317569999999,0 -122.29619409999978,47.35448329999999,0 -122.29632949999977,47.35553889999999,0 -122.29627529999976,47.35780889999999,0 -122.29056479999977,47.38023379999999,0 -122.29016959999977,47.38241059999999,0 -122.28998819999977,47.38503359999999,0 -122.29003219999977,47.38658759999999,0 -122.29212799999976,47.4011879,0 -122.29227489999977,47.403779099999994,0 -122.29201089999977,47.40705199999999,0 -122.28973929999975,47.4159052,0 -122.28923439999976,47.4171676,0 -122.28823159999976,47.4188267,0 -122.28720619999976,47.420051199999996,0 -122.28655399999975,47.420695599999995,0 -122.28498139999977,47.4219508,0 -122.27323709999978,47.4296613,0 -122.27226509999977,47.4303835,0 -122.27132889999976,47.4312888,0 -122.27065789999976,47.43216089999999,0 -122.27030319999974,47.43277929999999,0 -122.26988459999973,47.43383769999999,0 -122.26768659999975,47.443859499999995,0 -122.26670159999975,47.44726479999999,0 -122.26420629999973,47.45327919999999,0 -122.26383189999974,47.454423399999996,0 -122.26356099999973,47.4557224,0 -122.26335349999974,47.4599154,0 -122.26342229999973,47.460840499999996,0 -122.26358609999973,47.4615041,0 -122.26410489999972,47.4626948,0 -122.26675629999971,47.4663505,0 -122.26760899999971,47.46816239999999,0 -122.2691285999997,47.473534199999996,0 -122.27131269999971,47.47821029999999,0 -122.27156959999971,47.4790067,0 -122.2716939999997,47.48011029999999,0 -122.27161289999971,47.480937899999994,0 -122.2714532999997,47.4815422,0 -122.2711631999997,47.4822547,0 -122.27052749999972,47.483261,0 -122.26983919999972,47.484042499999994,0 -122.26555899999973,47.487528399999995,0 -122.26505419999972,47.488054399999996,0 -122.26473079999973,47.4885123,0 -122.26443679999974,47.489150099999996,0 -122.26431289999974,47.489739,0 -122.26430499999972,47.4901889,0 -122.26445649999972,47.490931800000006,0 -122.26468519999972,47.4914356,0 -122.26518779999971,47.4921269,0 -122.2720836999997,47.4978954,0 -122.2774903999997,47.5031189,0 -122.2788815999997,47.5046122,0 -122.28731999999971,47.515631,0 -122.28830499999971,47.5171711,0 -122.29002609999972,47.52057429999999,0 -122.29056279999972,47.521864099999995,0 -122.29183419999971,47.52581639999999,0 -122.29319109999972,47.52928179999999,0 -122.29534349999972,47.53373159999999,0 -122.29612199999973,47.53501099999999,0 -122.29668919999973,47.53575099999999,0 -122.29764889999974,47.536787299999986,0 -122.30794839999974,47.54598139999998,0 -122.30959209999973,47.547219799999986,0 -122.31559979999973,47.55090279999999,0 -122.31652429999973,47.55166349999999,0 -122.31707829999974,47.552331399999986,0 -122.32068809999974,47.55802409999998,0 -122.32111909999973,47.55900959999998,0 -122.32141529999974,47.56018029999998,0 -122.32145389999974,47.56152999999998,0 -122.32063819999975,47.565831299999985,0 -122.32065919999975,47.56599769999998,0 -122.32002709999975,47.570146999999984,0 -122.31968439999976,47.57588959999998,0 -122.31907779999976,47.57876729999998,0 -122.31902889999978,47.57972449999998,0 -122.31913069999977,47.58059069999998,0 -122.31978559999978,47.58324459999998,0 -122.32001699999977,47.58474119999998,0 -122.32020959999977,47.587347999999984,0 -122.32041039999979,47.58854219999998,0 -122.32084679999979,47.59017679999997,0 -122.32077089999979,47.59029919999998,0 -122.3208444999998,47.59213409999998,0 -122.3209457999998,47.592355599999976,0 -122.3211561999998,47.59258909999998,0 -122.3213005999998,47.59269969999998,0 -122.32162239999981,47.59286679999998,0 -122.3219563999998,47.59296519999998,0 -122.3223037999998,47.59301339999998,0 -122.32255909999981,47.59301319999998,0 -122.32291259999982,47.59296959999998,0 -122.32464829999982,47.59252139999998,0 -122.32853239999983,47.59194569999998,0 -122.32859739999984,47.59195529999998,0 -122.32890299999984,47.59187489999998,0 -122.32913359999984,47.591780899999975,0 -122.32935719999985,47.59164819999998,0 -122.32959369999985,47.59143599999997,0 -122.32972939999986,47.59123489999998,0 -122.32993139999986,47.59047939999998,0 -122.33003319999987,47.590290099999976,0 -122.33422789999987,47.59027489999998,0 -122.33422659999988,47.591591299999976,0 -122.33414289999988,47.591756499999974,0 -122.33416499999987,47.59312949999998,0 -122.33423479999988,47.59324229999998,0 -122.33409039999988,47.59589499999998,0 -122.33416449999989,47.59641119999998,0 -122.33413949999989,47.59917059999998,0 -122.3328910999999,47.599167699999974,0 -122.33273179999989,47.59920149999998,0 -122.33159089999988,47.59920379999998,0 </coordinates></LineString><TimeSpan><begin>2021-12-19T16:21:24.154Z</begin><end>2021-12-19T18:42:41.478Z</end></TimeSpan></Placemark><Placemark><name>Klondike Gold Rush National Historical Park</name><address>319 2nd Ave S, Seattle, WA 98104</address><ExtendedData><Data name="Email"><value>syugen.zhou@gmail.com</value></Data><Data name="Category"><value>Historical place museum</value></Data><Data name="Distance"><value>0</value></Data></ExtendedData><description> Historical place museum from 2021-12-19T18:42:41.478Z to 2021-12-19T19:08:30.999Z. Distance 0m </description><Point><coordinates>-122.3319444,47.599444399999996,0</coordinates></Point><TimeSpan><begin>2021-12-19T18:42:41.478Z</begin><end>2021-12-19T19:08:30.999Z</end></TimeSpan></Placemark><Placemark><name>Driving</name><address></address><ExtendedData><Data name="Email"><value>syugen.zhou@gmail.com</value></Data><Data name="Category"><value>Driving</value></Data><Data name="Distance"><value>42408</value></Data></ExtendedData><description> Driving from 2021-12-19T19:08:30.999Z to 2021-12-19T19:43:31.000Z. Distance 42408m </description><LineString><altitudeMode>clampToGround</altitudeMode><extrude>1</extrude><tesselate>1</tesselate><coordinates>-122.3309304,47.599199299999995,0 -122.32902720000001,47.5991984,0 -122.32900230000001,47.6017831,0 -122.33095660000002,47.6039506,0 -122.32811300000002,47.605118,0 -122.32794830000002,47.6053158,0 -122.32793080000002,47.6053995,0 -122.33050960000001,47.6083639,0 -122.33067040000002,47.6086788,0 -122.33079010000002,47.6087407,0 -122.33100770000001,47.609650099999996,0 -122.33089810000001,47.61093279999999,0 -122.32872440000001,47.616786399999995,0 -122.3283174,47.61857129999999,0 -122.3281698,47.626751799999994,0 -122.32793829999999,47.6277188,0 -122.32774939999997,47.6281337,0 -122.32708399999997,47.629092799999995,0 -122.32477429999996,47.6313634,0 -122.32401399999996,47.6324694,0 -122.32296639999996,47.6352277,0 -122.32270579999997,47.6367582,0 -122.32231959999997,47.6566616,0 -122.32181599999998,47.6629024,0 -122.32170489999997,47.670400900000004,0 -122.32156619999998,47.671433900000004,0 -122.32053959999998,47.6754608,0 -122.32043309999997,47.676478100000004,0 -122.32058719999998,47.680601100000004,0 -122.32084469999997,47.6816807,0 -122.32128969999997,47.6825947,0 -122.32201619999998,47.6835286,0 -122.32742929999998,47.6879386,0 -122.32809079999998,47.688672200000006,0 -122.32862709999999,47.689527600000005,0 -122.3288553,47.69005560000001,0 -122.3290883,47.69111370000001,0 -122.32905830000001,47.69660220000001,0 -122.32974970000001,47.7090398,0 -122.32957080000001,47.7100068,0 -122.32933150000001,47.7106331,0 -122.32891570000002,47.7113609,0 -122.32519200000002,47.716132900000005,0 -122.32475390000002,47.71693350000001,0 -122.32444310000001,47.71775870000001,0 -122.32424870000001,47.71876850000001,0 -122.32420570000002,47.731832900000015,0 -122.32467410000002,47.73386200000001,0 -122.32537430000002,47.73539750000001,0 -122.32927100000002,47.74186910000002,0 -122.32957850000003,47.742606400000014,0 -122.32974290000003,47.74334680000001,0 -122.32970750000003,47.74463750000002,0 -122.32894780000002,47.74764970000002,0 -122.32893430000003,47.74889210000001,0 -122.32994870000003,47.75187660000002,0 -122.33012450000003,47.753106400000014,0 -122.3299877,47.75447100000002,0 -122.32968080000002,47.75540330000002,0 -122.3291166,47.756440900000015,0 -122.3285103,47.75722670000002,0 -122.32569450000001,47.76014390000001,0 -122.3245,47.761687400000014,0 -122.32354900000001,47.763478800000016,0 -122.3231634,47.764600600000016,0 -122.32209280000001,47.769199700000016,0 -122.3214652,47.77038030000002,0 -122.3208831,47.771164900000024,0 -122.32078639999999,47.77122850000002,0 -122.31897769999999,47.773723700000026,0 -122.31844069999997,47.774717700000025,0 -122.31624629999999,47.78397840000002,0 -122.31610419999998,47.785221100000015,0 -122.316099,47.79186350000002,0 -122.3159069,47.79328900000002,0 -122.3140614,47.800277700000024,0 -122.3135529,47.80120100000002,0 -122.3127164,47.80225090000002,0 -122.3115035,47.80331060000002,0 -122.3102663,47.80410430000001,0 -122.26852149999999,47.82639930000002,0 -122.26836799999998,47.82638510000002,0 -122.26305419999998,47.82894000000002,0 -122.2624381,47.82939690000002,0 -122.262097,47.82988820000002,0 -122.26197950000001,47.83053940000002,0 -122.2620852,47.83097270000002,0 -122.2630263,47.832830500000014,0 -122.2633106,47.83316030000002,0 -122.26374179999999,47.833491000000016,0 -122.26407859999998,47.83367730000001,0 -122.26675429999999,47.83476670000001,0 -122.26788319999997,47.83534280000001,0 -122.26936029999999,47.836323400000005,0 -122.26954179999997,47.83638710000001,0 -122.27115009999997,47.83785950000001,0 -122.27176149999995,47.83855880000001,0 -122.27301959999997,47.84055520000001,0 -122.27366619999997,47.84213770000001,0 -122.27410349999995,47.84400650000001,0 -122.27448289999994,47.86340670000001,0 -122.27464479999995,47.864290100000005,0 -122.27504119999996,47.86545450000001,0 -122.27545639999997,47.866271900000015,0 -122.27671559999997,47.86817940000001,0 -122.27709859999996,47.868941000000014,0 -122.27734119999997,47.870083700000016,0 -122.27732139999996,47.87063540000001,0 -122.27617189999995,47.87459650000001,0 -122.27623299999996,47.87562370000001,0 -122.27735479999996,47.87865770000001,0 -122.27780539999996,47.87955630000001,0 -122.29211189999995,47.90037060000001,0 -122.29268859999995,47.90161140000001,0 -122.29288589999996,47.902609100000014,0 -122.29294319999995,47.90918820000002,0 -122.29320779999995,47.91039700000002,0 -122.29365609999995,47.911428000000015,0 -122.29377369999995,47.91152980000001,0 -122.29428839999996,47.91230980000001,0 -122.29527149999994,47.91334410000001,0 -122.29884429999996,47.91635000000001,0 -122.29937759999994,47.91691250000001,0 -122.29982979999994,47.917644300000006,0 -122.30008599999994,47.91856270000001,0 -122.30036599999993,47.9278302,0 -122.3006281999999,47.92833980000001,0 -122.30088549999991,47.92864200000001,0 -122.30144889999991,47.92910200000001,0 -122.3047334999999,47.9308654,0 -122.3055646999999,47.9316064,0 -122.3059838999999,47.9321824,0 -122.3062620999999,47.932813100000004,0 -122.3063827999999,47.9336245,0 -122.30550019999991,47.9425157,0 -122.30519829999992,47.9433585,0 -122.30427419999992,47.944971499999994,0 -122.30399929999993,47.94621599999999,0 -122.30414539999992,47.9480982,0 -122.30124649999993,47.94874149999999,0 </coordinates></LineString><TimeSpan><begin>2021-12-19T19:08:30.999Z</begin><end>2021-12-19T19:43:31.000Z</end></TimeSpan></Placemark><Placemark><name>Mukilteo</name><address>910 Front St, Mukilteo, WA 98275</address><ExtendedData><Data name="Email"><value>syugen.zhou@gmail.com</value></Data><Data name="Category"><value>Ferry terminal</value></Data><Data name="Distance"><value>0</value></Data></ExtendedData><description> Ferry terminal from 2021-12-19T19:43:31.000Z to 2021-12-19T19:56:37.563Z. Distance 0m </description><Point><coordinates>-122.29702549999999,47.950272899999995,0</coordinates></Point><TimeSpan><begin>2021-12-19T19:43:31.000Z</begin><end>2021-12-19T19:56:37.563Z</end></TimeSpan></Placemark><Placemark><name>On a ferry</name><address></address><ExtendedData><Data name="Email"><value>syugen.zhou@gmail.com</value></Data><Data name="Category"><value>On a ferry</value></Data><Data name="Distance"><value>5100</value></Data></ExtendedData><description> On a ferry from 2021-12-19T19:56:37.563Z to 2021-12-19T20:13:23.752Z. Distance 5100m </description><LineString><altitudeMode>clampToGround</altitudeMode><extrude>1</extrude><tesselate>1</tesselate><coordinates>-122.29702549999998,47.950272899999995,0 -122.2984235,47.950824,0 -122.2984949,47.94993,0 -122.2983181,47.9519644,0 -122.3268458,47.9591244,0 -122.3491049,47.9745426,0 -122.3491049,47.9745426,0 </coordinates></LineString><TimeSpan><begin>2021-12-19T19:56:37.563Z</begin><end>2021-12-19T20:13:23.752Z</end></TimeSpan></Placemark><Placemark><name>Driving</name><address></address><ExtendedData><Data name="Email"><value>syugen.zhou@gmail.com</value></Data><Data name="Category"><value>Driving</value></Data><Data name="Distance"><value>43422</value></Data></ExtendedData><description> Driving from 2021-12-19T20:13:23.752Z to 2021-12-19T20:52:59.823Z. Distance 43422m </description><LineString><altitudeMode>clampToGround</altitudeMode><extrude>1</extrude><tesselate>1</tesselate><coordinates>-122.34915169999998,47.974521599999996,0 -122.3497988,47.975301599999995,0 -122.3500012,47.97538989999999,0 -122.35015639999999,47.97539709999999,0 -122.35198149999998,47.974722599999986,0 -122.35223269999997,47.97474339999999,0 -122.35246649999996,47.97485709999999,0 -122.35360779999996,47.976476599999984,0 -122.35649229999996,47.97904889999998,0 -122.35729859999996,47.97941949999998,0 -122.35776359999997,47.979542899999984,0 -122.35846929999997,47.97963389999998,0 -122.36878949999995,47.97942209999998,0 -122.37512319999995,47.978604499999975,0 -122.37587739999995,47.97860199999998,0 -122.37711069999995,47.97877299999998,0 -122.37789089999995,47.979012099999984,0 -122.38894269999994,47.98423839999999,0 -122.39051419999994,47.985204799999984,0 -122.39170669999993,47.98615499999998,0 -122.40154379999991,47.99644489999998,0 -122.40318489999991,47.99770909999998,0 -122.40487489999991,47.99867729999998,0 -122.40596989999992,47.999169399999985,0 -122.40844079999991,47.999996799999984,0 -122.41056009999991,48.00043809999998,0 -122.43750119999993,48.004169099999984,0 -122.43902749999992,48.00425839999999,0 -122.44062199999993,48.00409729999999,0 -122.44142789999994,48.00390819999999,0 -122.44241649999994,48.003563499999984,0 -122.44691399999995,48.00131779999998,0 -122.44920249999996,48.00047639999998,0 -122.45139159999995,47.999845399999984,0 -122.45235309999995,47.99967689999998,0 -122.45421149999997,47.99961339999998,0 -122.45511619999996,47.99970019999998,0 -122.45610039999995,47.99988689999998,0 -122.45740729999996,48.00030529999998,0 -122.45812209999997,48.00064719999998,0 -122.45904209999996,48.001236699999986,0 -122.45986379999997,48.00199219999998,0 -122.46306339999995,48.00600209999998,0 -122.46414289999996,48.00684359999998,0 -122.46494009999995,48.00725769999998,0 -122.46616149999997,48.00765829999998,0 -122.46697119999997,48.00782349999998,0 -122.46795439999995,48.007922199999975,0 -122.47676849999995,48.008027999999975,0 -122.47896079999995,48.00781539999998,0 -122.48446539999995,48.00672179999997,0 -122.48543869999995,48.00661059999997,0 -122.48738779999995,48.006583299999974,0 -122.50050969999995,48.007367699999975,0 -122.50185659999995,48.00756929999997,0 -122.50757529999996,48.00907099999997,0 -122.50976529999997,48.00938789999997,0 -122.51170089999998,48.009431199999966,0 -122.51283049999996,48.00935779999997,0 -122.52329009999997,48.007684899999965,0 -122.52436489999997,48.00758209999997,0 -122.52595629999998,48.00757149999997,0 -122.52749979999997,48.00767999999997,0 -122.53018199999997,48.00823779999997,0 -122.53396029999996,48.00977199999997,0 -122.53901059999995,48.01071139999997,0 -122.54012089999996,48.011084399999966,0 -122.54072429999997,48.01141669999997,0 -122.54906319999996,48.01792539999997,0 -122.55596009999996,48.02108569999997,0 -122.55709759999996,48.02190579999997,0 -122.55976549999995,48.02486159999997,0 -122.56011319999998,48.025475899999975,0 -122.56453739999998,48.03684699999997,0 -122.5650637,48.041587899999975,0 -122.56522799999999,48.04215139999997,0 -122.5666388,48.04436549999998,0 -122.5668591,48.04515479999998,0 -122.56673930000001,48.071182799999974,0 -122.56681570000002,48.071712399999974,0 -122.56787690000002,48.07510549999997,0 -122.56813170000001,48.07557229999997,0 -122.5695669,48.07728719999997,0 -122.56983910000001,48.07777049999997,0 -122.5704123,48.08005729999998,0 -122.57019670000001,48.08363019999998,0 -122.569934,48.08434809999998,0 -122.56854950000002,48.08660109999998,0 -122.56822350000002,48.08734139999998,0 -122.56816770000002,48.08798429999998,0 -122.56822570000003,48.08844509999998,0 -122.57487360000003,48.10156759999998,0 -122.58311780000002,48.11144599999998,0 -122.58461320000002,48.11474519999997,0 -122.58632630000002,48.11704569999998,0 -122.58681160000003,48.11794899999998,0 -122.59345340000004,48.14442729999998,0 -122.59448720000003,48.15127029999998,0 -122.59468060000003,48.15179679999998,0 -122.59733240000003,48.15563549999998,0 -122.59794190000004,48.15619129999998,0 -122.60196670000003,48.15831039999998,0 -122.60282770000002,48.15898379999998,0 -122.60531580000001,48.16191069999998,0 -122.6064956,48.163778599999986,0 -122.60692870000001,48.16485789999998,0 -122.60697940000001,48.16491179999998,0 -122.6082123,48.170076299999984,0 -122.608381,48.17044159999998,0 -122.60910390000001,48.17131489999998,0 -122.609456,48.171597399999975,0 -122.61632939999998,48.175541099999975,0 -122.61700989999999,48.17607489999997,0 -122.62092209999999,48.18049119999997,0 -122.62167979999998,48.18096499999997,0 -122.6258398,48.18286309999998,0 -122.62628989999999,48.18328759999997,0 -122.62654019999998,48.18385929999997,0 -122.62670509999998,48.19597289999997,0 -122.62681569999997,48.19631669999997,0 -122.62710169999998,48.19677599999997,0 -122.62759399999999,48.197253699999976,0 -122.62802529999998,48.19752789999997,0 -122.62887729999998,48.19786949999997,0 -122.62950129999999,48.19800649999997,0 -122.63176719999998,48.198122999999974,0 -122.63240909999999,48.19827719999997,0 -122.63338569999999,48.19869499999997,0 -122.6339289,48.199168799999974,0 -122.6342143,48.199536099999975,0 -122.6344532,48.200119799999975,0 -122.6345457,48.205660799999976,0 -122.6346733,48.206113199999976,0 -122.6351041,48.206769299999976,0 -122.63547120000001,48.20711189999997,0 -122.63608290000002,48.20749739999997,0 -122.63681050000002,48.20778559999997,0 -122.63754120000003,48.20795329999998,0 -122.63814140000002,48.20801219999998,0 -122.647647,48.20759219999997,0 -122.65194920000002,48.207923799999975,0 -122.65738340000003,48.20870229999997,0 -122.66534280000005,48.208669199999974,0 -122.66667320000005,48.20880949999997,0 -122.66821010000005,48.20910619999997,0 -122.66931250000005,48.20941629999997,0 -122.67302780000004,48.21075989999997,0 -122.67491830000006,48.21130299999997,0 -122.67723540000006,48.211796899999975,0 -122.67947230000004,48.21211339999997,0 -122.68215730000006,48.21230299999998,0 -122.68612620000005,48.21229509999997,0 -122.68614180000004,48.21955619999997,0 -122.68819260000004,48.219545699999976,0 -122.68823900000004,48.21972629999998,0 -122.68906400000004,48.21970569999997,0 </coordinates></LineString><TimeSpan><begin>2021-12-19T20:13:23.752Z</begin><end>2021-12-19T20:52:59.823Z</end></TimeSpan></Placemark><Placemark><name>Coupeville</name><address>Washington 98239</address><ExtendedData><Data name="Email"><value>syugen.zhou@gmail.com</value></Data><Data name="Category"><value></value></Data><Data name="Distance"><value>0</value></Data></ExtendedData><description>  from 2021-12-19T20:52:59.823Z to 2021-12-19T21:20:01.999Z. Distance 0m </description><Point><coordinates>-122.6862804,48.2198208,0</coordinates></Point><TimeSpan><begin>2021-12-19T20:52:59.823Z</begin><end>2021-12-19T21:20:01.999Z</end></TimeSpan></Placemark><Placemark><name>Driving</name><address></address><ExtendedData><Data name="Email"><value>syugen.zhou@gmail.com</value></Data><Data name="Category"><value>Driving</value></Data><Data name="Distance"><value>2761</value></Data></ExtendedData><description> Driving from 2021-12-19T21:20:01.999Z to 2021-12-19T21:23:41.999Z. Distance 2761m </description><LineString><altitudeMode>clampToGround</altitudeMode><extrude>1</extrude><tesselate>1</tesselate><coordinates>-122.68936520000001,48.220453199999994,0 -122.68952120000002,48.2204535,0 -122.69001380000002,48.22045359999999,0 -122.69027050000001,48.2204529,0 -122.69047410000002,48.2204528,0 -122.6905892,48.22044759999999,0 -122.6906759,48.2204398,0 -122.690774,48.2204255,0 -122.69090860000001,48.2203829,0 -122.69097700000002,48.2203519,0 -122.69104240000001,48.220320199999996,0 -122.69111930000001,48.220275599999994,0 -122.69117960000003,48.220239899999996,0 -122.69140280000003,48.220101699999994,0 -122.69149850000004,48.220043,0 -122.69160800000003,48.219978499999996,0 -122.69169530000003,48.21993299999999,0 -122.69177270000002,48.21989659999999,0 -122.69191690000002,48.21984189999999,0 -122.69203220000001,48.219806799999986,0 -122.69215330000002,48.219778199999986,0 -122.6922474,48.21976029999999,0 -122.6923395,48.21974739999999,0 -122.6924257,48.219738599999985,0 -122.69251990000002,48.219731999999986,0 -122.69260120000003,48.219729999999984,0 -122.69280900000004,48.21972719999999,0 -122.69306360000004,48.21972659999999,0 -122.69411490000005,48.219715499999985,0 -122.69436300000005,48.21971459999998,0 -122.69457620000006,48.219710099999986,0 -122.69478680000006,48.21970119999999,0 -122.69490080000004,48.21969139999999,0 -122.69501080000005,48.21967529999999,0 -122.69510190000005,48.219656499999985,0 -122.69517960000006,48.21963439999998,0 -122.69519310000005,48.21963059999998,0 -122.69525480000004,48.21960739999999,0 -122.69536610000004,48.219555599999985,0 -122.69543720000004,48.21951449999999,0 -122.69551500000006,48.219462599999986,0 -122.69558880000004,48.21940989999999,0 -122.69559300000006,48.21940679999999,0 -122.69573490000006,48.219302699999986,0 -122.69602860000006,48.21908469999999,0 -122.69611580000007,48.2190221,0 -122.69613870000006,48.21900829999999,0 -122.69620970000005,48.21896579999999,0 -122.69630760000007,48.21890679999999,0 -122.69640950000007,48.218852299999995,0 -122.69651010000007,48.21880319999999,0 -122.69661610000009,48.21875849999999,0 -122.69674210000007,48.21871289999999,0 -122.69679470000005,48.21869629999999,0 -122.69687760000005,48.21866999999999,0 -122.69712030000005,48.21858869999999,0 -122.69731610000005,48.21852439999999,0 -122.69749180000004,48.218458299999995,0 -122.69759130000004,48.21841379999999,0 -122.69774120000005,48.2183466,0 -122.69781100000004,48.2183095,0 -122.69880880000005,48.21778,0 -122.69923120000006,48.217558399999994,0 -122.69950420000008,48.21741639999999,0 -122.69952870000007,48.21740369999999,0 -122.6998431000001,48.217252599999995,0 -122.6999956000001,48.2171903,0 -122.70013110000008,48.2171393,0 -122.70033760000007,48.2170732,0 -122.70091580000006,48.2168946,0 -122.70093030000005,48.21689010000001,0 -122.70241360000007,48.2164548,0 -122.70273280000008,48.2163717,0 -122.70304800000007,48.21629850000001,0 -122.70336180000007,48.216235000000005,0 -122.70335640000006,48.2160867,0 -122.70336580000006,48.2159607,0 -122.70338240000005,48.2156801,0 -122.70340260000006,48.215291799999996,0 -122.70341280000007,48.215018099999995,0 -122.70338500000008,48.214625,0 -122.70337950000007,48.21452419999999,0 -122.70336440000007,48.21409609999999,0 -122.70335250000007,48.2135669,0 -122.70336300000007,48.212731,0 -122.70335780000008,48.21230499999999,0 -122.70333620000008,48.2107575,0 -122.70331510000008,48.20929709999999,0 -122.70331400000008,48.20879179999999,0 -122.70330970000006,48.208548699999994,0 -122.70331060000008,48.2074402,0 -122.70352280000007,48.207262,0 -122.70386260000006,48.2069659,0 -122.70425700000007,48.206643899999996,0 -122.70426060000007,48.206641,0 -122.70462400000007,48.2063199,0 -122.70481680000007,48.2061332,0 -122.70492760000008,48.206043799999996,0 -122.70610650000009,48.2050352,0 -122.7061996000001,48.2050366,0 </coordinates></LineString><TimeSpan><begin>2021-12-19T21:20:01.999Z</begin><end>2021-12-19T21:23:41.999Z</end></TimeSpan></Placemark><Placemark><name>Ebey's Landing National Historic Reserve Visitor Center</name><address>126-146 Cemetery Rd, Coupeville, WA 98239</address><ExtendedData><Data name="Email"><value>syugen.zhou@gmail.com</value></Data><Data name="Category"><value>Visitor center</value></Data><Data name="Distance"><value>0</value></Data></ExtendedData><description> Visitor center from 2021-12-19T21:23:41.999Z to 2021-12-19T21:33:23.000Z. Distance 0m </description><Point><coordinates>-122.70653329999999,48.2047252,0</coordinates></Point><TimeSpan><begin>2021-12-19T21:23:41.999Z</begin><end>2021-12-19T21:33:23.000Z</end></TimeSpan></Placemark><Placemark><name>Driving</name><address></address><ExtendedData><Data name="Email"><value>syugen.zhou@gmail.com</value></Data><Data name="Category"><value>Driving</value></Data><Data name="Distance"><value>100033</value></Data></ExtendedData><description> Driving from 2021-12-19T21:33:23.000Z to 2021-12-19T22:48:42.180Z. Distance 100033m </description><LineString><altitudeMode>clampToGround</altitudeMode><extrude>1</extrude><tesselate>1</tesselate><coordinates>-122.70355160000001,48.2072369,0 -122.7033106,48.2074402,0 -122.7033578,48.21230499999999,0 -122.7072252,48.2121454,0 -122.7090115,48.2118014,0 -122.71382050000001,48.2101147,0 -122.71689510000002,48.2095726,0 -122.71932660000002,48.209540000000004,0 -122.72084060000003,48.209684900000006,0 -122.72285190000004,48.21010600000001,0 -122.72521680000003,48.21098780000001,0 -122.72654630000002,48.21172510000001,0 -122.72794570000002,48.21281010000001,0 -122.73912100000004,48.22692530000001,0 -122.73985060000003,48.22889580000001,0 -122.73989750000004,48.23038190000001,0 -122.73955740000004,48.23102710000001,0 -122.73892290000005,48.23156800000001,0 -122.73636700000003,48.23281410000001,0 -122.73419210000003,48.234136100000015,0 -122.73335410000003,48.23434310000001,0 -122.73152810000003,48.23430960000001,0 -122.72982680000003,48.23403990000001,0 -122.72653530000004,48.23394190000001,0 -122.72471680000002,48.234308300000016,0 -122.72402530000004,48.23462960000001,0 -122.72339500000004,48.23518660000001,0 -122.71752660000006,48.23915360000001,0 -122.71519630000006,48.24005440000001,0 -122.71460490000007,48.24052890000001,0 -122.71433110000008,48.24089240000001,0 -122.71409170000008,48.24153140000001,0 -122.71399560000009,48.248798000000015,0 -122.71368880000009,48.24939280000001,0 -122.71308930000009,48.250038200000006,0 -122.70548740000008,48.25554280000001,0 -122.70117620000009,48.257508900000005,0 -122.70056670000008,48.257955100000004,0 -122.69944770000009,48.2592366,0 -122.69882990000008,48.259729400000005,0 -122.69796820000008,48.2601517,0 -122.69156030000008,48.262293,0 -122.68588770000008,48.2630332,0 -122.68100110000009,48.264495700000005,0 -122.67795850000009,48.264928000000005,0 -122.6770061000001,48.2652002,0 -122.6732562000001,48.267009900000005,0 -122.67211670000012,48.26799140000001,0 -122.67182890000011,48.2684006,0 -122.6708112000001,48.2709818,0 -122.6695050000001,48.2775351,0 -122.6692919000001,48.2833672,0 -122.66886030000009,48.283831,0 -122.66828310000008,48.2840615,0 -122.66793400000007,48.2841151,0 -122.66617310000008,48.28412240000001,0 -122.6654456000001,48.28424460000001,0 -122.6621654000001,48.285379400000004,0 -122.6620961000001,48.2853751,0 -122.65778090000009,48.28691150000001,0 -122.65775300000007,48.29108540000001,0 -122.65781650000008,48.2911773,0 -122.65781800000008,48.2921126,0 -122.65759350000006,48.293035700000004,0 -122.65719900000008,48.2937269,0 -122.65279200000008,48.298477000000005,0 -122.63166290000007,48.316657600000006,0 -122.63066260000006,48.31775750000001,0 -122.62978780000006,48.31927890000001,0 -122.62864250000007,48.32594380000001,0 -122.63027160000007,48.33110890000001,0 -122.63040760000007,48.33270750000001,0 -122.63022690000007,48.33417210000002,0 -122.62982920000006,48.33544850000001,0 -122.62847230000007,48.33769560000002,0 -122.62328330000005,48.34292420000001,0 -122.62203360000007,48.343714700000014,0 -122.62119070000007,48.344040200000016,0 -122.61593950000007,48.34537710000002,0 -122.61490030000006,48.345771300000024,0 -122.61358710000006,48.346636500000024,0 -122.61264320000006,48.34796610000002,0 -122.61246080000008,48.348666700000024,0 -122.61236220000008,48.35437640000003,0 -122.61252890000009,48.355096600000024,0 -122.6128390000001,48.355707100000025,0 -122.61353200000008,48.35650970000003,0 -122.61478660000009,48.35733700000003,0 -122.6165692000001,48.35792450000003,0 -122.6174917000001,48.35804550000003,0 -122.63551320000009,48.358286700000036,0 -122.6376888000001,48.358731000000034,0 -122.64751840000011,48.362628000000036,0 -122.64873050000011,48.363396500000036,0 -122.64935690000011,48.364050700000035,0 -122.65289770000012,48.369292500000036,0 -122.65286250000011,48.36935090000003,0 -122.65288130000012,48.36943080000003,0 -122.65332760000013,48.36979240000004,0 -122.65413300000012,48.370991200000034,0 -122.65434270000011,48.37153180000003,0 -122.6543703000001,48.37223620000003,0 -122.6542011000001,48.37280820000003,0 -122.65078200000009,48.377102400000034,0 -122.65045830000011,48.37809310000004,0 -122.6504750000001,48.381099000000034,0 -122.6498560000001,48.385195800000034,0 -122.64940610000009,48.38626700000003,0 -122.6480472000001,48.38802830000003,0 -122.64760210000009,48.38892100000003,0 -122.64609510000008,48.39394380000003,0 -122.64581230000007,48.39759320000003,0 -122.64446310000007,48.40042400000004,0 -122.64447400000006,48.401636900000035,0 -122.64509930000006,48.40284590000003,0 -122.64515120000006,48.40342640000003,0 -122.64455560000006,48.40486280000003,0 -122.64463980000006,48.40796080000003,0 -122.64474410000005,48.40821090000003,0 -122.64586230000005,48.40944200000003,0 -122.64627560000005,48.409705200000026,0 -122.64763750000004,48.41018970000003,0 -122.64822240000004,48.41050040000003,0 -122.64845620000003,48.41070650000003,0 -122.64901240000003,48.41156840000003,0 -122.64908570000003,48.412223100000034,0 -122.64884200000003,48.41272910000003,0 -122.64629940000005,48.414741400000025,0 -122.64536850000005,48.41608120000002,0 -122.64498790000006,48.416411100000026,0 -122.64434040000006,48.41672100000003,0 -122.64387580000007,48.41679370000003,0 -122.64219020000006,48.41673500000003,0 -122.64173590000006,48.41678860000003,0 -122.64007650000003,48.41744460000003,0 -122.63916860000003,48.41752070000003,0 -122.63744720000004,48.41719870000003,0 -122.63652090000004,48.41725780000003,0 -122.63381380000006,48.41809890000003,0 -122.62481570000004,48.41893840000003,0 -122.62031380000006,48.420283100000034,0 -122.61967250000005,48.42058790000004,0 -122.61905190000004,48.421136100000034,0 -122.61879800000007,48.42161790000004,0 -122.61841230000006,48.42325200000004,0 -122.61792150000005,48.42394280000004,0 -122.61704040000005,48.42462710000004,0 -122.60962620000005,48.42773890000004,0 -122.60854200000004,48.42846140000004,0 -122.60779710000004,48.42941260000004,0 -122.60760270000006,48.42995980000005,0 -122.60746910000005,48.43608880000004,0 -122.60718580000005,48.436618600000045,0 -122.60646690000006,48.43728290000004,0 -122.60373050000007,48.43869080000004,0 -122.60302010000007,48.439304700000044,0 -122.60159230000006,48.44212200000004,0 -122.60165390000006,48.44269290000004,0 -122.60301140000007,48.44447870000004,0 -122.60316030000008,48.44509950000004,0 -122.60280090000006,48.44586620000004,0 -122.60201040000005,48.44637250000003,0 -122.59702480000006,48.44760630000003,0 -122.59626820000005,48.447946400000035,0 -122.59163080000005,48.450716500000034,0 -122.58370080000005,48.45374800000004,0 -122.58276300000004,48.45422210000004,0 -122.58252450000005,48.45423290000004,0 -122.58241240000005,48.454309300000034,0 -122.58190490000004,48.455882400000036,0 -122.58179530000002,48.462829900000045,0 -122.58158530000003,48.46307020000004,0 -122.58121840000003,48.46322360000004,0 -122.58078510000003,48.463268100000036,0 -122.57795070000003,48.46281170000004,0 -122.57098390000003,48.462642400000036,0 -122.56944990000002,48.46232120000004,0 -122.56223370000002,48.46016610000004,0 -122.56096060000003,48.45993210000004,0 -122.55884250000003,48.45985900000004,0 -122.55735420000002,48.46003300000004,0 -122.54377850000003,48.462971900000035,0 -122.54153120000004,48.46302340000004,0 -122.54037390000005,48.462913600000036,0 -122.53876210000006,48.462585100000034,0 -122.52963170000004,48.459337800000036,0 -122.52164180000004,48.456011800000034,0 -122.51906750000005,48.455387400000035,0 -122.46706720000005,48.446864800000036,0 -122.46297040000005,48.446423200000034,0 -122.43469120000003,48.44595040000004,0 -122.43138720000003,48.44627720000003,0 -122.38643130000003,48.455687200000035,0 -122.34076950000002,48.471079300000035,0 -122.34031620000002,48.47036650000004,0 -122.34038280000001,48.470114400000035,0 -122.34060770000002,48.469925800000034,0 -122.34107970000002,48.469826700000034,0 -122.34133970000003,48.469865100000035,0 -122.34167920000004,48.47005820000003,0 -122.34178780000005,48.470283300000034,0 -122.34195190000005,48.47174240000003,0 -122.34206490000005,48.47181980000003,0 -122.34248480000005,48.47776990000003,0 -122.34232190000004,48.47900810000002,0 -122.34186310000004,48.48022280000003,0 -122.34125870000004,48.48118950000003,0 -122.34035550000004,48.48219700000003,0 -122.33755670000004,48.48439170000003,0 -122.33631290000002,48.48585630000003,0 -122.33559980000004,48.48759210000003,0 -122.33535950000004,48.49854150000003,0 -122.33609580000004,48.50181060000003,0 -122.33707770000002,48.50404500000003,0 -122.35001830000003,48.52611660000003,0 -122.35117230000004,48.52893420000003,0 -122.35162920000005,48.531046200000034,0 -122.35189630000006,48.54187620000003,0 -122.35174150000005,48.54300450000003,0 -122.34959380000005,48.54763460000003,0 -122.34941230000005,48.54971720000003,0 -122.35026960000006,48.55350370000003,0 -122.35026580000006,48.55516790000002,0 -122.35001880000006,48.55634300000003,0 -122.34798040000004,48.561897800000025,0 -122.34763110000004,48.56414730000002,0 -122.34771240000005,48.57224360000003,0 -122.34372010000006,48.592017500000026,0 -122.34358510000006,48.59433360000003,0 -122.34532800000005,48.60455390000003,0 -122.34600640000005,48.60649530000003,0 -122.34753430000004,48.60903830000002,0 -122.35470270000002,48.617654200000025,0 -122.35591210000001,48.619859400000024,0 -122.35732010000001,48.628000800000024,0 -122.3723118,48.66551070000003,0 -122.3727964,48.66634980000003,0 -122.37407580000001,48.66761710000002,0 -122.37492400000001,48.66814600000002,0 -122.3839768,48.672412100000024,0 -122.3884915,48.674046500000024,0 -122.3903499,48.674965900000025,0 -122.39329690000001,48.67704020000003,0 -122.3938892,48.67769860000003,0 -122.39445189999999,48.67883860000002,0 -122.39452229999998,48.68003410000002,0 -122.39384359999998,48.68340940000002,0 -122.39415659999997,48.68470550000003,0 -122.39477889999999,48.68566690000002,0 -122.3959366,48.68668090000003,0 -122.39691499999998,48.68722960000003,0 -122.40525739999998,48.68984340000002,0 -122.40750519999997,48.69020190000003,0 -122.41405239999997,48.69043630000002,0 -122.41612929999997,48.690175000000025,0 -122.41968449999997,48.68924310000003,0 -122.42127399999997,48.68904730000003,0 -122.42456449999996,48.68918070000003,0 -122.42644649999997,48.68955400000003,0 -122.42950349999998,48.69060630000003,0 -122.44358889999998,48.692832800000026,0 -122.44749039999998,48.69312500000003,0 -122.44922749999998,48.69347710000003,0 -122.45447699999998,48.69528870000003,0 -122.45745729999997,48.69699980000003,0 -122.45884359999998,48.69759350000003,0 -122.46733199999997,48.699622800000036,0 -122.46878209999998,48.70015130000003,0 -122.47009429999997,48.70079460000003,0 -122.47459649999999,48.703648900000026,0 -122.47551759999999,48.704419200000025,0 -122.47642479999998,48.70568590000002,0 -122.47668069999997,48.706358700000024,0 -122.47672459999997,48.70796850000003,0 -122.47377209999996,48.715848800000025,0 -122.47372699999997,48.72508990000002,0 -122.47355159999998,48.72622620000003,0 -122.47256029999998,48.72823890000003,0 -122.46821399999997,48.73262650000002,0 -122.46745929999999,48.73400780000003,0 -122.46729609999998,48.73504530000003,0 -122.46732479999997,48.742301500000025,0 -122.46710899999998,48.74316200000003,0 -122.46492539999998,48.74695570000003,0 -122.46175259999998,48.75486520000003,0 -122.4616052,48.76404320000003,0 -122.4623036,48.76838550000003,0 -122.46360409999998,48.77150710000003,0 -122.46414679999998,48.77235050000002,0 -122.47212579999997,48.779337500000025,0 -122.47344749999998,48.780180800000025,0 -122.47579559999997,48.78118440000003,0 -122.47783499999996,48.78170190000003,0 -122.48827559999995,48.78313540000003,0 -122.50073279999994,48.783737200000026,0 -122.50203019999995,48.78391110000003,0 -122.51121119999993,48.78682460000003,0 -122.51354349999994,48.78779740000003,0 -122.51539879999994,48.788970700000036,0 -122.51521839999995,48.789103100000034,0 </coordinates></LineString><TimeSpan><begin>2021-12-19T21:33:23.000Z</begin><end>2021-12-19T22:48:42.180Z</end></TimeSpan></Placemark><Placemark><name>Costco Wholesale</name><address>4125 Arctic Ave, Bellingham, WA 98226</address><ExtendedData><Data name="Email"><value>syugen.zhou@gmail.com</value></Data><Data name="Category"><value>Warehouse store</value></Data><Data name="Distance"><value>0</value></Data></ExtendedData><description> Warehouse store from 2021-12-19T22:48:42.180Z to 2021-12-19T22:58:05.000Z. Distance 0m </description><Point><coordinates>-122.5148638,48.792054,0</coordinates></Point><TimeSpan><begin>2021-12-19T22:48:42.180Z</begin><end>2021-12-19T22:58:05.000Z</end></TimeSpan></Placemark><Placemark><name>Driving</name><address></address><ExtendedData><Data name="Email"><value>syugen.zhou@gmail.com</value></Data><Data name="Category"><value>Driving</value></Data><Data name="Distance"><value>30989</value></Data></ExtendedData><description> Driving from 2021-12-19T22:58:05.000Z to 2021-12-19T23:14:55.000Z. Distance 30989m </description><LineString><altitudeMode>clampToGround</altitudeMode><extrude>1</extrude><tesselate>1</tesselate><coordinates>-122.5149233,48.7892915,0 -122.5151055,48.789186,0 -122.51551120000002,48.7891014,0 -122.51562450000003,48.7891025,0 -122.51618320000003,48.7892016,0 -122.51741150000002,48.7893004,0 -122.51775470000003,48.789354,0 -122.51849510000001,48.7894968,0 -122.5187784,48.7895293,0 -122.5197459,48.7900062,0 -122.52076650000001,48.790571099999994,0 -122.5216034,48.791092899999995,0 -122.52332560000002,48.7922989,0 -122.52409010000002,48.79287789999999,0 -122.52501370000002,48.7936592,0 -122.52576510000003,48.7943755,0 -122.56945640000004,48.83935269999999,0 -122.57009180000004,48.8400609,0 -122.57086880000004,48.8410559,0 -122.57230190000003,48.8432442,0 -122.57279070000003,48.843862200000004,0 -122.57333890000004,48.8444732,0 -122.57952350000005,48.8508072,0 -122.58088820000006,48.8520232,0 -122.58138360000004,48.8524966,0 -122.58613320000006,48.8573945,0 -122.58644360000005,48.85775039999999,0 -122.58689260000004,48.858359699999994,0 -122.58713320000004,48.858765399999996,0 -122.58733770000005,48.859181199999995,0 -122.58754660000004,48.8597087,0 -122.58767200000004,48.8601423,0 -122.58778180000004,48.860696,0 -122.58888550000005,48.8719752,0 -122.58892880000005,48.8729603,0 -122.58860360000004,48.8843905,0 -122.58862030000004,48.8847226,0 -122.58866270000004,48.885050500000006,0 -122.58875270000004,48.8854528,0 -122.58893920000006,48.885994,0 -122.58903260000007,48.8862067,0 -122.58925560000006,48.8866249,0 -122.58959100000004,48.887123100000004,0 -122.58984490000003,48.8874395,0 -122.59037180000003,48.887985900000004,0 -122.59078160000003,48.8883378,0 -122.59122620000004,48.8886698,0 -122.61656670000005,48.90407840000001,0 -122.61816150000006,48.90513980000001,0 -122.62475400000005,48.909992200000005,0 -122.62560380000006,48.91069040000001,0 -122.62657480000006,48.91156760000001,0 -122.62739330000005,48.91239260000001,0 -122.62790280000004,48.912955100000005,0 -122.63253250000004,48.91842950000001,0 -122.63334660000004,48.919313500000015,0 -122.63426580000004,48.92020580000001,0 -122.63518980000002,48.92101910000002,0 -122.63610070000001,48.921744400000016,0 -122.63710440000003,48.92247440000001,0 -122.64255460000001,48.92604090000001,0 -122.64406340000001,48.92691760000002,0 -122.64511370000001,48.92746570000001,0 -122.66367570000001,48.93644200000002,0 -122.6650864,48.93718570000002,0 -122.66621070000001,48.93784780000002,0 -122.70041680000003,48.96055380000002,0 -122.70166180000004,48.961314600000016,0 -122.71603070000003,48.969487700000016,0 -122.71665040000003,48.96986500000002,0 -122.71791690000003,48.97072790000002,0 -122.71835340000004,48.97105890000002,0 -122.72813030000006,48.97904240000002,0 -122.72929580000005,48.98010280000002,0 -122.73026640000005,48.98110670000002,0 -122.73308530000006,48.98446670000002,0 -122.73370200000005,48.985124700000014,0 -122.73455160000007,48.98592760000002,0 -122.73550860000006,48.98672090000002,0 -122.73627960000006,48.98729040000002,0 -122.74072320000005,48.990354400000015,0 -122.74161240000005,48.99102760000002,0 -122.74413720000004,48.993198700000015,0 -122.74463360000003,48.993591600000016,0 -122.74497160000003,48.993834800000016,0 -122.74580780000002,48.994355800000015,0 -122.75010670000002,48.99658930000002,0 -122.75085800000004,48.99702490000002,0 -122.75145540000004,48.997413700000024,0 -122.75246820000004,48.99817150000002,0 -122.75270840000003,48.99832860000002,0 -122.75281810000004,48.998413900000024,0 -122.75291200000004,48.99850430000002,0 -122.75299220000004,48.99860250000002,0 -122.75310730000004,48.99878400000002,0 -122.75320220000003,48.99889630000002,0 -122.75329330000004,48.99898140000002,0 -122.75350030000004,48.999143500000024,0 -122.75472210000004,49.00043340000002,0 -122.75489530000003,49.00064570000002,0 </coordinates></LineString><TimeSpan><begin>2021-12-19T22:58:05.000Z</begin><end>2021-12-19T23:14:55.000Z</end></TimeSpan></Placemark><Placemark><name>Canada Border Services Agency - Douglas Port of Entry</name><address>220 BC-99, Surrey, BC V3Z 9N7, Canada</address><ExtendedData><Data name="Email"><value>syugen.zhou@gmail.com</value></Data><Data name="Category"><value>Border crossing station</value></Data><Data name="Distance"><value>0</value></Data></ExtendedData><description> Border crossing station from 2021-12-19T23:14:55.000Z to 2021-12-20T00:43:43.000Z. Distance 0m </description><Point><coordinates>-122.7575193,49.0051961,0</coordinates></Point><TimeSpan><begin>2021-12-19T23:14:55.000Z</begin><end>2021-12-20T00:43:43.000Z</end></TimeSpan></Placemark><Placemark><name>Driving</name><address></address><ExtendedData><Data name="Email"><value>syugen.zhou@gmail.com</value></Data><Data name="Category"><value>Driving</value></Data><Data name="Distance"><value>34741</value></Data></ExtendedData><description> Driving from 2021-12-20T00:43:43.999Z to 2021-12-20T01:13:32.999Z. Distance 34741m </description><LineString><altitudeMode>clampToGround</altitudeMode><extrude>1</extrude><tesselate>1</tesselate><coordinates>-122.75704739999999,49.004337299999996,0 -122.75703609999998,49.006281099999995,0 -122.75733669999998,49.0069483,0 -122.7574712,49.0123968,0 -122.75763129999999,49.013237999999994,0 -122.75794879999998,49.013976899999996,0 -122.765514,49.027330299999996,0 -122.76606559999999,49.0280924,0 -122.7671642,49.02926299999999,0 -122.79343499999999,49.0529082,0 -122.84182639999997,49.08808689999999,0 -122.84300409999999,49.0886539,0 -122.84476009999999,49.0891677,0 -122.84593099999998,49.089340899999996,0 -122.89195049999998,49.0921942,0 -122.89208839999996,49.0922777,0 -122.89300389999997,49.0925091,0 -122.89356259999997,49.0927415,0 -122.89417219999997,49.0930979,0 -122.89454379999997,49.0934075,0 -122.89491189999997,49.0938611,0 -122.89500749999998,49.0939104,0 -122.90412329999998,49.1086072,0 -122.90486049999998,49.1095033,0 -122.90615219999998,49.1107114,0 -122.90755039999999,49.111710099999996,0 -122.90957889999999,49.11280239999999,0 -122.91199819999997,49.11371449999999,0 -122.91393789999996,49.1142164,0 -122.91898989999997,49.115161699999994,0 -122.92187909999996,49.116049399999994,0 -122.92366589999996,49.116834,0 -122.92525729999996,49.117746399999994,0 -122.92609539999995,49.11856079999999,0 -122.92691329999997,49.1196941,0 -122.92718969999996,49.120228399999995,0 -122.92756599999996,49.121505299999995,0 -122.92863309999994,49.13382119999999,0 -122.92884109999996,49.1343031,0 -122.92927189999996,49.13496609999999,0 -122.93442969999995,49.140468799999994,0 -122.93512349999995,49.141500799999996,0 -122.94538799999994,49.166254699999996,0 -122.94588449999993,49.167018199999994,0 -122.94687789999993,49.168065399999996,0 -122.95336219999994,49.1722815,0 -122.95404009999996,49.172810399999996,0 -122.95443279999996,49.173271699999994,0 -122.95475149999996,49.17392029999999,0 -122.95504429999995,49.17537829999999,0 -122.95528259999995,49.175871199999996,0 -122.95564549999996,49.1762526,0 -122.95620839999994,49.176651,0 -122.95660699999995,49.176843399999996,0 -122.95663159999995,49.176916899999995,0 -122.95717119999996,49.17713489999999,0 -122.95999599999998,49.17763099999999,0 -122.96069119999997,49.17791919999999,0 -122.96129819999997,49.17835519999999,0 -122.96159479999999,49.178692299999994,0 -122.96178289999999,49.179036399999994,0 -122.9619447,49.1797718,0 -122.96179479999999,49.180651299999994,0 -122.9612914,49.1814548,0 -122.9604967,49.182142999999996,0 -122.9597621,49.1825404,0 -122.95889290000001,49.18286,0 -122.95467420000001,49.1838212,0 -122.95369470000003,49.1841514,0 -122.95190200000003,49.185020300000005,0 -122.95100020000001,49.1856896,0 -122.94879690000002,49.1876935,0 -122.9482622,49.1880328,0 -122.9475316,49.1883664,0 -122.9441104,49.1894616,0 -122.94348899999999,49.1897672,0 -122.9429181,49.190217,0 -122.94266119999999,49.19055,0 -122.94246279999999,49.1910697,0 -122.94244289999997,49.1915567,0 -122.94262429999998,49.1920413,0 -122.94312299999997,49.19266149999999,0 -122.94969069999996,49.198778,0 -122.95000739999995,49.19894239999999,0 -122.95037239999995,49.19901879999999,0 -122.95081009999996,49.19900349999999,0 -122.95108419999997,49.198929099999994,0 -122.95131249999997,49.198808799999995,0 -122.95182949999997,49.19829429999999,0 -122.95311229999997,49.1973755,0 -122.95369269999996,49.1970921,0 -122.95534179999997,49.1966775,0 -122.95772379999997,49.1956755,0 -122.95858669999998,49.1954944,0 -122.95986349999997,49.1954912,0 -122.97491029999998,49.1975592,0 -122.97593549999998,49.1978111,0 -122.97663799999997,49.198084699999995,0 -122.97733559999996,49.198476,0 -122.98178819999998,49.201993099999996,0 -122.97725139999997,49.204483599999996,0 -122.97677099999997,49.2046638,0 -122.97605079999997,49.204828799999994,0 -122.97621449999997,49.20510449999999,0 -122.97743529999997,49.20517889999999,0 -122.98068059999996,49.20614719999999,0 -122.98116869999996,49.20622629999999,0 -122.98358539999995,49.20624809999999,0 -122.98740279999994,49.20672359999999,0 -122.98852459999993,49.20676499999999,0 -122.98843129999993,49.216508099999984,0 -122.98872999999992,49.22194489999999,0 -122.99419019999993,49.22194739999998,0 -122.99421379999993,49.223319199999985,0 -122.99417509999992,49.22341699999998,0 -122.99417089999992,49.224944999999984,0 </coordinates></LineString><TimeSpan><begin>2021-12-20T00:43:43.999Z</begin><end>2021-12-20T01:13:32.999Z</end></TimeSpan></Placemark><Placemark><name>4880 Bennett St</name><address>4880 Bennett St, Burnaby, BC V5H 0C1, Canada</address><ExtendedData><Data name="Email"><value>syugen.zhou@gmail.com</value></Data><Data name="Category"><value></value></Data><Data name="Distance"><value>0</value></Data></ExtendedData><description>  from 2021-12-20T01:13:32.999Z to 2021-12-20T01:29:52.667Z. Distance 0m </description><Point><coordinates>-122.9950939,49.224852,0</coordinates></Point><TimeSpan><begin>2021-12-20T01:13:32.999Z</begin><end>2021-12-20T01:29:52.667Z</end></TimeSpan></Placemark><Placemark><name>Driving</name><address></address><ExtendedData><Data name="Email"><value>syugen.zhou@gmail.com</value></Data><Data name="Category"><value>Driving</value></Data><Data name="Distance"><value>879</value></Data></ExtendedData><description> Driving from 2021-12-20T01:29:52.667Z to 2021-12-20T01:35:51.359Z. Distance 879m </description><LineString><altitudeMode>clampToGround</altitudeMode><extrude>1</extrude><tesselate>1</tesselate><coordinates>-122.99495689999999,49.2252199,0 -122.9952532,49.2252195,0 -122.995718,49.225218999999996,0 -122.99597069999999,49.2252205,0 -122.99607929999999,49.22522299999999,0 -122.99612839999998,49.22522419999999,0 -122.99620809999998,49.2252259,0 -122.99628349999998,49.2252247,0 -122.996354,49.2252205,0 -122.9964199,49.225213600000004,0 -122.9964863,49.2252065,0 -122.99658389999999,49.2251852,0 -122.99673809999999,49.2251364,0 -122.99682589999998,49.225087699999996,0 -122.99686059999998,49.2250621,0 -122.99698449999998,49.2249639,0 -122.99730779999997,49.2246076,0 -122.99756159999997,49.22437059999999,0 -122.99786409999996,49.22408119999999,0 -122.99792089999995,49.22402829999999,0 -122.99800579999996,49.22394859999999,0 -122.99843459999997,49.22355639999999,0 -122.99849279999995,49.223496899999994,0 -122.99849279999995,49.223496899999994,0 -122.99881979999995,49.223630899999996,0 -122.99939489999996,49.22389979999999,0 -122.99984339999996,49.22413189999999,0 -122.99991729999995,49.22417389999999,0 -123.00021539999996,49.224334199999994,0 -123.00093619999997,49.224720999999995,0 -123.00107699999997,49.2247997,0 -123.00163669999998,49.225061499999995,0 -123.00189339999997,49.22518159999999,0 -123.00209589999997,49.22527639999999,0 -123.00229529999997,49.22537929999999,0 -123.00244559999997,49.225450699999996,0 -123.00247949999998,49.22546679999999,0 -123.00260449999999,49.22552599999999,0 -123.00365639999998,49.22600349999999,0 -123.00388209999998,49.22610119999999,0 -123.00393779999999,49.22612609999999,0 -123.00455839999998,49.22640329999999,0 -123.00485539999998,49.226539299999985,0 -123.00558989999998,49.22683339999998,0 -123.00572599999998,49.22688189999999,0 -123.0058936,49.22695199999999,0 -123.00635909999998,49.227152299999986,0 -123.00684489999998,49.227356599999986,0 -123.00734139999997,49.22757029999999,0 -123.00750089999998,49.22764559999999,0 -123.00750089999998,49.22764559999999,0 -123.00737169999998,49.22775489999999,0 -123.00676449999997,49.228333499999984,0 -123.00629089999997,49.22878569999999,0 -123.00577009999998,49.22927189999999,0 -123.00566339999997,49.22937189999999,0 -123.00552889999996,49.2295014,0 -123.00541849999998,49.229607699999995,0 </coordinates></LineString><TimeSpan><begin>2021-12-20T01:29:52.667Z</begin><end>2021-12-20T01:35:51.359Z</end></TimeSpan></Placemark><Placemark><name>The Crystal Mall</name><address>4500 Kingsway, Burnaby, BC V5H 2A9, Canada</address><ExtendedData><Data name="Email"><value>syugen.zhou@gmail.com</value></Data><Data name="Category"><value>Shopping mall</value></Data><Data name="Distance"><value>0</value></Data></ExtendedData><description> Shopping mall from 2021-12-20T01:35:51.359Z to 2021-12-20T02:47:57.891Z. Distance 0m </description><Point><coordinates>-123.00475619999999,49.229116399999995,0</coordinates></Point><TimeSpan><begin>2021-12-20T01:35:51.359Z</begin><end>2021-12-20T02:47:57.891Z</end></TimeSpan></Placemark><Placemark><name>Driving</name><address></address><ExtendedData><Data name="Email"><value>syugen.zhou@gmail.com</value></Data><Data name="Category"><value>Driving</value></Data><Data name="Distance"><value>897</value></Data></ExtendedData><description> Driving from 2021-12-20T02:47:57.891Z to 2021-12-20T02:50:58.879Z. Distance 897m </description><LineString><altitudeMode>clampToGround</altitudeMode><extrude>1</extrude><tesselate>1</tesselate><coordinates>-123.0041739,49.2285654,0 -123.0041751,49.228564,0 -123.00418159999998,49.22855,0 -123.00418619999999,49.2285312,0 -123.0041895,49.2285113,0 -123.00418719999999,49.2284953,0 -123.00417819999998,49.2284784,0 -123.00416539999998,49.228459400000006,0 -123.00412159999998,49.2283946,0 -123.00412159999998,49.2283946,0 -123.00442939999998,49.2280963,0 -123.00452609999999,49.228002599999996,0 -123.00468249999999,49.2278572,0 -123.00499919999997,49.2275629,0 -123.00526209999997,49.2273195,0 -123.00557949999997,49.2270255,0 -123.00572599999998,49.2268819,0 -123.00572599999998,49.2268819,0 -123.00579599999998,49.2268071,0 -123.00566859999996,49.2267542,0 -123.00556099999996,49.2267169,0 -123.00494729999997,49.2264737,0 -123.00466329999996,49.2263459,0 -123.00396709999997,49.2260001,0 -123.00383599999996,49.225937699999996,0 -123.00314859999995,49.2256376,0 -123.00270319999996,49.2254433,0 -123.00254989999996,49.2253798,0 -123.00210129999996,49.225173299999994,0 -123.00199769999995,49.225125,0 -123.00187709999994,49.225068699999994,0 -123.00165019999994,49.22496339999999,0 -123.00142839999995,49.2248624,0 -123.00133259999994,49.22481929999999,0 -123.00114499999995,49.224728,0 -123.00028229999995,49.22426419999999,0 -122.99999209999994,49.224109199999994,0 -122.99989629999995,49.22405839999999,0 -122.99985029999995,49.224036399999996,0 -122.99976089999993,49.223988799999994,0 -122.99965779999994,49.223935299999994,0 -122.99957789999995,49.2238973,0 -122.99886909999994,49.223571299999996,0 -122.99855099999992,49.223434299999994,0 -122.99855099999992,49.223434299999994,0 -122.99849279999994,49.223496899999994,0 -122.99843459999994,49.22355639999999,0 -122.99800579999994,49.22394859999999,0 -122.99792089999993,49.22402829999999,0 -122.99786409999993,49.22408119999999,0 -122.99756159999994,49.22437059999999,0 -122.99730779999996,49.2246076,0 -122.99698449999995,49.2249639,0 -122.99686059999995,49.2250621,0 -122.99682589999995,49.225087699999996,0 -122.99673809999996,49.2251364,0 -122.99658389999996,49.2251852,0 -122.99648629999997,49.2252065,0 -122.99641989999998,49.225213600000004,0 -122.99635399999997,49.2252205,0 -122.99628349999996,49.2252247,0 -122.99620809999995,49.2252259,0 -122.99612839999996,49.22522419999999,0 -122.99607929999996,49.22522299999999,0 -122.99597069999996,49.2252205,0 -122.99571799999997,49.225218999999996,0 -122.99525319999996,49.2252195,0 -122.99494929999996,49.2252199,0 </coordinates></LineString><TimeSpan><begin>2021-12-20T02:47:57.891Z</begin><end>2021-12-20T02:50:58.879Z</end></TimeSpan></Placemark><Placemark><name>4880 Bennett St</name><address>4880 Bennett St, Burnaby, BC V5H 0C1, Canada</address><ExtendedData><Data name="Email"><value>syugen.zhou@gmail.com</value></Data><Data name="Category"><value></value></Data><Data name="Distance"><value>0</value></Data></ExtendedData><description>  from 2021-12-20T02:50:58.879Z to 2021-12-20T03:17:18.890Z. Distance 0m </description><Point><coordinates>-122.9950939,49.224852,0</coordinates></Point><TimeSpan><begin>2021-12-20T02:50:58.879Z</begin><end>2021-12-20T03:17:18.890Z</end></TimeSpan></Placemark><Placemark><name>Driving</name><address></address><ExtendedData><Data name="Email"><value>syugen.zhou@gmail.com</value></Data><Data name="Category"><value>Driving</value></Data><Data name="Distance"><value>874</value></Data></ExtendedData><description> Driving from 2021-12-20T03:17:18.890Z to 2021-12-20T03:21:18.287Z. Distance 874m </description><LineString><altitudeMode>clampToGround</altitudeMode><extrude>1</extrude><tesselate>1</tesselate><coordinates>-122.99501799999997,49.2252198,0 -122.99458809999997,49.225220300000004,0 -122.99427839999997,49.2252069,0 -122.99427839999997,49.2252069,0 -122.99429749999996,49.2250293,0 -122.99430799999998,49.22492090000001,0 -122.99431179999996,49.22479290000001,0 -122.99431289999997,49.224663400000004,0 -122.99431029999997,49.22440790000001,0 -122.99430399999999,49.22395530000001,0 -122.99429949999997,49.22345820000001,0 -122.99427499999996,49.223399400000005,0 -122.99421379999995,49.223319200000006,0 -122.99420039999997,49.22315570000001,0 -122.99418969999996,49.22200130000001,0 -122.99419019999996,49.22194740000001,0 -122.99419019999996,49.22194740000001,0 -122.99336679999996,49.22194780000001,0 -122.99282559999997,49.22194800000001,0 -122.99203909999997,49.22194610000001,0 -122.99197519999997,49.22194610000001,0 -122.99152899999997,49.22194590000001,0 -122.99142659999998,49.22194170000001,0 -122.9909394,49.22194000000001,0 -122.9906389,49.22194120000001,0 -122.9902763,49.22194240000001,0 -122.9898963,49.22194300000001,0 -122.9895932,49.22194350000001,0 -122.98922289999999,49.22194490000001,0 -122.98905599999999,49.221948200000014,0 -122.98905599999999,49.221948200000014,0 -122.98873,49.22194490000001,0 -122.9887456,49.22199170000001,0 -122.98875749999999,49.22202230000001,0 -122.98877909999999,49.22207120000001,0 -122.9888142,49.22214030000001,0 -122.9888489,49.222213700000005,0 -122.9888711,49.22225980000001,0 -122.98888579999999,49.22230000000001,0 -122.98889259999999,49.22233450000001,0 -122.98891889999999,49.22252060000001,0 -122.98892619999998,49.222645000000014,0 -122.98893009999998,49.22287880000001,0 -122.98893479999998,49.223025200000016,0 -122.98893699999998,49.22304900000001,0 -122.98894659999998,49.22339740000001,0 -122.98892799999997,49.22341520000001,0 -122.98891379999996,49.223437300000015,0 -122.98890939999995,49.22345950000001,0 -122.98891109999995,49.22356350000001,0 -122.98891109999995,49.22356350000001,0 -122.98818809999995,49.22356220000001,0 -122.98695199999995,49.22357030000001,0 -122.98645009999994,49.22357180000001,0 </coordinates></LineString><TimeSpan><begin>2021-12-20T03:17:18.890Z</begin><end>2021-12-20T03:21:18.287Z</end></TimeSpan></Placemark><Placemark><name>Sugar Lab Pancake House</name><address>5376 Grimmer St, Burnaby, BC V5H 2H2, Canada</address><ExtendedData><Data name="Email"><value>syugen.zhou@gmail.com</value></Data><Data name="Category"><value>Dessert shop</value></Data><Data name="Distance"><value>0</value></Data></ExtendedData><description> Dessert shop from 2021-12-20T03:21:18.287Z to 2021-12-20T03:37:40.086Z. Distance 0m </description><Point><coordinates>-122.9860492,49.223451,0</coordinates></Point><TimeSpan><begin>2021-12-20T03:21:18.287Z</begin><end>2021-12-20T03:37:40.086Z</end></TimeSpan></Placemark><Placemark><name>Driving</name><address></address><ExtendedData><Data name="Email"><value>syugen.zhou@gmail.com</value></Data><Data name="Category"><value>Driving</value></Data><Data name="Distance"><value>429</value></Data></ExtendedData><description> Driving from 2021-12-20T03:37:40.086Z to 2021-12-20T03:40:02.240Z. Distance 429m </description><LineString><altitudeMode>clampToGround</altitudeMode><extrude>1</extrude><tesselate>1</tesselate><coordinates>-122.9862899,49.2235723,0 -122.9860373,49.2235731,0 -122.98556690000001,49.2235746,0 -122.98510580000003,49.2235761,0 -122.98457410000003,49.2235962,0 -122.98457410000003,49.2235962,0 -122.98437790000003,49.2235389,0 -122.98423110000002,49.223492199999995,0 -122.98383440000002,49.223371,0 -122.98318590000001,49.223158899999994,0 -122.98308500000002,49.223126,0 -122.98258720000003,49.222968599999994,0 -122.98248630000003,49.2229367,0 -122.98230390000003,49.2228788,0 -122.98192660000002,49.22275899999999,0 -122.98151250000002,49.22262759999999,0 </coordinates></LineString><TimeSpan><begin>2021-12-20T03:37:40.086Z</begin><end>2021-12-20T03:40:02.240Z</end></TimeSpan></Placemark><Placemark><name>JAK'S Beer Wine Spirits</name><address>5665 Kingsway, Burnaby, BC V5H 2G4, Canada</address><ExtendedData><Data name="Email"><value>syugen.zhou@gmail.com</value></Data><Data name="Category"><value>Liquor store</value></Data><Data name="Distance"><value>0</value></Data></ExtendedData><description> Liquor store from 2021-12-20T03:40:02.240Z to 2021-12-20T03:51:03.594Z. Distance 0m </description><Point><coordinates>-122.98134049999999,49.2230038,0</coordinates></Point><TimeSpan><begin>2021-12-20T03:40:02.240Z</begin><end>2021-12-20T03:51:03.594Z</end></TimeSpan></Placemark><Placemark><name>Driving</name><address></address><ExtendedData><Data name="Email"><value>syugen.zhou@gmail.com</value></Data><Data name="Category"><value>Driving</value></Data><Data name="Distance"><value>1093</value></Data></ExtendedData><description> Driving from 2021-12-20T03:51:03.594Z to 2021-12-20T03:57:30.594Z. Distance 1093m </description><LineString><altitudeMode>clampToGround</altitudeMode><extrude>1</extrude><tesselate>1</tesselate><coordinates>-122.98349870000001,49.223261199999996,0 -122.98383440000002,49.22337099999999,0 -122.98423110000002,49.22349219999999,0 -122.98437790000003,49.223538899999994,0 -122.98457410000003,49.223596199999996,0 -122.98495110000002,49.223721399999995,0 -122.98530620000003,49.223834999999994,0 -122.9854607,49.223884999999996,0 -122.98584040000001,49.224006599999996,0 -122.98591030000001,49.224029,0 -122.98620120000002,49.2241221,0 -122.98647210000003,49.2242085,0 -122.98669540000003,49.224280500000006,0 -122.98699880000002,49.224378400000006,0 -122.98784360000005,49.22465090000001,0 -122.98800920000005,49.224704300000006,0 -122.98890950000003,49.224994800000005,0 -122.98932400000004,49.2251313,0 -122.98934940000002,49.2251397,0 -122.99000160000003,49.2253547,0 -122.99026660000003,49.225441999999994,0 -122.99136780000003,49.225806399999996,0 -122.99156560000003,49.225899399999996,0 -122.99275460000003,49.226291599999996,0 -122.99296370000003,49.226360899999996,0 -122.99397240000003,49.22669489999999,0 -122.99417260000003,49.22676119999999,0 -122.99417260000003,49.22676119999999,0 -122.99432240000004,49.22681239999999,0 -122.99433050000005,49.22669079999999,0 -122.99433170000005,49.226482199999985,0 -122.99433360000006,49.22612609999999,0 -122.99432720000007,49.22607629999999,0 -122.99430030000006,49.22595589999999,0 -122.99427800000005,49.22591449999999,0 -122.99426510000005,49.225743999999985,0 -122.99426630000005,49.22551079999999,0 -122.99427840000004,49.22520689999998,0 -122.99427840000004,49.22520689999998,0 -122.99458810000006,49.22522029999998,0 -122.99504080000004,49.225219799999984,0 </coordinates></LineString><TimeSpan><begin>2021-12-20T03:51:03.594Z</begin><end>2021-12-20T03:57:30.594Z</end></TimeSpan></Placemark><Placemark><name>4880 Bennett St</name><address>4880 Bennett St, Burnaby, BC V5H 0C1, Canada</address><ExtendedData><Data name="Email"><value>syugen.zhou@gmail.com</value></Data><Data name="Category"><value></value></Data><Data name="Distance"><value>0</value></Data></ExtendedData><description>  from 2021-12-20T03:57:30.594Z to 2021-12-20T21:24:09.241Z. Distance 0m </description><Point><coordinates>-122.9950939,49.224852,0</coordinates></Point><TimeSpan><begin>2021-12-20T03:57:30.594Z</begin><end>2021-12-20T21:24:09.241Z</end></TimeSpan></Placemark></Document></kml>
