<?xml version="1.0" encoding="UTF-8"?><kml xmlns="http://www.opengis.net/kml/2.2" xmlns:gx="http://www.google.com/kml/ext/2.2"><Document><name> Location history from 2018-10-13 to 2018-10-13 </name><open>1</open><description></description><StyleMap id="multiTrack"><Pair><key>normal</key><styleUrl>#multiTrack_n</styleUrl></Pair><Pair><key>highlight</key><styleUrl>#multiTrack_h</styleUrl></Pair></StyleMap><Style id="multiTrack_n"><IconStyle><Icon><href>https://earth.google.com/images/kml-icons/track-directional/track-0.png</href></Icon></IconStyle><LineStyle><color>99ffac59</color><width>6</width></LineStyle></Style><Style id="multiTrack_h"><IconStyle><scale>1.2</scale><Icon><href>https://earth.google.com/images/kml-icons/track-directional/track-0.png</href></Icon></IconStyle><LineStyle><color>99ffac59</color><width>8</width></LineStyle></Style><Placemark><name>37° 32' 6.5213" N, 122° 16' 17.234" W</name><address></address><ExtendedData><Data name="Email"><value>syugen.zhou@gmail.com</value></Data><Data name="Category"><value></value></Data><Data name="Distance"><value>0</value></Data></ExtendedData><description>  from 2018-10-13T03:25:15.626Z to 2018-10-13T14:05:31.999Z. Distance 0m </description><Point><coordinates>-122.2714539,37.5351448,0</coordinates></Point><TimeSpan><begin>2018-10-13T03:25:15.626Z</begin><end>2018-10-13T14:05:31.999Z</end></TimeSpan></Placemark><Placemark><name>Driving</name><address></address><ExtendedData><Data name="Email"><value>syugen.zhou@gmail.com</value></Data><Data name="Category"><value>Driving</value></Data><Data name="Distance"><value>53937</value></Data></ExtendedData><description> Driving from 2018-10-13T14:05:31.999Z to 2018-10-13T15:07:54.000Z. Distance 53937m </description><LineString><altitudeMode>clampToGround</altitudeMode><extrude>1</extrude><tesselate>1</tesselate><coordinates>-122.27028870000001,37.5346336,0 -122.2703005,37.5348867,0 -122.2703623,37.535123,0 -122.27032200000001,37.535328899999996,0 -122.2703245,37.5356977,0 -122.2703921,37.535790999999996,0 -122.27045849999999,37.535818,0 -122.27058679999999,37.53581809999999,0 -122.270957,37.53573469999999,0 -122.27104379999999,37.53575289999999,0 -122.27107819999999,37.53577869999999,0 -122.27114459999999,37.53596299999999,0 -122.27020379999998,37.53605919999999,0 -122.27023549999998,37.53852519999999,0 -122.27006719999999,37.53891529999999,0 -122.27085209999998,37.53931199999999,0 -122.27121709999997,37.53963579999999,0 -122.27146379999996,37.53996859999999,0 -122.27164089999998,37.54040229999998,0 -122.27172569999999,37.54458619999998,0 -122.27179819999998,37.54500679999999,0 -122.27186939999999,37.545181699999986,0 -122.27400799999997,37.548332899999984,0 -122.27428249999997,37.54884669999999,0 -122.27442959999998,37.54947809999999,0 -122.27441939999996,37.55035069999999,0 -122.27451259999997,37.55086279999999,0 -122.27478999999997,37.55153409999999,0 -122.27574639999996,37.552727199999985,0 -122.27744489999998,37.55446749999999,0 -122.27879209999998,37.55360929999999,0 -122.27957929999998,37.55296279999999,0 -122.28308139999999,37.549445599999984,0 -122.28337779999998,37.548967799999986,0 -122.28421369999998,37.546907699999984,0 -122.28438439999998,37.54671399999999,0 -122.28858509999998,37.54422569999999,0 -122.28895009999997,37.54417269999999,0 -122.28905639999998,37.5441806,0 -122.28919669999996,37.544223599999995,0 -122.28933189999995,37.544306999999996,0 -122.28941769999994,37.54443439999999,0 -122.28944099999995,37.54453869999999,0 -122.28941789999995,37.54466659999999,0 -122.28937789999993,37.54473309999999,0 -122.28926839999995,37.54483319999999,0 -122.28910119999995,37.544901399999986,0 -122.28897859999994,37.544907999999985,0 -122.28882899999995,37.54487069999998,0 -122.28869459999994,37.54479089999998,0 -122.28718789999992,37.54334929999998,0 -122.28713559999993,37.54333159999998,0 -122.28671539999993,37.542905699999984,0 -122.28653439999992,37.54284719999998,0 -122.27531079999994,37.53074829999998,0 -122.23945099999995,37.49902629999998,0 -122.23879449999995,37.49853719999998,0 -122.23750559999995,37.49775839999998,0 -122.23593859999995,37.49707209999998,0 -122.22621829999996,37.49426489999998,0 -122.22384789999995,37.49339449999998,0 -122.21627409999995,37.49005209999998,0 -122.21421769999995,37.48928119999998,0 -122.21187739999993,37.48855959999998,0 -122.21042159999993,37.48820689999997,0 -122.20769579999994,37.487695099999975,0 -122.20760399999992,37.48765909999997,0 -122.18937369999993,37.48540139999998,0 -122.18563459999993,37.484731699999976,0 -122.18302249999994,37.48404649999997,0 -122.18099309999994,37.48337579999997,0 -122.17928039999993,37.48267849999997,0 -122.17749359999993,37.481778799999965,0 -122.12690569999992,37.45211729999997,0 -122.12564209999992,37.45118419999997,0 -122.09885099999993,37.425714199999966,0 -122.09724769999993,37.42435539999997,0 -122.08377209999992,37.41453949999997,0 -122.0824287999999,37.413698299999965,0 -122.08090309999989,37.41294359999996,0 -122.07530189999989,37.41062699999997,0 -122.07520489999989,37.41047859999997,0 -122.07135299999989,37.408666299999965,0 -122.07080759999988,37.408246699999964,0 -122.0703452999999,37.40766779999996,0 -122.0701148999999,37.407139099999966,0 -122.07003069999989,37.40669559999996,0 -122.07000099999989,37.40077049999997,0 -122.06989429999989,37.399904199999966,0 -122.0686626999999,37.39524899999997,0 -122.06851629999989,37.39426799999997,0 -122.0684830999999,37.39317319999997,0 -122.0688641999999,37.388976099999965,0 -122.0688330999999,37.38783009999996,0 -122.06776919999989,37.378009799999965,0 -122.06785259999988,37.37794139999996,0 -122.06796409999987,37.377664299999964,0 -122.06802319999987,37.37760209999997,0 -122.06817919999989,37.37751259999997,0 -122.06836599999988,37.377475399999966,0 -122.06853109999987,37.377490599999966,0 -122.06868479999989,37.37755219999996,0 -122.06876349999987,37.37760859999997,0 -122.06884139999988,37.37770859999997,0 -122.06887689999988,37.377906899999964,0 -122.06882719999987,37.37803749999996,0 -122.06872999999987,37.37814219999997,0 -122.06856569999988,37.37822409999997,0 -122.06845549999987,37.37824509999997,0 -122.06802489999987,37.37822619999997,0 -122.05823669999987,37.37452929999996,0 -122.05807879999988,37.37440499999997,0 -122.05803379999988,37.37433499999997,0 -122.05806029999987,37.37400609999997,0 -122.05986469999986,37.37110799999997,0 -122.06038459999986,37.37054859999997,0 -122.06127649999986,37.36907839999997,0 -122.05998629999985,37.368463299999966,0 -122.05768049999986,37.36791009999997,0 -122.05712029999987,37.369622299999975,0 -122.05711809999987,37.36978759999997,0 -122.05728619999987,37.37068909999997,0 -122.05722409999987,37.371126399999966,0 -122.05628819999988,37.37393009999997,0 -122.06340049999989,37.37667479999997,0 -122.06341729999988,37.37680819999997,0 -122.06054249999988,37.38538059999997,0 -122.06036049999987,37.38574949999997,0 -122.06020299999987,37.38590769999997,0 -122.05905859999987,37.386467399999965,0 -122.05893669999986,37.38660929999997,0 -122.04973719999987,37.39248999999996,0 -122.04493209999987,37.39579539999996,0 -122.04403239999986,37.39633109999996,0 -122.03653459999987,37.40021209999997,0 -122.03506269999987,37.40084689999997,0 -122.03347719999987,37.40139959999997,0 -122.02708029999987,37.40302169999997,0 -122.02353829999986,37.40362739999996,0 -121.98896229999986,37.41127519999996,0 -121.98555149999984,37.41229149999996,0 -121.98395859999985,37.41287779999996,0 -121.97126879999985,37.41823179999996,0 -121.97007259999987,37.418556399999964,0 -121.96864449999987,37.41874289999996,0 -121.96080269999987,37.41902849999996,0 -121.95699209999988,37.41930229999996,0 -121.94418149999987,37.41930649999996,0 -121.94338189999989,37.41939879999996,0 -121.9326887999999,37.42182289999997,0 -121.9301277999999,37.42223599999997,0 -121.9299417999999,37.42219819999997,0 -121.92825159999988,37.42224389999996,0 -121.9240040999999,37.42267609999996,0 -121.92311799999992,37.422872299999966,0 -121.92210679999991,37.420954499999965,0 -121.9234082999999,37.42043919999996,0 -121.9234532999999,37.42038079999997,0 -121.9275265999999,37.418890899999965,0 -121.9270893999999,37.41817829999997,0 -121.9264433999999,37.41757939999997,0 -121.92676309999989,37.417347899999974,0 -121.92698719999989,37.417088199999974,0 -121.92724569999987,37.41690929999998,0 -121.92597149999989,37.41574259999998,0 -121.92509689999987,37.416368399999975,0 -121.92391849999989,37.415018699999976,0 -121.92382889999988,37.414971099999974,0 -121.92295989999987,37.41397499999997,0 -121.92248959999988,37.41369509999997,0 -121.92214429999987,37.413597099999976,0 -121.92170109999988,37.41354029999997,0 -121.92167399999987,37.41269289999997,0 -121.92141519999987,37.411324799999974,0 -121.92313519999988,37.41113419999997,0 -121.92368019999986,37.41113519999997,0 -121.92448649999986,37.41122049999997,0 -121.92502659999985,37.411337499999966,0 -121.92788259999986,37.412392199999964,0 -121.92813189999987,37.41191099999996,0 -121.92820209999987,37.41158879999996,0 -121.92812539999986,37.40676519999996,0 -121.92816699999985,37.40648069999996,0 -121.92915899999986,37.40376949999996,0 -121.92851859999985,37.40365539999996,0 -121.92638929999985,37.40359539999996,0 -121.92530919999987,37.403419399999954,0 -121.92455139999987,37.403197399999954,0 -121.92356539999986,37.40275779999996,0 -121.92310239999986,37.40247299999996,0 -121.92301409999985,37.40251689999996,0 -121.92256899999985,37.40289939999995,0 -121.92324719999985,37.40327879999996,0 -121.92327239999985,37.40332669999996,0 -121.92325179999986,37.403374399999954,0 -121.92327239999985,37.40332669999996,0 -121.92324719999985,37.40327879999996,0 -121.92256899999985,37.40289939999995,0 -121.92301409999985,37.40251689999996,0 -121.92310239999986,37.40247299999996,0 -121.92200909999987,37.40154319999996,0 -121.92174309999987,37.40123989999996,0 -121.92155889999985,37.400906599999956,0 -121.92145229999986,37.40032819999996,0 -121.92152239999984,37.39990959999996,0 -121.92180399999985,37.399353899999966,0 -121.92436679999986,37.39710999999996,0 -121.92194389999987,37.39425099999996,0 -121.92134619999987,37.39378859999996,0 -121.92106599999987,37.39364929999996,0 -121.92058149999987,37.39348119999996,0 -121.91984759999987,37.39334469999996,0 -121.91897819999987,37.39338749999996,0 -121.91841689999987,37.393527099999964,0 -121.91809109999988,37.39365259999997,0 -121.91753189999989,37.39399149999996,0 -121.9128888999999,37.397998599999966,0 -121.91270149999991,37.39794289999997,0 -121.91193729999992,37.39737729999997,0 -121.90738699999991,37.392823099999966,0 -121.90713299999992,37.39241469999997,0 -121.90587559999992,37.38699649999997,0 -121.90570809999993,37.38473339999996,0 -121.90554039999991,37.38442649999996,0 -121.90550459999992,37.38415109999996,0 -121.90547799999993,37.38413719999996,0 -121.90555089999994,37.38355569999996,0 -121.90578409999995,37.38294949999996,0 -121.90581079999995,37.38278659999996,0 -121.90578529999995,37.382627699999965,0 -121.90562189999994,37.38236039999996,0 -121.90546889999995,37.382264099999965,0 -121.90577569999995,37.382163699999964,0 -121.91494559999995,37.37628099999997,0 -121.91789359999996,37.37364459999996,0 -121.91811649999994,37.37359519999997,0 -121.91821629999994,37.37360129999997,0 -121.91844779999995,37.37369019999996,0 -121.91904729999995,37.374543399999965,0 -121.91842569999994,37.37507499999996,0 -121.91831889999995,37.37509519999996,0 -121.91813629999994,37.37526369999996,0 -121.91813629999994,37.37531169999996,0 -121.91839179999995,37.37554349999996,0 -121.91852459999996,37.37558319999996,0 -121.91883489999995,37.37531029999996,0 -121.91883159999995,37.37528679999996,0 -121.91872499999994,37.37520499999996,0 </coordinates></LineString><TimeSpan><begin>2018-10-13T14:05:31.999Z</begin><end>2018-10-13T15:07:54.000Z</end></TimeSpan></Placemark><Placemark><name>McDonald's</name><address>2040 N First St, San Jose, CA 95131, United States</address><ExtendedData><Data name="Email"><value>syugen.zhou@gmail.com</value></Data><Data name="Category"><value>Fast Food</value></Data><Data name="Distance"><value>0</value></Data></ExtendedData><description> Fast Food from 2018-10-13T15:07:54.000Z to 2018-10-13T15:37:41.000Z. Distance 0m </description><Point><coordinates>-121.9189437,37.375086599999996,0</coordinates></Point><TimeSpan><begin>2018-10-13T15:07:54.000Z</begin><end>2018-10-13T15:37:41.000Z</end></TimeSpan></Placemark><Placemark><name>Driving</name><address></address><ExtendedData><Data name="Email"><value>syugen.zhou@gmail.com</value></Data><Data name="Category"><value>Driving</value></Data><Data name="Distance"><value>250574</value></Data></ExtendedData><description> Driving from 2018-10-13T15:37:41.000Z to 2018-10-13T19:13:15.000Z. Distance 250574m </description><LineString><altitudeMode>clampToGround</altitudeMode><extrude>1</extrude><tesselate>1</tesselate><coordinates>-121.9189898,37.3747756,0 -121.9191564,37.3746963,0 -121.91977180000002,37.375527299999995,0 -121.9199913,37.37539769999999,0 -121.9167619,37.37105869999999,0 -121.9110987,37.36970279999999,0 -121.9095666,37.368951499999994,0 -121.90933520000002,37.36892909999999,0 -121.90553580000001,37.3658642,0 -121.90392040000002,37.364871699999995,0 -121.90308920000003,37.364490499999995,0 -121.90148560000003,37.363945799999996,0 -121.90016360000003,37.36369839999999,0 -121.87985730000001,37.3616086,0 -121.87826050000001,37.3612827,0 -121.87564840000002,37.36049259999999,0 -121.87345570000001,37.359540599999995,0 -121.87253160000002,37.3590528,0 -121.87061020000002,37.3578184,0 -121.86913310000001,37.3566775,0 -121.8633257,37.3514784,0 -121.8589963,37.3466903,0 -121.8119111,37.2979667,0 -121.8112516,37.2971158,0 -121.810612,37.295975000000006,0 -121.8102064,37.294818400000004,0 -121.81008609999999,37.2942076,0 -121.8094936,37.284509400000005,0 -121.8092214,37.2832249,0 -121.8088245,37.282220900000006,0 -121.8056787,37.277221,0 -121.8051576,37.2762026,0 -121.80070170000002,37.2626924,0 -121.7998414,37.2609723,0 -121.7991396,37.259928800000004,0 -121.79794749999999,37.2585391,0 -121.79674359999999,37.257441400000005,0 -121.79510479999999,37.256220000000006,0 -121.7765682,37.246041500000004,0 -121.77642800000001,37.2460055,0 -121.7673128,37.2407454,0 -121.7672294,37.240652700000005,0 -121.74477750000001,37.22794540000001,0 -121.74307470000001,37.22683410000001,0 -121.7309606,37.21733390000001,0 -121.7233606,37.20973110000001,0 -121.72197360000001,37.20860300000001,0 -121.7058754,37.199226300000014,0 -121.687184,37.18620030000002,0 -121.6852858,37.18446210000002,0 -121.6805418,37.17910420000002,0 -121.67875209999998,37.17740910000002,0 -121.67083249999999,37.17067210000002,0 -121.66898329999998,37.168770000000016,0 -121.66504659999998,37.16409730000002,0 -121.6630168,37.16215260000002,0 -121.6585719,37.158788800000025,0 -121.6570987,37.15747760000002,0 -121.63782959999999,37.13758220000002,0 -121.6366939,37.13622100000002,0 -121.6357545,37.13487900000002,0 -121.62436960000001,37.11566600000002,0 -121.6227973,37.11358210000002,0 -121.621528,37.112294300000016,0 -121.6077877,37.10143170000002,0 -121.60660920000001,37.100326100000025,0 -121.60479130000003,37.09810500000002,0 -121.59019630000003,37.07169580000002,0 -121.57583060000003,37.03899190000002,0 -121.55985790000003,37.00948870000002,0 -121.55986740000002,37.00940930000002,0 -121.55833360000003,37.00652160000002,0 -121.55767300000004,37.00494110000002,0 -121.55765540000003,37.00443350000002,0 -121.55778600000002,37.00395700000002,0 -121.55837960000001,37.00277400000002,0 -121.55838820000001,37.002611600000016,0 -121.5583278,37.002421100000014,0 -121.5573023,37.00273140000001,0 -121.55711620000001,37.00284080000001,0 -121.55491260000002,37.00347250000001,0 -121.55478090000003,37.00346060000001,0 -121.55249030000002,37.00408860000002,0 -121.55172670000002,37.004135800000014,0 -121.54704670000001,37.00382840000001,0 -121.54180050000001,37.00321940000001,0 -121.54161650000002,37.003261600000016,0 -121.53677230000002,37.003159400000015,0 -121.53498330000002,37.002873700000016,0 -121.53365760000001,37.002466700000014,0 -121.53349440000001,37.002357900000014,0 -121.53166770000001,37.00172520000001,0 -121.53155000000002,37.00171400000001,0 -121.52808520000004,37.00039650000001,0 -121.52618280000003,36.99939890000001,0 -121.52525610000002,36.99918240000002,0 -121.5245888,36.99925240000001,0 -121.52400700000001,36.99943320000001,0 -121.52352640000001,36.999706300000014,0 -121.5231811,37.00001640000002,0 -121.52205970000001,37.001593600000014,0 -121.5220221,37.001700200000016,0 -121.51657060000001,37.00956410000001,0 -121.5162739,37.00977070000001,0 -121.515914,37.00988000000001,0 -121.5157459,37.00989060000001,0 -121.5153958,37.009821500000015,0 -121.5150212,37.009637300000016,0 -121.5035766,36.99914010000001,0 -121.5008638,36.99618370000002,0 -121.4943842,36.99012670000001,0 -121.49336690000001,36.989537700000014,0 -121.4844905,36.98595120000001,0 -121.4825516,36.98538220000001,0 -121.47887809999999,36.98465620000001,0 -121.46957339999999,36.98329900000001,0 -121.46682339999998,36.98322750000001,0 -121.46604539999998,36.98333620000001,0 -121.46532569999998,36.98357480000001,0 -121.46495869999997,36.98377130000001,0 -121.46315019999999,36.98525450000001,0 -121.45865799999999,36.98749490000001,0 -121.45796119999997,36.98769060000001,0 -121.45735379999998,36.98775990000001,0 -121.45486549999997,36.987723,0 -121.45407639999998,36.987906,0 -121.45192159999998,36.988891100000004,0 -121.45120729999998,36.9890714,0 -121.4503093,36.9891142,0 -121.4495398,36.988995300000006,0 -121.4490066,36.98882350000001,0 -121.4414022,36.98475110000001,0 -121.44104599999999,36.98447600000001,0 -121.4395424,36.98290810000001,0 -121.43918699999999,36.982435200000005,0 -121.43888179999999,36.981840000000005,0 -121.43782859999997,36.9787375,0 -121.43747699999997,36.9782651,0 -121.43627359999999,36.97699720000001,0 -121.4348345,36.974372900000006,0 -121.4346031,36.974061000000006,0 -121.4340087,36.97348810000001,0 -121.43351840000001,36.97313780000001,0 -121.43249530000001,36.97264110000001,0 -121.43131700000002,36.97235850000001,0 -121.43044560000003,36.97230040000001,0 -121.42986950000001,36.972323900000006,0 -121.4265391,36.97298640000001,0 -121.42573780000001,36.97300850000001,0 -121.42494180000001,36.972896200000015,0 -121.4218257,36.971860100000015,0 -121.4185584,36.97100070000002,0 -121.41358129999999,36.96885320000002,0 -121.41253199999998,36.96814910000002,0 -121.40671269999999,36.962941000000015,0 -121.40579189999998,36.96228530000002,0 -121.40454879999999,36.96166300000002,0 -121.40318719999998,36.96121710000002,0 -121.40168419999999,36.960972400000024,0 -121.4002785,36.96100420000002,0 -121.39962069999999,36.96112320000002,0 -121.39891629999998,36.96133590000002,0 -121.39800149999998,36.96179730000002,0 -121.39533619999999,36.96364740000002,0 -121.39153759999999,36.965629300000025,0 -121.38801039999998,36.96690090000002,0 -121.38788489999999,36.96692080000002,0 -121.38427259999999,36.96822970000002,0 -121.3838203,36.96847530000002,0 -121.3831336,36.96899820000002,0 -121.38270189999999,36.96949190000002,0 -121.38244039999998,36.96989790000003,0 -121.38213909999999,36.970734400000026,0 -121.3810009,36.97758200000003,0 -121.38103089999998,36.97849550000003,0 -121.38117309999998,36.97906930000003,0 -121.38155839999997,36.97995830000003,0 -121.38318079999996,36.98249370000003,0 -121.38438259999997,36.98548360000003,0 -121.38452889999998,36.98625850000003,0 -121.38454789999997,36.987196700000034,0 -121.38439009999999,36.98810550000003,0 -121.38404489999998,36.98898390000003,0 -121.38370589999998,36.98960130000003,0 -121.37848109999997,36.99597650000003,0 -121.3777595,36.996666700000034,0 -121.3746761,36.99882790000003,0 -121.3694459,37.004068200000034,0 -121.36851300000001,37.00481960000003,0 -121.36750060000001,37.00546810000004,0 -121.36007350000001,37.00887760000004,0 -121.3492214,37.01193610000004,0 -121.34277139999999,37.01300760000004,0 -121.34130709999998,37.01346500000004,0 -121.34030409999998,37.013974900000036,0 -121.3290619,37.02282240000004,0 -121.3284856,37.023512300000036,0 -121.32814939999999,37.02409370000004,0 -121.3278081,37.02508380000004,0 -121.3276018,37.02672350000004,0 -121.3273933,37.02754100000004,0 -121.3269053,37.02858830000004,0 -121.3247235,37.03131960000004,0 -121.32415569999999,37.03184840000004,0 -121.32310339999998,37.03248860000004,0 -121.31971089999999,37.03378420000004,0 -121.31282839999999,37.035597900000035,0 -121.30859119999998,37.037027900000034,0 -121.30077459999998,37.03852730000004,0 -121.29966989999998,37.03854170000004,0 -121.29651339999998,37.038124600000046,0 -121.29598339999997,37.03811610000004,0 -121.29497449999998,37.038251000000045,0 -121.29400859999997,37.038567100000044,0 -121.29315799999998,37.039034800000046,0 -121.29276179999997,37.03934740000004,0 -121.29227179999997,37.039857300000044,0 -121.28986739999996,37.04352220000005,0 -121.28948829999996,37.04397810000005,0 -121.28875999999997,37.04461720000005,0 -121.28652359999997,37.04605890000005,0 -121.28525649999997,37.04661760000005,0 -121.28431899999997,37.04687030000005,0 -121.28367699999997,37.04696740000005,0 -121.28225659999997,37.047000700000055,0 -121.27695109999996,37.04634810000005,0 -121.27314279999997,37.04512250000005,0 -121.27232409999999,37.04496650000005,0 -121.27133789999999,37.04496570000005,0 -121.2684426,37.045479100000044,0 -121.2676623,37.04544800000004,0 -121.2638486,37.044678500000046,0 -121.26293849999999,37.044642600000046,0 -121.2621152,37.044753700000044,0 -121.2614934,37.044939300000046,0 -121.2607322,37.04532030000004,0 -121.26002829999999,37.04589260000004,0 -121.2577585,37.04905560000004,0 -121.2570933,37.049794200000036,0 -121.25483429999998,37.05167280000004,0 -121.25398339999998,37.052238600000045,0 -121.25330669999997,37.052579000000044,0 -121.25224589999996,37.052953100000046,0 -121.24969259999996,37.05342580000004,0 -121.24860589999994,37.05371410000004,0 -121.24760379999996,37.05414140000005,0 -121.24145869999997,37.05767090000005,0 -121.22596899999995,37.06474110000005,0 -121.21432399999996,37.06756040000005,0 -121.21355659999998,37.067897600000045,0 -121.21306619999997,37.068201100000046,0 -121.21240549999997,37.068770100000044,0 -121.21206369999997,37.06920120000004,0 -121.20949679999997,37.07462320000004,0 -121.20912199999995,37.075244400000045,0 -121.20851769999996,37.07587930000005,0 -121.20782679999995,37.07638480000004,0 -121.20681409999996,37.07685120000005,0 -121.20616909999995,37.07703550000005,0 -121.20508899999996,37.077178000000046,0 -121.20042769999996,37.077299000000046,0 -121.19973159999996,37.07741620000005,0 -121.19868859999995,37.07775890000005,0 -121.19784279999996,37.07820580000005,0 -121.19715429999995,37.07874710000005,0 -121.19237009999995,37.083594000000055,0 -121.19171229999993,37.08402070000005,0 -121.19157349999995,37.08405900000005,0 -121.19153439999994,37.084108400000055,0 -121.19084449999994,37.08439440000005,0 -121.19027729999993,37.084558400000056,0 -121.18946529999994,37.084689000000054,0 -121.18369869999995,37.08457150000005,0 -121.18260379999994,37.08464550000005,0 -121.17422569999994,37.086882800000055,0 -121.17286339999993,37.08705040000005,0 -121.17147149999992,37.087027600000056,0 -121.16595139999993,37.08643740000005,0 -121.16417209999993,37.086509000000056,0 -121.16273469999993,37.08680290000005,0 -121.16096059999994,37.087488400000055,0 -121.15979499999995,37.088201500000054,0 -121.15899829999995,37.088881900000054,0 -121.15301969999993,37.095912500000054,0 -121.15247549999992,37.09637810000005,0 -121.15174989999991,37.096801400000054,0 -121.13174229999993,37.10450380000005,0 -121.13119139999993,37.104634600000054,0 -121.13049069999994,37.10470910000006,0 -121.12925019999993,37.104615900000056,0 -121.12867689999993,37.10446430000006,0 -121.12792659999992,37.10417180000006,0 -121.12415989999994,37.10213530000006,0 -121.12364989999993,37.101792900000056,0 -121.12282469999992,37.101020700000056,0 -121.12072849999994,37.09594210000005,0 -121.12040909999993,37.09535950000006,0 -121.11664859999993,37.09001520000006,0 -121.11611219999993,37.08951270000006,0 -121.11108839999994,37.08637900000006,0 -121.10992889999994,37.08590110000005,0 -121.10044279999995,37.083412900000056,0 -121.09498319999996,37.08252030000005,0 -121.09429119999996,37.08230120000005,0 -121.05529929999996,37.05956890000005,0 -121.05387089999996,37.05894440000005,0 -121.05191669999995,37.05838050000005,0 -121.04103169999996,37.05685040000005,0 -120.94005239999997,37.05661810000005,0 -120.93575329999997,37.05642530000005,0 -120.88523709999998,37.05674590000005,0 -120.88505049999998,37.056794100000054,0 -120.88038149999998,37.056777100000055,0 -120.88009009999999,37.056728400000054,0 -120.871462,37.05666550000005,0 -120.86984039999999,37.05675290000005,0 -120.86967379999997,37.056800000000045,0 -120.83755739999997,37.056920900000044,0 -120.83743069999997,37.056870600000046,0 -120.83334009999996,37.056886200000044,0 -120.83325169999995,37.056947100000045,0 -120.82829959999994,37.05699600000005,0 -120.82816459999994,37.05694490000005,0 -120.81985889999994,37.057015300000046,0 -120.81725819999993,37.05670900000005,0 -120.81713289999993,37.05674320000005,0 -120.81002369999995,37.05650280000005,0 -120.80978539999995,37.05642320000005,0 -120.80683919999996,37.05596380000005,0 -120.69930979999995,37.05408330000005,0 -120.64920099999995,37.05396760000005,0 -120.64701539999994,37.05378310000005,0 -120.64439499999995,37.05325270000005,0 -120.63520429999997,37.050299000000045,0 -120.62481869999995,37.048201300000045,0 -120.62176029999996,37.047718500000045,0 -120.61750079999995,37.047466900000046,0 -120.59503669999995,37.04762390000005,0 -120.59383579999997,37.04777180000005,0 -120.58887909999997,37.04882750000005,0 -120.55467399999996,37.05374430000005,0 -120.55357429999997,37.053993700000056,0 -120.55251249999995,37.05434630000005,0 -120.55151049999996,37.05479450000005,0 -120.54841999999996,37.05657020000005,0 -120.54735859999998,37.05738390000005,0 -120.54213119999999,37.06324670000005,0 -120.54039239999997,37.064827300000054,0 -120.53925249999996,37.06563190000005,0 -120.53767069999996,37.06652260000005,0 -120.53589349999997,37.06720990000005,0 -120.52600719999997,37.06998230000005,0 -120.49568509999997,37.08233270000005,0 -120.49300659999997,37.08308980000005,0 -120.49144799999999,37.08336070000005,0 -120.48885889999998,37.08355660000005,0 -120.36338819999997,37.08319280000005,0 -120.21055359999998,37.08380700000005,0 -120.2098971,37.08367680000005,0 -120.20936599999999,37.083480800000046,0 -120.20749749999999,37.08255840000005,0 -120.20641950000001,37.08190400000005,0 -120.20435979999999,37.08029740000005,0 -120.2042628,37.08026150000005,0 -120.18425479999999,37.06354360000005,0 -120.1769327,37.05832970000005,0 -120.1621751,37.04625660000005,0 -120.1612483,37.04531280000005,0 -120.1612201,37.04519800000004,0 -120.1602776,37.043733500000045,0 -120.15956399999999,37.04236760000004,0 -120.15942909999998,37.04220610000004,0 -120.15221149999999,37.04785010000004,0 -120.15178299999998,37.047562100000036,0 -120.15144349999997,37.04744830000004,0 -120.11197399999998,37.047242500000046,0 -120.11168709999998,37.04728850000004,0 -120.09636359999999,37.05232910000004,0 -120.0947212,37.05251400000004,0 -120.09400769999999,37.05265880000004,0 -120.08902099999999,37.054288100000036,0 -120.08776569999999,37.054451500000035,0 -119.9914312,37.05404160000003,0 -119.9900212,37.05414470000003,0 -119.98828909999999,37.05448930000003,0 -119.9869424,37.05495660000003,0 -119.9858831,37.05546410000004,0 -119.98484060000001,37.05610460000004,0 -119.98360070000001,37.05713140000004,0 -119.97745760000002,37.063604100000035,0 -119.97511280000003,37.06686140000003,0 -119.96205520000005,37.08270260000003,0 -119.96132840000004,37.08335490000003,0 -119.96095130000006,37.08361280000003,0 -119.95929230000006,37.08447530000003,0 -119.95859820000007,37.08492100000004,0 -119.95815270000007,37.08531650000003,0 -119.95759790000007,37.08600280000004,0 -119.95613550000007,37.088535000000036,0 -119.95561830000007,37.089069900000034,0 -119.95362050000007,37.090521300000034,0 -119.94763720000006,37.09677970000003,0 -119.94434340000007,37.09920650000003,0 -119.94208660000007,37.10148380000003,0 -119.94139140000007,37.10251600000003,0 -119.94115800000007,37.103072200000035,0 -119.94036320000008,37.108764400000034,0 -119.94010130000008,37.10945740000003,0 -119.93731980000008,37.11411410000003,0 -119.9364033000001,37.11513990000003,0 -119.93051300000009,37.11931510000004,0 -119.93003470000009,37.11985990000004,0 -119.92718190000011,37.12469500000004,0 -119.9265430000001,37.12554030000004,0 -119.9258475000001,37.12624330000004,0 -119.9224552000001,37.12877010000005,0 -119.92012860000011,37.129975700000045,0 -119.9193770000001,37.13054250000005,0 -119.91872180000011,37.13132570000005,0 -119.9184962000001,37.131757100000044,0 -119.9180667000001,37.13305150000004,0 -119.91767080000011,37.13478830000005,0 -119.9175183000001,37.13692910000004,0 -119.9170868000001,37.137985100000044,0 -119.91687800000012,37.14014210000004,0 -119.91675800000013,37.14043640000004,0 -119.91651170000013,37.140753400000044,0 -119.91584950000014,37.141342600000044,0 -119.91571950000014,37.141517200000045,0 -119.91543550000013,37.14212060000005,0 -119.91523040000014,37.14283020000005,0 -119.91522240000013,37.14332930000005,0 -119.91543830000012,37.144482500000045,0 -119.91541440000012,37.14475080000004,0 -119.91533630000012,37.14497880000004,0 -119.91511700000012,37.14534380000004,0 -119.91355300000012,37.146985500000035,0 -119.91319370000014,37.14759960000004,0 -119.91266200000014,37.14895130000004,0 -119.91253530000014,37.149757600000044,0 -119.91272650000013,37.15155620000004,0 -119.91257690000013,37.15251700000004,0 -119.91274110000015,37.153871900000034,0 -119.91123440000014,37.15901750000004,0 -119.91036980000014,37.16040630000004,0 -119.91022160000014,37.16077630000004,0 -119.91020900000014,37.16096950000004,0 -119.91121660000013,37.16495050000004,0 -119.91199920000014,37.16663780000003,0 -119.91227820000015,37.16755340000003,0 -119.91260680000016,37.168197700000036,0 -119.91274310000016,37.16913200000003,0 -119.91265010000014,37.17016710000003,0 -119.91257170000014,37.170444200000034,0 -119.91200610000014,37.17162740000003,0 -119.91195160000014,37.17198940000003,0 -119.91197290000014,37.17288490000003,0 -119.91169490000014,37.17492720000003,0 -119.91171770000012,37.17644800000003,0 -119.91182800000013,37.17698280000003,0 -119.91212220000011,37.17774990000003,0 -119.91219270000012,37.17869370000004,0 -119.91202410000014,37.180448800000036,0 -119.91241240000014,37.18178950000003,0 -119.91232350000014,37.182710400000026,0 -119.91188410000014,37.18467930000003,0 -119.91186420000014,37.18553630000003,0 -119.91179290000014,37.185665200000024,0 -119.91106640000014,37.186379800000026,0 -119.91071760000013,37.18701600000002,0 -119.91043950000012,37.18888310000003,0 -119.9102174000001,37.18942900000002,0 -119.9097182000001,37.190066200000025,0 -119.9095442000001,37.19038300000002,0 -119.90904060000011,37.19228980000002,0 -119.90900710000011,37.19270070000002,0 -119.90912820000011,37.193970800000024,0 -119.9090729000001,37.19437520000002,0 -119.90896140000011,37.19464700000002,0 -119.90865800000012,37.19509090000002,0 -119.90852020000013,37.19552470000002,0 -119.90854870000013,37.196689900000024,0 -119.90738510000011,37.199176100000024,0 -119.90733610000012,37.199486300000025,0 -119.90744700000013,37.199840100000024,0 -119.90760670000013,37.20006460000002,0 -119.90854630000014,37.200978100000015,0 -119.90867010000015,37.20119070000002,0 -119.90892200000016,37.20191660000001,0 -119.90909990000016,37.20298190000001,0 -119.90902370000016,37.20364580000001,0 -119.90837550000018,37.20525960000001,0 -119.90823630000017,37.20580790000001,0 -119.90772970000016,37.209780300000006,0 -119.90803900000016,37.211100800000004,0 -119.90802530000015,37.2128603,0 -119.90622160000015,37.218267700000006,0 -119.90617370000017,37.2187987,0 -119.90601070000015,37.2193026,0 -119.90536570000015,37.2200118,0 -119.90312950000015,37.2243677,0 -119.90276130000015,37.2249265,0 -119.90232870000015,37.2254079,0 -119.89896780000015,37.2283317,0 -119.89763010000014,37.2301007,0 -119.89684520000014,37.230896099999995,0 -119.89613900000015,37.231402599999996,0 -119.89547950000015,37.2317696,0 -119.89097880000016,37.2337778,0 -119.88872510000017,37.234965200000005,0 -119.88830540000018,37.235312400000005,0 -119.88788130000019,37.2359774,0 -119.8867825000002,37.2365494,0 -119.88609590000019,37.2367833,0 -119.88509590000018,37.2373513,0 -119.88422820000017,37.238140300000005,0 -119.88349270000018,37.23854370000001,0 -119.88320250000018,37.2386427,0 -119.8822737000002,37.2386855,0 -119.8808017000002,37.2384367,0 -119.87948780000019,37.23836910000001,0 -119.8784896000002,37.2382031,0 -119.87785450000021,37.238028,0 -119.87579390000022,37.237840500000004,0 -119.87547840000023,37.23785290000001,0 -119.87531910000021,37.23789510000001,0 -119.8730189000002,37.238949500000004,0 -119.86809080000022,37.242526600000005,0 -119.86733010000023,37.242949700000004,0 -119.86259880000023,37.2442167,0 -119.86111070000022,37.2441844,0 -119.85823780000024,37.2436231,0 -119.85799070000023,37.2435208,0 -119.85715430000025,37.24296390000001,0 -119.85670940000024,37.2421852,0 -119.85651930000023,37.241953900000006,0 -119.85623300000022,37.2418216,0 -119.85600060000023,37.24178450000001,0 -119.85574560000023,37.241837000000004,0 -119.85553040000023,37.242005000000006,0 -119.85516180000023,37.2425616,0 -119.85489540000023,37.242775300000005,0 -119.85381950000023,37.2433478,0 -119.85263690000022,37.24441100000001,0 -119.85224050000022,37.2446581,0 -119.85144500000021,37.244972100000005,0 -119.85052980000022,37.24508410000001,0 -119.84854500000023,37.24568550000001,0 -119.84588070000024,37.2458025,0 -119.84564150000024,37.245751500000004,0 -119.84543340000023,37.24564660000001,0 -119.84510970000024,37.24539120000001,0 -119.84415050000024,37.24418430000001,0 -119.84393550000023,37.24402410000001,0 -119.84323070000023,37.24370350000001,0 -119.84241010000024,37.24321140000001,0 -119.84045830000025,37.24237120000001,0 -119.83888190000026,37.241869400000006,0 -119.83857230000028,37.24181970000001,0 -119.83744340000028,37.24184900000001,0 -119.83727540000028,37.24182390000001,0 -119.8354045000003,37.24107640000001,0 -119.8345176000003,37.24086000000001,0 -119.8330290000003,37.24016360000001,0 -119.83207200000031,37.23954230000001,0 -119.8308171000003,37.23923390000001,0 -119.8303274000003,37.23887080000001,0 -119.8300122000003,37.2387269,0 -119.8298414000003,37.23868740000001,0 -119.82715800000031,37.23875800000001,0 -119.82695140000033,37.238724700000006,0 -119.82378530000032,37.23743840000001,0 -119.82307570000035,37.23728320000001,0 -119.82274980000035,37.23726210000001,0 -119.82011650000035,37.23776510000001,0 -119.81849050000035,37.238331900000006,0 -119.81548200000036,37.238330700000006,0 -119.81190490000036,37.23863730000001,0 -119.80632610000036,37.23988030000001,0 -119.80547290000035,37.240224600000005,0 -119.80455100000034,37.2404275,0 -119.80333440000032,37.2405011,0 -119.80194600000031,37.2408087,0 -119.80020740000033,37.241350600000004,0 -119.79899420000032,37.241457600000004,0 -119.79870310000032,37.24142520000001,0 -119.79361760000032,37.24017930000001,0 -119.79205820000033,37.23957800000001,0 -119.79121390000033,37.23944620000001,0 -119.78892520000034,37.23937620000002,0 -119.78694300000033,37.23961520000001,0 -119.78356530000033,37.24046210000001,0 -119.78222170000032,37.240660100000014,0 -119.78047600000033,37.24059320000001,0 -119.77985620000035,37.24048200000001,0 -119.77870980000036,37.24015120000001,0 -119.77779470000036,37.23974330000001,0 -119.77599200000034,37.23867350000001,0 -119.77561850000035,37.23820870000001,0 -119.77474560000036,37.23680390000001,0 -119.77468410000036,37.23661400000001,0 -119.77465820000036,37.236248800000006,0 -119.77454840000034,37.235890000000005,0 -119.77404290000034,37.23518980000001,0 -119.77380750000034,37.234982,0 -119.77358710000034,37.234864300000005,0 -119.77313710000034,37.2347711,0 -119.77253060000035,37.2347753,0 -119.77161440000035,37.2348863,0 -119.77045630000035,37.2351841,0 -119.76972840000035,37.2351787,0 -119.76941090000035,37.2351004,0 -119.76928130000036,37.235032399999994,0 -119.76904330000036,37.2348131,0 -119.76884800000036,37.234552199999996,0 -119.76835970000037,37.2330486,0 -119.76748090000038,37.231609899999995,0 -119.76699260000039,37.23052259999999,0 -119.76677410000038,37.2302494,0 -119.7661414000004,37.2297352,0 -119.76533420000038,37.22935639999999,0 -119.76487420000036,37.22921889999999,0 -119.76308560000037,37.22922279999999,0 -119.76277500000037,37.22912819999999,0 -119.76027590000037,37.22798409999999,0 -119.75991800000037,37.227910599999994,0 -119.75945380000037,37.22792839999999,0 -119.75783770000037,37.22844889999999,0 -119.75705250000037,37.22892989999999,0 -119.75674710000037,37.22901509999999,0 -119.75640230000037,37.22898999999999,0 -119.75611410000039,37.22886029999999,0 -119.7556992000004,37.22840549999999,0 -119.75542470000039,37.228246599999984,0 -119.7549662000004,37.22816919999999,0 -119.7548161000004,37.22818499999999,0 -119.75442480000041,37.228312399999986,0 -119.7512527000004,37.229968499999984,0 -119.74926910000042,37.23039099999998,0 -119.74644420000043,37.23126829999998,0 -119.7461109000004,37.23129909999998,0 -119.74448520000041,37.23123839999998,0 -119.74374260000042,37.231357299999985,0 -119.74322130000043,37.23156849999999,0 -119.74284330000043,37.23181239999999,0 -119.74248100000042,37.23213109999999,0 -119.74214590000042,37.232706099999994,0 -119.74204240000044,37.23323219999999,0 -119.74222440000045,37.23452959999999,0 -119.74219850000044,37.23488489999998,0 -119.74092480000044,37.23775019999999,0 -119.74042870000044,37.238403099999985,0 -119.74017210000044,37.23898699999999,0 -119.73971930000044,37.23953319999999,0 -119.73891710000044,37.240199799999985,0 -119.73786230000043,37.24089529999999,0 -119.73702550000043,37.24118689999999,0 -119.73590440000042,37.24135159999999,0 -119.73551160000041,37.24148609999998,0 -119.73456300000042,37.24196219999998,0 -119.7322594000004,37.24272839999998,0 -119.7318146000004,37.24303949999998,0 -119.73140210000041,37.24357159999998,0 -119.7312108000004,37.244317999999986,0 -119.7299975000004,37.24635999999999,0 -119.72744640000039,37.24942309999999,0 -119.72699260000039,37.249763399999985,0 -119.7260771000004,37.25018439999999,0 -119.7256405000004,37.250521699999986,0 -119.7246479000004,37.25152899999999,0 -119.7213942000004,37.253931999999985,0 -119.72010680000041,37.254604599999986,0 -119.71983800000041,37.25487819999998,0 -119.7187682000004,37.25637109999998,0 -119.7175266000004,37.25755249999998,0 -119.71678820000038,37.258401599999985,0 -119.71607310000039,37.25968119999999,0 -119.71567670000037,37.26090339999998,0 -119.71547810000037,37.26130039999998,0 -119.71491300000038,37.26208939999999,0 -119.71457840000036,37.26239119999999,0 -119.71321210000036,37.26325699999999,0 -119.71272030000037,37.263456599999984,0 -119.71205580000039,37.26350429999999,0 -119.71143780000038,37.263381899999985,0 -119.71062000000038,37.26309369999998,0 -119.70971430000037,37.26261859999998,0 -119.70903200000038,37.26242399999998,0 -119.7063108000004,37.261903299999986,0 -119.70553340000038,37.26183849999998,0 -119.70430530000039,37.26161119999998,0 -119.70206380000039,37.26140259999998,0 -119.7016158000004,37.261306099999985,0 -119.70141940000039,37.26121089999998,0 -119.7009020000004,37.261578899999975,0 -119.69937290000041,37.26220979999997,0 -119.69850860000041,37.26244259999997,0 -119.6954817000004,37.26292289999997,0 -119.69266310000039,37.263811499999974,0 -119.69132400000039,37.26402589999997,0 -119.69042500000039,37.26405139999997,0 -119.6857117000004,37.26379269999997,0 -119.6842101000004,37.263816799999965,0 -119.67901660000041,37.264268599999966,0 -119.67785250000041,37.26445679999997,0 -119.67721130000041,37.26470649999997,0 -119.67674320000042,37.26496299999997,0 -119.67618420000042,37.26536959999997,0 -119.67579670000042,37.265778999999974,0 -119.67388220000042,37.268626999999974,0 -119.67326790000041,37.26931269999998,0 -119.67275810000041,37.26970349999998,0 -119.6718938000004,37.27018459999997,0 -119.6702034000004,37.27093619999997,0 -119.66791150000039,37.272437699999976,0 -119.66757210000038,37.27272559999998,0 -119.6673100000004,37.273050599999976,0 -119.66696220000038,37.27378289999998,0 -119.6668823000004,37.27428309999998,0 -119.6668996000004,37.274639799999974,0 -119.6676067000004,37.277179499999974,0 -119.6686334000004,37.279614799999976,0 -119.66867800000041,37.27990309999997,0 -119.66864980000041,37.28037129999998,0 -119.6685240000004,37.28074179999998,0 -119.66819110000041,37.28128429999998,0 -119.66788430000042,37.28154989999997,0 -119.66745990000042,37.28181359999998,0 -119.66669740000043,37.28208169999998,0 -119.66593470000043,37.28215579999998,0 -119.66557460000044,37.282113799999976,0 -119.66318220000042,37.28153639999997,0 -119.66220510000043,37.281477099999975,0 -119.66196150000043,37.28150419999998,0 -119.66115040000042,37.28172139999998,0 -119.66055690000043,37.28197599999998,0 -119.65957700000043,37.28276979999998,0 -119.65835950000043,37.283938599999985,0 -119.65662210000045,37.28521889999998,0 -119.65030010000044,37.28868999999998,0 -119.64963940000044,37.28915539999998,0 -119.64884970000044,37.28997729999998,0 -119.64854550000044,37.29045259999998,0 -119.64814990000043,37.29136519999998,0 -119.64806180000045,37.29177859999999,0 -119.64801870000045,37.29265599999998,0 -119.64808390000046,37.29320569999998,0 -119.64864600000045,37.29532269999998,0 -119.64881790000045,37.30020949999999,0 -119.64889360000046,37.300654999999985,0 -119.65029040000046,37.303776599999985,0 -119.65065370000046,37.30430339999999,0 -119.65147120000046,37.305159799999984,0 -119.65396060000047,37.30710479999998,0 -119.65590540000048,37.309327199999984,0 -119.65609400000046,37.309629399999984,0 -119.65628240000046,37.31018789999998,0 -119.65629590000046,37.310640499999984,0 -119.65555970000045,37.31246209999998,0 -119.65550790000044,37.31288639999998,0 -119.65558280000045,37.313367999999976,0 -119.65574880000044,37.31374029999998,0 -119.65696780000044,37.315221399999984,0 -119.65745050000045,37.31564859999998,0 -119.65865980000045,37.316434999999984,0 -119.65980990000044,37.31781009999998,0 -119.66014140000043,37.31807889999998,0 -119.66082060000045,37.31839999999998,0 -119.66250650000045,37.318690899999986,0 -119.66304870000045,37.318899399999985,0 -119.66330910000045,37.319098299999986,0 -119.66360710000046,37.319432699999986,0 -119.66375720000046,37.31976259999999,0 -119.66380740000045,37.32026939999999,0 -119.66367490000044,37.32068919999998,0 -119.66000270000043,37.32646549999999,0 -119.65707770000044,37.32954209999998,0 -119.65702170000046,37.32964599999999,0 -119.65635380000046,37.33036129999999,0 -119.65621450000044,37.33040399999999,0 -119.65547790000045,37.33109919999999,0 -119.65464940000045,37.33167319999999,0 -119.64684380000044,37.33434039999999,0 -119.64656750000044,37.33448859999999,0 -119.64629380000045,37.334744799999996,0 -119.64243480000046,37.342801599999994,0 -119.64214740000045,37.34375159999999,0 -119.64209090000044,37.34420449999999,0 -119.64234930000045,37.34873139999999,0 -119.64337760000045,37.35280329999999,0 -119.64397770000046,37.35373319999999,0 -119.64405310000046,37.3540997,0 -119.64401890000046,37.354358,0 -119.64364750000045,37.3552557,0 -119.64355710000046,37.3556843,0 -119.64357300000046,37.356108400000004,0 -119.64510630000045,37.3602829,0 -119.64509290000046,37.3604773,0 -119.64502750000047,37.3606465,0 -119.64472870000047,37.3609585,0 -119.64452290000047,37.3610686,0 -119.64372080000048,37.3613156,0 -119.6434800000005,37.3614413,0 -119.64326850000049,37.3616346,0 -119.64293430000049,37.362258000000004,0 -119.64268620000048,37.362469000000004,0 -119.64227700000046,37.3626282,0 -119.64185060000047,37.3626525,0 -119.64110860000046,37.3625155,0 -119.64046550000047,37.3625535,0 -119.63907580000046,37.363111599999996,0 -119.63667930000047,37.363314599999995,0 -119.63567590000048,37.363695799999995,0 -119.63503720000048,37.3638542,0 -119.63412240000048,37.3638411,0 -119.63359380000048,37.363958399999994,0 -119.6325977000005,37.364356799999996,0 -119.6317484000005,37.364433999999996,0 -119.63134090000051,37.364552499999995,0 -119.63112880000051,37.364658399999996,0 -119.63078050000051,37.365005599999996,0 -119.63063570000052,37.3653566,0 -119.63061940000051,37.365555,0 -119.63071720000053,37.3661815,0 -119.63062950000054,37.3666594,0 -119.62940390000054,37.36847110000001,0 -119.62930650000054,37.36876610000001,0 -119.62932630000054,37.369226700000006,0 -119.62963720000056,37.370091300000006,0 -119.62963200000057,37.37013980000001,0 -119.63002800000056,37.37117620000001,0 -119.63003440000055,37.3713722,0 -119.62997030000055,37.3716254,0 -119.62971460000055,37.3721065,0 -119.62788670000054,37.374035299999996,0 -119.62703140000056,37.375136399999995,0 -119.62676470000056,37.3750747,0 -119.62650650000056,37.375063100000006,0 -119.62636120000056,37.3751,0 -119.62582030000056,37.375576300000006,0 -119.62545530000057,37.375747600000004,0 -119.62286300000058,37.37663130000001,0 -119.62213970000057,37.377035400000004,0 -119.62169260000056,37.37719190000001,0 -119.62149800000057,37.37720550000001,0 -119.61913380000057,37.37699980000001,0 -119.61873230000057,37.37690930000001,0 -119.61806120000057,37.37666620000001,0 -119.61763190000055,37.37658440000001,0 -119.61742430000056,37.37658610000001,0 -119.61614900000056,37.376953100000016,0 -119.61587700000055,37.37699150000002,0 -119.61569800000056,37.37696810000001,0 -119.61553920000057,37.376895400000016,0 -119.61500180000056,37.37621460000001,0 -119.61483160000056,37.376112200000016,0 -119.61226510000054,37.37515790000001,0 -119.61119020000055,37.37491960000001,0 -119.61068970000053,37.37498930000001,0 -119.61042160000055,37.375104600000014,0 </coordinates></LineString><TimeSpan><begin>2018-10-13T15:37:41.000Z</begin><end>2018-10-13T19:13:15.000Z</end></TimeSpan></Placemark><Placemark><name>Moving</name><address></address><ExtendedData><Data name="Email"><value>syugen.zhou@gmail.com</value></Data><Data name="Category"><value>Moving</value></Data><Data name="Distance"><value>0</value></Data></ExtendedData><description> Moving from 2018-10-13T19:13:15.000Z to 2018-10-13T19:14:17.000Z. Distance 0m </description><TimeSpan><begin>2018-10-13T19:13:15.000Z</begin><end>2018-10-13T19:14:17.000Z</end></TimeSpan></Placemark><Placemark><name>Driving</name><address></address><ExtendedData><Data name="Email"><value>syugen.zhou@gmail.com</value></Data><Data name="Category"><value>Driving</value></Data><Data name="Distance"><value>6810</value></Data></ExtendedData><description> Driving from 2018-10-13T19:14:17.000Z to 2018-10-13T19:25:07.000Z. Distance 6810m </description><LineString><altitudeMode>clampToGround</altitudeMode><extrude>1</extrude><tesselate>1</tesselate><coordinates>-119.61057549999998,37.375035499999996,0 -119.61068969999998,37.374989299999996,0 -119.61119019999998,37.3749196,0 -119.61226509999999,37.3751579,0 -119.61428909999998,37.375951,0 -119.61483159999997,37.3761122,0 -119.61500179999997,37.3762146,0 -119.61544369999997,37.3768135,0 -119.61553919999997,37.3768954,0 -119.61569799999998,37.376968100000006,0 -119.61587699999997,37.3769915,0 -119.61614899999998,37.3769531,0 -119.61742429999998,37.3765861,0 -119.61763189999996,37.3765844,0 -119.61806119999997,37.376666199999995,0 -119.61873229999998,37.376909299999994,0 -119.61913379999999,37.37699979999999,0 -119.62149799999999,37.377205499999995,0 -119.62169259999997,37.3771919,0 -119.62213969999999,37.3770354,0 -119.62286299999998,37.37663129999999,0 -119.62545529999997,37.37574759999999,0 -119.62582029999997,37.37557629999999,0 -119.62624619999997,37.37517119999999,0 -119.62636119999998,37.37509999999998,0 -119.62650649999998,37.375063099999984,0 -119.62676469999998,37.375074699999985,0 -119.62703139999996,37.37513639999998,0 -119.62788669999996,37.37403529999998,0 -119.62901629999996,37.37288099999998,0 -119.62906999999996,37.37285199999997,0 -119.62996659999995,37.37193419999998,0 -119.63010839999995,37.371594199999976,0 -119.63009249999996,37.37113049999997,0 -119.62967649999997,37.37011979999997,0 -119.62963719999998,37.37009129999997,0 -119.62932629999996,37.36922669999997,0 -119.62930649999996,37.36876609999997,0 -119.62940389999994,37.368471099999965,0 -119.63062949999994,37.36665939999997,0 -119.63070479999996,37.36638949999996,0 -119.63071719999995,37.36618149999996,0 -119.63061939999993,37.36555499999996,0 -119.63063569999994,37.36535659999996,0 -119.63078049999993,37.36500559999996,0 -119.63087679999992,37.36487589999996,0 -119.63112879999993,37.36465839999996,0 -119.63134089999993,37.36455249999996,0 -119.63174839999992,37.36443399999996,0 -119.6325976999999,37.36435679999996,0 -119.6335937999999,37.36395839999996,0 -119.6341223999999,37.36384109999996,0 -119.6350371999999,37.363854199999956,0 -119.6356758999999,37.36369579999996,0 -119.63667929999988,37.36331459999996,0 -119.63907579999987,37.36311159999996,0 -119.64046549999988,37.36255349999996,0 -119.64070359999988,37.36251749999996,0 -119.64110859999988,37.36251549999996,0 -119.64185059999988,37.36265249999996,0 -119.64227699999988,37.36262819999996,0 -119.64249259999988,37.362564999999954,0 -119.64268619999989,37.362468999999955,0 -119.64293429999991,37.362257999999954,0 -119.64326849999989,37.36163459999996,0 -119.64347999999991,37.36144129999996,0 -119.6437207999999,37.361315599999955,0 -119.64452289999988,37.36106859999996,0 -119.64472869999989,37.36095849999996,0 -119.6448929999999,37.36081919999996,0 -119.64502749999991,37.36064649999996,0 -119.6450928999999,37.36047729999996,0 -119.6451062999999,37.36028289999995,0 -119.64506479999989,37.360077699999955,0 -119.64369669999988,37.356595599999956,0 -119.64357299999989,37.356108399999954,0 -119.64355709999991,37.35568429999996,0 -119.6436474999999,37.35525569999996,0 -119.6440188999999,37.354357999999955,0 -119.64405309999991,37.35409969999995,0 -119.6439776999999,37.35373319999995,0 -119.6433775999999,37.35280329999995,0 -119.64234929999988,37.34873139999995,0 -119.64209089999989,37.34420449999995,0 -119.6421473999999,37.34375159999995,0 -119.6424347999999,37.34280159999995,0 -119.6462937999999,37.33474479999995,0 -119.64656749999989,37.33448859999994,0 -119.64684379999989,37.334340399999945,0 -119.65496429999989,37.33155579999994,0 -119.65558489999988,37.33116489999994,0 -119.65662839999987,37.33158389999994,0 -119.65824509999986,37.33238649999995,0 -119.65843699999986,37.33245289999994,0 -119.65934099999987,37.333045199999944,0 -119.66026569999987,37.33377289999994,0 -119.66051609999987,37.333419099999944,0 -119.66040509999985,37.33337379999994,0 -119.66054549999987,37.33315269999994,0 -119.66039069999987,37.33308809999994,0 </coordinates></LineString><TimeSpan><begin>2018-10-13T19:14:17.000Z</begin><end>2018-10-13T19:25:07.000Z</end></TimeSpan></Placemark><Placemark><name>South Gate Brewing Company</name><address>40233 Enterprise Dr, Oakhurst, CA 93644, United States</address><ExtendedData><Data name="Email"><value>syugen.zhou@gmail.com</value></Data><Data name="Category"><value>Brewery</value></Data><Data name="Distance"><value>0</value></Data></ExtendedData><description> Brewery from 2018-10-13T19:25:07.000Z to 2018-10-13T19:37:18.000Z. Distance 0m </description><Point><coordinates>-119.66029999999999,37.333124999999995,0</coordinates></Point><TimeSpan><begin>2018-10-13T19:25:07.000Z</begin><end>2018-10-13T19:37:18.000Z</end></TimeSpan></Placemark><Placemark><name>Driving</name><address></address><ExtendedData><Data name="Email"><value>syugen.zhou@gmail.com</value></Data><Data name="Category"><value>Driving</value></Data><Data name="Distance"><value>38541</value></Data></ExtendedData><description> Driving from 2018-10-13T19:37:18.935Z to 2018-10-13T21:52:21.000Z. Distance 38541m </description><LineString><altitudeMode>clampToGround</altitudeMode><extrude>1</extrude><tesselate>1</tesselate><coordinates>-119.6603907,37.3330881,0 -119.6605455,37.3331527,0 -119.66040509999998,37.3333738,0 -119.6605161,37.3334191,0 -119.6602657,37.3337729,0 -119.65821059999999,37.3322318,0 -119.6555693,37.3310236,0 -119.6546494,37.331673200000004,0 -119.64656749999999,37.33448860000001,0 -119.6462938,37.33474480000001,0 -119.6424348,37.34280160000001,0 -119.64209090000001,37.34420450000001,0 -119.6423493,37.34873140000001,0 -119.64337760000002,37.35280330000001,0 -119.64397770000002,37.353733200000015,0 -119.64405310000004,37.35409970000001,0 -119.64355710000002,37.355684300000014,0 -119.64357300000002,37.35610840000001,0 -119.64510630000002,37.360282900000016,0 -119.64502750000001,37.36064650000001,0 -119.64472870000002,37.36095850000001,0 -119.64348000000001,37.36144130000001,0 -119.6432685,37.36163460000001,0 -119.64293430000001,37.36225800000001,0 -119.6426862,37.36246900000001,0 -119.64227699999998,37.36262820000001,0 -119.64185059999998,37.36265250000001,0 -119.64110859999998,37.36251550000001,0 -119.64046549999999,37.362553500000004,0 -119.63907579999997,37.3631116,0 -119.63667929999998,37.3633146,0 -119.63503719999997,37.363854200000006,0 -119.63412239999997,37.36384110000001,0 -119.63259769999996,37.3643568,0 -119.63174839999996,37.364434,0 -119.63112879999998,37.3646584,0 -119.63078049999999,37.3650056,0 -119.63063569999998,37.365356600000005,0 -119.63071719999999,37.3661815,0 -119.6306295,37.36665940000001,0 -119.6294039,37.368471100000015,0 -119.62930650000001,37.368766100000016,0 -119.62932630000002,37.36922670000001,0 -119.63002800000002,37.371176200000015,0 -119.62997030000001,37.37162540000001,0 -119.62971460000001,37.372106500000015,0 -119.62682780000002,37.375464600000015,0 -119.62634220000002,37.37671850000001,0 -119.62621890000003,37.377814500000014,0 -119.62651870000002,37.37971600000001,0 -119.62687760000001,37.38030970000001,0 -119.629953,37.38239570000001,0 -119.6303382,37.38290060000001,0 -119.6305077,37.38415430000001,0 -119.6318086,37.386903900000014,0 -119.63229919999999,37.387350300000016,0 -119.63438299999999,37.38820770000002,0 -119.63488309999998,37.388854600000016,0 -119.6350495,37.390271700000014,0 -119.6343185,37.391226900000014,0 -119.6344254,37.39230950000001,0 -119.6338301,37.39466420000001,0 -119.63362049999999,37.39499030000001,0 -119.63278009999999,37.39554810000001,0 -119.63257589999999,37.395775000000015,0 -119.6323887,37.39627560000001,0 -119.63241070000001,37.396516100000014,0 -119.63285800000001,37.397378500000016,0 -119.63288850000002,37.39767790000001,0 -119.63102290000002,37.400527900000014,0 -119.63107720000002,37.401587200000016,0 -119.62952860000001,37.40419720000001,0 -119.62996930000001,37.408780700000015,0 -119.62870710000001,37.410881400000015,0 -119.62849010000002,37.411676800000016,0 -119.62816990000003,37.41206480000002,0 -119.62793530000003,37.41258230000001,0 -119.62773070000003,37.41388290000001,0 -119.62669720000002,37.41537930000001,0 -119.62654810000002,37.41592640000001,0 -119.62670740000004,37.41655810000001,0 -119.62693160000003,37.41685040000001,0 -119.62732600000002,37.41712860000001,0 -119.62809850000001,37.417445000000015,0 -119.62842060000001,37.417714200000006,0 -119.62990360000002,37.42040710000001,0 -119.63007600000003,37.42051700000001,0 -119.63053660000003,37.42063960000001,0 -119.63149550000004,37.4207072,0 -119.63221760000005,37.42121500000001,0 -119.63273280000004,37.42143810000001,0 -119.63314470000005,37.42146280000001,0 -119.63425230000003,37.42127740000001,0 -119.63470070000004,37.421352000000006,0 -119.63499290000004,37.421480300000006,0 -119.63716060000004,37.423431400000005,0 -119.63736550000004,37.423915400000006,0 -119.63732280000005,37.42413430000001,0 -119.63652760000004,37.42509260000001,0 -119.63638980000005,37.42547470000002,0 -119.63648930000004,37.42612310000002,0 -119.63675980000004,37.426522200000015,0 -119.63744570000003,37.42693170000001,0 -119.63904790000002,37.42716980000001,0 -119.63938710000001,37.42732400000001,0 -119.63975520000001,37.42776290000001,0 -119.63977050000001,37.42822680000001,0 -119.63925060000001,37.429395600000014,0 -119.63934370000003,37.43293830000001,0 -119.63877550000002,37.434490400000016,0 -119.63897150000003,37.435489400000016,0 -119.63869570000003,37.43653650000002,0 -119.63884020000003,37.436890300000016,0 -119.63899940000002,37.437038600000015,0 -119.63948930000002,37.437261600000014,0 -119.63981640000002,37.43728270000001,0 -119.64034720000001,37.43713080000001,0 -119.6414259,37.43611040000002,0 -119.64228750000001,37.43558440000002,0 -119.64281650000002,37.43544160000002,0 -119.6432551,37.43550750000002,0 -119.64355890000002,37.43568850000002,0 -119.64376920000002,37.436036600000016,0 -119.64370660000003,37.436467100000016,0 -119.64300610000001,37.43762120000002,0 -119.64295620000001,37.437935300000014,0 -119.64310420000002,37.438274600000014,0 -119.64353510000002,37.438613400000015,0 -119.6459143,37.43898220000001,0 -119.6467221,37.43934270000002,0 -119.65102300000001,37.44211110000002,0 -119.6518736,37.44315300000002,0 -119.6521136,37.443275000000014,0 -119.6530395,37.44340130000002,0 -119.65337310000001,37.44353700000001,0 -119.65354350000001,37.44377960000002,0 -119.65342790000001,37.44460990000002,0 -119.65334390000001,37.44472760000002,0 -119.65122900000001,37.445916500000024,0 -119.65098380000002,37.44613920000002,0 -119.65085930000002,37.44640220000002,0 -119.65082870000002,37.447539300000024,0 -119.6510494,37.44853750000002,0 -119.6508481,37.44887680000002,0 -119.65046780000002,37.44904910000002,0 -119.64911300000001,37.448945700000024,0 -119.64833070000002,37.44857230000002,0 -119.647076,37.448432600000025,0 -119.6464797,37.448656400000026,0 -119.6459728,37.44924460000002,0 -119.6453534,37.44967930000003,0 -119.64503810000001,37.450216500000025,0 -119.6445354,37.45056760000003,0 -119.6442596,37.450892600000024,0 -119.644167,37.45114960000002,0 -119.6442374,37.45162430000003,0 -119.64497800000001,37.45265550000003,0 -119.6450216,37.45305620000003,0 -119.64481890000002,37.45349930000003,0 -119.6443552,37.45399250000003,0 -119.6442782,37.45432790000003,0 -119.64435130000001,37.45464880000003,0 -119.64476420000001,37.45520700000003,0 -119.64474310000001,37.45547920000003,0 -119.64443140000002,37.45595330000003,0 -119.64432450000002,37.45721290000003,0 -119.64399170000003,37.457655900000034,0 -119.64390800000002,37.457925700000025,0 -119.64416500000002,37.45910340000003,0 -119.64401930000002,37.45949080000003,0 -119.64414850000001,37.461133700000026,0 -119.64402050000002,37.46185030000003,0 -119.64412470000002,37.462836700000025,0 -119.64424660000002,37.46306570000003,0 -119.64455920000002,37.463315900000026,0 -119.64510080000001,37.46356960000003,0 -119.64530330000001,37.46376710000003,0 -119.64537920000001,37.46395440000003,0 -119.6453607,37.46418680000003,0 -119.6449899,37.46474080000003,0 -119.6449179,37.465136300000026,0 -119.64502839999999,37.465647600000025,0 -119.6453819,37.46634770000002,0 -119.6455073,37.467128600000024,0 -119.64495030000002,37.46846170000002,0 -119.64430960000001,37.469141800000024,0 -119.64421750000001,37.469467100000024,0 -119.6444381,37.47009210000003,0 -119.64441489999999,37.47026850000003,0 -119.6441909,37.47048450000003,0 -119.643948,37.470578800000034,0 -119.6429892,37.470602100000036,0 -119.6426359,37.47071960000004,0 -119.6424241,37.47089660000003,0 -119.6422617,37.47117750000004,0 -119.64217380000001,37.47181120000003,0 -119.64207200000001,37.47194410000004,0 -119.6417694,37.47211020000003,0 -119.6408116,37.47218510000003,0 -119.63897419999999,37.472815700000034,0 -119.638561,37.47305310000003,0 -119.63842220000001,37.47333110000003,0 -119.6384386,37.47382860000003,0 -119.63875670000002,37.474638600000034,0 -119.63874110000002,37.475024200000036,0 -119.63846780000002,37.47540250000004,0 -119.63781030000003,37.47585800000004,0 -119.63753880000003,37.476327900000044,0 -119.63759060000004,37.47689830000004,0 -119.63815930000003,37.47787420000004,0 -119.63820960000002,37.47818540000004,0 -119.63800790000003,37.47873940000004,0 -119.63412670000002,37.48226630000004,0 -119.63279650000004,37.48420170000004,0 -119.63197040000003,37.48505890000004,0 -119.63189560000004,37.485442400000046,0 -119.63194600000006,37.485701800000044,0 -119.63307100000004,37.487266400000046,0 -119.63321050000005,37.487961300000045,0 -119.63298700000004,37.48844020000004,0 -119.63149940000005,37.48928640000005,0 -119.63113040000005,37.489642500000045,0 -119.63103000000004,37.49009910000005,0 -119.63115910000003,37.49035620000005,0 -119.63166110000004,37.49086200000005,0 -119.63265960000003,37.49392780000006,0 -119.63263000000003,37.49647010000005,0 -119.63148880000003,37.497966000000055,0 -119.63107190000004,37.50015340000006,0 -119.63115530000002,37.50050180000006,0 -119.63195550000002,37.50129450000006,0 -119.63231540000002,37.50196510000006,0 -119.63231390000003,37.50227850000006,0 -119.63040530000004,37.504880000000064,0 -119.63034620000003,37.50509580000006,0 -119.63043570000004,37.50544090000006,0 -119.63071980000004,37.50578560000007,0 -119.63229850000003,37.506958300000065,0 -119.63232210000004,37.507089700000066,0 -119.63240850000004,37.50716650000006,0 -119.63258800000004,37.50719890000006,0 -119.63272210000004,37.50715000000006,0 -119.63427090000003,37.50730450000006,0 -119.63503350000003,37.50770700000006,0 -119.63528250000003,37.508032800000066,0 -119.63533290000004,37.50822620000006,0 -119.63524870000003,37.50861680000006,0 -119.63486250000004,37.50925510000006,0 -119.63489680000005,37.50957640000006,0 -119.63514420000004,37.51010710000006,0 -119.63516810000004,37.51050180000006,0 -119.63419430000005,37.514037800000054,0 -119.63372690000004,37.51437100000006,0 -119.63330300000004,37.51444860000006,0 -119.63287760000006,37.51436900000006,0 -119.63213940000007,37.514002000000055,0 -119.63173910000008,37.51394760000005,0 -119.63149270000007,37.51398270000006,0 -119.63050880000007,37.51447770000006,0 -119.62747860000007,37.51511550000006,0 -119.62615350000009,37.515223500000054,0 -119.6258417000001,37.515330600000055,0 -119.6252623000001,37.51586190000006,0 -119.6252029000001,37.516241500000056,0 -119.6259348000001,37.518258100000054,0 -119.62575720000011,37.518629200000056,0 -119.6255047000001,37.51879410000006,0 -119.62475500000012,37.518902800000056,0 -119.6243860000001,37.51906720000005,0 -119.62312700000011,37.52113490000006,0 -119.62293340000011,37.52128280000006,0 -119.6224928000001,37.52142460000006,0 -119.62219150000011,37.52143980000006,0 -119.62072890000013,37.52110940000006,0 -119.61923550000013,37.52164390000006,0 -119.61891550000014,37.52188900000006,0 -119.61879260000013,37.52301290000006,0 -119.61809580000012,37.52405260000006,0 -119.61803310000012,37.52431410000006,0 -119.61807510000011,37.524523800000054,0 -119.61916520000011,37.52593950000006,0 -119.61958070000011,37.526297600000056,0 -119.61998340000012,37.52650270000006,0 -119.6213689000001,37.52688000000006,0 -119.6216059000001,37.52706110000006,0 -119.6225411000001,37.52852190000006,0 -119.62288440000012,37.52878320000006,0 -119.62646910000012,37.53034050000006,0 -119.62715790000013,37.530410900000064,0 -119.62757050000012,37.530278500000065,0 -119.62839930000011,37.52961720000007,0 -119.6311574000001,37.528558400000065,0 -119.63177240000009,37.528532200000065,0 -119.63223050000009,37.528691500000065,0 -119.63242370000009,37.52883110000006,0 -119.6329714000001,37.52959420000006,0 -119.63320770000011,37.52974670000006,0 -119.63352220000012,37.52983710000006,0 -119.63513560000013,37.52983300000006,0 -119.63713660000013,37.53025900000006,0 -119.63895700000013,37.53118940000005,0 -119.63951750000012,37.53202430000006,0 -119.64007010000013,37.532314400000054,0 -119.64178370000013,37.53247900000006,0 -119.64564320000014,37.533490500000056,0 -119.64694580000013,37.53426610000005,0 -119.64835150000012,37.53461900000005,0 -119.65190520000012,37.53472150000005,0 -119.65546860000012,37.53528790000005,0 -119.65600170000012,37.53549410000006,0 -119.65966840000011,37.53886510000006,0 -119.66023480000011,37.53915880000006,0 -119.66573660000012,37.54028920000005,0 -119.66621210000012,37.540515400000054,0 -119.66660780000011,37.540832900000055,0 -119.66720910000012,37.54166040000006,0 -119.66875900000012,37.54261990000006,0 -119.66929380000012,37.54282730000006,0 -119.67140180000011,37.54311730000006,0 -119.67170750000011,37.54332760000006,0 -119.67229640000009,37.54473380000007,0 -119.67261420000008,37.54503440000007,0 -119.67349080000008,37.545548300000064,0 -119.67384920000009,37.54606250000007,0 -119.67414210000008,37.546266500000065,0 -119.67444940000009,37.54636520000006,0 -119.67589280000009,37.546516900000064,0 -119.6763601000001,37.546670800000065,0 -119.6767104000001,37.54693080000006,0 -119.6768434000001,37.54716430000006,0 -119.67689230000008,37.54780630000006,0 -119.67712720000007,37.548445700000066,0 -119.67723340000008,37.54953450000006,0 -119.67795140000007,37.55066430000006,0 -119.67846860000007,37.551098400000065,0 -119.67888450000007,37.55217870000006,0 -119.67914600000007,37.552458600000065,0 -119.68146230000006,37.55392370000007,0 -119.68251760000005,37.554057800000066,0 -119.68276850000005,37.55418590000007,0 -119.68297470000005,37.55443330000007,0 -119.68314870000005,37.55491910000007,0 -119.68633360000005,37.556835300000074,0 -119.68719620000006,37.55793970000007,0 -119.68727200000006,37.55834820000007,0 -119.68704350000006,37.55891090000007,0 -119.68705940000005,37.55922690000008,0 -119.68748400000005,37.55990740000007,0 -119.68739550000005,37.561192600000076,0 -119.68749620000006,37.56144460000007,0 -119.68778560000004,37.561660000000074,0 -119.68831720000004,37.561691100000075,0 -119.69000180000005,37.56132400000008,0 -119.69064360000004,37.561436400000076,0 -119.69192910000005,37.56242160000007,0 -119.69304560000005,37.56284370000007,0 -119.69335580000005,37.563211000000074,0 -119.69338240000005,37.563576000000076,0 -119.69190940000004,37.56748030000007,0 -119.69198740000004,37.56840090000007,0 -119.69138620000004,37.570276300000074,0 -119.69034250000003,37.571778000000066,0 -119.69017910000002,37.57234380000007,0 -119.68978350000003,37.572983800000074,0 -119.68909550000004,37.57353410000007,0 -119.68741310000003,37.57563370000007,0 -119.68705580000002,37.575903400000065,0 -119.68653790000003,37.57602540000006,0 -119.68520900000004,37.57595840000007,0 -119.68444530000005,37.576267700000066,0 -119.68414900000006,37.57630460000007,0 -119.68319610000005,37.57611470000007,0 -119.68291350000004,37.57614810000007,0 -119.68232970000004,37.57637410000007,0 -119.68088980000005,37.576498300000075,0 -119.68063090000004,37.57643350000007,0 -119.68029880000005,37.57623470000007,0 -119.68013450000005,37.57598180000007,0 -119.68010280000004,37.57519450000007,0 -119.67996020000005,37.57507200000007,0 -119.67968230000004,37.575035900000074,0 -119.67952170000004,37.57510320000007,0 -119.67936900000004,37.57531450000007,0 -119.67935790000004,37.57573960000007,0 -119.67905890000003,37.57644370000007,0 -119.67889660000003,37.57660200000007,0 -119.67804900000003,37.576930500000074,0 -119.67796540000002,37.577037000000075,0 -119.67792240000003,37.57727180000008,0 -119.67822310000003,37.577874200000075,0 -119.67822640000004,37.578470800000076,0 -119.67789310000002,37.57958800000007,0 -119.67793970000001,37.579899000000076,0 -119.6781449,37.58018330000007,0 -119.678568,37.58038740000008,0 -119.678944,37.580379300000075,0 -119.68003800000001,37.579690300000074,0 -119.6806397,37.579653400000076,0 -119.68151650000001,37.580108700000075,0 -119.6818295,37.580534300000075,0 -119.6818394,37.58122700000007,0 -119.682003,37.581498000000074,0 -119.6828577,37.58214210000008,0 -119.68539169999998,37.58335420000007,0 -119.68682079999999,37.583480700000074,0 -119.68751789999999,37.58390580000007,0 -119.6883843,37.58407080000007,0 -119.68898800000001,37.58433710000007,0 -119.68928980000001,37.58470960000007,0 -119.6893954,37.58522280000007,0 -119.6891195,37.58589620000007,0 -119.6891247,37.586121800000065,0 -119.68972419999999,37.58683900000007,0 -119.6897451,37.58709930000006,0 -119.689489,37.58763110000007,0 -119.68950860000001,37.58803630000007,0 -119.68989230000001,37.58898100000007,0 -119.6898675,37.58931920000007,0 -119.68957990000001,37.58999250000007,0 -119.68896910000001,37.590390500000076,0 -119.6877547,37.59052360000008,0 -119.68697929999999,37.59095640000008,0 -119.68618479999999,37.59115510000008,0 -119.684372,37.591982900000076,0 -119.6841635,37.592247900000075,0 -119.68414489999999,37.59284770000007,0 -119.6838249,37.59344720000007,0 -119.6835726,37.59497960000007,0 -119.6838088,37.59569720000007,0 -119.6835869,37.59657720000007,0 -119.68259269999999,37.59758330000007,0 -119.68253479999998,37.597943000000065,0 -119.68294879999999,37.599117000000064,0 -119.682898,37.59963660000006,0 -119.68320890000001,37.60036520000007,0 -119.6835005,37.60061200000007,0 -119.6842582,37.600758900000066,0 -119.68463999999999,37.60098910000007,0 -119.68481059999998,37.60130030000007,0 -119.68486549999997,37.601747500000066,0 -119.68552079999996,37.60262330000007,0 -119.68569329999997,37.60321460000007,0 -119.68558639999998,37.603620200000066,0 -119.68539909999998,37.60381700000007,0 -119.6844904,37.60433400000007,0 -119.6839253,37.60488730000007,0 -119.6838202,37.60519910000007,0 -119.68417709999999,37.60601750000007,0 -119.68425319999997,37.606677300000065,0 -119.68361719999999,37.60885680000007,0 -119.68374919999997,37.609338100000066,0 -119.68394209999997,37.60951040000007,0 -119.68479129999997,37.609935100000065,0 -119.68615149999997,37.61127140000007,0 -119.68733979999998,37.61149490000007,0 -119.68772699999998,37.61178910000007,0 -119.68838619999998,37.61259590000007,0 -119.6884736,37.613014400000075,0 -119.6878764,37.61414430000007,0 -119.6868781,37.614789200000075,0 -119.6868441,37.615215900000074,0 -119.68706949999999,37.615479400000076,0 -119.68724499999998,37.61555980000008,0 -119.687602,37.615579100000076,0 -119.6883131,37.61546450000007,0 -119.68851369999999,37.61549000000007,0 -119.68884559999998,37.61564560000008,0 -119.68899279999998,37.615866500000074,0 -119.68928009999999,37.61748110000008,0 -119.68978489999998,37.61870030000008,0 -119.68991239999998,37.61983800000008,0 -119.6898081,37.62035680000008,0 -119.68858119999999,37.62208370000008,0 -119.68824049999999,37.62321520000008,0 -119.68848899999999,37.62443390000008,0 -119.68836849999998,37.624891700000084,0 -119.68820069999998,37.625131800000084,0 -119.68731719999998,37.625760700000086,0 -119.68720439999998,37.62600430000008,0 -119.6872303,37.62634070000008,0 -119.68756349999998,37.62706540000008,0 -119.68756829999998,37.62743540000008,0 -119.68675009999998,37.629278400000075,0 -119.68675789999999,37.62964030000008,0 -119.6870125,37.630262900000076,0 -119.6869755,37.630506500000074,0 -119.68630709999998,37.631294100000076,0 -119.68617849999998,37.63192600000008,0 -119.68555139999997,37.63327030000008,0 -119.68399259999995,37.63491930000008,0 -119.68293919999995,37.63566500000008,0 -119.68281209999996,37.63585350000008,0 -119.68279539999996,37.636075000000076,0 -119.68287299999997,37.63627050000007,0 -119.68305879999997,37.63644420000008,0 -119.68398249999997,37.63666990000008,0 -119.68456989999997,37.63716270000008,0 -119.68476149999996,37.63748270000008,0 -119.68482639999998,37.637928800000076,0 -119.68464629999998,37.638832300000075,0 -119.68469699999999,37.63918450000008,0 -119.68545219999999,37.64034910000007,0 -119.68550309999999,37.64158200000007,0 -119.68562299999998,37.641757500000075,0 -119.68596029999998,37.641946000000075,0 -119.68638169999998,37.64191890000007,0 -119.68788349999997,37.64079470000007,0 -119.68952029999997,37.64027500000007,0 -119.69106589999996,37.63949400000006,0 -119.69176449999995,37.639429200000066,0 -119.69211949999996,37.63933270000007,0 -119.69255919999995,37.638970100000066,0 -119.69291299999995,37.63881550000007,0 -119.69321409999995,37.63878730000007,0 -119.69485349999995,37.63897400000007,0 -119.69527389999995,37.63915660000007,0 -119.69564949999994,37.63946220000007,0 -119.69625079999994,37.640441000000074,0 -119.69696919999996,37.64352840000007,0 -119.69726749999995,37.64382930000008,0 -119.69803139999995,37.64413230000008,0 -119.69868349999996,37.64478430000008,0 -119.70036719999996,37.64594580000008,0 -119.70090109999995,37.64611370000008,0 -119.70167659999996,37.64616360000008,0 -119.70261919999996,37.64652990000008,0 -119.70295719999994,37.64689560000008,0 -119.70303159999995,37.647200100000084,0 -119.70200189999994,37.64924460000008,0 -119.70180769999993,37.64997170000008,0 -119.70069049999992,37.65111120000008,0 -119.70064699999992,37.65130810000008,0 -119.70071109999992,37.65151170000008,0 -119.70101209999991,37.651750500000084,0 -119.70277529999991,37.651819200000084,0 -119.70297599999992,37.65191130000008,0 -119.70316089999992,37.65210540000008,0 -119.70326809999993,37.65237000000008,0 -119.70291449999992,37.65242590000008,0 -119.70261189999991,37.652573300000086,0 </coordinates></LineString><TimeSpan><begin>2018-10-13T19:37:18.935Z</begin><end>2018-10-13T21:52:21.000Z</end></TimeSpan></Placemark><Placemark><name>Glacier Point Road Junction Restroom</name><address>5004 Glacier Point Rd, Wawona, CA 95389, United States</address><ExtendedData><Data name="Email"><value>syugen.zhou@gmail.com</value></Data><Data name="Category"><value>Public bathroom</value></Data><Data name="Distance"><value>0</value></Data></ExtendedData><description> Public bathroom from 2018-10-13T21:52:21.000Z to 2018-10-13T21:55:21.000Z. Distance 0m </description><Point><coordinates>-119.70277949999999,37.652135799999996,0</coordinates></Point><TimeSpan><begin>2018-10-13T21:52:21.000Z</begin><end>2018-10-13T21:55:21.000Z</end></TimeSpan></Placemark><Placemark><name>Flying</name><address></address><ExtendedData><Data name="Email"><value>syugen.zhou@gmail.com</value></Data><Data name="Category"><value>Flying</value></Data><Data name="Distance"><value>14698</value></Data></ExtendedData><description> Flying from 2018-10-13T21:55:21.000Z to 2018-10-13T23:03:33.000Z. Distance 14698m </description><LineString><altitudeMode>clampToGround</altitudeMode><extrude>1</extrude><tesselate>1</tesselate><coordinates>-119.70277949999999,37.652135799999996,0 -119.70277949999999,37.652135799999996,0 -119.645729,37.6730534,0 -119.5773342,37.7200454,0 -119.575939,37.7269563,0 -119.57371569999998,37.730259499999995,0 -119.57371569999998,37.730259499999995,0 </coordinates></LineString><TimeSpan><begin>2018-10-13T21:55:21.000Z</begin><end>2018-10-13T23:03:33.000Z</end></TimeSpan></Placemark><Placemark><name>Glacier Point</name><address>Glacier Point Rd, Yosemite Valley, CA 95389, United States</address><ExtendedData><Data name="Email"><value>syugen.zhou@gmail.com</value></Data><Data name="Category"><value>Scenic spot</value></Data><Data name="Distance"><value>0</value></Data></ExtendedData><description> Scenic spot from 2018-10-13T23:03:33.000Z to 2018-10-13T23:05:06.000Z. Distance 0m </description><Point><coordinates>-119.5737157,37.730259499999995,0</coordinates></Point><TimeSpan><begin>2018-10-13T23:03:33.000Z</begin><end>2018-10-13T23:05:06.000Z</end></TimeSpan></Placemark><Placemark><name>Hiking</name><address></address><ExtendedData><Data name="Email"><value>syugen.zhou@gmail.com</value></Data><Data name="Category"><value>Hiking</value></Data><Data name="Distance"><value>774</value></Data></ExtendedData><description> Hiking from 2018-10-13T23:05:06.000Z to 2018-10-14T00:10:30.112Z. Distance 774m </description><LineString><altitudeMode>clampToGround</altitudeMode><extrude>1</extrude><tesselate>1</tesselate><coordinates>-119.57371569999998,37.730259499999995,0 -119.57371569999998,37.730259499999995,0 -119.572883,37.7292066,0 -119.5735285,37.7306629,0 -119.5737929,37.7289592,0 -119.5757837,37.7270599,0 -119.5757837,37.7270599,0 </coordinates></LineString><TimeSpan><begin>2018-10-13T23:05:06.000Z</begin><end>2018-10-14T00:10:30.112Z</end></TimeSpan></Placemark><Placemark><name>Flying</name><address></address><ExtendedData><Data name="Email"><value>syugen.zhou@gmail.com</value></Data><Data name="Category"><value>Flying</value></Data><Data name="Distance"><value>14306</value></Data></ExtendedData><description> Flying from 2018-10-14T00:10:30.112Z to 2018-10-14T00:52:45.000Z. Distance 14306m </description><LineString><altitudeMode>clampToGround</altitudeMode><extrude>1</extrude><tesselate>1</tesselate><coordinates>-119.5757837,37.7270599,0 -119.5757837,37.7270599,0 -119.5884815,37.7058864,0 -119.70277949999999,37.652135799999996,0 -119.70277949999999,37.652135799999996,0 </coordinates></LineString><TimeSpan><begin>2018-10-14T00:10:30.112Z</begin><end>2018-10-14T00:52:45.000Z</end></TimeSpan></Placemark><Placemark><name>Glacier Point Road Junction Restroom</name><address>5004 Glacier Point Rd, Wawona, CA 95389, United States</address><ExtendedData><Data name="Email"><value>syugen.zhou@gmail.com</value></Data><Data name="Category"><value>Public bathroom</value></Data><Data name="Distance"><value>0</value></Data></ExtendedData><description> Public bathroom from 2018-10-14T00:52:45.000Z to 2018-10-14T00:55:45.000Z. Distance 0m </description><Point><coordinates>-119.70277949999999,37.652135799999996,0</coordinates></Point><TimeSpan><begin>2018-10-14T00:52:45.000Z</begin><end>2018-10-14T00:55:45.000Z</end></TimeSpan></Placemark><Placemark><name>Driving</name><address></address><ExtendedData><Data name="Email"><value>syugen.zhou@gmail.com</value></Data><Data name="Category"><value>Driving</value></Data><Data name="Distance"><value>37397</value></Data></ExtendedData><description> Driving from 2018-10-14T00:55:45.000Z to 2018-10-14T01:53:22.999Z. Distance 37397m </description><LineString><altitudeMode>clampToGround</altitudeMode><extrude>1</extrude><tesselate>1</tesselate><coordinates>-119.70264630000001,37.652540699999996,0 -119.7032681,37.65236999999999,0 -119.70297599999999,37.651911299999995,0 -119.70101209999999,37.65175049999999,0 -119.70071109999999,37.65151169999999,0 -119.70069050000001,37.651111199999995,0 -119.70180770000002,37.64997169999999,0 -119.70303160000002,37.647200099999985,0 -119.70261920000003,37.64652989999999,0 -119.70036720000003,37.64594579999999,0 -119.69696920000003,37.643528399999994,0 -119.69564950000002,37.63946219999999,0 -119.69485350000002,37.638974,0 -119.69291300000003,37.6388155,0 -119.68788350000003,37.6407947,0 -119.68638170000004,37.6419189,0 -119.68596030000003,37.641946000000004,0 -119.68550310000003,37.641582,0 -119.68545220000004,37.6403491,0 -119.68469700000003,37.639184500000006,0 -119.68476150000002,37.63748270000001,0 -119.68398250000001,37.63666990000001,0 -119.68305880000003,37.63644420000001,0 -119.68281210000004,37.6358535,0 -119.68555140000004,37.63327030000001,0 -119.68697550000005,37.6305065,0 -119.68675010000005,37.629278400000004,0 -119.68756830000005,37.62743540000001,0 -119.68720440000007,37.626004300000005,0 -119.68848900000006,37.62443390000001,0 -119.68824050000006,37.62321520000001,0 -119.68980810000006,37.62035680000001,0 -119.68884560000006,37.615645600000015,0 -119.68724500000006,37.615559800000014,0 -119.68684410000004,37.61521590000001,0 -119.68687810000006,37.61478920000001,0 -119.68787640000005,37.61414430000001,0 -119.68847360000004,37.61301440000001,0 -119.68733980000003,37.61149490000001,0 -119.68615150000002,37.611271400000014,0 -119.68374920000002,37.609338100000016,0 -119.68425320000003,37.606677300000015,0 -119.68392530000003,37.60488730000002,0 -119.68558640000003,37.603620200000016,0 -119.68569330000003,37.60321460000002,0 -119.68464000000002,37.60098910000002,0 -119.68350050000002,37.60061200000002,0 -119.68259270000001,37.59758330000002,0 -119.68358690000002,37.59657720000002,0 -119.68437200000002,37.59198290000002,0 -119.68775470000001,37.59052360000002,0 -119.68896910000002,37.59039050000002,0 -119.68957990000003,37.589992500000015,0 -119.68989230000004,37.58898100000002,0 -119.68948900000002,37.58763110000002,0 -119.68972420000003,37.58683900000002,0 -119.68912470000004,37.586121800000015,0 -119.68939540000005,37.58522280000002,0 -119.68898800000005,37.58433710000002,0 -119.68539170000007,37.58335420000002,0 -119.68183940000007,37.58122700000001,0 -119.68182950000008,37.58053430000002,0 -119.68063970000009,37.57965340000002,0 -119.68003800000008,37.57969030000002,0 -119.67894400000009,37.58037930000002,0 -119.67856800000007,37.58038740000002,0 -119.67793970000007,37.57989900000002,0 -119.67822310000005,37.57787420000002,0 -119.67792240000006,37.57727180000001,0 -119.67804900000006,37.57693050000002,0 -119.67889660000006,37.576602000000015,0 -119.67968230000007,37.57503590000002,0 -119.68010280000007,37.575194500000016,0 -119.68029880000007,37.576234700000015,0 -119.68088980000007,37.57649830000002,0 -119.68319610000007,37.57611470000002,0 -119.68414900000008,37.57630460000002,0 -119.68705580000008,37.57590340000002,0 -119.68978350000009,37.57298380000002,0 -119.69335580000008,37.56321100000002,0 -119.69064360000007,37.56143640000002,0 -119.68778560000007,37.56166000000002,0 -119.68749620000008,37.561444600000016,0 -119.68748400000008,37.559907400000014,0 -119.68705940000008,37.55922690000001,0 -119.68719620000009,37.55793970000001,0 -119.68633360000008,37.55683530000002,0 -119.68314870000007,37.55491910000001,0 -119.68276850000008,37.554185900000014,0 -119.68146230000009,37.55392370000001,0 -119.6788845000001,37.55217870000001,0 -119.67723340000008,37.549534500000014,0 -119.67671040000008,37.54693080000002,0 -119.67414210000008,37.54626650000002,0 -119.67229640000008,37.54473380000002,0 -119.67140180000007,37.54311730000002,0 -119.66929380000008,37.54282730000002,0 -119.66573660000009,37.54028920000002,0 -119.66023480000008,37.53915880000002,0 -119.65600170000009,37.535494100000015,0 -119.64694580000008,37.53426610000002,0 -119.64564320000008,37.53349050000002,0 -119.63951750000008,37.53202430000002,0 -119.63895700000009,37.53118940000002,0 -119.63713660000008,37.53025900000002,0 -119.63297140000007,37.52959420000002,0 -119.63242370000006,37.52883110000002,0 -119.63177240000006,37.528532200000015,0 -119.63115740000008,37.52855840000002,0 -119.62715790000007,37.53041090000002,0 -119.62254110000009,37.52852190000002,0 -119.62136890000009,37.52688000000002,0 -119.6199834000001,37.52650270000002,0 -119.61807510000008,37.52452380000002,0 -119.61891550000009,37.52188900000002,0 -119.6207289000001,37.52110940000002,0 -119.6221915000001,37.52143980000002,0 -119.62293340000011,37.52128280000002,0 -119.6243860000001,37.51906720000002,0 -119.62575720000011,37.51862920000002,0 -119.6259348000001,37.51825810000002,0 -119.6252623000001,37.51586190000002,0 -119.6258417000001,37.51533060000002,0 -119.6314927000001,37.51398270000002,0 -119.6333030000001,37.514448600000016,0 -119.6341943000001,37.51403780000002,0 -119.63516810000009,37.51050180000002,0 -119.6348625000001,37.50925510000002,0 -119.63533290000008,37.50822620000002,0 -119.63461400000008,37.507429500000015,0 -119.63280980000009,37.50700770000002,0 -119.63274510000008,37.506859800000015,0 -119.63239020000007,37.50683700000001,0 -119.63043570000006,37.50544090000001,0 -119.63034620000005,37.505095800000014,0 -119.63231540000005,37.50196510000001,0 -119.63115530000005,37.50050180000001,0 -119.63148880000006,37.497966000000005,0 -119.63263000000006,37.4964701,0 -119.63265960000005,37.4939278,0 -119.63103000000007,37.4900991,0 -119.63113040000007,37.4896425,0 -119.63298700000007,37.4884402,0 -119.63321050000008,37.4879613,0 -119.63194600000007,37.485701799999994,0 -119.63197040000009,37.4850589,0 -119.6382096000001,37.4781854,0 -119.63753880000009,37.4763279,0 -119.63874110000008,37.47502420000001,0 -119.63856100000008,37.47305310000001,0 -119.64217380000007,37.471811200000005,0 -119.64263590000006,37.4707196,0 -119.64394800000005,37.4705788,0 -119.64441490000004,37.4702685,0 -119.64430960000004,37.4691418,0 -119.64550730000005,37.46712860000001,0 -119.64491790000005,37.465136300000005,0 -119.64530330000007,37.463767100000005,0 -119.64424660000007,37.4630657,0 -119.64390800000007,37.457925700000004,0 -119.64476420000007,37.455207,0 -119.64435130000007,37.4546488,0 -119.64435520000005,37.453992500000005,0 -119.64502160000006,37.453056200000006,0 -119.64423740000007,37.4516243,0 -119.64425960000007,37.4508926,0 -119.64647970000007,37.4486564,0 -119.64707600000008,37.448432600000004,0 -119.65046780000009,37.4490491,0 -119.65104940000008,37.44853750000001,0 -119.65098380000009,37.446139200000005,0 -119.65334390000008,37.44472760000001,0 -119.6535435000001,37.443779600000006,0 -119.6533731000001,37.443537000000006,0 -119.6518736000001,37.443153,0 -119.65102300000011,37.442111100000005,0 -119.64591430000011,37.438982200000005,0 -119.64353510000012,37.4386134,0 -119.64295620000011,37.4379353,0 -119.64376920000012,37.4360366,0 -119.64355890000012,37.4356885,0 -119.64281650000012,37.4354416,0 -119.64034720000011,37.4371308,0 -119.6394893000001,37.4372616,0 -119.6388402000001,37.4368903,0 -119.63975520000011,37.427762900000005,0 -119.6393871000001,37.427324000000006,0 -119.6367598000001,37.4265222,0 -119.63638980000009,37.4254747,0 -119.63736550000009,37.4239154,0 -119.63499290000009,37.4214803,0 -119.63273280000008,37.421438099999996,0 -119.63149550000009,37.4207072,0 -119.63007600000009,37.420517,0 -119.62842060000008,37.4177142,0 -119.62693160000008,37.4168504,0 -119.62654810000008,37.4159264,0 -119.62996930000008,37.408780699999994,0 -119.6295286000001,37.4041972,0 -119.63107720000009,37.401587199999994,0 -119.63102290000009,37.40052789999999,0 -119.6328885000001,37.3976779,0 -119.6323887000001,37.396275599999996,0 -119.6325759000001,37.39577499999999,0 -119.63362050000009,37.394990299999996,0 -119.6343185000001,37.3912269,0 -119.6350495000001,37.3902717,0 -119.63488310000008,37.388854599999995,0 -119.6343830000001,37.388207699999995,0 -119.6318086000001,37.38690389999999,0 -119.6303382000001,37.38290059999999,0 -119.6268776000001,37.3803097,0 -119.6262189000001,37.37781449999999,0 -119.6268278000001,37.375464599999994,0 -119.6299666000001,37.37193419999999,0 -119.62930650000008,37.368766099999995,0 -119.63062950000007,37.366659399999996,0 -119.63063570000007,37.3653566,0 -119.63112880000006,37.364658399999996,0 -119.64268620000004,37.362469,0 -119.64348000000004,37.361441299999996,0 -119.64472870000004,37.360958499999995,0 -119.64510630000004,37.3602829,0 -119.64355710000005,37.3556843,0 -119.64405310000006,37.3540997,0 -119.64234930000006,37.348731400000005,0 -119.64209090000007,37.344204500000004,0 -119.64423120000008,37.3390332,0 </coordinates></LineString><TimeSpan><begin>2018-10-14T00:55:45.000Z</begin><end>2018-10-14T01:53:22.999Z</end></TimeSpan></Placemark><Placemark><name>Smokehouse 41 BBQ</name><address>40713 CA-41, Oakhurst, CA 93644, United States</address><ExtendedData><Data name="Email"><value>syugen.zhou@gmail.com</value></Data><Data name="Category"><value>Barbecue</value></Data><Data name="Distance"><value>0</value></Data></ExtendedData><description> Barbecue from 2018-10-14T01:53:22.999Z to 2018-10-14T02:55:13.732Z. Distance 0m </description><Point><coordinates>-119.6439115,37.3389473,0</coordinates></Point><TimeSpan><begin>2018-10-14T01:53:22.999Z</begin><end>2018-10-14T02:55:13.732Z</end></TimeSpan></Placemark><Placemark><name>Driving</name><address></address><ExtendedData><Data name="Email"><value>syugen.zhou@gmail.com</value></Data><Data name="Category"><value>Driving</value></Data><Data name="Distance"><value>6067</value></Data></ExtendedData><description> Driving from 2018-10-14T02:55:13.732Z to 2018-10-14T03:05:46.079Z. Distance 6067m </description><LineString><altitudeMode>clampToGround</altitudeMode><extrude>1</extrude><tesselate>1</tesselate><coordinates>-119.6438177,37.3398845,0 -119.6424348,37.342801599999994,0 -119.6421474,37.34375159999999,0 -119.64209089999999,37.34420449999999,0 -119.64224359999999,37.34782739999999,0 -119.64234929999998,37.34873139999999,0 -119.6433776,37.35280329999999,0 -119.6439777,37.35373319999999,0 -119.64405310000001,37.3540997,0 -119.6440189,37.354358,0 -119.6436475,37.3552557,0 -119.64355710000001,37.3556843,0 -119.64357299999999,37.356108400000004,0 -119.64369669999998,37.3565956,0 -119.6450648,37.3600777,0 -119.6451063,37.3602829,0 -119.6450929,37.3604773,0 -119.64502750000001,37.3606465,0 -119.644893,37.3608192,0 -119.64472869999999,37.3609585,0 -119.64452289999998,37.3610686,0 -119.6437208,37.3613156,0 -119.64348000000001,37.3614413,0 -119.6432685,37.3616346,0 -119.64293430000001,37.362258000000004,0 -119.6426862,37.362469000000004,0 -119.64249259999998,37.362565000000004,0 -119.64227699999998,37.3626282,0 -119.64200779999999,37.3626586,0 -119.64185059999998,37.3626525,0 -119.64110859999998,37.3625155,0 -119.64070359999998,37.3625175,0 -119.64046549999999,37.362553500000004,0 -119.64019919999998,37.362634400000005,0 -119.63907579999997,37.3631116,0 -119.63720169999998,37.3632428,0 -119.63667929999998,37.3633146,0 -119.63631349999997,37.3634265,0 -119.63567589999997,37.3636958,0 -119.63527919999997,37.363812100000004,0 -119.63503719999997,37.363854200000006,0 -119.63412239999997,37.36384110000001,0 -119.63391549999996,37.3638696,0 -119.63359379999996,37.3639584,0 -119.63259769999996,37.3643568,0 -119.63238829999996,37.364395200000004,0 -119.63174839999996,37.364434,0 -119.63134089999997,37.3645525,0 -119.63112879999998,37.3646584,0 -119.63087679999998,37.36487590000001,0 -119.63078049999999,37.3650056,0 -119.63063569999998,37.365356600000005,0 -119.63061939999999,37.365555,0 -119.63071719999999,37.3661815,0 -119.6307048,37.36638950000001,0 -119.6306295,37.36665940000001,0 -119.6294039,37.368471100000015,0 -119.62930650000001,37.368766100000016,0 -119.6292913,37.36896560000002,0 -119.62932630000002,37.36922670000001,0 -119.62963720000002,37.37009130000001,0 -119.62963200000003,37.37013980000001,0 -119.63002800000002,37.371176200000015,0 -119.63003440000001,37.37137220000001,0 -119.62997030000001,37.371625400000006,0 -119.62985520000002,37.37188640000001,0 -119.62971460000001,37.372106500000015,0 -119.62903690000003,37.37283460000001,0 -119.62901630000003,37.372881000000014,0 -119.62788670000003,37.37403530000002,0 -119.62703140000005,37.37513640000002,0 -119.62676470000005,37.37507470000002,0 -119.62650650000006,37.37506310000002,0 -119.62636120000005,37.375100000000025,0 -119.62624620000005,37.375171200000025,0 -119.62582030000004,37.37557630000003,0 -119.62545530000006,37.37574760000003,0 -119.62286300000007,37.376631300000035,0 -119.62213970000006,37.37703540000003,0 -119.62169260000005,37.377191900000035,0 -119.62149800000006,37.37720550000004,0 -119.61913380000006,37.376999800000036,0 -119.61873230000006,37.37690930000003,0 -119.61806120000006,37.37666620000004,0 -119.61763190000005,37.376584400000034,0 -119.61742430000005,37.37658610000004,0 -119.61704120000005,37.37666980000004,0 -119.61614900000004,37.37695310000004,0 -119.61587700000003,37.37699150000004,0 -119.61569800000002,37.37696810000004,0 -119.61553920000003,37.37689540000004,0 -119.61544370000001,37.37681350000004,0 -119.61500180000003,37.37621460000004,0 -119.61483160000002,37.37611220000004,0 -119.61428910000002,37.375951000000036,0 -119.61226510000004,37.37515790000004,0 -119.61119020000004,37.37491960000004,0 -119.61091360000002,37.37494290000004,0 -119.61068970000002,37.374989300000045,0 -119.61059590000004,37.37502730000004,0 </coordinates></LineString><TimeSpan><begin>2018-10-14T02:55:13.732Z</begin><end>2018-10-14T03:05:46.079Z</end></TimeSpan></Placemark><Placemark><name>51339 Rd 632</name><address>51339 Rd 632, Oakhurst, CA 93644, USA</address><ExtendedData><Data name="Email"><value>syugen.zhou@gmail.com</value></Data><Data name="Category"><value>Building</value></Data><Data name="Distance"><value>0</value></Data></ExtendedData><description> Building from 2018-10-14T03:05:46.079Z to 2018-10-14T16:55:29.077Z. Distance 0m </description><Point><coordinates>-119.61072739999999,37.375320099999996,0</coordinates></Point><TimeSpan><begin>2018-10-14T03:05:46.079Z</begin><end>2018-10-14T16:55:29.077Z</end></TimeSpan></Placemark></Document></kml>