<?xml version='1.0' encoding='UTF-8'?>
<kml xmlns="http://www.opengis.net/kml/2.2">
  <Document>
    <name>57b-bay-area-redact</name>
    <Style id="icon-1603-0288D1-nodesc-normal">
      <IconStyle>
        <color>ffd18802</color>
        <scale>1</scale>
        <Icon>
          <href>https://www.gstatic.com/mapspro/images/stock/503-wht-blank_maps.png</href>
        </Icon>
      </IconStyle>
      <LabelStyle>
        <scale>0</scale>
      </LabelStyle>
    </Style>
    <Style id="icon-1603-0288D1-nodesc-highlight">
      <IconStyle>
        <color>ffd18802</color>
        <scale>1</scale>
        <Icon>
          <href>https://www.gstatic.com/mapspro/images/stock/503-wht-blank_maps.png</href>
        </Icon>
      </IconStyle>
      <LabelStyle>
        <scale>1</scale>
      </LabelStyle>
    </Style>
    <StyleMap id="icon-1603-0288D1-nodesc">
      <Pair>
        <key>normal</key>
        <styleUrl>#icon-1603-0288D1-nodesc-normal</styleUrl>
      </Pair>
      <Pair>
        <key>highlight</key>
        <styleUrl>#icon-1603-0288D1-nodesc-highlight</styleUrl>
      </Pair>
    </StyleMap>
    <Style id="icon-1535-0288D1-normal">
      <IconStyle>
        <color>ffd18802</color>
        <scale>1</scale>
        <Icon>
          <href>https://www.gstatic.com/mapspro/images/stock/503-wht-blank_maps.png</href>
        </Icon>
      </IconStyle>
      <LabelStyle>
        <scale>0</scale>
      </LabelStyle>
    </Style>
    <Style id="icon-1535-0288D1-highlight">
      <IconStyle>
        <color>ffd18802</color>
        <scale>1</scale>
        <Icon>
          <href>https://www.gstatic.com/mapspro/images/stock/503-wht-blank_maps.png</href>
        </Icon>
      </IconStyle>
      <LabelStyle>
        <scale>1</scale>
      </LabelStyle>
    </Style>
    <StyleMap id="icon-1535-0288D1">
      <Pair>
        <key>normal</key>
        <styleUrl>#icon-1535-0288D1-normal</styleUrl>
      </Pair>
      <Pair>
        <key>highlight</key>
        <styleUrl>#icon-1535-0288D1-highlight</styleUrl>
      </Pair>
    </StyleMap>
    <Style id="icon-1603-0288D1-normal">
      <IconStyle>
        <color>ffd18802</color>
        <scale>1</scale>
        <Icon>
          <href>https://www.gstatic.com/mapspro/images/stock/503-wht-blank_maps.png</href>
        </Icon>
      </IconStyle>
      <LabelStyle>
        <scale>0</scale>
      </LabelStyle>
    </Style>
    <Style id="icon-1603-0288D1-highlight">
      <IconStyle>
        <color>ffd18802</color>
        <scale>1</scale>
        <Icon>
          <href>https://www.gstatic.com/mapspro/images/stock/503-wht-blank_maps.png</href>
        </Icon>
      </IconStyle>
      <LabelStyle>
        <scale>1</scale>
      </LabelStyle>
    </Style>
    <StyleMap id="icon-1603-0288D1">
      <Pair>
        <key>normal</key>
        <styleUrl>#icon-1603-0288D1-normal</styleUrl>
      </Pair>
      <Pair>
        <key>highlight</key>
        <styleUrl>#icon-1603-0288D1-highlight</styleUrl>
      </Pair>
    </StyleMap>
    <Style id="line-55B8B8-5000-normal">
      <LineStyle>
        <color>ffb8b855</color>
        <width>5</width>
      </LineStyle>
    </Style>
    <Style id="line-55B8B8-5000-highlight">
      <LineStyle>
        <color>ffb8b855</color>
        <width>7.5</width>
      </LineStyle>
    </Style>
    <StyleMap id="line-55B8B8-5000">
      <Pair>
        <key>normal</key>
        <styleUrl>#line-55B8B8-5000-normal</styleUrl>
      </Pair>
      <Pair>
        <key>highlight</key>
        <styleUrl>#line-55B8B8-5000-highlight</styleUrl>
      </Pair>
    </StyleMap>
    <Style id="line-5C86C6-5000-normal">
      <LineStyle>
        <color>ffc6865c</color>
        <width>5</width>
      </LineStyle>
    </Style>
    <Style id="line-5C86C6-5000-highlight">
      <LineStyle>
        <color>ffc6865c</color>
        <width>7.5</width>
      </LineStyle>
    </Style>
    <StyleMap id="line-5C86C6-5000">
      <Pair>
        <key>normal</key>
        <styleUrl>#line-5C86C6-5000-normal</styleUrl>
      </Pair>
      <Pair>
        <key>highlight</key>
        <styleUrl>#line-5C86C6-5000-highlight</styleUrl>
      </Pair>
    </StyleMap>
    <Style id="line-70B866-5000-normal">
      <LineStyle>
        <color>ff66b870</color>
        <width>5</width>
      </LineStyle>
    </Style>
    <Style id="line-70B866-5000-highlight">
      <LineStyle>
        <color>ff66b870</color>
        <width>7.5</width>
      </LineStyle>
    </Style>
    <StyleMap id="line-70B866-5000">
      <Pair>
        <key>normal</key>
        <styleUrl>#line-70B866-5000-normal</styleUrl>
      </Pair>
      <Pair>
        <key>highlight</key>
        <styleUrl>#line-70B866-5000-highlight</styleUrl>
      </Pair>
    </StyleMap>
    <Style id="line-965CB8-5000-normal">
      <LineStyle>
        <color>ffb85c96</color>
        <width>5</width>
      </LineStyle>
    </Style>
    <Style id="line-965CB8-5000-highlight">
      <LineStyle>
        <color>ffb85c96</color>
        <width>7.5</width>
      </LineStyle>
    </Style>
    <StyleMap id="line-965CB8-5000">
      <Pair>
        <key>normal</key>
        <styleUrl>#line-965CB8-5000-normal</styleUrl>
      </Pair>
      <Pair>
        <key>highlight</key>
        <styleUrl>#line-965CB8-5000-highlight</styleUrl>
      </Pair>
    </StyleMap>
    <Style id="line-E05A5A-5000-normal">
      <LineStyle>
        <color>ff5a5ae0</color>
        <width>5</width>
      </LineStyle>
    </Style>
    <Style id="line-E05A5A-5000-highlight">
      <LineStyle>
        <color>ff5a5ae0</color>
        <width>7.5</width>
      </LineStyle>
    </Style>
    <StyleMap id="line-E05A5A-5000">
      <Pair>
        <key>normal</key>
        <styleUrl>#line-E05A5A-5000-normal</styleUrl>
      </Pair>
      <Pair>
        <key>highlight</key>
        <styleUrl>#line-E05A5A-5000-highlight</styleUrl>
      </Pair>
    </StyleMap>
    <Style id="line-E0CB55-5000-normal">
      <LineStyle>
        <color>ff55cbe0</color>
        <width>5</width>
      </LineStyle>
    </Style>
    <Style id="line-E0CB55-5000-highlight">
      <LineStyle>
        <color>ff55cbe0</color>
        <width>7.5</width>
      </LineStyle>
    </Style>
    <StyleMap id="line-E0CB55-5000">
      <Pair>
        <key>normal</key>
        <styleUrl>#line-E0CB55-5000-normal</styleUrl>
      </Pair>
      <Pair>
        <key>highlight</key>
        <styleUrl>#line-E0CB55-5000-highlight</styleUrl>
      </Pair>
    </StyleMap>
    <Style id="line-E79A4F-5000-normal">
      <LineStyle>
        <color>ff4f9ae7</color>
        <width>5</width>
      </LineStyle>
    </Style>
    <Style id="line-E79A4F-5000-highlight">
      <LineStyle>
        <color>ff4f9ae7</color>
        <width>7.5</width>
      </LineStyle>
    </Style>
    <StyleMap id="line-E79A4F-5000">
      <Pair>
        <key>normal</key>
        <styleUrl>#line-E79A4F-5000-normal</styleUrl>
      </Pair>
      <Pair>
        <key>highlight</key>
        <styleUrl>#line-E79A4F-5000-highlight</styleUrl>
      </Pair>
    </StyleMap>
    <Folder>
      <name>Overlay</name>
      <Placemark>
        <name>07-04 Driving</name>
        <styleUrl>#line-965CB8-5000</styleUrl>
        <ExtendedData>
          <Data name="Category">
            <value>Driving</value>
          </Data>
          <Data name="Distance">
            <value>79025</value>
          </Data>
        </ExtendedData>
        <LineString>
          <tessellate>1</tessellate>
          <coordinates>
            -122.1304350,37.9915310,0
            -122.1303190,37.9912220,0
            -122.1306270,37.9908460,0
            -122.1339810,37.9900250,0
            -122.1340830,37.9899520,0
            -122.1359260,37.9896310,0
            -122.1370650,37.9895940,0
            -122.1383610,37.9897180,0
            -122.1395100,37.9900090,0
            -122.1408530,37.9906010,0
            -122.1421210,37.9915290,0
            -122.1428880,37.9924340,0
            -122.1462830,37.9988370,0
            -122.1467290,37.9994460,0
            -122.1476360,38.0003000,0
            -122.1549160,38.0045960,0
            -122.1560950,38.0051390,0
            -122.1570230,38.0054130,0
            -122.1583410,38.0056200,0
            -122.1631670,38.0059100,0
            -122.1644790,38.0061610,0
            -122.1661110,38.0068190,0
            -122.1769240,38.0147070,0
            -122.1787030,38.0154910,0
            -122.1796820,38.0157190,0
            -122.1865720,38.0163640,0
            -122.1885220,38.0161990,0
            -122.1916240,38.0152340,0
            -122.2065150,38.0090590,0
            -122.2089590,38.0084850,0
            -122.2113710,38.0082670,0
            -122.2178940,38.0082680,0
            -122.2205620,38.0085300,0
            -122.2286410,38.0102470,0
            -122.2327400,38.0116500,0
            -122.2370880,38.0137330,0
            -122.2384020,38.0141620,0
            -122.2414270,38.0148270,0
            -122.2450600,38.0152790,0
            -122.2475770,38.0152090,0
            -122.2594200,38.0134790,0
            -122.2612600,38.0134700,0
            -122.2636020,38.0137160,0
            -122.2686060,38.0150710,0
            -122.2690610,38.0150780,0
            -122.2696430,38.0149330,0
            -122.2702430,38.0145780,0
            -122.2751920,38.0090660,0
            -122.2751670,38.0089640,0
            -122.2857190,37.9976120,0
            -122.2870840,37.9965620,0
            -122.2885240,37.9957920,0
            -122.2899220,37.9952810,0
            -122.2912630,37.9949610,0
            -122.3043270,37.9931150,0
            -122.3063560,37.9926220,0
            -122.3079950,37.9920220,0
            -122.3097210,37.9911890,0
            -122.3122740,37.9895400,0
            -122.3136670,37.9882940,0
            -122.3145020,37.9873350,0
            -122.3154010,37.9859770,0
            -122.3160290,37.9846140,0
            -122.3167940,37.9815450,0
            -122.3213840,37.9678840,0
            -122.3221440,37.9667520,0
            -122.3234480,37.9656960,0
            -122.3278360,37.9633780,0
            -122.3287070,37.9627870,0
            -122.3296160,37.9618950,0
            -122.3301280,37.9611940,0
            -122.3306910,37.9598530,0
            -122.3308350,37.9589460,0
            -122.3306290,37.9573140,0
            -122.3240230,37.9440300,0
            -122.3238730,37.9425970,0
            -122.3241460,37.9414600,0
            -122.3269000,37.9358070,0
            -122.3269830,37.9346640,0
            -122.3268340,37.9339640,0
            -122.3264120,37.9330850,0
            -122.3183610,37.9216740,0
            -122.3177610,37.9202990,0
            -122.3175570,37.9191300,0
            -122.3174890,37.9113080,0
            -122.3168080,37.9095490,0
            -122.3099840,37.8994060,0
            -122.3077350,37.8939220,0
            -122.3075260,37.8928500,0
            -122.3075910,37.8919520,0
            -122.3090500,37.8885970,0
            -122.3093380,37.8870140,0
            -122.3075640,37.8786750,0
            -122.2998220,37.8522390,0
            -122.2965440,37.8373430,0
            -122.2944960,37.8328720,0
            -122.2940470,37.8302790,0
            -122.2942550,37.8292060,0
            -122.2948410,37.8283890,0
            -122.2954910,37.8279020,0
            -122.2960180,37.8276490,0
            -122.3006330,37.8264050,0
            -122.3048340,37.8255550,0
            -122.3138100,37.8248020,0
            -122.3178880,37.8240480,0
            -122.3216010,37.8228310,0
            -122.3232460,37.8225540,0
            -122.3302140,37.8219760,0
            -122.3510380,37.8189800,0
            -122.3536800,37.8181520,0
            -122.3615220,37.8136580,0
            -122.3907950,37.7861670,0
            -122.3932040,37.7847960,0
            -122.4029110,37.7774650,0
            -122.4053790,37.7759480,0
            -122.4059680,37.7754630,0
            -122.4063600,37.7749510,0
            -122.4067010,37.7742600,0
            -122.4068330,37.7731250,0
            -122.4065670,37.7719090,0
            -122.4057450,37.7702210,0
            -122.4051160,37.7641120,0
            -122.4053930,37.7630000,0
            -122.4062920,37.7614230,0
            -122.4064790,37.7607370,0
            -122.4064810,37.7602380,0
            -122.4062410,37.7594320,0
            -122.4056290,37.7586330,0
            -122.4040690,37.7574190,0
            -122.4037190,37.7570080,0
            -122.4033780,37.7562820,0
            -122.4030190,37.7528870,0
            -122.4032270,37.7512640,0
            -122.4054870,37.7445030,0
            -122.4075930,37.7416630,0
            -122.4080000,37.7406310,0
            -122.4082150,37.7391700,0
            -122.4078300,37.7370720,0
            -122.4042050,37.7305490,0
            -122.4001020,37.7204080,0
            -122.3989460,37.7163490,0
            -122.3985500,37.7155720,0
            -122.3966420,37.7131360,0
            -122.3960870,37.7121360,0
            -122.3885450,37.6791560,0
            -122.3885970,37.6771030,0
            -122.3888250,37.6761890,0
            -122.3901350,37.6734230,0
            -122.3925200,37.6701940,0
            -122.3971420,37.6654120,0
            -122.3985220,37.6642710,0
            -122.4033180,37.6611160,0
            -122.4042650,37.6602890,0
            -122.4049450,37.6594590,0
            -122.4065670,37.6564080,0
            -122.4069520,37.6552880,0
            -122.4071540,37.6535660,0
            -122.4061420,37.6417410,0
            -122.4056980,37.6398380,0
            -122.4036310,37.6353700,0
            -122.4031940,37.6338200,0
            -122.4024750,37.6282400,0
            -122.3986340,37.6165130,0
            -122.3981200,37.6154180,0
            -122.3971450,37.6139770,0
            -122.3957990,37.6125750,0
            -122.3946980,37.6116980,0
            -122.3591910,37.5886960,0
            -122.3561230,37.5875930,0
            -122.3543370,37.5872570,0
            -122.3332670,37.5865540,0
            -122.3321460,37.5863270,0
            -122.3304890,37.5856370,0
            -122.3295530,37.5849890,0
            -122.3017500,37.5592170,0
            -122.3005020,37.5576030,0
            -122.3004690,37.5574850,0
            -122.2983520,37.5546960,0
            -122.2982710,37.5544730,0
            -122.2982660,37.5540630,0
            -122.2985500,37.5535240,0
            -122.2988720,37.5532670,0
            -122.2992580,37.5531030,0
            -122.3004800,37.5528330,0
            -122.3020566,37.5527652,0
          </coordinates>
        </LineString>
      </Placemark>
      <Placemark>
        <name>Home</name>
        <styleUrl>#icon-1603-0288D1-nodesc</styleUrl>
        <Point>
          <coordinates>
            -122.3020566,37.5527652,0
          </coordinates>
        </Point>
      </Placemark>
    </Folder>
    <Folder>
      <name>Location history from 2021-07-04 to 2021-07-04</name>
      <Placemark>
        <name>07-04 Driving</name>
        <styleUrl>#line-E05A5A-5000</styleUrl>
        <ExtendedData>
          <Data name="Category">
            <value>Driving</value>
          </Data>
          <Data name="Distance">
            <value>35688</value>
          </Data>
        </ExtendedData>
        <LineString>
          <tessellate>1</tessellate>
          <coordinates>
            -122.3056260,37.5536500,0
            -122.3053580,37.5528280,0
            -122.3052620,37.5521430,0
            -122.3048080,37.5522390,0
            -122.3026740,37.5524220,0
            -122.3024470,37.5524780,0
            -122.2983120,37.5526800,0
            -122.2968230,37.5528650,0
            -122.2967120,37.5528500,0
            -122.2942630,37.5530700,0
            -122.2941000,37.5530270,0
            -122.2938980,37.5528550,0
            -122.2938470,37.5526830,0
            -122.2938860,37.5525270,0
            -122.2940110,37.5523870,0
            -122.2942110,37.5523030,0
            -122.2944880,37.5523060,0
            -122.2945980,37.5523400,0
            -122.2949610,37.5525670,0
            -122.2973160,37.5548710,0
            -122.2975860,37.5550560,0
            -122.3030620,37.5609770,0
            -122.3296140,37.5853300,0
            -122.3308890,37.5860920,0
            -122.3325030,37.5866330,0
            -122.3334580,37.5867890,0
            -122.3532650,37.5873360,0
            -122.3548180,37.5875160,0
            -122.3562590,37.5878280,0
            -122.3580690,37.5884240,0
            -122.3599780,37.5893610,0
            -122.3947840,37.6121060,0
            -122.3965290,37.6137180,0
            -122.3974120,37.6148460,0
            -122.3982250,37.6163370,0
            -122.4021420,37.6281680,0
            -122.4027390,37.6330920,0
            -122.4030940,37.6347230,0
            -122.4035520,37.6360230,0
            -122.4050690,37.6390640,0
            -122.4055070,37.6402580,0
            -122.4058850,37.6420750,0
            -122.4069170,37.6539140,0
            -122.4065930,37.6557710,0
            -122.4051790,37.6587300,0
            -122.4046310,37.6595750,0
            -122.4039960,37.6603010,0
            -122.4031740,37.6610040,0
            -122.3978200,37.6645670,0
            -122.3967150,37.6655590,0
            -122.3922650,37.6701970,0
            -122.3911290,37.6715650,0
            -122.3898480,37.6735360,0
            -122.3887270,37.6758700,0
            -122.3883950,37.6770330,0
            -122.3882770,37.6784690,0
            -122.3883680,37.6793960,0
            -122.3955940,37.7116120,0
            -122.3958330,37.7122170,0
            -122.3965600,37.7134270,0
            -122.3984160,37.7158210,0
            -122.3987830,37.7166080,0
            -122.4001910,37.7213850,0
            -122.4031010,37.7289270,0
            -122.4075930,37.7368730,0
            -122.4079410,37.7380740,0
            -122.4080280,37.7392070,0
            -122.4079440,37.7400230,0
            -122.4076530,37.7409930,0
            -122.4072700,37.7418120,0
            -122.4054030,37.7442300,0
            -122.4049860,37.7451030,0
            -122.4030340,37.7512570,0
            -122.4028600,37.7521610,0
            -122.4028310,37.7529350,0
            -122.4031230,37.7559750,0
            -122.4032980,37.7566160,0
            -122.4038020,37.7573940,0
            -122.4056150,37.7588570,0
            -122.4061250,37.7596190,0
            -122.4062950,37.7602570,0
            -122.4062960,37.7606770,0
            -122.4060970,37.7614110,0
            -122.4052680,37.7628270,0
            -122.4050010,37.7636020,0
            -122.4048640,37.7654710,0
            -122.4049500,37.7655560,0
            -122.4052140,37.7674440,0
            -122.4054610,37.7678880,0
            -122.4068890,37.7690170,0
            -122.4079690,37.7697160,0
            -122.4083630,37.7698800,0
            -122.4085800,37.7699130,0
            -122.4088220,37.7698930,0
            -122.4090270,37.7698290,0
            -122.4096500,37.7694780,0
            -122.4099210,37.7694120,0
            -122.4165600,37.7696980,0
            -122.4192630,37.7700750,0
            -122.4207670,37.7701560,0
            -122.4213420,37.7702700,0
            -122.4219470,37.7705040,0
            -122.4226710,37.7709870,0
            -122.4233440,37.7718800,0
            -122.4215460,37.7733210,0
            -122.4215280,37.7733740,0
            -122.4207500,37.7740100,0
            -122.4207380,37.7740500,0
            -122.4264060,37.8020840,0
            -122.4231040,37.8025000,0
            -122.4238560,37.8062270,0
            -122.4224700,37.8064130,0
          </coordinates>
        </LineString>
      </Placemark>
      <Placemark>
        <name>San Francisco Maritime National Historical Park</name>
        <styleUrl>#icon-1535-0288D1</styleUrl>
        <ExtendedData>
          <Data name="Category">
            <value>National park</value>
          </Data>
          <Data name="Distance">
            <value>0</value>
          </Data>
        </ExtendedData>
        <Point>
          <coordinates>
            -122.42415,37.807743,0
          </coordinates>
        </Point>
      </Placemark>
      <Placemark>
        <name>07-04 Driving</name>
        <styleUrl>#line-E79A4F-5000</styleUrl>
        <ExtendedData>
          <Data name="Category">
            <value>Driving</value>
          </Data>
          <Data name="Distance">
            <value>6280</value>
          </Data>
        </ExtendedData>
        <LineString>
          <tessellate>1</tessellate>
          <coordinates>
            -122.4230300,37.8063360,0
            -122.4225390,37.8064000,0
            -122.4222260,37.8064610,0
            -122.4208110,37.8066460,0
            -122.4205710,37.8066610,0
            -122.4195730,37.8067960,0
            -122.4195000,37.8067320,0
            -122.4188230,37.8062640,0
            -122.4187450,37.8059450,0
            -122.4220400,37.8055130,0
            -122.4218480,37.8045780,0
            -122.4284210,37.8037450,0
            -122.4278570,37.8009480,0
            -122.4443020,37.7988490,0
            -122.4443560,37.7988570,0
            -122.4444790,37.7988480,0
            -122.4446600,37.7988580,0
            -122.4447240,37.7988700,0
            -122.4449070,37.7989280,0
            -122.4450130,37.7989760,0
            -122.4492300,37.8018900,0
            -122.4503410,37.8028940,0
            -122.4504240,37.8029530,0
            -122.4507950,37.8031570,0
            -122.4510050,37.8032460,0
            -122.4514290,37.8033720,0
            -122.4515920,37.8034040,0
            -122.4520970,37.8034640,0
            -122.4525430,37.8034820,0
            -122.4528630,37.8034740,0
            -122.4548840,37.8032460,0
            -122.4566840,37.8029680,0
            -122.4573520,37.8028150,0
            -122.4603430,37.8019300,0
            -122.4610210,37.8017960,0
            -122.4615350,37.8017390,0
            -122.4619310,37.8017210,0
            -122.4626340,37.8017430,0
            -122.4631120,37.8018090,0
            -122.4682310,37.8028660,0
            -122.4695010,37.8032020,0
            -122.4705180,37.8035940,0
            -122.4715830,37.8041030,0
            -122.4722490,37.8044890,0
            -122.4727430,37.8048270,0
            -122.4727770,37.8048690,0
            -122.4727840,37.8049080,0
            -122.4731130,37.8051360,0
            -122.4743430,37.8062390,0
            -122.4746760,37.8065890,0
            -122.4745590,37.8067950,0
            -122.4745460,37.8068420,0
            -122.4745250,37.8068650,0
            -122.4745020,37.8068780,0
            -122.4744080,37.8069000,0
            -122.4741480,37.8070210,0
            -122.4740230,37.8070340,0
            -122.4739020,37.8070250,0
            -122.4738400,37.8070110,0
            -122.4737440,37.8069390,0
            -122.4735370,37.8067150,0
            -122.4733710,37.8067420,0
            -122.4726620,37.8069070,0
            -122.4725720,37.8069180,0
            -122.4724050,37.8069150,0
            -122.4723490,37.8069050,0
            -122.4722040,37.8068500,0
            -122.4713750,37.8063650,0
            -122.4704990,37.8060860,0
            -122.4703060,37.8060060,0
            -122.4701730,37.8059240,0
            -122.4701110,37.8058750,0
            -122.4699910,37.8059390,0
            -122.4699600,37.8059820,0
            -122.4699400,37.8060760,0
            -122.4699840,37.8062740,0
            -122.4700300,37.8063850,0
            -122.4701750,37.8065530,0
            -122.4705610,37.8068220,0
            -122.4708020,37.8070540,0
            -122.4709230,37.8071930,0
            -122.4709710,37.8072980,0
            -122.4710830,37.8076810,0
            -122.4711430,37.8080470,0
            -122.4711930,37.8081670,0
            -122.4713330,37.8083840,0
            -122.4715430,37.8085470,0
            -122.4716760,37.8086280,0
            -122.4721280,37.8088020,0
            -122.4726980,37.8089180,0
            -122.4734780,37.8089940,0
            -122.4741180,37.8089920,0
            -122.4748830,37.8090720,0
            -122.4756940,37.8092780,0
            -122.4760630,37.8094330,0
            -122.4761390,37.8094890,0
            -122.4761640,37.8095210,0
            -122.4764440,37.8100650,0
            -122.4764380,37.8101820,0
            -122.4764560,37.8102570,0
          </coordinates>
        </LineString>
      </Placemark>
      <Placemark>
        <name>Fort Point National Historic Site</name>
        <styleUrl>#icon-1535-0288D1</styleUrl>
        <ExtendedData>
          <Data name="Category">
            <value>Historical place</value>
          </Data>
          <Data name="Distance">
            <value>0</value>
          </Data>
        </ExtendedData>
        <Point>
          <coordinates>
            -122.47709,37.810612,0
          </coordinates>
        </Point>
      </Placemark>
      <Placemark>
        <name>07-04 Driving</name>
        <styleUrl>#line-E0CB55-5000</styleUrl>
        <ExtendedData>
          <Data name="Category">
            <value>Driving</value>
          </Data>
          <Data name="Distance">
            <value>11444</value>
          </Data>
        </ExtendedData>
        <LineString>
          <tessellate>1</tessellate>
          <coordinates>
            -122.4754710,37.8092200,0
            -122.4748830,37.8090720,0
            -122.4741180,37.8089920,0
            -122.4734780,37.8089940,0
            -122.4726980,37.8089180,0
            -122.4721280,37.8088020,0
            -122.4716760,37.8086280,0
            -122.4713330,37.8083840,0
            -122.4711430,37.8080470,0
            -122.4709230,37.8071930,0
            -122.4705610,37.8068220,0
            -122.4701750,37.8065530,0
            -122.4700300,37.8063850,0
            -122.4699400,37.8060760,0
            -122.4699600,37.8059820,0
            -122.4699910,37.8059390,0
            -122.4701110,37.8058750,0
            -122.4703060,37.8060060,0
            -122.4713750,37.8063650,0
            -122.4722040,37.8068500,0
            -122.4723490,37.8069050,0
            -122.4725720,37.8069180,0
            -122.4733710,37.8067420,0
            -122.4739100,37.8072190,0
            -122.4745810,37.8068680,0
            -122.4746910,37.8068470,0
            -122.4749190,37.8068730,0
            -122.4754910,37.8074470,0
            -122.4763210,37.8080080,0
            -122.4767280,37.8083860,0
            -122.4769740,37.8087030,0
            -122.4772800,37.8093990,0
            -122.4798870,37.8310950,0
            -122.4801220,37.8316090,0
            -122.4803620,37.8319600,0
            -122.4807010,37.8323190,0
            -122.4811510,37.8326790,0
            -122.4827960,37.8335810,0
            -122.4834040,37.8340360,0
            -122.4840220,37.8347180,0
            -122.4864480,37.8384530,0
            -122.4866440,37.8388720,0
            -122.4867530,37.8394780,0
            -122.4866660,37.8400900,0
            -122.4864270,37.8406160,0
            -122.4856440,37.8417650,0
            -122.4854960,37.8422080,0
            -122.4854470,37.8425930,0
            -122.4854750,37.8429270,0
            -122.4863000,37.8461090,0
            -122.4865320,37.8465940,0
            -122.4867580,37.8468940,0
            -122.4871740,37.8472790,0
            -122.4888520,37.8484830,0
            -122.4893170,37.8491090,0
            -122.4898420,37.8507140,0
            -122.4900950,37.8511130,0
            -122.4905160,37.8515630,0
            -122.4919420,37.8525380,0
            -122.4924360,37.8529750,0
            -122.4927030,37.8533210,0
            -122.4936380,37.8552510,0
            -122.4938710,37.8555760,0
            -122.4943010,37.8559930,0
            -122.4949110,37.8563780,0
            -122.4956400,37.8566550,0
            -122.4978120,37.8571650,0
            -122.4983780,37.8574080,0
            -122.4990130,37.8578170,0
            -122.5007760,37.8596260,0
            -122.5016100,37.8602460,0
            -122.5045320,37.8617240,0
            -122.5053310,37.8623290,0
            -122.5058050,37.8628030,0
            -122.5065420,37.8638800,0
            -122.5068490,37.8646600,0
            -122.5069930,37.8653390,0
            -122.5070940,37.8712080,0
            -122.5072760,37.8721960,0
            -122.5074620,37.8727080,0
            -122.5079120,37.8735390,0
            -122.5084290,37.8741950,0
            -122.5088340,37.8745970,0
            -122.5121170,37.8771240,0
            -122.5147380,37.8786180,0
            -122.5154150,37.8791760,0
            -122.5160090,37.8799430,0
            -122.5164070,37.8808320,0
            -122.5165530,37.8816820,0
            -122.5166100,37.8865660,0
            -122.5165330,37.8866730,0
            -122.5164050,37.8883480,0
            -122.5163250,37.8884500,0
            -122.5159870,37.8885640,0
            -122.5160260,37.8888870,0
            -122.5163440,37.8896910,0
            -122.5163540,37.8903010,0
            -122.5159300,37.8902940,0
            -122.5158940,37.8903220,0
            -122.5158730,37.8905490,0
          </coordinates>
        </LineString>
      </Placemark>
      <Placemark>
        <name>07-04 Driving</name>
        <styleUrl>#line-E0CB55-5000</styleUrl>
        <ExtendedData>
          <Data name="Category">
            <value>Driving</value>
          </Data>
          <Data name="Distance">
            <value>37610</value>
          </Data>
        </ExtendedData>
        <LineString>
          <tessellate>1</tessellate>
          <coordinates>
            -122.5162750,37.8912390,0
            -122.5163440,37.8896910,0
            -122.5159970,37.8887000,0
            -122.5163700,37.8887130,0
            -122.5164700,37.8888130,0
            -122.5165130,37.8899460,0
            -122.5165880,37.8900420,0
            -122.5152390,37.9056280,0
            -122.5111870,37.9164210,0
            -122.5110310,37.9179460,0
            -122.5112820,37.9196560,0
            -122.5152320,37.9280280,0
            -122.5166650,37.9356510,0
            -122.5166530,37.9374570,0
            -122.5159070,37.9404190,0
            -122.5157680,37.9405040,0
            -122.5146370,37.9437750,0
            -122.5146680,37.9441470,0
            -122.5148550,37.9444520,0
            -122.5152630,37.9447290,0
            -122.5156630,37.9448260,0
            -122.5174360,37.9445780,0
            -122.5296010,37.9492700,0
            -122.5310880,37.9495590,0
            -122.5353980,37.9513090,0
            -122.5381990,37.9530040,0
            -122.5419290,37.9538160,0
            -122.5446770,37.9537170,0
            -122.5452500,37.9539420,0
            -122.5490970,37.9568690,0
            -122.5491730,37.9568690,0
            -122.5546930,37.9610390,0
            -122.5593020,37.9674440,0
            -122.5599000,37.9679440,0
            -122.5616410,37.9729560,0
            -122.5615810,37.9765200,0
            -122.5625590,37.9765050,0
            -122.5638340,37.9771200,0
            -122.5646070,37.9770780,0
            -122.5689820,37.9779120,0
            -122.5775500,37.9824800,0
            -122.5826220,37.9857700,0
            -122.5859600,37.9867590,0
            -122.5871950,37.9868900,0
            -122.5871540,37.9871690,0
            -122.5894920,37.9874060,0
            -122.5903340,37.9876560,0
            -122.5907520,37.9880520,0
            -122.5922900,37.9910780,0
            -122.5926100,37.9912740,0
            -122.5949730,37.9945580,0
            -122.5992370,37.9972800,0
            -122.6002530,37.9990260,0
            -122.6010980,37.9996920,0
            -122.6018390,38.0000080,0
            -122.6056080,38.0005170,0
            -122.6074740,38.0003750,0
            -122.6105070,38.0014220,0
            -122.6118130,38.0021990,0
            -122.6129400,38.0025120,0
            -122.6135710,38.0028580,0
            -122.6142080,38.0036660,0
            -122.6143570,38.0053310,0
            -122.6158610,38.0070140,0
            -122.6161690,38.0075970,0
            -122.6171690,38.0081360,0
            -122.6174610,38.0085140,0
            -122.6173790,38.0096950,0
            -122.6178990,38.0109600,0
            -122.6182410,38.0112460,0
            -122.6188560,38.0114420,0
            -122.6208150,38.0113600,0
            -122.6223940,38.0117580,0
            -122.6230530,38.0117840,0
            -122.6236430,38.0116140,0
            -122.6247160,38.0109610,0
            -122.6255740,38.0107260,0
            -122.6265740,38.0107660,0
            -122.6271700,38.0109500,0
            -122.6342350,38.0151310,0
            -122.6364380,38.0158170,0
            -122.6379160,38.0160080,0
            -122.6457460,38.0151440,0
            -122.6660500,38.0144280,0
            -122.6784320,38.0167790,0
            -122.6796660,38.0167940,0
            -122.6872390,38.0153520,0
            -122.6942820,38.0151010,0
            -122.7017030,38.0122360,0
            -122.7023140,38.0116290,0
            -122.7023360,38.0107990,0
            -122.7019660,38.0099950,0
            -122.7020150,38.0097430,0
            -122.7022910,38.0095220,0
            -122.7031030,38.0093750,0
            -122.7039760,38.0085530,0
            -122.7052710,38.0079620,0
            -122.7053920,38.0078110,0
            -122.7052160,38.0068760,0
            -122.7053870,38.0060820,0
            -122.7057350,38.0055370,0
            -122.7062880,38.0050820,0
            -122.7065820,38.0049930,0
            -122.7072940,38.0051400,0
            -122.7077380,38.0050510,0
            -122.7084280,38.0046340,0
            -122.7090010,38.0045560,0
            -122.7108780,38.0050310,0
            -122.7113820,38.0053850,0
            -122.7115340,38.0056460,0
            -122.7116930,38.0089960,0
            -122.7127820,38.0109540,0
            -122.7133960,38.0115040,0
            -122.7143370,38.0118180,0
            -122.7156350,38.0134210,0
            -122.7166900,38.0141440,0
            -122.7206370,38.0158900,0
            -122.7230130,38.0160150,0
            -122.7232950,38.0161620,0
            -122.7242830,38.0176640,0
            -122.7240360,38.0183730,0
            -122.7241260,38.0189170,0
            -122.7244450,38.0193010,0
            -122.7272530,38.0201920,0
            -122.7284400,38.0201660,0
            -122.7316380,38.0190480,0
            -122.7324930,38.0190080,0
            -122.7328760,38.0191910,0
            -122.7344170,38.0228380,0
            -122.7358430,38.0242310,0
            -122.7363890,38.0255360,0
            -122.7357780,38.0271900,0
            -122.7358750,38.0286530,0
            -122.7364580,38.0295890,0
            -122.7376880,38.0302970,0
            -122.7383800,38.0304720,0
            -122.7394130,38.0304290,0
            -122.7422100,38.0292320,0
            -122.7430140,38.0291520,0
            -122.7432470,38.0292190,0
            -122.7433760,38.0294210,0
            -122.7431790,38.0301720,0
            -122.7420820,38.0315720,0
            -122.7420380,38.0334240,0
            -122.7422530,38.0339120,0
            -122.7443470,38.0353200,0
            -122.7459030,38.0372200,0
            -122.7447730,38.0419220,0
            -122.7448060,38.0426030,0
            -122.7450870,38.0430000,0
            -122.7469710,38.0440900,0
            -122.7502830,38.0450930,0
            -122.7529890,38.0481580,0
            -122.7589660,38.0499000,0
            -122.7599010,38.0499130,0
            -122.7609460,38.0496940,0
            -122.7657010,38.0477740,0
            -122.7682810,38.0475800,0
            -122.7694120,38.0471990,0
            -122.7702020,38.0463060,0
            -122.7707990,38.0461890,0
            -122.7746990,38.0474450,0
            -122.7750830,38.0474060,0
            -122.7776300,38.0457040,0
            -122.7785890,38.0446490,0
            -122.7823270,38.0436870,0
            -122.7830810,38.0436570,0
            -122.7850650,38.0429250,0
            -122.7877750,38.0404980,0
            -122.7881440,38.0407570,0
            -122.7887510,38.0419800,0
            -122.7909910,38.0418580,0
            -122.7925600,38.0420780,0
            -122.7944500,38.0427700,0
            -122.7957660,38.0428200,0
            -122.7968330,38.0431460,0
            -122.7979370,38.0439900,0
            -122.7982490,38.0436510,0
            -122.7984010,38.0426980,0
            -122.7986260,38.0423780,0
            -122.7994770,38.0419310,0
            -122.7997160,38.0405490,0
            -122.7999120,38.0405790,0
            -122.7999450,38.0406570,0
          </coordinates>
        </LineString>
      </Placemark>
      <Placemark>
        <name>Bear Valley Visitor Center</name>
        <styleUrl>#icon-1535-0288D1</styleUrl>
        <ExtendedData>
          <Data name="Category">
            <value>Visitor center</value>
          </Data>
          <Data name="Distance">
            <value>0</value>
          </Data>
        </ExtendedData>
        <Point>
          <coordinates>
            -122.800357,38.041124,0
          </coordinates>
        </Point>
      </Placemark>
      <Placemark>
        <name>07-04 Driving</name>
        <styleUrl>#line-70B866-5000</styleUrl>
        <ExtendedData>
          <Data name="Category">
            <value>Driving</value>
          </Data>
          <Data name="Distance">
            <value>30466</value>
          </Data>
        </ExtendedData>
        <LineString>
          <tessellate>1</tessellate>
          <coordinates>
            -122.7998890,38.0413180,0
            -122.7998660,38.0416440,0
            -122.7997430,38.0417620,0
            -122.7996030,38.0417040,0
            -122.7994770,38.0419310,0
            -122.7986260,38.0423790,0
            -122.7984010,38.0426980,0
            -122.7982490,38.0436510,0
            -122.7979370,38.0439900,0
            -122.7968330,38.0431460,0
            -122.7957660,38.0428200,0
            -122.7944500,38.0427700,0
            -122.7925600,38.0420780,0
            -122.7909920,38.0418580,0
            -122.7887510,38.0419800,0
            -122.7879570,38.0405880,0
            -122.7848800,38.0392250,0
            -122.7842500,38.0386010,0
            -122.7834100,38.0359560,0
            -122.7783370,38.0270330,0
            -122.7767720,38.0261780,0
            -122.7759580,38.0249860,0
            -122.7749460,38.0246120,0
            -122.7746330,38.0236190,0
            -122.7692440,38.0159810,0
            -122.7674050,38.0144040,0
            -122.7670900,38.0136760,0
            -122.7672450,38.0123820,0
            -122.7669760,38.0119490,0
            -122.7649260,38.0108040,0
            -122.7635670,38.0089300,0
            -122.7614900,38.0072410,0
            -122.7588100,38.0029900,0
            -122.7586400,38.0018060,0
            -122.7582000,38.0011960,0
            -122.7557770,37.9993630,0
            -122.7557640,37.9988780,0
            -122.7548240,37.9974430,0
            -122.7542810,37.9954970,0
            -122.7526260,37.9930890,0
            -122.7509020,37.9915840,0
            -122.7486490,37.9903740,0
            -122.7462140,37.9884140,0
            -122.7452720,37.9880350,0
            -122.7427030,37.9859530,0
            -122.7420190,37.9850140,0
            -122.7413810,37.9846330,0
            -122.7390690,37.9812280,0
            -122.7367900,37.9794330,0
            -122.7349700,37.9784990,0
            -122.7292670,37.9711640,0
            -122.7263460,37.9692740,0
            -122.7224360,37.9633830,0
            -122.7209440,37.9626960,0
            -122.7195480,37.9615130,0
            -122.7199750,37.9598980,0
            -122.7197380,37.9594860,0
            -122.7187530,37.9588470,0
            -122.7165360,37.9586410,0
            -122.7156610,37.9576970,0
            -122.7155990,37.9572530,0
            -122.7149670,37.9571050,0
            -122.7144750,37.9564870,0
            -122.7123920,37.9503200,0
            -122.7108060,37.9477670,0
            -122.7074400,37.9459610,0
            -122.7066060,37.9457860,0
            -122.7064060,37.9456240,0
            -122.7048780,37.9409860,0
            -122.7052450,37.9402540,0
            -122.7050080,37.9393840,0
            -122.7030100,37.9382250,0
            -122.7006760,37.9360610,0
            -122.6942530,37.9333810,0
            -122.6922730,37.9335020,0
            -122.6909870,37.9325970,0
            -122.6896560,37.9326130,0
            -122.6887560,37.9322910,0
            -122.6885600,37.9320900,0
            -122.6884730,37.9309450,0
            -122.6878790,37.9304930,0
            -122.6865140,37.9303420,0
            -122.6841920,37.9305370,0
            -122.6827440,37.9299840,0
            -122.6821460,37.9293270,0
            -122.6821690,37.9279320,0
            -122.6806280,37.9264910,0
            -122.6804350,37.9259690,0
            -122.6792860,37.9252980,0
            -122.6786120,37.9251260,0
            -122.6763960,37.9252230,0
            -122.6754500,37.9247940,0
            -122.6741960,37.9227790,0
            -122.6723530,37.9214080,0
            -122.6714780,37.9211190,0
            -122.6700340,37.9185540,0
            -122.6680080,37.9177560,0
            -122.6663080,37.9162650,0
            -122.6648280,37.9141520,0
            -122.6630330,37.9127970,0
            -122.6619480,37.9127580,0
            -122.6598950,37.9110960,0
            -122.6567770,37.9098910,0
            -122.6557740,37.9092340,0
            -122.6547990,37.9089780,0
            -122.6535370,37.9073580,0
            -122.6515530,37.9070520,0
            -122.6502340,37.9060330,0
            -122.6497680,37.9048890,0
            -122.6475600,37.9036260,0
            -122.6471420,37.9030450,0
            -122.6455970,37.9019250,0
            -122.6443230,37.9003890,0
            -122.6424670,37.8991390,0
            -122.6398050,37.8984970,0
            -122.6377390,37.8984670,0
            -122.6374970,37.8983680,0
            -122.6368860,37.8964870,0
            -122.6363050,37.8958560,0
            -122.6360080,37.8950910,0
            -122.6356730,37.8948060,0
            -122.6349900,37.8932290,0
            -122.6348400,37.8931220,0
            -122.6342250,37.8931680,0
            -122.6335450,37.8928100,0
            -122.6334480,37.8925850,0
            -122.6335990,37.8915630,0
            -122.6334390,37.8909970,0
            -122.6326410,37.8903030,0
            -122.6309600,37.8894900,0
            -122.6300970,37.8893120,0
            -122.6292930,37.8888210,0
            -122.6291960,37.8884990,0
            -122.6295920,37.8875340,0
            -122.6293630,37.8873100,0
            -122.6288680,37.8873420,0
            -122.6272560,37.8866790,0
            -122.6267050,37.8867580,0
            -122.6262600,37.8866310,0
            -122.6238970,37.8867670,0
            -122.6230250,37.8863920,0
            -122.6226640,37.8859220,0
            -122.6224060,37.8843510,0
            -122.6219500,37.8841060,0
            -122.6218350,37.8839240,0
            -122.6218830,37.8835530,0
            -122.6212020,37.8830690,0
            -122.6212100,37.8825500,0
            -122.6203670,37.8819160,0
            -122.6201220,37.8814960,0
            -122.6198070,37.8813510,0
            -122.6191070,37.8813510,0
            -122.6185490,37.8806600,0
            -122.6165210,37.8792990,0
            -122.6162200,37.8792980,0
            -122.6156660,37.8799050,0
            -122.6149890,37.8798170,0
            -122.6143100,37.8799920,0
            -122.6127440,37.8821180,0
            -122.6120910,37.8822080,0
            -122.6109750,37.8830250,0
            -122.6108200,37.8829680,0
            -122.6121070,37.8808400,0
            -122.6121190,37.8793490,0
            -122.6119940,37.8791950,0
            -122.6102550,37.8795170,0
            -122.6098760,37.8794620,0
            -122.6088580,37.8785990,0
            -122.6069600,37.8783040,0
            -122.6065220,37.8779720,0
            -122.6060720,37.8778880,0
            -122.6053290,37.8773500,0
            -122.6048240,37.8775060,0
            -122.6043750,37.8783990,0
            -122.6041770,37.8784590,0
            -122.6032140,37.8780870,0
            -122.6022450,37.8783890,0
            -122.6012410,37.8792300,0
            -122.6010930,37.8791350,0
            -122.6010530,37.8787380,0
            -122.6009490,37.8786540,0
            -122.6002710,37.8785640,0
            -122.6001640,37.8783900,0
            -122.6002320,37.8782720,0
            -122.6013940,37.8777220,0
            -122.6018760,37.8771500,0
            -122.6017480,37.8768450,0
            -122.5999090,37.8763550,0
            -122.5992730,37.8757270,0
            -122.5989860,37.8750280,0
            -122.5986540,37.8748580,0
            -122.5976340,37.8747180,0
            -122.5946330,37.8752850,0
            -122.5939740,37.8750250,0
            -122.5905660,37.8713300,0
            -122.5885020,37.8681330,0
            -122.5877370,37.8678420,0
            -122.5866780,37.8646390,0
            -122.5849030,37.8640510,0
            -122.5844010,37.8641380,0
            -122.5833480,37.8648900,0
            -122.5824700,37.8652100,0
            -122.5820550,37.8651330,0
            -122.5807050,37.8642960,0
            -122.5793670,37.8645390,0
            -122.5771880,37.8628380,0
            -122.5766030,37.8628560,0
            -122.5762990,37.8630590,0
            -122.5762360,37.8634920,0
            -122.5772390,37.8646470,0
            -122.5773080,37.8649510,0
            -122.5784050,37.8660380,0
            -122.5784060,37.8662390,0
            -122.5773890,37.8669950,0
            -122.5772310,37.8670120,0
            -122.5812810,37.8696530,0
            -122.5814650,37.8699310,0
            -122.5814380,37.8707600,0
            -122.5818100,37.8718540,0
            -122.5826310,37.8728910,0
            -122.5830850,37.8745850,0
            -122.5829980,37.8750560,0
            -122.5824040,37.8757070,0
            -122.5824240,37.8763040,0
            -122.5815530,37.8773810,0
            -122.5790960,37.8788950,0
            -122.5779460,37.8801550,0
            -122.5772630,37.8818940,0
            -122.5761770,37.8828240,0
            -122.5746020,37.8829510,0
            -122.5725000,37.8837560,0
            -122.5710030,37.8849020,0
            -122.5700610,37.8850260,0
            -122.5678240,37.8865380,0
            -122.5674480,37.8871430,0
            -122.5675000,37.8885420,0
            -122.5668240,37.8888400,0
            -122.5667980,37.8903100,0
            -122.5681200,37.8912130,0
            -122.5703930,37.8919770,0
          </coordinates>
        </LineString>
      </Placemark>
      <Placemark>
        <name>Muir Woods National Monument</name>
        <styleUrl>#icon-1535-0288D1</styleUrl>
        <ExtendedData>
          <Data name="Category">
            <value>National park</value>
          </Data>
          <Data name="Distance">
            <value>0</value>
          </Data>
        </ExtendedData>
        <Point>
          <coordinates>
            -122.581118,37.89702,0
          </coordinates>
        </Point>
      </Placemark>
      <Placemark>
        <name>07-04 Driving</name>
        <styleUrl>#line-55B8B8-5000</styleUrl>
        <ExtendedData>
          <Data name="Category">
            <value>Driving</value>
          </Data>
          <Data name="Distance">
            <value>25266</value>
          </Data>
        </ExtendedData>
        <LineString>
          <tessellate>1</tessellate>
          <coordinates>
            -122.5703930,37.8919770,0
            -122.5704330,37.8920600,0
            -122.5697000,37.8920050,0
            -122.5695890,37.8921050,0
            -122.5696510,37.8922320,0
            -122.5704540,37.8927110,0
            -122.5712370,37.8928850,0
            -122.5717870,37.8933810,0
            -122.5716490,37.8934350,0
            -122.5712670,37.8931970,0
            -122.5705870,37.8932570,0
            -122.5700390,37.8938290,0
            -122.5699170,37.8938510,0
            -122.5694610,37.8933810,0
            -122.5690730,37.8933180,0
            -122.5677030,37.8940190,0
            -122.5675660,37.8939380,0
            -122.5674940,37.8933850,0
            -122.5673280,37.8933290,0
            -122.5669190,37.8934130,0
            -122.5668060,37.8933660,0
            -122.5666950,37.8931210,0
            -122.5657600,37.8928320,0
            -122.5654640,37.8932060,0
            -122.5648270,37.8931940,0
            -122.5645180,37.8933410,0
            -122.5643890,37.8935370,0
            -122.5644700,37.8941360,0
            -122.5641420,37.8951810,0
            -122.5640410,37.8952230,0
            -122.5631100,37.8949390,0
            -122.5620200,37.8955070,0
            -122.5618150,37.8957380,0
            -122.5617410,37.8963450,0
            -122.5615800,37.8965500,0
            -122.5614680,37.8965700,0
            -122.5610710,37.8963860,0
            -122.5606840,37.8957190,0
            -122.5605600,37.8949460,0
            -122.5599670,37.8943050,0
            -122.5592560,37.8939690,0
            -122.5589740,37.8940570,0
            -122.5588260,37.8940240,0
            -122.5586700,37.8934940,0
            -122.5578430,37.8933080,0
            -122.5572380,37.8934410,0
            -122.5571280,37.8949260,0
            -122.5582460,37.8963420,0
            -122.5583720,37.8975270,0
            -122.5586590,37.8979400,0
            -122.5585870,37.8991800,0
            -122.5581580,37.8998170,0
            -122.5584880,37.9000870,0
            -122.5585050,37.9002310,0
            -122.5581860,37.9007270,0
            -122.5581580,37.9017440,0
            -122.5584660,37.9021390,0
            -122.5583920,37.9022810,0
            -122.5569680,37.9025810,0
            -122.5568780,37.9026670,0
            -122.5563980,37.9026800,0
            -122.5554990,37.9022160,0
            -122.5547620,37.9015560,0
            -122.5534930,37.9011400,0
            -122.5514860,37.9013240,0
            -122.5503320,37.9007690,0
            -122.5497930,37.9007680,0
            -122.5475700,37.9000890,0
            -122.5458050,37.9000450,0
            -122.5450410,37.9001950,0
            -122.5421300,37.8995250,0
            -122.5412380,37.8985200,0
            -122.5398760,37.8983250,0
            -122.5397730,37.8980330,0
            -122.5400770,37.8976300,0
            -122.5402050,37.8970110,0
            -122.5386750,37.8963610,0
            -122.5355400,37.8985580,0
            -122.5352890,37.8986020,0
            -122.5344470,37.8982660,0
            -122.5327500,37.8996390,0
            -122.5320690,37.8997490,0
            -122.5309180,37.9009990,0
            -122.5295040,37.9006290,0
            -122.5294120,37.9005390,0
            -122.5279090,37.9002670,0
            -122.5253550,37.9012800,0
            -122.5234380,37.9034950,0
            -122.5225830,37.9037970,0
            -122.5198130,37.9037020,0
            -122.5171800,37.9028050,0
            -122.5149920,37.9026570,0
            -122.5145600,37.9023160,0
            -122.5146280,37.9020020,0
            -122.5150120,37.9018360,0
            -122.5152680,37.9018860,0
            -122.5155150,37.9021370,0
            -122.5152390,37.9056280,0
            -122.5111870,37.9164210,0
            -122.5110310,37.9179450,0
            -122.5112820,37.9196560,0
            -122.5152320,37.9280280,0
            -122.5166650,37.9356510,0
            -122.5166530,37.9374570,0
            -122.5159070,37.9404190,0
            -122.5157680,37.9405040,0
            -122.5143660,37.9444520,0
            -122.5103670,37.9463500,0
            -122.5094950,37.9464840,0
            -122.5087080,37.9462380,0
            -122.5063980,37.9444610,0
            -122.5023930,37.9440350,0
            -122.5020510,37.9438150,0
            -122.5012930,37.9426920,0
            -122.4998230,37.9422230,0
            -122.4991640,37.9422520,0
            -122.4984770,37.9425000,0
            -122.4980690,37.9428920,0
            -122.4975220,37.9440060,0
            -122.4968050,37.9445980,0
            -122.4947230,37.9453140,0
            -122.4936850,37.9460640,0
            -122.4926030,37.9463910,0
            -122.4920010,37.9463450,0
            -122.4889850,37.9450160,0
            -122.4872300,37.9447660,0
            -122.4837760,37.9448400,0
            -122.4823680,37.9445040,0
            -122.4794000,37.9429350,0
            -122.4685290,37.9406550,0
            -122.4520220,37.9358440,0
            -122.4026050,37.9319450,0
            -122.3992150,37.9319970,0
            -122.3972510,37.9324880,0
            -122.3954790,37.9325450,0
            -122.3945230,37.9323660,0
            -122.3876310,37.9294160,0
            -122.3804670,37.9273300,0
            -122.3673070,37.9268570,0
            -122.3642320,37.9255760,0
            -122.3639150,37.9245520,0
            -122.3615890,37.9228410,0
            -122.3609480,37.9226320,0
            -122.3601470,37.9226030,0
            -122.3595150,37.9122020,0
            -122.3572400,37.9121840,0
            -122.3572380,37.9099880,0
            -122.3573170,37.9099840,0
          </coordinates>
        </LineString>
      </Placemark>
      <Placemark>
        <name>Rosie the Riveter National Historical Park</name>
        <styleUrl>#icon-1535-0288D1</styleUrl>
        <ExtendedData>
          <Data name="Category">
            <value>Historical place</value>
          </Data>
          <Data name="Distance">
            <value>0</value>
          </Data>
        </ExtendedData>
        <Point>
          <coordinates>
            -122.357222,37.909708,0
          </coordinates>
        </Point>
      </Placemark>
      <Placemark>
        <name>07-04 Driving</name>
        <styleUrl>#line-5C86C6-5000</styleUrl>
        <ExtendedData>
          <Data name="Category">
            <value>Driving</value>
          </Data>
          <Data name="Distance">
            <value>32742</value>
          </Data>
        </ExtendedData>
        <LineString>
          <tessellate>1</tessellate>
          <coordinates>
            -122.3572410,37.9111780,0
            -122.3572400,37.9121840,0
            -122.3572770,37.9122050,0
            -122.3595150,37.9122020,0
            -122.3601190,37.9170630,0
            -122.3600070,37.9225360,0
            -122.3592090,37.9225400,0
            -122.3577030,37.9222510,0
            -122.3574900,37.9222880,0
            -122.3560110,37.9219080,0
            -122.3533690,37.9216510,0
            -122.3465080,37.9217420,0
            -122.3367910,37.9212940,0
            -122.3347740,37.9208210,0
            -122.3321640,37.9195830,0
            -122.3285870,37.9169250,0
            -122.3262060,37.9146430,0
            -122.3262160,37.9145540,0
            -122.3252320,37.9131280,0
            -122.3252980,37.9125890,0
            -122.3254830,37.9123930,0
            -122.3262230,37.9120000,0
            -122.3267510,37.9119320,0
            -122.3265960,37.9112530,0
            -122.3264390,37.9110970,0
            -122.3260440,37.9109340,0
            -122.3256330,37.9109530,0
            -122.3254130,37.9110350,0
            -122.3240990,37.9119530,0
            -122.3237560,37.9123880,0
            -122.3235290,37.9129930,0
            -122.3235380,37.9137190,0
            -122.3232450,37.9139510,0
            -122.3167780,37.9105840,0
            -122.3172420,37.9133880,0
            -122.3173550,37.9134940,0
            -122.3173630,37.9190170,0
            -122.3176750,37.9206300,0
            -122.3181760,37.9217130,0
            -122.3263540,37.9333370,0
            -122.3267810,37.9346090,0
            -122.3266480,37.9360110,0
            -122.3237570,37.9420620,0
            -122.3236760,37.9432270,0
            -122.3239200,37.9443340,0
            -122.3302920,37.9569330,0
            -122.3305810,37.9579760,0
            -122.3305490,37.9595280,0
            -122.3298280,37.9612750,0
            -122.3287580,37.9625000,0
            -122.3282070,37.9629330,0
            -122.3230300,37.9657690,0
            -122.3220310,37.9666180,0
            -122.3210930,37.9680730,0
            -122.3155760,37.9844560,0
            -122.3148920,37.9859080,0
            -122.3136940,37.9876760,0
            -122.3120930,37.9893120,0
            -122.3103840,37.9905830,0
            -122.3085020,37.9916290,0
            -122.3061230,37.9925260,0
            -122.3040990,37.9929960,0
            -122.2908370,37.9948860,0
            -122.2892070,37.9953540,0
            -122.2877800,37.9959710,0
            -122.2863070,37.9968990,0
            -122.2855140,37.9975700,0
            -122.2717070,38.0124220,0
            -122.2715560,38.0124320,0
            -122.2697820,38.0140610,0
            -122.2691070,38.0143750,0
            -122.2684280,38.0145070,0
            -122.2671380,38.0143960,0
            -122.2627810,38.0133240,0
            -122.2595220,38.0132480,0
            -122.2474690,38.0150110,0
            -122.2457780,38.0151120,0
            -122.2402040,38.0144340,0
            -122.2364230,38.0132810,0
            -122.2321030,38.0110540,0
            -122.2291330,38.0101860,0
            -122.2244890,38.0083040,0
            -122.2219890,38.0078450,0
            -122.2197540,38.0078380,0
            -122.2179970,38.0074590,0
            -122.2141010,38.0071470,0
            -122.2061450,38.0086130,0
            -122.2045230,38.0091300,0
            -122.1912280,38.0151550,0
            -122.1889420,38.0159010,0
            -122.1874620,38.0161490,0
            -122.1861970,38.0161540,0
            -122.1801150,38.0155870,0
            -122.1787670,38.0153070,0
            -122.1777270,38.0149070,0
            -122.1768020,38.0143890,0
            -122.1663720,38.0067320,0
            -122.1654790,38.0062970,0
            -122.1642160,38.0058950,0
            -122.1572630,38.0052680,0
            -122.1557760,38.0047980,0
            -122.1480980,38.0003720,0
            -122.1474630,37.9998850,0
            -122.1466460,37.9989780,0
            -122.1432330,37.9925190,0
            -122.1422960,37.9913770,0
            -122.1412710,37.9905930,0
            -122.1402780,37.9900750,0
            -122.1388150,37.9895970,0
            -122.1370150,37.9893870,0
            -122.1360470,37.9894260,0
            -122.1325840,37.9899910,0
          </coordinates>
        </LineString>
      </Placemark>
      <Placemark>
        <name>John Muir National Historic Site</name>
        <styleUrl>#icon-1535-0288D1</styleUrl>
        <ExtendedData>
          <Data name="Category">
            <value>Historical place</value>
          </Data>
          <Data name="Distance">
            <value>0</value>
          </Data>
        </ExtendedData>
        <Point>
          <coordinates>
            -122.131068,37.992166,0
          </coordinates>
        </Point>
      </Placemark>
    </Folder>
  </Document>
</kml>