<?xml version="1.0" encoding="UTF-8"?>
<kml xmlns="http://www.opengis.net/kml/2.2">
  <Document>
    <name>57b-bay-area</name>
    <description/>
    <Style id="icon-1535-0288D1-normal">
      <IconStyle>
        <color>ffd18802</color>
        <scale>1</scale>
        <Icon>
          <href>https://www.gstatic.com/mapspro/images/stock/503-wht-blank_maps.png</href>
        </Icon>
      </IconStyle>
      <LabelStyle>
        <scale>0</scale>
      </LabelStyle>
    </Style>
    <Style id="icon-1535-0288D1-highlight">
      <IconStyle>
        <color>ffd18802</color>
        <scale>1</scale>
        <Icon>
          <href>https://www.gstatic.com/mapspro/images/stock/503-wht-blank_maps.png</href>
        </Icon>
      </IconStyle>
      <LabelStyle>
        <scale>1</scale>
      </LabelStyle>
    </Style>
    <StyleMap id="icon-1535-0288D1">
      <Pair>
        <key>normal</key>
        <styleUrl>#icon-1535-0288D1-normal</styleUrl>
      </Pair>
      <Pair>
        <key>highlight</key>
        <styleUrl>#icon-1535-0288D1-highlight</styleUrl>
      </Pair>
    </StyleMap>
    <Style id="icon-1603-0288D1-normal">
      <IconStyle>
        <color>ffd18802</color>
        <scale>1</scale>
        <Icon>
          <href>https://www.gstatic.com/mapspro/images/stock/503-wht-blank_maps.png</href>
        </Icon>
      </IconStyle>
      <LabelStyle>
        <scale>0</scale>
      </LabelStyle>
    </Style>
    <Style id="icon-1603-0288D1-highlight">
      <IconStyle>
        <color>ffd18802</color>
        <scale>1</scale>
        <Icon>
          <href>https://www.gstatic.com/mapspro/images/stock/503-wht-blank_maps.png</href>
        </Icon>
      </IconStyle>
      <LabelStyle>
        <scale>1</scale>
      </LabelStyle>
    </Style>
    <StyleMap id="icon-1603-0288D1">
      <Pair>
        <key>normal</key>
        <styleUrl>#icon-1603-0288D1-normal</styleUrl>
      </Pair>
      <Pair>
        <key>highlight</key>
        <styleUrl>#icon-1603-0288D1-highlight</styleUrl>
      </Pair>
    </StyleMap>
    <Style id="line-55B8B8-5000-normal">
      <LineStyle>
        <color>ffb8b855</color>
        <width>5</width>
      </LineStyle>
    </Style>
    <Style id="line-55B8B8-5000-highlight">
      <LineStyle>
        <color>ffb8b855</color>
        <width>7.5</width>
      </LineStyle>
    </Style>
    <StyleMap id="line-55B8B8-5000">
      <Pair>
        <key>normal</key>
        <styleUrl>#line-55B8B8-5000-normal</styleUrl>
      </Pair>
      <Pair>
        <key>highlight</key>
        <styleUrl>#line-55B8B8-5000-highlight</styleUrl>
      </Pair>
    </StyleMap>
    <Style id="line-5C86C6-5000-normal">
      <LineStyle>
        <color>ffc6865c</color>
        <width>5</width>
      </LineStyle>
    </Style>
    <Style id="line-5C86C6-5000-highlight">
      <LineStyle>
        <color>ffc6865c</color>
        <width>7.5</width>
      </LineStyle>
    </Style>
    <StyleMap id="line-5C86C6-5000">
      <Pair>
        <key>normal</key>
        <styleUrl>#line-5C86C6-5000-normal</styleUrl>
      </Pair>
      <Pair>
        <key>highlight</key>
        <styleUrl>#line-5C86C6-5000-highlight</styleUrl>
      </Pair>
    </StyleMap>
    <Style id="line-70B866-5000-normal">
      <LineStyle>
        <color>ff66b870</color>
        <width>5</width>
      </LineStyle>
    </Style>
    <Style id="line-70B866-5000-highlight">
      <LineStyle>
        <color>ff66b870</color>
        <width>7.5</width>
      </LineStyle>
    </Style>
    <StyleMap id="line-70B866-5000">
      <Pair>
        <key>normal</key>
        <styleUrl>#line-70B866-5000-normal</styleUrl>
      </Pair>
      <Pair>
        <key>highlight</key>
        <styleUrl>#line-70B866-5000-highlight</styleUrl>
      </Pair>
    </StyleMap>
    <Style id="line-965CB8-5000-normal">
      <LineStyle>
        <color>ffb85c96</color>
        <width>5</width>
      </LineStyle>
    </Style>
    <Style id="line-965CB8-5000-highlight">
      <LineStyle>
        <color>ffb85c96</color>
        <width>7.5</width>
      </LineStyle>
    </Style>
    <StyleMap id="line-965CB8-5000">
      <Pair>
        <key>normal</key>
        <styleUrl>#line-965CB8-5000-normal</styleUrl>
      </Pair>
      <Pair>
        <key>highlight</key>
        <styleUrl>#line-965CB8-5000-highlight</styleUrl>
      </Pair>
    </StyleMap>
    <Style id="line-E05A5A-5000-normal">
      <LineStyle>
        <color>ff5a5ae0</color>
        <width>5</width>
      </LineStyle>
    </Style>
    <Style id="line-E05A5A-5000-highlight">
      <LineStyle>
        <color>ff5a5ae0</color>
        <width>7.5</width>
      </LineStyle>
    </Style>
    <StyleMap id="line-E05A5A-5000">
      <Pair>
        <key>normal</key>
        <styleUrl>#line-E05A5A-5000-normal</styleUrl>
      </Pair>
      <Pair>
        <key>highlight</key>
        <styleUrl>#line-E05A5A-5000-highlight</styleUrl>
      </Pair>
    </StyleMap>
    <Style id="line-E0CB55-5000-normal">
      <LineStyle>
        <color>ff55cbe0</color>
        <width>5</width>
      </LineStyle>
    </Style>
    <Style id="line-E0CB55-5000-highlight">
      <LineStyle>
        <color>ff55cbe0</color>
        <width>7.5</width>
      </LineStyle>
    </Style>
    <StyleMap id="line-E0CB55-5000">
      <Pair>
        <key>normal</key>
        <styleUrl>#line-E0CB55-5000-normal</styleUrl>
      </Pair>
      <Pair>
        <key>highlight</key>
        <styleUrl>#line-E0CB55-5000-highlight</styleUrl>
      </Pair>
    </StyleMap>
    <Style id="line-E79A4F-5000-normal">
      <LineStyle>
        <color>ff4f9ae7</color>
        <width>5</width>
      </LineStyle>
    </Style>
    <Style id="line-E79A4F-5000-highlight">
      <LineStyle>
        <color>ff4f9ae7</color>
        <width>7.5</width>
      </LineStyle>
    </Style>
    <StyleMap id="line-E79A4F-5000">
      <Pair>
        <key>normal</key>
        <styleUrl>#line-E79A4F-5000-normal</styleUrl>
      </Pair>
      <Pair>
        <key>highlight</key>
        <styleUrl>#line-E79A4F-5000-highlight</styleUrl>
      </Pair>
    </StyleMap>
    <Folder>
      <name>Overlay</name>
      <Placemark>
        <name>07-04 Driving</name>
        <description><![CDATA[description: Driving from 2021-07-04T23:34:20.999Z to 2021-07-05T00:21:21.000Z. Distance 79025m<br>Email: syugen.zhou@gmail.com<br>Category: Driving<br>Distance: 79025]]></description>
        <styleUrl>#line-965CB8-5000</styleUrl>
        <ExtendedData>
          <Data name="description">
            <value>Driving from 2021-07-04T23:34:20.999Z to 2021-07-05T00:21:21.000Z. Distance 79025m</value>
          </Data>
          <Data name="Email">
            <value>syugen.zhou@gmail.com</value>
          </Data>
          <Data name="Category">
            <value>Driving</value>
          </Data>
          <Data name="Distance">
            <value>79025</value>
          </Data>
        </ExtendedData>
        <LineString>
          <tessellate>1</tessellate>
          <coordinates>
            -122.130435,37.991531,0
            -122.130319,37.991222,0
            -122.130627,37.990846,0
            -122.133981,37.990025,0
            -122.134083,37.989952,0
            -122.135926,37.989631,0
            -122.137065,37.989594,0
            -122.138361,37.989718,0
            -122.13951,37.990009,0
            -122.140853,37.990601,0
            -122.142121,37.991529,0
            -122.142888,37.992434,0
            -122.146283,37.998837,0
            -122.146729,37.999446,0
            -122.147636,38.0003,0
            -122.154916,38.004596,0
            -122.156095,38.005139,0
            -122.157023,38.005413,0
            -122.158341,38.00562,0
            -122.163167,38.00591,0
            -122.164479,38.006161,0
            -122.166111,38.006819,0
            -122.176924,38.014707,0
            -122.178703,38.015491,0
            -122.179682,38.015719,0
            -122.186572,38.016364,0
            -122.188522,38.016199,0
            -122.191624,38.015234,0
            -122.206515,38.009059,0
            -122.208959,38.008485,0
            -122.211371,38.008267,0
            -122.217894,38.008268,0
            -122.220562,38.00853,0
            -122.228641,38.010247,0
            -122.23274,38.01165,0
            -122.237088,38.013733,0
            -122.238402,38.014162,0
            -122.241427,38.014827,0
            -122.24506,38.015279,0
            -122.247577,38.015209,0
            -122.25942,38.013479,0
            -122.26126,38.01347,0
            -122.263602,38.013716,0
            -122.268606,38.015071,0
            -122.269061,38.015078,0
            -122.269643,38.014933,0
            -122.270243,38.014578,0
            -122.275192,38.009066,0
            -122.275167,38.008964,0
            -122.285719,37.997612,0
            -122.287084,37.996562,0
            -122.288524,37.995792,0
            -122.289922,37.995281,0
            -122.291263,37.994961,0
            -122.304327,37.993115,0
            -122.306356,37.992622,0
            -122.307995,37.992022,0
            -122.309721,37.991189,0
            -122.312274,37.98954,0
            -122.313667,37.988294,0
            -122.314502,37.987335,0
            -122.315401,37.985977,0
            -122.316029,37.984614,0
            -122.316794,37.981545,0
            -122.321384,37.967884,0
            -122.322144,37.966752,0
            -122.323448,37.965696,0
            -122.327836,37.963378,0
            -122.328707,37.962787,0
            -122.329616,37.961895,0
            -122.330128,37.961194,0
            -122.330691,37.959853,0
            -122.330835,37.958946,0
            -122.330629,37.957314,0
            -122.324023,37.94403,0
            -122.323873,37.942597,0
            -122.324146,37.94146,0
            -122.3269,37.935807,0
            -122.326983,37.934664,0
            -122.326834,37.933964,0
            -122.326412,37.933085,0
            -122.318361,37.921674,0
            -122.317761,37.920299,0
            -122.317557,37.91913,0
            -122.317489,37.911308,0
            -122.316808,37.909549,0
            -122.309984,37.899406,0
            -122.307735,37.893922,0
            -122.307526,37.89285,0
            -122.307591,37.891952,0
            -122.30905,37.888597,0
            -122.309338,37.887014,0
            -122.307564,37.878675,0
            -122.299822,37.852239,0
            -122.296544,37.837343,0
            -122.294496,37.832872,0
            -122.294047,37.830279,0
            -122.294255,37.829206,0
            -122.294841,37.828389,0
            -122.295491,37.827902,0
            -122.296018,37.827649,0
            -122.300633,37.826405,0
            -122.304834,37.825555,0
            -122.31381,37.824802,0
            -122.317888,37.824048,0
            -122.321601,37.822831,0
            -122.323246,37.822554,0
            -122.330214,37.821976,0
            -122.351038,37.81898,0
            -122.35368,37.818152,0
            -122.361522,37.813658,0
            -122.390795,37.786167,0
            -122.393204,37.784796,0
            -122.402911,37.777465,0
            -122.405379,37.775948,0
            -122.405968,37.775463,0
            -122.40636,37.774951,0
            -122.406701,37.77426,0
            -122.406833,37.773125,0
            -122.406567,37.771909,0
            -122.405745,37.770221,0
            -122.405116,37.764112,0
            -122.405393,37.763,0
            -122.406292,37.761423,0
            -122.406479,37.760737,0
            -122.406481,37.760238,0
            -122.406241,37.759432,0
            -122.405629,37.758633,0
            -122.404069,37.757419,0
            -122.403719,37.757008,0
            -122.403378,37.756282,0
            -122.403019,37.752887,0
            -122.403227,37.751264,0
            -122.405487,37.744503,0
            -122.407593,37.741663,0
            -122.408,37.740631,0
            -122.408215,37.73917,0
            -122.40783,37.737072,0
            -122.404205,37.730549,0
            -122.400102,37.720408,0
            -122.398946,37.716349,0
            -122.39855,37.715572,0
            -122.396642,37.713136,0
            -122.396087,37.712136,0
            -122.388545,37.679156,0
            -122.388597,37.677103,0
            -122.388825,37.676189,0
            -122.390135,37.673423,0
            -122.39252,37.670194,0
            -122.397142,37.665412,0
            -122.398522,37.664271,0
            -122.403318,37.661116,0
            -122.404265,37.660289,0
            -122.404945,37.659459,0
            -122.406567,37.656408,0
            -122.406952,37.655288,0
            -122.407154,37.653566,0
            -122.406142,37.641741,0
            -122.405698,37.639838,0
            -122.403631,37.63537,0
            -122.403194,37.63382,0
            -122.402475,37.62824,0
            -122.398634,37.616513,0
            -122.39812,37.615418,0
            -122.397145,37.613977,0
            -122.395799,37.612575,0
            -122.394698,37.611698,0
            -122.359191,37.588696,0
            -122.356123,37.587593,0
            -122.354337,37.587257,0
            -122.333267,37.586554,0
            -122.332146,37.586327,0
            -122.330489,37.585637,0
            -122.329553,37.584989,0
            -122.30175,37.559217,0
            -122.300502,37.557603,0
            -122.300469,37.557485,0
            -122.298352,37.554696,0
            -122.298271,37.554473,0
            -122.298266,37.554063,0
            -122.29855,37.553524,0
            -122.298872,37.553267,0
            -122.299258,37.553103,0
            -122.30048,37.552833,0
            -122.3045,37.55266,0
            -122.306363,37.552826,0
            -122.306558,37.552953,0
            -122.307084,37.553657,0
          </coordinates>
        </LineString>
      </Placemark>
    </Folder>
    <Folder>
      <name>Location history from 2021-07-04 to 2021-07-04</name>
      <Placemark>
        <name>Station Park Green Apartments</name>
        <description><![CDATA[description: Apartment complex from 2021-07-04T00:18:51.354Z to 2021-07-04T16:31:18.000Z. Distance 0m<br>Email: syugen.zhou@gmail.com<br>Category: Apartment complex<br>Distance: 0]]></description>
        <styleUrl>#icon-1603-0288D1</styleUrl>
        <ExtendedData>
          <Data name="description">
            <value>Apartment complex from 2021-07-04T00:18:51.354Z to 2021-07-04T16:31:18.000Z. Distance 0m</value>
          </Data>
          <Data name="Email">
            <value>syugen.zhou@gmail.com</value>
          </Data>
          <Data name="Category">
            <value>Apartment complex</value>
          </Data>
          <Data name="Distance">
            <value>0</value>
          </Data>
        </ExtendedData>
        <Point>
          <coordinates>
            -122.307359,37.554423,0
          </coordinates>
        </Point>
      </Placemark>
      <Placemark>
        <name>07-04 Driving</name>
        <description><![CDATA[description: Driving from 2021-07-04T16:31:18.000Z to 2021-07-04T17:00:05.000Z. Distance 35688m<br>Email: syugen.zhou@gmail.com<br>Category: Driving<br>Distance: 35688]]></description>
        <styleUrl>#line-E05A5A-5000</styleUrl>
        <ExtendedData>
          <Data name="description">
            <value>Driving from 2021-07-04T16:31:18.000Z to 2021-07-04T17:00:05.000Z. Distance 35688m</value>
          </Data>
          <Data name="Email">
            <value>syugen.zhou@gmail.com</value>
          </Data>
          <Data name="Category">
            <value>Driving</value>
          </Data>
          <Data name="Distance">
            <value>35688</value>
          </Data>
        </ExtendedData>
        <LineString>
          <tessellate>1</tessellate>
          <coordinates>
            -122.305626,37.55365,0
            -122.305358,37.552828,0
            -122.305262,37.552143,0
            -122.304808,37.552239,0
            -122.302674,37.552422,0
            -122.302447,37.552478,0
            -122.298312,37.55268,0
            -122.296823,37.552865,0
            -122.296712,37.55285,0
            -122.294263,37.55307,0
            -122.2941,37.553027,0
            -122.293898,37.552855,0
            -122.293847,37.552683,0
            -122.293886,37.552527,0
            -122.294011,37.552387,0
            -122.294211,37.552303,0
            -122.294488,37.552306,0
            -122.294598,37.55234,0
            -122.294961,37.552567,0
            -122.297316,37.554871,0
            -122.297586,37.555056,0
            -122.303062,37.560977,0
            -122.329614,37.58533,0
            -122.330889,37.586092,0
            -122.332503,37.586633,0
            -122.333458,37.586789,0
            -122.353265,37.587336,0
            -122.354818,37.587516,0
            -122.356259,37.587828,0
            -122.358069,37.588424,0
            -122.359978,37.589361,0
            -122.394784,37.612106,0
            -122.396529,37.613718,0
            -122.397412,37.614846,0
            -122.398225,37.616337,0
            -122.402142,37.628168,0
            -122.402739,37.633092,0
            -122.403094,37.634723,0
            -122.403552,37.636023,0
            -122.405069,37.639064,0
            -122.405507,37.640258,0
            -122.405885,37.642075,0
            -122.406917,37.653914,0
            -122.406593,37.655771,0
            -122.405179,37.65873,0
            -122.404631,37.659575,0
            -122.403996,37.660301,0
            -122.403174,37.661004,0
            -122.39782,37.664567,0
            -122.396715,37.665559,0
            -122.392265,37.670197,0
            -122.391129,37.671565,0
            -122.389848,37.673536,0
            -122.388727,37.67587,0
            -122.388395,37.677033,0
            -122.388277,37.678469,0
            -122.388368,37.679396,0
            -122.395594,37.711612,0
            -122.395833,37.712217,0
            -122.39656,37.713427,0
            -122.398416,37.715821,0
            -122.398783,37.716608,0
            -122.400191,37.721385,0
            -122.403101,37.728927,0
            -122.407593,37.736873,0
            -122.407941,37.738074,0
            -122.408028,37.739207,0
            -122.407944,37.740023,0
            -122.407653,37.740993,0
            -122.40727,37.741812,0
            -122.405403,37.74423,0
            -122.404986,37.745103,0
            -122.403034,37.751257,0
            -122.40286,37.752161,0
            -122.402831,37.752935,0
            -122.403123,37.755975,0
            -122.403298,37.756616,0
            -122.403802,37.757394,0
            -122.405615,37.758857,0
            -122.406125,37.759619,0
            -122.406295,37.760257,0
            -122.406296,37.760677,0
            -122.406097,37.761411,0
            -122.405268,37.762827,0
            -122.405001,37.763602,0
            -122.404864,37.765471,0
            -122.40495,37.765556,0
            -122.405214,37.767444,0
            -122.405461,37.767888,0
            -122.406889,37.769017,0
            -122.407969,37.769716,0
            -122.408363,37.76988,0
            -122.40858,37.769913,0
            -122.408822,37.769893,0
            -122.409027,37.769829,0
            -122.40965,37.769478,0
            -122.409921,37.769412,0
            -122.41656,37.769698,0
            -122.419263,37.770075,0
            -122.420767,37.770156,0
            -122.421342,37.77027,0
            -122.421947,37.770504,0
            -122.422671,37.770987,0
            -122.423344,37.77188,0
            -122.421546,37.773321,0
            -122.421528,37.773374,0
            -122.42075,37.77401,0
            -122.420738,37.77405,0
            -122.426406,37.802084,0
            -122.423104,37.8025,0
            -122.423856,37.806227,0
            -122.42247,37.806413,0
          </coordinates>
        </LineString>
      </Placemark>
      <Placemark>
        <name>San Francisco Maritime National Historical Park</name>
        <description><![CDATA[description: National park from 2021-07-04T17:00:05.000Z to 2021-07-04T17:02:10.000Z. Distance 0m<br>Email: syugen.zhou@gmail.com<br>Category: National park<br>Distance: 0]]></description>
        <styleUrl>#icon-1535-0288D1</styleUrl>
        <ExtendedData>
          <Data name="description">
            <value>National park from 2021-07-04T17:00:05.000Z to 2021-07-04T17:02:10.000Z. Distance 0m</value>
          </Data>
          <Data name="Email">
            <value>syugen.zhou@gmail.com</value>
          </Data>
          <Data name="Category">
            <value>National park</value>
          </Data>
          <Data name="Distance">
            <value>0</value>
          </Data>
        </ExtendedData>
        <Point>
          <coordinates>
            -122.42415,37.807743,0
          </coordinates>
        </Point>
      </Placemark>
      <Placemark>
        <name>07-04 Driving</name>
        <description><![CDATA[description: Driving from 2021-07-04T17:50:25.000Z to 2021-07-04T18:07:32.000Z. Distance 6280m<br>Email: syugen.zhou@gmail.com<br>Category: Driving<br>Distance: 6280]]></description>
        <styleUrl>#line-E79A4F-5000</styleUrl>
        <ExtendedData>
          <Data name="description">
            <value>Driving from 2021-07-04T17:50:25.000Z to 2021-07-04T18:07:32.000Z. Distance 6280m</value>
          </Data>
          <Data name="Email">
            <value>syugen.zhou@gmail.com</value>
          </Data>
          <Data name="Category">
            <value>Driving</value>
          </Data>
          <Data name="Distance">
            <value>6280</value>
          </Data>
        </ExtendedData>
        <LineString>
          <tessellate>1</tessellate>
          <coordinates>
            -122.42303,37.806336,0
            -122.422539,37.8064,0
            -122.422226,37.806461,0
            -122.420811,37.806646,0
            -122.420571,37.806661,0
            -122.419573,37.806796,0
            -122.4195,37.806732,0
            -122.418823,37.806264,0
            -122.418745,37.805945,0
            -122.42204,37.805513,0
            -122.421848,37.804578,0
            -122.428421,37.803745,0
            -122.427857,37.800948,0
            -122.444302,37.798849,0
            -122.444356,37.798857,0
            -122.444479,37.798848,0
            -122.44466,37.798858,0
            -122.444724,37.79887,0
            -122.444907,37.798928,0
            -122.445013,37.798976,0
            -122.44923,37.80189,0
            -122.450341,37.802894,0
            -122.450424,37.802953,0
            -122.450795,37.803157,0
            -122.451005,37.803246,0
            -122.451429,37.803372,0
            -122.451592,37.803404,0
            -122.452097,37.803464,0
            -122.452543,37.803482,0
            -122.452863,37.803474,0
            -122.454884,37.803246,0
            -122.456684,37.802968,0
            -122.457352,37.802815,0
            -122.460343,37.80193,0
            -122.461021,37.801796,0
            -122.461535,37.801739,0
            -122.461931,37.801721,0
            -122.462634,37.801743,0
            -122.463112,37.801809,0
            -122.468231,37.802866,0
            -122.469501,37.803202,0
            -122.470518,37.803594,0
            -122.471583,37.804103,0
            -122.472249,37.804489,0
            -122.472743,37.804827,0
            -122.472777,37.804869,0
            -122.472784,37.804908,0
            -122.473113,37.805136,0
            -122.474343,37.806239,0
            -122.474676,37.806589,0
            -122.474559,37.806795,0
            -122.474546,37.806842,0
            -122.474525,37.806865,0
            -122.474502,37.806878,0
            -122.474408,37.8069,0
            -122.474148,37.807021,0
            -122.474023,37.807034,0
            -122.473902,37.807025,0
            -122.47384,37.807011,0
            -122.473744,37.806939,0
            -122.473537,37.806715,0
            -122.473371,37.806742,0
            -122.472662,37.806907,0
            -122.472572,37.806918,0
            -122.472405,37.806915,0
            -122.472349,37.806905,0
            -122.472204,37.80685,0
            -122.471375,37.806365,0
            -122.470499,37.806086,0
            -122.470306,37.806006,0
            -122.470173,37.805924,0
            -122.470111,37.805875,0
            -122.469991,37.805939,0
            -122.46996,37.805982,0
            -122.46994,37.806076,0
            -122.469984,37.806274,0
            -122.47003,37.806385,0
            -122.470175,37.806553,0
            -122.470561,37.806822,0
            -122.470802,37.807054,0
            -122.470923,37.807193,0
            -122.470971,37.807298,0
            -122.471083,37.807681,0
            -122.471143,37.808047,0
            -122.471193,37.808167,0
            -122.471333,37.808384,0
            -122.471543,37.808547,0
            -122.471676,37.808628,0
            -122.472128,37.808802,0
            -122.472698,37.808918,0
            -122.473478,37.808994,0
            -122.474118,37.808992,0
            -122.474883,37.809072,0
            -122.475694,37.809278,0
            -122.476063,37.809433,0
            -122.476139,37.809489,0
            -122.476164,37.809521,0
            -122.476444,37.810065,0
            -122.476438,37.810182,0
            -122.476456,37.810257,0
          </coordinates>
        </LineString>
      </Placemark>
      <Placemark>
        <name>Fort Point National Historic Site</name>
        <description><![CDATA[description: Historical place from 2021-07-04T18:07:32.000Z to 2021-07-04T18:28:03.000Z. Distance 0m<br>Email: syugen.zhou@gmail.com<br>Category: Historical place<br>Distance: 0]]></description>
        <styleUrl>#icon-1535-0288D1</styleUrl>
        <ExtendedData>
          <Data name="description">
            <value>Historical place from 2021-07-04T18:07:32.000Z to 2021-07-04T18:28:03.000Z. Distance 0m</value>
          </Data>
          <Data name="Email">
            <value>syugen.zhou@gmail.com</value>
          </Data>
          <Data name="Category">
            <value>Historical place</value>
          </Data>
          <Data name="Distance">
            <value>0</value>
          </Data>
        </ExtendedData>
        <Point>
          <coordinates>
            -122.47709,37.810612,0
          </coordinates>
        </Point>
      </Placemark>
      <Placemark>
        <name>07-04 Driving</name>
        <description><![CDATA[description: Driving from 2021-07-04T18:28:03.999Z to 2021-07-04T18:41:33.999Z. Distance 11444m<br>Email: syugen.zhou@gmail.com<br>Category: Driving<br>Distance: 11444]]></description>
        <styleUrl>#line-E0CB55-5000</styleUrl>
        <ExtendedData>
          <Data name="description">
            <value>Driving from 2021-07-04T18:28:03.999Z to 2021-07-04T18:41:33.999Z. Distance 11444m</value>
          </Data>
          <Data name="Email">
            <value>syugen.zhou@gmail.com</value>
          </Data>
          <Data name="Category">
            <value>Driving</value>
          </Data>
          <Data name="Distance">
            <value>11444</value>
          </Data>
        </ExtendedData>
        <LineString>
          <tessellate>1</tessellate>
          <coordinates>
            -122.475471,37.80922,0
            -122.474883,37.809072,0
            -122.474118,37.808992,0
            -122.473478,37.808994,0
            -122.472698,37.808918,0
            -122.472128,37.808802,0
            -122.471676,37.808628,0
            -122.471333,37.808384,0
            -122.471143,37.808047,0
            -122.470923,37.807193,0
            -122.470561,37.806822,0
            -122.470175,37.806553,0
            -122.47003,37.806385,0
            -122.46994,37.806076,0
            -122.46996,37.805982,0
            -122.469991,37.805939,0
            -122.470111,37.805875,0
            -122.470306,37.806006,0
            -122.471375,37.806365,0
            -122.472204,37.80685,0
            -122.472349,37.806905,0
            -122.472572,37.806918,0
            -122.473371,37.806742,0
            -122.47391,37.807219,0
            -122.474581,37.806868,0
            -122.474691,37.806847,0
            -122.474919,37.806873,0
            -122.475491,37.807447,0
            -122.476321,37.808008,0
            -122.476728,37.808386,0
            -122.476974,37.808703,0
            -122.47728,37.809399,0
            -122.479887,37.831095,0
            -122.480122,37.831609,0
            -122.480362,37.83196,0
            -122.480701,37.832319,0
            -122.481151,37.832679,0
            -122.482796,37.833581,0
            -122.483404,37.834036,0
            -122.484022,37.834718,0
            -122.486448,37.838453,0
            -122.486644,37.838872,0
            -122.486753,37.839478,0
            -122.486666,37.84009,0
            -122.486427,37.840616,0
            -122.485644,37.841765,0
            -122.485496,37.842208,0
            -122.485447,37.842593,0
            -122.485475,37.842927,0
            -122.4863,37.846109,0
            -122.486532,37.846594,0
            -122.486758,37.846894,0
            -122.487174,37.847279,0
            -122.488852,37.848483,0
            -122.489317,37.849109,0
            -122.489842,37.850714,0
            -122.490095,37.851113,0
            -122.490516,37.851563,0
            -122.491942,37.852538,0
            -122.492436,37.852975,0
            -122.492703,37.853321,0
            -122.493638,37.855251,0
            -122.493871,37.855576,0
            -122.494301,37.855993,0
            -122.494911,37.856378,0
            -122.49564,37.856655,0
            -122.497812,37.857165,0
            -122.498378,37.857408,0
            -122.499013,37.857817,0
            -122.500776,37.859626,0
            -122.50161,37.860246,0
            -122.504532,37.861724,0
            -122.505331,37.862329,0
            -122.505805,37.862803,0
            -122.506542,37.86388,0
            -122.506849,37.86466,0
            -122.506993,37.865339,0
            -122.507094,37.871208,0
            -122.507276,37.872196,0
            -122.507462,37.872708,0
            -122.507912,37.873539,0
            -122.508429,37.874195,0
            -122.508834,37.874597,0
            -122.512117,37.877124,0
            -122.514738,37.878618,0
            -122.515415,37.879176,0
            -122.516009,37.879943,0
            -122.516407,37.880832,0
            -122.516553,37.881682,0
            -122.51661,37.886566,0
            -122.516533,37.886673,0
            -122.516405,37.888348,0
            -122.516325,37.88845,0
            -122.515987,37.888564,0
            -122.516026,37.888887,0
            -122.516344,37.889691,0
            -122.516354,37.890301,0
            -122.51593,37.890294,0
            -122.515894,37.890322,0
            -122.515873,37.890549,0
          </coordinates>
        </LineString>
      </Placemark>
      <Placemark>
        <name>07-04 Driving</name>
        <description><![CDATA[description: Driving from 2021-07-04T19:06:48.000Z to 2021-07-04T19:52:53.000Z. Distance 37610m<br>Email: syugen.zhou@gmail.com<br>Category: Driving<br>Distance: 37610]]></description>
        <styleUrl>#line-E0CB55-5000</styleUrl>
        <ExtendedData>
          <Data name="description">
            <value>Driving from 2021-07-04T19:06:48.000Z to 2021-07-04T19:52:53.000Z. Distance 37610m</value>
          </Data>
          <Data name="Email">
            <value>syugen.zhou@gmail.com</value>
          </Data>
          <Data name="Category">
            <value>Driving</value>
          </Data>
          <Data name="Distance">
            <value>37610</value>
          </Data>
        </ExtendedData>
        <LineString>
          <tessellate>1</tessellate>
          <coordinates>
            -122.516275,37.891239,0
            -122.516344,37.889691,0
            -122.515997,37.8887,0
            -122.51637,37.888713,0
            -122.51647,37.888813,0
            -122.516513,37.889946,0
            -122.516588,37.890042,0
            -122.515239,37.905628,0
            -122.511187,37.916421,0
            -122.511031,37.917946,0
            -122.511282,37.919656,0
            -122.515232,37.928028,0
            -122.516665,37.935651,0
            -122.516653,37.937457,0
            -122.515907,37.940419,0
            -122.515768,37.940504,0
            -122.514637,37.943775,0
            -122.514668,37.944147,0
            -122.514855,37.944452,0
            -122.515263,37.944729,0
            -122.515663,37.944826,0
            -122.517436,37.944578,0
            -122.529601,37.94927,0
            -122.531088,37.949559,0
            -122.535398,37.951309,0
            -122.538199,37.953004,0
            -122.541929,37.953816,0
            -122.544677,37.953717,0
            -122.54525,37.953942,0
            -122.549097,37.956869,0
            -122.549173,37.956869,0
            -122.554693,37.961039,0
            -122.559302,37.967444,0
            -122.5599,37.967944,0
            -122.561641,37.972956,0
            -122.561581,37.97652,0
            -122.562559,37.976505,0
            -122.563834,37.97712,0
            -122.564607,37.977078,0
            -122.568982,37.977912,0
            -122.57755,37.98248,0
            -122.582622,37.98577,0
            -122.58596,37.986759,0
            -122.587195,37.98689,0
            -122.587154,37.987169,0
            -122.589492,37.987406,0
            -122.590334,37.987656,0
            -122.590752,37.988052,0
            -122.59229,37.991078,0
            -122.59261,37.991274,0
            -122.594973,37.994558,0
            -122.599237,37.99728,0
            -122.600253,37.999026,0
            -122.601098,37.999692,0
            -122.601839,38.000008,0
            -122.605608,38.000517,0
            -122.607474,38.000375,0
            -122.610507,38.001422,0
            -122.611813,38.002199,0
            -122.61294,38.002512,0
            -122.613571,38.002858,0
            -122.614208,38.003666,0
            -122.614357,38.005331,0
            -122.615861,38.007014,0
            -122.616169,38.007597,0
            -122.617169,38.008136,0
            -122.617461,38.008514,0
            -122.617379,38.009695,0
            -122.617899,38.01096,0
            -122.618241,38.011246,0
            -122.618856,38.011442,0
            -122.620815,38.01136,0
            -122.622394,38.011758,0
            -122.623053,38.011784,0
            -122.623643,38.011614,0
            -122.624716,38.010961,0
            -122.625574,38.010726,0
            -122.626574,38.010766,0
            -122.62717,38.01095,0
            -122.634235,38.015131,0
            -122.636438,38.015817,0
            -122.637916,38.016008,0
            -122.645746,38.015144,0
            -122.66605,38.014428,0
            -122.678432,38.016779,0
            -122.679666,38.016794,0
            -122.687239,38.015352,0
            -122.694282,38.015101,0
            -122.701703,38.012236,0
            -122.702314,38.011629,0
            -122.702336,38.010799,0
            -122.701966,38.009995,0
            -122.702015,38.009743,0
            -122.702291,38.009522,0
            -122.703103,38.009375,0
            -122.703976,38.008553,0
            -122.705271,38.007962,0
            -122.705392,38.007811,0
            -122.705216,38.006876,0
            -122.705387,38.006082,0
            -122.705735,38.005537,0
            -122.706288,38.005082,0
            -122.706582,38.004993,0
            -122.707294,38.00514,0
            -122.707738,38.005051,0
            -122.708428,38.004634,0
            -122.709001,38.004556,0
            -122.710878,38.005031,0
            -122.711382,38.005385,0
            -122.711534,38.005646,0
            -122.711693,38.008996,0
            -122.712782,38.010954,0
            -122.713396,38.011504,0
            -122.714337,38.011818,0
            -122.715635,38.013421,0
            -122.71669,38.014144,0
            -122.720637,38.01589,0
            -122.723013,38.016015,0
            -122.723295,38.016162,0
            -122.724283,38.017664,0
            -122.724036,38.018373,0
            -122.724126,38.018917,0
            -122.724445,38.019301,0
            -122.727253,38.020192,0
            -122.72844,38.020166,0
            -122.731638,38.019048,0
            -122.732493,38.019008,0
            -122.732876,38.019191,0
            -122.734417,38.022838,0
            -122.735843,38.024231,0
            -122.736389,38.025536,0
            -122.735778,38.02719,0
            -122.735875,38.028653,0
            -122.736458,38.029589,0
            -122.737688,38.030297,0
            -122.73838,38.030472,0
            -122.739413,38.030429,0
            -122.74221,38.029232,0
            -122.743014,38.029152,0
            -122.743247,38.029219,0
            -122.743376,38.029421,0
            -122.743179,38.030172,0
            -122.742082,38.031572,0
            -122.742038,38.033424,0
            -122.742253,38.033912,0
            -122.744347,38.03532,0
            -122.745903,38.03722,0
            -122.744773,38.041922,0
            -122.744806,38.042603,0
            -122.745087,38.043,0
            -122.746971,38.04409,0
            -122.750283,38.045093,0
            -122.752989,38.048158,0
            -122.758966,38.0499,0
            -122.759901,38.049913,0
            -122.760946,38.049694,0
            -122.765701,38.047774,0
            -122.768281,38.04758,0
            -122.769412,38.047199,0
            -122.770202,38.046306,0
            -122.770799,38.046189,0
            -122.774699,38.047445,0
            -122.775083,38.047406,0
            -122.77763,38.045704,0
            -122.778589,38.044649,0
            -122.782327,38.043687,0
            -122.783081,38.043657,0
            -122.785065,38.042925,0
            -122.787775,38.040498,0
            -122.788144,38.040757,0
            -122.788751,38.04198,0
            -122.790991,38.041858,0
            -122.79256,38.042078,0
            -122.79445,38.04277,0
            -122.795766,38.04282,0
            -122.796833,38.043146,0
            -122.797937,38.04399,0
            -122.798249,38.043651,0
            -122.798401,38.042698,0
            -122.798626,38.042378,0
            -122.799477,38.041931,0
            -122.799716,38.040549,0
            -122.799912,38.040579,0
            -122.799945,38.040657,0
          </coordinates>
        </LineString>
      </Placemark>
      <Placemark>
        <name>Bear Valley Visitor Center</name>
        <description><![CDATA[description: Visitor center from 2021-07-04T19:52:53.000Z to 2021-07-04T20:01:49.215Z. Distance 0m<br>Email: syugen.zhou@gmail.com<br>Category: Visitor center<br>Distance: 0]]></description>
        <styleUrl>#icon-1535-0288D1</styleUrl>
        <ExtendedData>
          <Data name="description">
            <value>Visitor center from 2021-07-04T19:52:53.000Z to 2021-07-04T20:01:49.215Z. Distance 0m</value>
          </Data>
          <Data name="Email">
            <value>syugen.zhou@gmail.com</value>
          </Data>
          <Data name="Category">
            <value>Visitor center</value>
          </Data>
          <Data name="Distance">
            <value>0</value>
          </Data>
        </ExtendedData>
        <Point>
          <coordinates>
            -122.800357,38.041124,0
          </coordinates>
        </Point>
      </Placemark>
      <Placemark>
        <name>07-04 Driving</name>
        <description><![CDATA[description: Driving from 2021-07-04T20:01:49.215Z to 2021-07-04T21:02:29.000Z. Distance 30466m<br>Email: syugen.zhou@gmail.com<br>Category: Driving<br>Distance: 30466]]></description>
        <styleUrl>#line-70B866-5000</styleUrl>
        <ExtendedData>
          <Data name="description">
            <value>Driving from 2021-07-04T20:01:49.215Z to 2021-07-04T21:02:29.000Z. Distance 30466m</value>
          </Data>
          <Data name="Email">
            <value>syugen.zhou@gmail.com</value>
          </Data>
          <Data name="Category">
            <value>Driving</value>
          </Data>
          <Data name="Distance">
            <value>30466</value>
          </Data>
        </ExtendedData>
        <LineString>
          <tessellate>1</tessellate>
          <coordinates>
            -122.799889,38.041318,0
            -122.799866,38.041644,0
            -122.799743,38.041762,0
            -122.799603,38.041704,0
            -122.799477,38.041931,0
            -122.798626,38.042379,0
            -122.798401,38.042698,0
            -122.798249,38.043651,0
            -122.797937,38.04399,0
            -122.796833,38.043146,0
            -122.795766,38.04282,0
            -122.79445,38.04277,0
            -122.79256,38.042078,0
            -122.790992,38.041858,0
            -122.788751,38.04198,0
            -122.787957,38.040588,0
            -122.78488,38.039225,0
            -122.78425,38.038601,0
            -122.78341,38.035956,0
            -122.778337,38.027033,0
            -122.776772,38.026178,0
            -122.775958,38.024986,0
            -122.774946,38.024612,0
            -122.774633,38.023619,0
            -122.769244,38.015981,0
            -122.767405,38.014404,0
            -122.76709,38.013676,0
            -122.767245,38.012382,0
            -122.766976,38.011949,0
            -122.764926,38.010804,0
            -122.763567,38.00893,0
            -122.76149,38.007241,0
            -122.75881,38.00299,0
            -122.75864,38.001806,0
            -122.7582,38.001196,0
            -122.755777,37.999363,0
            -122.755764,37.998878,0
            -122.754824,37.997443,0
            -122.754281,37.995497,0
            -122.752626,37.993089,0
            -122.750902,37.991584,0
            -122.748649,37.990374,0
            -122.746214,37.988414,0
            -122.745272,37.988035,0
            -122.742703,37.985953,0
            -122.742019,37.985014,0
            -122.741381,37.984633,0
            -122.739069,37.981228,0
            -122.73679,37.979433,0
            -122.73497,37.978499,0
            -122.729267,37.971164,0
            -122.726346,37.969274,0
            -122.722436,37.963383,0
            -122.720944,37.962696,0
            -122.719548,37.961513,0
            -122.719975,37.959898,0
            -122.719738,37.959486,0
            -122.718753,37.958847,0
            -122.716536,37.958641,0
            -122.715661,37.957697,0
            -122.715599,37.957253,0
            -122.714967,37.957105,0
            -122.714475,37.956487,0
            -122.712392,37.95032,0
            -122.710806,37.947767,0
            -122.70744,37.945961,0
            -122.706606,37.945786,0
            -122.706406,37.945624,0
            -122.704878,37.940986,0
            -122.705245,37.940254,0
            -122.705008,37.939384,0
            -122.70301,37.938225,0
            -122.700676,37.936061,0
            -122.694253,37.933381,0
            -122.692273,37.933502,0
            -122.690987,37.932597,0
            -122.689656,37.932613,0
            -122.688756,37.932291,0
            -122.68856,37.93209,0
            -122.688473,37.930945,0
            -122.687879,37.930493,0
            -122.686514,37.930342,0
            -122.684192,37.930537,0
            -122.682744,37.929984,0
            -122.682146,37.929327,0
            -122.682169,37.927932,0
            -122.680628,37.926491,0
            -122.680435,37.925969,0
            -122.679286,37.925298,0
            -122.678612,37.925126,0
            -122.676396,37.925223,0
            -122.67545,37.924794,0
            -122.674196,37.922779,0
            -122.672353,37.921408,0
            -122.671478,37.921119,0
            -122.670034,37.918554,0
            -122.668008,37.917756,0
            -122.666308,37.916265,0
            -122.664828,37.914152,0
            -122.663033,37.912797,0
            -122.661948,37.912758,0
            -122.659895,37.911096,0
            -122.656777,37.909891,0
            -122.655774,37.909234,0
            -122.654799,37.908978,0
            -122.653537,37.907358,0
            -122.651553,37.907052,0
            -122.650234,37.906033,0
            -122.649768,37.904889,0
            -122.64756,37.903626,0
            -122.647142,37.903045,0
            -122.645597,37.901925,0
            -122.644323,37.900389,0
            -122.642467,37.899139,0
            -122.639805,37.898497,0
            -122.637739,37.898467,0
            -122.637497,37.898368,0
            -122.636886,37.896487,0
            -122.636305,37.895856,0
            -122.636008,37.895091,0
            -122.635673,37.894806,0
            -122.63499,37.893229,0
            -122.63484,37.893122,0
            -122.634225,37.893168,0
            -122.633545,37.89281,0
            -122.633448,37.892585,0
            -122.633599,37.891563,0
            -122.633439,37.890997,0
            -122.632641,37.890303,0
            -122.63096,37.88949,0
            -122.630097,37.889312,0
            -122.629293,37.888821,0
            -122.629196,37.888499,0
            -122.629592,37.887534,0
            -122.629363,37.88731,0
            -122.628868,37.887342,0
            -122.627256,37.886679,0
            -122.626705,37.886758,0
            -122.62626,37.886631,0
            -122.623897,37.886767,0
            -122.623025,37.886392,0
            -122.622664,37.885922,0
            -122.622406,37.884351,0
            -122.62195,37.884106,0
            -122.621835,37.883924,0
            -122.621883,37.883553,0
            -122.621202,37.883069,0
            -122.62121,37.88255,0
            -122.620367,37.881916,0
            -122.620122,37.881496,0
            -122.619807,37.881351,0
            -122.619107,37.881351,0
            -122.618549,37.88066,0
            -122.616521,37.879299,0
            -122.61622,37.879298,0
            -122.615666,37.879905,0
            -122.614989,37.879817,0
            -122.61431,37.879992,0
            -122.612744,37.882118,0
            -122.612091,37.882208,0
            -122.610975,37.883025,0
            -122.61082,37.882968,0
            -122.612107,37.88084,0
            -122.612119,37.879349,0
            -122.611994,37.879195,0
            -122.610255,37.879517,0
            -122.609876,37.879462,0
            -122.608858,37.878599,0
            -122.60696,37.878304,0
            -122.606522,37.877972,0
            -122.606072,37.877888,0
            -122.605329,37.87735,0
            -122.604824,37.877506,0
            -122.604375,37.878399,0
            -122.604177,37.878459,0
            -122.603214,37.878087,0
            -122.602245,37.878389,0
            -122.601241,37.87923,0
            -122.601093,37.879135,0
            -122.601053,37.878738,0
            -122.600949,37.878654,0
            -122.600271,37.878564,0
            -122.600164,37.87839,0
            -122.600232,37.878272,0
            -122.601394,37.877722,0
            -122.601876,37.87715,0
            -122.601748,37.876845,0
            -122.599909,37.876355,0
            -122.599273,37.875727,0
            -122.598986,37.875028,0
            -122.598654,37.874858,0
            -122.597634,37.874718,0
            -122.594633,37.875285,0
            -122.593974,37.875025,0
            -122.590566,37.87133,0
            -122.588502,37.868133,0
            -122.587737,37.867842,0
            -122.586678,37.864639,0
            -122.584903,37.864051,0
            -122.584401,37.864138,0
            -122.583348,37.86489,0
            -122.58247,37.86521,0
            -122.582055,37.865133,0
            -122.580705,37.864296,0
            -122.579367,37.864539,0
            -122.577188,37.862838,0
            -122.576603,37.862856,0
            -122.576299,37.863059,0
            -122.576236,37.863492,0
            -122.577239,37.864647,0
            -122.577308,37.864951,0
            -122.578405,37.866038,0
            -122.578406,37.866239,0
            -122.577389,37.866995,0
            -122.577231,37.867012,0
            -122.581281,37.869653,0
            -122.581465,37.869931,0
            -122.581438,37.87076,0
            -122.58181,37.871854,0
            -122.582631,37.872891,0
            -122.583085,37.874585,0
            -122.582998,37.875056,0
            -122.582404,37.875707,0
            -122.582424,37.876304,0
            -122.581553,37.877381,0
            -122.579096,37.878895,0
            -122.577946,37.880155,0
            -122.577263,37.881894,0
            -122.576177,37.882824,0
            -122.574602,37.882951,0
            -122.5725,37.883756,0
            -122.571003,37.884902,0
            -122.570061,37.885026,0
            -122.567824,37.886538,0
            -122.567448,37.887143,0
            -122.5675,37.888542,0
            -122.566824,37.88884,0
            -122.566798,37.89031,0
            -122.56812,37.891213,0
            -122.570393,37.891977,0
          </coordinates>
        </LineString>
      </Placemark>
      <Placemark>
        <name>Muir Woods National Monument</name>
        <description><![CDATA[description: National park from 2021-07-04T21:02:29.000Z to 2021-07-04T21:05:29.000Z. Distance 0m<br>Email: syugen.zhou@gmail.com<br>Category: National park<br>Distance: 0]]></description>
        <styleUrl>#icon-1535-0288D1</styleUrl>
        <ExtendedData>
          <Data name="description">
            <value>National park from 2021-07-04T21:02:29.000Z to 2021-07-04T21:05:29.000Z. Distance 0m</value>
          </Data>
          <Data name="Email">
            <value>syugen.zhou@gmail.com</value>
          </Data>
          <Data name="Category">
            <value>National park</value>
          </Data>
          <Data name="Distance">
            <value>0</value>
          </Data>
        </ExtendedData>
        <Point>
          <coordinates>
            -122.581118,37.89702,0
          </coordinates>
        </Point>
      </Placemark>
      <Placemark>
        <name>07-04 Driving</name>
        <description><![CDATA[description: Driving from 2021-07-04T21:05:29.000Z to 2021-07-04T21:43:14.839Z. Distance 25266m<br>Email: syugen.zhou@gmail.com<br>Category: Driving<br>Distance: 25266]]></description>
        <styleUrl>#line-55B8B8-5000</styleUrl>
        <ExtendedData>
          <Data name="description">
            <value>Driving from 2021-07-04T21:05:29.000Z to 2021-07-04T21:43:14.839Z. Distance 25266m</value>
          </Data>
          <Data name="Email">
            <value>syugen.zhou@gmail.com</value>
          </Data>
          <Data name="Category">
            <value>Driving</value>
          </Data>
          <Data name="Distance">
            <value>25266</value>
          </Data>
        </ExtendedData>
        <LineString>
          <tessellate>1</tessellate>
          <coordinates>
            -122.570393,37.891977,0
            -122.570433,37.89206,0
            -122.5697,37.892005,0
            -122.569589,37.892105,0
            -122.569651,37.892232,0
            -122.570454,37.892711,0
            -122.571237,37.892885,0
            -122.571787,37.893381,0
            -122.571649,37.893435,0
            -122.571267,37.893197,0
            -122.570587,37.893257,0
            -122.570039,37.893829,0
            -122.569917,37.893851,0
            -122.569461,37.893381,0
            -122.569073,37.893318,0
            -122.567703,37.894019,0
            -122.567566,37.893938,0
            -122.567494,37.893385,0
            -122.567328,37.893329,0
            -122.566919,37.893413,0
            -122.566806,37.893366,0
            -122.566695,37.893121,0
            -122.56576,37.892832,0
            -122.565464,37.893206,0
            -122.564827,37.893194,0
            -122.564518,37.893341,0
            -122.564389,37.893537,0
            -122.56447,37.894136,0
            -122.564142,37.895181,0
            -122.564041,37.895223,0
            -122.56311,37.894939,0
            -122.56202,37.895507,0
            -122.561815,37.895738,0
            -122.561741,37.896345,0
            -122.56158,37.89655,0
            -122.561468,37.89657,0
            -122.561071,37.896386,0
            -122.560684,37.895719,0
            -122.56056,37.894946,0
            -122.559967,37.894305,0
            -122.559256,37.893969,0
            -122.558974,37.894057,0
            -122.558826,37.894024,0
            -122.55867,37.893494,0
            -122.557843,37.893308,0
            -122.557238,37.893441,0
            -122.557128,37.894926,0
            -122.558246,37.896342,0
            -122.558372,37.897527,0
            -122.558659,37.89794,0
            -122.558587,37.89918,0
            -122.558158,37.899817,0
            -122.558488,37.900087,0
            -122.558505,37.900231,0
            -122.558186,37.900727,0
            -122.558158,37.901744,0
            -122.558466,37.902139,0
            -122.558392,37.902281,0
            -122.556968,37.902581,0
            -122.556878,37.902667,0
            -122.556398,37.90268,0
            -122.555499,37.902216,0
            -122.554762,37.901556,0
            -122.553493,37.90114,0
            -122.551486,37.901324,0
            -122.550332,37.900769,0
            -122.549793,37.900768,0
            -122.54757,37.900089,0
            -122.545805,37.900045,0
            -122.545041,37.900195,0
            -122.54213,37.899525,0
            -122.541238,37.89852,0
            -122.539876,37.898325,0
            -122.539773,37.898033,0
            -122.540077,37.89763,0
            -122.540205,37.897011,0
            -122.538675,37.896361,0
            -122.53554,37.898558,0
            -122.535289,37.898602,0
            -122.534447,37.898266,0
            -122.53275,37.899639,0
            -122.532069,37.899749,0
            -122.530918,37.900999,0
            -122.529504,37.900629,0
            -122.529412,37.900539,0
            -122.527909,37.900267,0
            -122.525355,37.90128,0
            -122.523438,37.903495,0
            -122.522583,37.903797,0
            -122.519813,37.903702,0
            -122.51718,37.902805,0
            -122.514992,37.902657,0
            -122.51456,37.902316,0
            -122.514628,37.902002,0
            -122.515012,37.901836,0
            -122.515268,37.901886,0
            -122.515515,37.902137,0
            -122.515239,37.905628,0
            -122.511187,37.916421,0
            -122.511031,37.917945,0
            -122.511282,37.919656,0
            -122.515232,37.928028,0
            -122.516665,37.935651,0
            -122.516653,37.937457,0
            -122.515907,37.940419,0
            -122.515768,37.940504,0
            -122.514366,37.944452,0
            -122.510367,37.94635,0
            -122.509495,37.946484,0
            -122.508708,37.946238,0
            -122.506398,37.944461,0
            -122.502393,37.944035,0
            -122.502051,37.943815,0
            -122.501293,37.942692,0
            -122.499823,37.942223,0
            -122.499164,37.942252,0
            -122.498477,37.9425,0
            -122.498069,37.942892,0
            -122.497522,37.944006,0
            -122.496805,37.944598,0
            -122.494723,37.945314,0
            -122.493685,37.946064,0
            -122.492603,37.946391,0
            -122.492001,37.946345,0
            -122.488985,37.945016,0
            -122.48723,37.944766,0
            -122.483776,37.94484,0
            -122.482368,37.944504,0
            -122.4794,37.942935,0
            -122.468529,37.940655,0
            -122.452022,37.935844,0
            -122.402605,37.931945,0
            -122.399215,37.931997,0
            -122.397251,37.932488,0
            -122.395479,37.932545,0
            -122.394523,37.932366,0
            -122.387631,37.929416,0
            -122.380467,37.92733,0
            -122.367307,37.926857,0
            -122.364232,37.925576,0
            -122.363915,37.924552,0
            -122.361589,37.922841,0
            -122.360948,37.922632,0
            -122.360147,37.922603,0
            -122.359515,37.912202,0
            -122.35724,37.912184,0
            -122.357238,37.909988,0
            -122.357317,37.909984,0
          </coordinates>
        </LineString>
      </Placemark>
      <Placemark>
        <name>Rosie the Riveter National Historical Park</name>
        <description><![CDATA[description: Historical place from 2021-07-04T21:43:14.839Z to 2021-07-04T22:11:19.998Z. Distance 0m<br>Email: syugen.zhou@gmail.com<br>Category: Historical place<br>Distance: 0]]></description>
        <styleUrl>#icon-1535-0288D1</styleUrl>
        <ExtendedData>
          <Data name="description">
            <value>Historical place from 2021-07-04T21:43:14.839Z to 2021-07-04T22:11:19.998Z. Distance 0m</value>
          </Data>
          <Data name="Email">
            <value>syugen.zhou@gmail.com</value>
          </Data>
          <Data name="Category">
            <value>Historical place</value>
          </Data>
          <Data name="Distance">
            <value>0</value>
          </Data>
        </ExtendedData>
        <Point>
          <coordinates>
            -122.357222,37.909708,0
          </coordinates>
        </Point>
      </Placemark>
      <Placemark>
        <name>07-04 Driving</name>
        <description><![CDATA[description: Driving from 2021-07-04T22:11:19.998Z to 2021-07-04T22:39:28.999Z. Distance 32742m<br>Email: syugen.zhou@gmail.com<br>Category: Driving<br>Distance: 32742]]></description>
        <styleUrl>#line-5C86C6-5000</styleUrl>
        <ExtendedData>
          <Data name="description">
            <value>Driving from 2021-07-04T22:11:19.998Z to 2021-07-04T22:39:28.999Z. Distance 32742m</value>
          </Data>
          <Data name="Email">
            <value>syugen.zhou@gmail.com</value>
          </Data>
          <Data name="Category">
            <value>Driving</value>
          </Data>
          <Data name="Distance">
            <value>32742</value>
          </Data>
        </ExtendedData>
        <LineString>
          <tessellate>1</tessellate>
          <coordinates>
            -122.357241,37.911178,0
            -122.35724,37.912184,0
            -122.357277,37.912205,0
            -122.359515,37.912202,0
            -122.360119,37.917063,0
            -122.360007,37.922536,0
            -122.359209,37.92254,0
            -122.357703,37.922251,0
            -122.35749,37.922288,0
            -122.356011,37.921908,0
            -122.353369,37.921651,0
            -122.346508,37.921742,0
            -122.336791,37.921294,0
            -122.334774,37.920821,0
            -122.332164,37.919583,0
            -122.328587,37.916925,0
            -122.326206,37.914643,0
            -122.326216,37.914554,0
            -122.325232,37.913128,0
            -122.325298,37.912589,0
            -122.325483,37.912393,0
            -122.326223,37.912,0
            -122.326751,37.911932,0
            -122.326596,37.911253,0
            -122.326439,37.911097,0
            -122.326044,37.910934,0
            -122.325633,37.910953,0
            -122.325413,37.911035,0
            -122.324099,37.911953,0
            -122.323756,37.912388,0
            -122.323529,37.912993,0
            -122.323538,37.913719,0
            -122.323245,37.913951,0
            -122.316778,37.910584,0
            -122.317242,37.913388,0
            -122.317355,37.913494,0
            -122.317363,37.919017,0
            -122.317675,37.92063,0
            -122.318176,37.921713,0
            -122.326354,37.933337,0
            -122.326781,37.934609,0
            -122.326648,37.936011,0
            -122.323757,37.942062,0
            -122.323676,37.943227,0
            -122.32392,37.944334,0
            -122.330292,37.956933,0
            -122.330581,37.957976,0
            -122.330549,37.959528,0
            -122.329828,37.961275,0
            -122.328758,37.9625,0
            -122.328207,37.962933,0
            -122.32303,37.965769,0
            -122.322031,37.966618,0
            -122.321093,37.968073,0
            -122.315576,37.984456,0
            -122.314892,37.985908,0
            -122.313694,37.987676,0
            -122.312093,37.989312,0
            -122.310384,37.990583,0
            -122.308502,37.991629,0
            -122.306123,37.992526,0
            -122.304099,37.992996,0
            -122.290837,37.994886,0
            -122.289207,37.995354,0
            -122.28778,37.995971,0
            -122.286307,37.996899,0
            -122.285514,37.99757,0
            -122.271707,38.012422,0
            -122.271556,38.012432,0
            -122.269782,38.014061,0
            -122.269107,38.014375,0
            -122.268428,38.014507,0
            -122.267138,38.014396,0
            -122.262781,38.013324,0
            -122.259522,38.013248,0
            -122.247469,38.015011,0
            -122.245778,38.015112,0
            -122.240204,38.014434,0
            -122.236423,38.013281,0
            -122.232103,38.011054,0
            -122.229133,38.010186,0
            -122.224489,38.008304,0
            -122.221989,38.007845,0
            -122.219754,38.007838,0
            -122.217997,38.007459,0
            -122.214101,38.007147,0
            -122.206145,38.008613,0
            -122.204523,38.00913,0
            -122.191228,38.015155,0
            -122.188942,38.015901,0
            -122.187462,38.016149,0
            -122.186197,38.016154,0
            -122.180115,38.015587,0
            -122.178767,38.015307,0
            -122.177727,38.014907,0
            -122.176802,38.014389,0
            -122.166372,38.006732,0
            -122.165479,38.006297,0
            -122.164216,38.005895,0
            -122.157263,38.005268,0
            -122.155776,38.004798,0
            -122.148098,38.000372,0
            -122.147463,37.999885,0
            -122.146646,37.998978,0
            -122.143233,37.992519,0
            -122.142296,37.991377,0
            -122.141271,37.990593,0
            -122.140278,37.990075,0
            -122.138815,37.989597,0
            -122.137015,37.989387,0
            -122.136047,37.989426,0
            -122.132584,37.989991,0
          </coordinates>
        </LineString>
      </Placemark>
      <Placemark>
        <name>John Muir National Historic Site</name>
        <description><![CDATA[description: Historical place from 2021-07-04T22:39:28.999Z to 2021-07-04T23:34:20.999Z. Distance 0m<br>Email: syugen.zhou@gmail.com<br>Category: Historical place<br>Distance: 0]]></description>
        <styleUrl>#icon-1535-0288D1</styleUrl>
        <ExtendedData>
          <Data name="description">
            <value>Historical place from 2021-07-04T22:39:28.999Z to 2021-07-04T23:34:20.999Z. Distance 0m</value>
          </Data>
          <Data name="Email">
            <value>syugen.zhou@gmail.com</value>
          </Data>
          <Data name="Category">
            <value>Historical place</value>
          </Data>
          <Data name="Distance">
            <value>0</value>
          </Data>
        </ExtendedData>
        <Point>
          <coordinates>
            -122.131068,37.992166,0
          </coordinates>
        </Point>
      </Placemark>
    </Folder>
  </Document>
</kml>
