<?xml version="1.0" encoding="UTF-8"?><kml xmlns="http://www.opengis.net/kml/2.2" xmlns:gx="http://www.google.com/kml/ext/2.2"><Document><name> Location history from 2020-10-09 to 2020-10-09 </name><open>1</open><description></description><StyleMap id="multiTrack"><Pair><key>normal</key><styleUrl>#multiTrack_n</styleUrl></Pair><Pair><key>highlight</key><styleUrl>#multiTrack_h</styleUrl></Pair></StyleMap><Style id="multiTrack_n"><IconStyle><Icon><href>https://earth.google.com/images/kml-icons/track-directional/track-0.png</href></Icon></IconStyle><LineStyle><color>99ffac59</color><width>6</width></LineStyle></Style><Style id="multiTrack_h"><IconStyle><scale>1.2</scale><Icon><href>https://earth.google.com/images/kml-icons/track-directional/track-0.png</href></Icon></IconStyle><LineStyle><color>99ffac59</color><width>8</width></LineStyle></Style><Placemark><name>702 Marlin Ave</name><address>702 Marlin Ave, Foster City, CA 94404</address><ExtendedData><Data name="Email"><value>syugen.zhou@gmail.com</value></Data><Data name="Category"><value></value></Data><Data name="Distance"><value>0</value></Data></ExtendedData><description>  from 2020-10-08T01:06:31.000Z to 2020-10-09T22:41:50.000Z. Distance 0m </description><Point><coordinates>-122.25498479999999,37.5541321,0</coordinates></Point><TimeSpan><begin>2020-10-08T01:06:31.000Z</begin><end>2020-10-09T22:41:50.000Z</end></TimeSpan></Placemark><Placemark><name>Driving</name><address></address><ExtendedData><Data name="Email"><value>syugen.zhou@gmail.com</value></Data><Data name="Category"><value>Driving</value></Data><Data name="Distance"><value>88464</value></Data></ExtendedData><description> Driving from 2020-10-09T22:41:50.000Z to 2020-10-10T00:41:15.000Z. Distance 88464m </description><LineString><altitudeMode>clampToGround</altitudeMode><extrude>1</extrude><tesselate>1</tesselate><coordinates>-122.25529039999999,37.554147799999996,0 -122.2555829,37.5538082,0 -122.25695209999998,37.554570600000005,0 -122.25799099999998,37.5551795,0 -122.25894519999997,37.555695300000004,0 -122.26070299999998,37.5567215,0 -122.2675732,37.560583300000005,0 -122.26799609999999,37.56084860000001,0 -122.2696225,37.561786100000006,0 -122.2703576,37.5622835,0 -122.27036039999999,37.56228720000001,0 -122.27150939999999,37.5629411,0 -122.27201249999999,37.5624185,0 -122.27252209999997,37.5619805,0 -122.27307969999997,37.5625129,0 -122.27314039999997,37.5625853,0 -122.27318039999997,37.562643,0 -122.27323009999998,37.562733200000004,0 -122.27327179999996,37.562834900000006,0 -122.27329859999998,37.562963700000005,0 -122.27330499999997,37.56308590000001,0 -122.27329699999996,37.56320070000001,0 -122.27327789999997,37.56329210000001,0 -122.27322139999995,37.56344480000001,0 -122.27313919999997,37.56358190000001,0 -122.27310669999999,37.563621100000006,0 -122.27250379999998,37.56421360000001,0 -122.2723896,37.56431350000001,0 -122.2723826,37.564326500000014,0 -122.272368,37.564467700000016,0 -122.26922040000001,37.56731700000001,0 -122.26913140000002,37.56738590000001,0 -122.24493910000001,37.58947650000001,0 -122.24458720000003,37.589751600000014,0 -122.2440382,37.59012750000001,0 -122.2435531,37.59040090000001,0 -122.2431403,37.590606500000014,0 -122.24250640000001,37.59087060000002,0 -122.24212700000002,37.59100140000002,0 -122.22001830000002,37.597597600000014,0 -122.21959940000002,37.59773470000002,0 -122.15556860000001,37.61674900000001,0 -122.154807,37.61694760000002,0 -122.15300480000002,37.61736110000002,0 -122.15242060000003,37.617518400000016,0 -122.15144450000004,37.61782460000001,0 -122.14985820000003,37.618414900000005,0 -122.12134580000001,37.62801040000001,0 -122.12079420000002,37.628176400000015,0 -122.11285300000002,37.630841900000014,0 -122.11242780000002,37.63100020000001,0 -122.11194810000003,37.63120100000001,0 -122.11167360000003,37.63132830000001,0 -122.10951720000003,37.63243700000001,0 -122.10885160000004,37.63274480000001,0 -122.10812520000002,37.633052800000016,0 -122.10439810000003,37.63453340000002,0 -122.10423260000002,37.63462160000002,0 -122.10405530000001,37.63461400000001,0 -122.1029108,37.63496150000001,0 -122.1026018,37.63506570000001,0 -122.1003111,37.63592900000002,0 -122.10005099999998,37.63604680000002,0 -122.09949489999998,37.63633150000002,0 -122.09903889999998,37.636612800000016,0 -122.09869229999997,37.636859500000014,0 -122.09843789999996,37.63706480000001,0 -122.09806459999997,37.63740520000002,0 -122.09794629999998,37.63752560000002,0 -122.09761679999998,37.637899800000014,0 -122.09731259999998,37.63830690000001,0 -122.09713519999998,37.63859410000001,0 -122.09635069999997,37.64001900000001,0 -122.09529619999996,37.64173310000001,0 -122.09512579999996,37.64195320000002,0 -122.09502329999995,37.64206460000001,0 -122.09482389999995,37.642251600000016,0 -122.09470219999994,37.64235220000001,0 -122.09382609999994,37.64296080000001,0 -122.09370719999995,37.64306190000001,0 -122.09360379999997,37.643163500000014,0 -122.09342809999998,37.643375700000014,0 -122.09334309999997,37.64350080000002,0 -122.09324949999997,37.64367390000002,0 -122.09319349999998,37.64380350000002,0 -122.09311949999997,37.644056700000014,0 -122.09309129999997,37.64425300000001,0 -122.09308509999997,37.64437700000002,0 -122.09309839999996,37.64458610000001,0 -122.09313219999997,37.644772500000016,0 -122.09318289999999,37.64494080000002,0 -122.09323159999998,37.64506410000002,0 -122.09331459999997,37.64522520000002,0 -122.09350099999996,37.645493500000015,0 -122.09357519999998,37.64557860000002,0 -122.09370609999998,37.64570930000002,0 -122.09487019999997,37.64671970000003,0 -122.09537759999999,37.647328200000025,0 -122.09541569999999,37.64735630000003,0 -122.09543709999998,37.647366400000024,0 -122.09554239999999,37.64739970000003,0 -122.09657709999999,37.64883770000003,0 -122.09714559999999,37.64967260000003,0 -122.10267569999999,37.65856650000003,0 -122.102996,37.659046200000034,0 -122.10703149999999,37.66560400000003,0 -122.10706219999999,37.66566830000003,0 -122.1089039,37.66861890000003,0 -122.10933480000001,37.66935290000003,0 -122.1100761,37.67054170000003,0 -122.1106544,37.67134020000003,0 -122.11128229999998,37.67205880000003,0 -122.11178249999998,37.67255880000003,0 -122.11219319999998,37.67293000000003,0 -122.11262029999999,37.673281900000035,0 -122.11307999999998,37.673627200000034,0 -122.11427189999999,37.674454700000034,0 -122.11680499999997,37.67636420000004,0 -122.11744639999998,37.676815700000034,0 -122.11802469999996,37.67719290000003,0 -122.11978119999998,37.67827730000003,0 -122.12040249999998,37.678684300000036,0 -122.1232862,37.68067750000004,0 -122.1235528,37.680874300000035,0 -122.1305083,37.68563970000003,0 -122.1305202,37.68578550000004,0 -122.13052189999999,37.685789000000035,0 -122.13289729999998,37.68765120000003,0 -122.13335449999998,37.68798840000004,0 -122.13351679999998,37.688126800000035,0 -122.13360959999997,37.688221600000034,0 -122.13367949999997,37.68831060000004,0 -122.13376919999997,37.68845110000004,0 -122.13387019999996,37.68868380000004,0 -122.13390499999996,37.688818200000036,0 -122.13392129999997,37.68892600000004,0 -122.13392779999995,37.689041400000036,0 -122.13391959999994,37.68917120000004,0 -122.13389989999993,37.68928730000004,0 -122.13384939999993,37.689460400000044,0 -122.13380689999993,37.68956050000004,0 -122.13372839999994,37.68970110000004,0 -122.13365889999993,37.689801600000045,0 -122.13356319999993,37.689913500000046,0 -122.13345769999992,37.690015600000045,0 -122.13333269999991,37.69011560000004,0 -122.13321149999993,37.69019720000004,0 -122.13307899999992,37.690269800000046,0 -122.13288289999991,37.690356000000044,0 -122.13275719999992,37.69040270000004,0 -122.13255259999991,37.690454500000044,0 -122.13196899999991,37.690546500000046,0 -122.13187179999991,37.69057330000005,0 -122.1317984999999,37.690603700000054,0 -122.1309082999999,37.69072980000005,0 -122.1303522999999,37.69077430000005,0 -122.12963869999989,37.690788300000044,0 -122.12918999999988,37.690767000000044,0 -122.1291044999999,37.690775600000045,0 -122.1265773999999,37.69057850000004,0 -122.12468269999991,37.69033640000004,0 -122.1175613999999,37.689212500000046,0 -122.11461229999989,37.68866150000004,0 -122.1136930999999,37.688532500000036,0 -122.1132835999999,37.68849080000004,0 -122.11196789999991,37.68843180000004,0 -122.11069159999991,37.68847060000004,0 -122.11024059999991,37.688501000000045,0 -122.0951024999999,37.69018010000004,0 -122.09249719999991,37.69038490000005,0 -122.08989659999992,37.69048400000005,0 -122.08391659999991,37.690525700000045,0 -122.0781150999999,37.69051270000005,0 -122.0729948999999,37.690573200000046,0 -122.0717785999999,37.690617000000046,0 -122.07069509999991,37.69069320000004,0 -122.06900059999991,37.69088630000004,0 -122.06803429999992,37.69107510000004,0 -122.06786889999991,37.69111860000004,0 -122.06673329999991,37.69135950000004,0 -122.05990029999992,37.69326640000004,0 -122.05947719999993,37.69337300000004,0 -122.05925479999992,37.693417800000034,0 -122.05810059999992,37.693544400000036,0 -122.05744199999992,37.69359070000004,0 -122.05701929999992,37.693604600000036,0 -122.05648569999993,37.693592400000036,0 -122.05595389999992,37.693561900000034,0 -122.05322539999993,37.69326630000003,0 -122.05285759999992,37.69324190000004,0 -122.05236929999994,37.69322550000004,0 -122.05177999999994,37.69322790000004,0 -122.05115079999995,37.69325590000004,0 -122.05046289999994,37.69332770000005,0 -122.05012319999994,37.693373700000045,0 -122.04934919999994,37.69351320000004,0 -122.04902009999994,37.69358900000004,0 -122.04840219999993,37.69375250000004,0 -122.04780349999992,37.69394840000004,0 -122.04718979999993,37.69418100000004,0 -122.04669119999993,37.69440110000004,0 -122.04635569999994,37.694567900000045,0 -122.04570299999995,37.69492980000005,0 -122.04518979999996,37.695254300000045,0 -122.04484539999996,37.69549790000005,0 -122.04366139999995,37.696510000000046,0 -122.04106319999997,37.69893440000005,0 -122.04049799999997,37.699433800000044,0 -122.03999399999996,37.699827800000044,0 -122.03975189999998,37.69999730000005,0 -122.03912339999998,37.700401300000046,0 -122.03845199999998,37.700763700000046,0 -122.03817579999999,37.70089600000005,0 -122.03745759999997,37.70119080000005,0 -122.03691709999997,37.70138250000005,0 -122.03632809999998,37.70155410000005,0 -122.03585169999998,37.70167410000005,0 -122.0352035,37.70180600000005,0 -122.03495419999999,37.70184650000005,0 -122.0338032,37.701964800000056,0 -122.0331763,37.701992000000054,0 -122.03227710000002,37.70196800000006,0 -122.0318075,37.70192970000006,0 -122.0312401,37.701863300000056,0 -122.0307254,37.70178240000006,0 -122.03003419999999,37.70163710000006,0 -122.0277443,37.70101030000006,0 -122.0274898,37.700950600000056,0 -122.02692669999999,37.700845400000055,0 -122.0262489,37.700749900000055,0 -122.0258405,37.70070950000006,0 -122.02519600000001,37.70067050000006,0 -122.0248679,37.70066250000006,0 -122.0243188,37.700666800000064,0 -122.02375490000001,37.70069390000006,0 -122.0231782,37.700748400000066,0 -122.02254330000001,37.70083570000006,0 -122.0220903,37.70091760000007,0 -122.02161249999999,37.70102270000007,0 -122.0211211,37.70115050000007,0 -122.02059539999999,37.70131230000007,0 -122.01855929999999,37.702066000000066,0 -122.017794,37.70230930000007,0 -122.0172083,37.70245700000007,0 -122.0164999,37.702598000000066,0 -122.0161828,37.702648500000066,0 -122.0155599,37.70272150000007,0 -122.0152863,37.70274240000007,0 -122.0027596,37.70333720000007,0 -122.0014906,37.703359800000065,0 -122.000343,37.703325800000066,0 -121.99919249999999,37.70322890000007,0 -121.9983766,37.703134900000066,0 -121.99763010000001,37.703020600000066,0 -121.99657040000001,37.702802300000066,0 -121.9957693,37.702616200000065,0 -121.9949858,37.702394200000064,0 -121.99404479999998,37.702088400000065,0 -121.9932676,37.701798500000066,0 -121.9928214,37.701617300000066,0 -121.98989180000001,37.70033940000007,0 -121.9894275,37.70015730000007,0 -121.9889367,37.699987200000066,0 -121.9884965,37.69985510000007,0 -121.98787,37.69969570000006,0 -121.9874045,37.69959780000006,0 -121.98692899999999,37.69951670000007,0 -121.98656709999997,37.69946680000006,0 -121.98346179999997,37.69911930000006,0 -121.98188249999997,37.69889160000006,0 -121.97334219999998,37.69742710000006,0 -121.97232919999996,37.69729060000006,0 -121.97108339999997,37.69716420000006,0 -121.97016579999998,37.69710110000006,0 -121.96928959999997,37.69706350000006,0 -121.96822759999996,37.69704820000006,0 -121.96736259999996,37.69705720000006,0 -121.96607899999997,37.69710870000006,0 -121.96425399999997,37.697267300000064,0 -121.96296029999996,37.69743730000006,0 -121.95894489999998,37.698137300000056,0 -121.95810309999997,37.69822230000006,0 -121.95754579999996,37.69826040000006,0 -121.95713329999998,37.69826770000006,0 -121.93703799999996,37.698110200000066,0 -121.93563519999996,37.69813610000006,0 -121.93494779999995,37.69817960000007,0 -121.93380399999995,37.69831290000006,0 -121.93300539999996,37.698457300000065,0 -121.93216809999997,37.698641600000066,0 -121.92999219999996,37.69916420000007,0 -121.92015749999997,37.70138440000007,0 -121.91935019999997,37.70152580000008,0 -121.91825029999997,37.701663100000076,0 -121.91768539999997,37.70170340000007,0 -121.91704389999997,37.701729300000075,0 -121.91253889999996,37.701689300000076,0 -121.90990469999996,37.70160360000008,0 -121.90047219999995,37.701435600000075,0 -121.87940569999995,37.70136590000008,0 -121.87929259999994,37.70137150000008,0 -121.85503779999993,37.70116470000007,0 -121.85460899999994,37.701171800000076,0 -121.83618279999993,37.70102500000007,0 -121.83506809999994,37.70099310000007,0 -121.82330509999994,37.70089250000007,0 -121.82204819999993,37.70089970000007,0 -121.79516989999995,37.70066080000007,0 -121.79448209999994,37.70061930000007,0 -121.79399789999994,37.70055460000007,0 -121.79366179999994,37.700491100000065,0 -121.79213249999992,37.70013690000006,0 -121.78999769999993,37.699683600000064,0 -121.78951259999992,37.699594200000064,0 -121.78881669999991,37.699500000000064,0 -121.7879859999999,37.69943330000007,0 -121.78790989999992,37.69944300000007,0 -121.78720629999992,37.69943670000007,0 -121.78644329999993,37.69947010000007,0 -121.77688289999992,37.700309500000074,0 -121.77574959999993,37.700449400000075,0 -121.76311019999993,37.70249390000008,0 -121.76174209999992,37.702653500000075,0 -121.76090439999992,37.702725200000074,0 -121.75934259999991,37.702797000000075,0 -121.7583010999999,37.70280640000008,0 -121.7566768999999,37.702768500000076,0 -121.74448359999991,37.70225260000008,0 -121.74348969999993,37.70223330000008,0 -121.74242219999991,37.70227060000008,0 -121.74073989999991,37.702437600000074,0 -121.7400098999999,37.70255420000008,0 -121.73920969999989,37.70271660000008,0 -121.7387912999999,37.70281870000008,0 -121.7378655999999,37.70307740000008,0 -121.7370807999999,37.70333350000008,0 -121.73659559999989,37.70351060000008,0 -121.72841239999988,37.70695710000008,0 -121.72832769999987,37.70697840000008,0 -121.71958309999987,37.71070450000008,0 -121.71645299999986,37.711994700000076,0 -121.71600499999987,37.71219940000008,0 -121.70720879999988,37.71596360000008,0 -121.70672939999987,37.71615490000008,0 -121.70619579999986,37.716342600000075,0 -121.70509249999985,37.71669530000008,0 -121.70408849999986,37.71696460000008,0 -121.70366169999987,37.71706330000008,0 -121.68746669999987,37.72040410000008,0 -121.68619079999986,37.72069540000008,0 -121.68281059999987,37.72153380000008,0 -121.68238169999987,37.72161700000008,0 -121.68194569999987,37.721682200000075,0 -121.68141439999987,37.72172810000008,0 -121.68099649999986,37.72174660000008,0 -121.68035299999985,37.72174210000008,0 -121.67993939999987,37.72171160000008,0 -121.67684049999987,37.72138780000008,0 -121.67642489999987,37.72133110000008,0 -121.67579769999986,37.72120820000008,0 -121.67520099999987,37.72104350000008,0 -121.67471379999988,37.720876100000076,0 -121.67444039999988,37.72076630000008,0 -121.67399899999987,37.72056390000008,0 -121.67362599999987,37.720365900000075,0 -121.67334509999988,37.720199900000075,0 -121.67208689999987,37.719352300000075,0 -121.67161559999987,37.71906510000007,0 -121.67134999999988,37.71891970000008,0 -121.67098099999987,37.71874230000008,0 -121.67058139999986,37.718569200000076,0 -121.67004189999984,37.718367900000075,0 -121.66943529999986,37.71818570000007,0 -121.66897209999986,37.71807330000007,0 -121.66824429999986,37.717944200000076,0 -121.66759979999986,37.71787120000007,0 -121.66710199999987,37.71784130000007,0 -121.66676809999989,37.71783540000007,0 -121.66631899999989,37.71784360000007,0 -121.6657785999999,37.717879700000076,0 -121.66529029999991,37.71793660000007,0 -121.6649437999999,37.71799090000007,0 -121.6642842999999,37.71812370000007,0 -121.65774069999989,37.71996450000007,0 -121.64695009999988,37.72342990000007,0 -121.64654509999988,37.72358300000007,0 -121.63721919999988,37.72666600000007,0 -121.63660019999988,37.726899100000075,0 -121.63595499999987,37.72720030000008,0 -121.63555289999987,37.72741930000008,0 -121.63513279999987,37.72769290000008,0 -121.63499679999985,37.72779390000008,0 -121.63473779999985,37.728007600000076,0 -121.63433729999986,37.728408300000076,0 -121.63404689999986,37.72873320000008,0 -121.63281969999987,37.730233200000086,0 -121.63240099999987,37.73068390000009,0 -121.63194839999987,37.73111690000009,0 -121.63137779999987,37.731609200000086,0 -121.63099969999988,37.73188830000009,0 -121.63021569999988,37.73240350000009,0 -121.62956209999989,37.73277260000009,0 -121.62920129999988,37.73295020000009,0 -121.62890639999988,37.73307820000009,0 -121.62862369999988,37.73318550000009,0 -121.62829539999989,37.733295700000085,0 -121.62797179999988,37.73339040000009,0 -121.62764619999989,37.73347100000009,0 -121.62731159999989,37.73353880000008,0 -121.62697999999988,37.73359280000008,0 -121.62664139999988,37.73363410000009,0 -121.61425039999989,37.73448350000009,0 -121.61217599999989,37.734653000000094,0 -121.61099809999989,37.73481500000009,0 -121.6091626999999,37.73516650000009,0 -121.60797479999991,37.73543700000009,0 -121.6013206999999,37.7372715000001,0 -121.6001190999999,37.737562400000094,0 -121.5989436999999,37.7378104000001,0 -121.58346999999989,37.7407004000001,0 -121.57922619999991,37.7412989000001,0 -121.5775092999999,37.7414770000001,0 -121.57134519999991,37.741947300000106,0 -121.5705924999999,37.742024300000104,0 -121.56843849999991,37.7422010000001,0 -121.56777809999991,37.7422344000001,0 -121.5511079999999,37.7434895000001,0 -121.55045979999991,37.743513300000096,0 -121.54927459999992,37.7435150000001,0 -121.54828139999991,37.7434741000001,0 -121.54567199999991,37.7433119000001,0 -121.54361359999989,37.7431522000001,0 -121.51419679999988,37.7412978000001,0 -121.51397949999986,37.7412678000001,0 -121.50571079999986,37.7407466000001,0 -121.50559659999988,37.7407522000001,0 -121.50121059999988,37.7404804000001,0 -121.50027059999988,37.7404509000001,0 -121.49942349999989,37.7404613000001,0 -121.49887339999988,37.7404911000001,0 -121.49811749999989,37.7405518000001,0 -121.4975053999999,37.7406177000001,0 -121.4965410999999,37.740771900000105,0 -121.49601269999991,37.7408803000001,0 -121.49508189999992,37.7410959000001,0 -121.49410019999992,37.7413731000001,0 -121.49338879999992,37.741607000000094,0 -121.49266809999992,37.74187560000009,0 -121.45861249999992,37.75583070000009,0 -121.45754579999992,37.75623930000009,0 -121.45718699999992,37.75639820000009,0 -121.44512789999993,37.76133880000009,0 -121.44439999999992,37.761613900000086,0 -121.44347069999992,37.76192530000009,0 -121.44266439999991,37.76214920000008,0 -121.44163459999992,37.762384100000084,0 -121.44090279999992,37.76251700000009,0 -121.44061499999992,37.762496100000085,0 -121.43983379999992,37.76259910000008,0 -121.4395287999999,37.76262600000008,0 -121.43912969999991,37.76263940000008,0 -121.43864309999991,37.76263970000008,0 -121.43804959999991,37.76262330000009,0 -121.43511299999992,37.762473700000086,0 -121.43510109999991,37.76186540000009,0 -121.43511979999992,37.76124750000008,0 -121.4356507999999,37.761257600000086,0 -121.43564099999992,37.761407100000085,0 -121.43561939999992,37.76153870000009,0 -121.43562929999992,37.76172350000008,0 -121.43561909999991,37.76180270000009,0 -121.43560359999991,37.761824300000086,0 -121.43557829999992,37.76183790000009,0 -121.43550379999992,37.76184570000009,0 -121.43543259999991,37.761844400000086,0 -121.43534869999992,37.761849700000084,0 </coordinates></LineString><TimeSpan><begin>2020-10-09T22:41:50.000Z</begin><end>2020-10-10T00:41:15.000Z</end></TimeSpan></Placemark><Placemark><name>ARCO</name><address>3425 N Tracy Blvd, Tracy, CA 95376</address><ExtendedData><Data name="Email"><value>syugen.zhou@gmail.com</value></Data><Data name="Category"><value>Gas station</value></Data><Data name="Distance"><value>0</value></Data></ExtendedData><description> Gas station from 2020-10-10T00:41:15.000Z to 2020-10-10T00:48:31.999Z. Distance 0m </description><Point><coordinates>-121.4353623,37.7617317,0</coordinates></Point><TimeSpan><begin>2020-10-10T00:41:15.000Z</begin><end>2020-10-10T00:48:31.999Z</end></TimeSpan></Placemark><Placemark><name>Driving</name><address></address><ExtendedData><Data name="Email"><value>syugen.zhou@gmail.com</value></Data><Data name="Category"><value>Driving</value></Data><Data name="Distance"><value>323995</value></Data></ExtendedData><description> Driving from 2020-10-10T00:48:31.999Z to 2020-10-10T04:57:16.734Z. Distance 323995m </description><LineString><altitudeMode>clampToGround</altitudeMode><extrude>1</extrude><tesselate>1</tesselate><coordinates>-121.43536929999998,37.7618481,0 -121.43557829999999,37.7618379,0 -121.43564099999999,37.76140710000001,0 -121.43498330000001,37.76139880000001,0 -121.4349992,37.762475900000005,0 -121.4302542,37.76274860000001,0 -121.4301735,37.762816400000006,0 -121.42444679999998,37.76282990000001,0 -121.40978299999999,37.76470520000001,0 -121.35450399999998,37.76486190000001,0 -121.33118959999999,37.767175800000004,0 -121.3281225,37.768229600000005,0 -121.32646920000002,37.76926550000001,0 -121.32278790000002,37.77333730000001,0 -121.30599750000002,37.785304700000005,0 -121.30579440000001,37.785304700000005,0 -121.2999233,37.788534000000006,0 -121.2979594,37.78929760000001,0 -121.2947355,37.78996080000001,0 -121.2905656,37.78990430000001,0 -121.2648264,37.78332910000001,0 -121.2615207,37.78302120000001,0 -121.1931572,37.78322030000001,0 -121.1919012,37.783477800000014,0 -121.1894916,37.784960900000016,0 -121.1884062,37.785306100000014,0 -121.1871648,37.785272800000016,0 -121.18641360000002,37.78503600000001,0 -121.18560500000002,37.78450320000001,0 -121.18499760000002,37.78353150000001,0 -121.18493490000002,37.782819900000014,0 -121.18515950000003,37.78237270000001,0 -121.18566750000002,37.78206340000001,0 -121.18651450000002,37.78206030000001,0 -121.18701120000003,37.782337800000015,0 -121.18721340000003,37.782599300000015,0 -121.18772530000003,37.78429370000001,0 -121.18783380000004,37.784400800000014,0 -121.19045050000003,37.794666800000016,0 -121.19057970000003,37.79741900000001,0 -121.18989330000002,37.79746630000002,0 -121.18977490000002,37.797548100000014,0 -121.00011640000002,37.79851660000001,0 -121.00001490000001,37.79856400000001,0 -120.99871220000003,37.798455900000015,0 -120.99530850000002,37.796722500000016,0 -120.99259210000002,37.79660750000001,0 -120.9922221,37.796459700000014,0 -120.98960510000002,37.79446710000001,0 -120.98910700000002,37.79428470000001,0 -120.90390110000001,37.79294710000001,0 -120.8897422,37.791542200000016,0 -120.8707348,37.79121100000001,0 -120.8671425,37.790478000000014,0 -120.8649512,37.78937610000001,0 -120.85601199999999,37.781987600000015,0 -120.8514153,37.77372800000002,0 -120.85122190000001,37.77290770000002,0 -120.8470288,37.76663720000002,0 -120.8270235,37.77426500000002,0 -120.81633849999997,37.77623800000003,0 -120.77623139999997,37.77659420000003,0 -120.77401999999996,37.77690190000003,0 -120.72915369999997,37.787844400000026,0 -120.72860709999996,37.788217700000025,0 -120.72544189999996,37.79225630000003,0 -120.72419349999997,37.79588450000003,0 -120.71863179999998,37.80307930000003,0 -120.71494589999999,37.80614080000003,0 -120.71333929999999,37.806746100000026,0 -120.71070029999998,37.80650250000003,0 -120.70980809999998,37.80618570000003,0 -120.70822159999997,37.80520810000003,0 -120.70633389999998,37.804588000000024,0 -120.70446359999997,37.804521900000026,0 -120.70112809999998,37.80526470000002,0 -120.69523809999997,37.807611800000025,0 -120.69327099999998,37.80771970000003,0 -120.68991759999999,37.80689550000003,0 -120.685727,37.80667910000003,0 -120.68465610000001,37.80633940000003,0 -120.6793329,37.80362530000003,0 -120.6783857,37.803361700000025,0 -120.67673590000003,37.80325180000003,0 -120.67558290000002,37.80342360000002,0 -120.67441470000001,37.80384040000003,0 -120.66707460000002,37.80788190000003,0 -120.66068530000003,37.81285070000003,0 -120.65647510000002,37.81479950000003,0 -120.65421780000001,37.81634020000003,0 -120.65014690000002,37.82016060000003,0 -120.64845190000001,37.82086850000003,0 -120.64248850000001,37.82217950000003,0 -120.63992350000002,37.823321900000025,0 -120.62934220000001,37.831904300000026,0 -120.62782690000002,37.833660900000034,0 -120.62546760000001,37.83849510000003,0 -120.6236963,37.840391700000026,0 -120.6164885,37.84414190000003,0 -120.6136231,37.84517210000003,0 -120.6093928,37.84601610000003,0 -120.605707,37.84612810000002,0 -120.6023109,37.846817100000024,0 -120.5968319,37.84920150000002,0 -120.5945835,37.84986630000002,0 -120.58916259999998,37.84991280000002,0 -120.58584689999999,37.849190200000024,0 -120.58257939999999,37.849037800000026,0 -120.57769719999997,37.84742730000002,0 -120.57509519999996,37.84716720000002,0 -120.57171849999997,37.84723570000002,0 -120.56344109999998,37.84635500000002,0 -120.55474439999998,37.846102700000024,0 -120.55106369999997,37.84556750000002,0 -120.54321469999998,37.843315000000025,0 -120.5398719,37.84302510000003,0 -120.5344535,37.84345080000002,0 -120.528511,37.84297160000003,0 -120.5172655,37.84097120000003,0 -120.515318,37.841052600000026,0 -120.50948589999999,37.84257890000002,0 -120.5080444,37.84333290000002,0 -120.50695830000001,37.84473410000002,0 -120.50673230000001,37.84600730000002,0 -120.50686429999999,37.84673260000002,0 -120.5116877,37.85750870000002,0 -120.51197909999999,37.858740400000016,0 -120.5116473,37.86538450000001,0 -120.50604039999999,37.88033360000001,0 -120.50485110000001,37.88171030000001,0 -120.5016013,37.88349870000001,0 -120.4954966,37.88815200000001,0 -120.48668579999999,37.89182330000001,0 -120.4849821,37.89287320000001,0 -120.4773336,37.90160900000001,0 -120.47000009999998,37.90649460000001,0 -120.45899869999998,37.91497170000001,0 -120.45463899999999,37.916941500000014,0 -120.4523061,37.91846180000001,0 -120.4471896,37.92406740000001,0 -120.44496230000001,37.92987450000001,0 -120.44401390000002,37.93387170000001,0 -120.4427816,37.935369600000016,0 -120.4340056,37.94026010000002,0 -120.4285715,37.944068000000016,0 -120.42692910000001,37.94567630000002,0 -120.42623830000002,37.946720700000014,0 -120.42469860000003,37.95054320000001,0 -120.42465730000002,37.95357390000001,0 -120.42409400000003,37.95474570000001,0 -120.42263300000002,37.95604220000001,0 -120.41098690000003,37.96205420000001,0 -120.40992840000003,37.96236270000001,0 -120.39900840000003,37.963303200000006,0 -120.39502170000003,37.96488680000001,0 -120.39301110000004,37.96528690000001,0 -120.38575540000004,37.96477750000001,0 -120.38367690000003,37.96503710000001,0 -120.38211500000004,37.965516400000006,0 -120.37673000000004,37.96867160000001,0 -120.36469600000004,37.97104430000001,0 -120.36272130000003,37.97193450000001,0 -120.35858800000004,37.97582940000001,0 -120.35735050000004,37.97664580000001,0 -120.35571050000004,37.97726560000001,0 -120.34154700000003,37.97880370000001,0 -120.33115330000003,37.98123370000001,0 -120.32911110000002,37.98132980000001,0 -120.31457960000003,37.98030090000001,0 -120.31182350000002,37.98055630000001,0 -120.30679340000003,37.98184850000002,0 -120.29489270000003,37.98196750000002,0 -120.29399640000004,37.98225690000002,0 -120.29005500000004,37.98507830000002,0 -120.28445950000004,37.98741840000002,0 -120.27963080000005,37.99024190000002,0 -120.27474810000004,37.99251660000002,0 -120.27216160000003,37.99426080000002,0 -120.26844780000002,37.99566360000002,0 -120.26084020000003,38.000932400000025,0 -120.26028670000005,38.00154580000002,0 -120.25983590000004,38.00258220000002,0 -120.25981340000004,38.00454640000002,0 -120.25830770000003,38.00789440000002,0 -120.25442650000004,38.01082630000002,0 -120.24897460000003,38.01655070000002,0 -120.24571490000004,38.02085300000002,0 -120.24455390000003,38.02154760000002,0 -120.24143060000002,38.02232880000002,0 -120.24005760000001,38.02316020000002,0 -120.2387848,38.02463650000002,0 -120.2374637,38.02556260000002,0 -120.2319737,38.02796710000002,0 -120.2268426,38.031562200000025,0 -120.2261609,38.03226700000002,0 -120.22419649999999,38.03645190000002,0 -120.2232361,38.03725340000002,0 -120.217595,38.03918340000002,0 -120.2169596,38.039587400000016,0 -120.2162373,38.040397400000025,0 -120.2151246,38.04247300000002,0 -120.21423089999999,38.04323780000002,0 -120.2126634,38.04383750000002,0 -120.2111699,38.044047200000016,0 -120.2105006,38.044384100000016,0 -120.21011890000001,38.04480110000002,0 -120.20986580000002,38.04547680000002,0 -120.20994980000002,38.04618060000002,0 -120.20982200000002,38.046464200000024,0 -120.20944620000002,38.04668130000002,0 -120.20894610000003,38.046599100000016,0 -120.20764580000004,38.04528670000001,0 -120.20663330000004,38.04516910000002,0 -120.20595240000004,38.04547560000002,0 -120.20409800000004,38.04706090000001,0 -120.20377820000006,38.048074600000014,0 -120.20273920000004,38.04946440000001,0 -120.20231370000005,38.05423180000001,0 -120.20165050000006,38.05499490000001,0 -120.20166610000005,38.05680640000001,0 -120.20077590000005,38.059619200000014,0 -120.19865560000004,38.06216970000002,0 -120.19693950000006,38.06278060000002,0 -120.19567510000005,38.06404220000002,0 -120.19530170000006,38.06466580000002,0 -120.19479990000005,38.064952300000016,0 -120.19334210000007,38.06506370000002,0 -120.19161750000005,38.06561820000002,0 -120.18818860000005,38.067481500000014,0 -120.18756660000007,38.06761510000001,0 -120.18712470000007,38.06757260000001,0 -120.18666650000007,38.06736680000001,0 -120.18606910000005,38.06660210000001,0 -120.18416010000007,38.065302400000014,0 -120.18373830000007,38.06526790000001,0 -120.18178400000006,38.06569380000001,0 -120.18146930000006,38.066067300000014,0 -120.18148830000005,38.06661720000002,0 -120.18214460000004,38.06761520000001,0 -120.18211210000005,38.067865900000015,0 -120.18163650000005,38.068444600000014,0 -120.18153870000005,38.068773000000014,0 -120.18166210000004,38.06996630000001,0 -120.18144610000004,38.07061930000001,0 -120.18108680000006,38.071056000000006,0 -120.18028710000007,38.07156090000001,0 -120.17986790000008,38.07217630000001,0 -120.17800620000008,38.07315750000001,0 -120.17311290000008,38.07450850000001,0 -120.1724577000001,38.07486480000001,0 -120.17020000000008,38.07687100000001,0 -120.16913540000009,38.07736820000001,0 -120.16489910000008,38.07836380000001,0 -120.1606602000001,38.080548600000014,0 -120.1594521000001,38.08164930000002,0 -120.1572282000001,38.08455510000002,0 -120.1564446000001,38.08516760000001,0 -120.1531748000001,38.08661840000001,0 -120.15225650000009,38.08725010000001,0 -120.1501355000001,38.08988960000001,0 -120.1492842000001,38.090535300000006,0 -120.14822490000009,38.0909436,0 -120.14665310000008,38.090923100000005,0 -120.14414930000007,38.089569000000004,0 -120.14266360000006,38.089259500000004,0 -120.14150660000007,38.0894244,0 -120.14047430000006,38.0899536,0 -120.13861110000006,38.092466300000005,0 -120.13732350000005,38.093097400000005,0 -120.13134360000004,38.0940799,0 -120.13000010000003,38.0948312,0 -120.12775520000004,38.0973756,0 -120.12405770000004,38.0998551,0 -120.12309530000003,38.1009648,0 -120.12262420000002,38.1024655,0 -120.12313370000001,38.1066855,0 -120.12225630000002,38.1119762,0 -120.12128600000001,38.1142977,0 -120.1203291,38.115667699999996,0 -120.11057150000002,38.1239641,0 -120.10712560000003,38.1251877,0 -120.10588430000004,38.125930499999996,0 -120.09585900000005,38.1352694,0 -120.09471450000004,38.1359374,0 -120.09148970000003,38.1371241,0 -120.09108630000003,38.137464,0 -120.09058940000001,38.138692999999996,0 -120.08767670000002,38.1424467,0 -120.08710490000001,38.1427536,0 -120.08548000000003,38.1429553,0 -120.08498690000003,38.1432586,0 -120.08457860000003,38.1438337,0 -120.08422070000005,38.1451979,0 -120.08238630000005,38.1467242,0 -120.08157410000005,38.1470509,0 -120.07395110000006,38.148100899999996,0 -120.07299320000006,38.1485691,0 -120.07176000000005,38.149560300000005,0 -120.06279490000004,38.1545163,0 -120.06104650000005,38.1550644,0 -120.06052930000004,38.155406,0 -120.05973420000002,38.1564664,0 -120.05845720000002,38.1573957,0 -120.0580386,38.1579113,0 -120.05626800000002,38.161743300000005,0 -120.05508900000001,38.162825,0 -120.04449320000002,38.1666378,0 -120.04392100000003,38.1671432,0 -120.04287470000001,38.168720199999996,0 -120.04248530000001,38.1689976,0 -120.03485310000002,38.17074379999999,0 -120.03373370000003,38.17143089999999,0 -120.03253600000002,38.17271929999999,0 -120.0307439,38.17394149999999,0 -120.02060490000002,38.17774329999999,0 -120.0198179,38.178250799999994,0 -120.01787870000001,38.18039099999999,0 -120.0101236,38.18511759999999,0 -120.0086047,38.186762499999986,0 -120.0076186,38.18955849999999,0 -120.0077632,38.19051559999998,0 -120.00822419999999,38.19117019999999,0 -120.0103893,38.19251229999999,0 -120.0107221,38.192934499999986,0 -120.01078619999998,38.19336409999998,0 -120.0105112,38.193934699999986,0 -120.01026800000001,38.194137799999986,0 -120.0083512,38.19493329999999,0 -120.0073475,38.19588289999999,0 -120.0052502,38.19684129999999,0 -120.00373090000001,38.19820329999998,0 -120.00341210000002,38.198897399999986,0 -120.00361500000001,38.19963439999999,0 -120.0040475,38.20003229999998,0 -120.00445529999999,38.20020479999999,0 -120.00518579999999,38.200297099999986,0 -120.0083928,38.19964749999998,0 -120.01002020000001,38.19968019999998,0 -120.01225880000003,38.200398999999976,0 -120.01338790000003,38.20048269999998,0 -120.01703490000003,38.19938099999998,0 -120.01964720000001,38.19939769999998,0 -120.02009930000001,38.199199299999975,0 -120.02052050000003,38.19872439999998,0 -120.02076510000003,38.19721479999998,0 -120.02128360000003,38.196557599999984,0 -120.02205660000004,38.19622299999998,0 -120.02256250000003,38.19619309999999,0 -120.02344160000003,38.19644719999998,0 -120.02395410000003,38.196887299999986,0 -120.02416520000001,38.19739449999999,0 -120.02414250000002,38.197831999999984,0 -120.02300200000003,38.19916819999999,0 -120.02248590000002,38.20037319999999,0 -120.02239640000002,38.20136209999998,0 -120.02187640000002,38.20206669999998,0 -120.01976280000002,38.202825699999984,0 -120.01903920000002,38.20341249999998,0 -120.01855000000003,38.20421199999998,0 -120.01857730000003,38.20668769999998,0 -120.01793620000004,38.20858499999998,0 -120.01687120000003,38.20978789999998,0 -120.01441890000004,38.21160169999998,0 -120.01338790000003,38.21338489999998,0 -120.01252740000002,38.21397799999998,0 -120.01109740000003,38.21445319999998,0 -120.01067480000002,38.21476619999998,0 -120.01020960000001,38.215640899999975,0 -120.01032430000002,38.21729929999998,0 -120.00986500000002,38.21799329999998,0 -120.00928480000002,38.21831419999998,0 -120.00866250000001,38.21842409999998,0 -120.0078137,38.21827769999997,0 -120.006315,38.217493999999974,0 -120.00435610000001,38.217663199999976,0 -120.00365240000002,38.218044499999976,0 -120.00289690000002,38.21895129999998,0 -120.00236760000003,38.21931819999998,0 -119.99979690000004,38.22004569999998,0 -119.99882930000004,38.220563499999976,0 -119.99813710000002,38.22131169999998,0 -119.99778930000002,38.22221699999998,0 -119.99801020000002,38.22699599999997,0 -119.99749970000003,38.230562399999975,0 -119.99489310000003,38.23665099999997,0 -119.99434480000002,38.24109429999997,0 -119.99461800000003,38.241932299999974,0 -119.99505690000004,38.24245069999997,0 -119.99576300000003,38.24289169999997,0 -119.99792150000003,38.24346099999997,0 -119.99862490000002,38.24381809999997,0 -119.99929610000002,38.244478699999966,0 -119.99962390000003,38.24509129999997,0 -119.99972200000003,38.24582549999997,0 -119.99951280000003,38.24666689999997,0 -119.99783050000002,38.24869809999997,0 -119.99764230000002,38.24933989999997,0 -119.99790030000003,38.25247949999997,0 -119.99719430000003,38.25395349999997,0 -119.99615330000005,38.254762399999976,0 -119.99323580000005,38.25596309999997,0 -119.99158550000004,38.25764089999997,0 -119.99067250000004,38.25985779999997,0 -119.99144270000005,38.26605149999997,0 -119.99250430000006,38.26885639999997,0 -119.99239780000006,38.26998249999997,0 -119.99204520000006,38.27049579999996,0 -119.99158010000005,38.270847999999965,0 -119.99082170000004,38.271102199999966,0 -119.98883500000004,38.27092079999997,0 -119.98802790000003,38.27100659999997,0 -119.98754290000002,38.27122589999997,0 -119.98612580000002,38.272469499999964,0 -119.97880630000002,38.27520369999996,0 -119.97514280000003,38.275474499999966,0 -119.97466060000004,38.275661099999965,0 -119.97389700000004,38.27625479999997,0 -119.97286360000003,38.27769529999997,0 -119.97045470000002,38.27939029999997,0 -119.96842510000002,38.28214529999997,0 -119.96832990000003,38.28414169999997,0 -119.96785890000002,38.28476209999997,0 -119.96467550000003,38.28655929999997,0 -119.96284390000002,38.28706249999997,0 -119.96236800000001,38.28734039999998,0 -119.96192250000003,38.28784599999997,0 -119.96093540000001,38.29072669999997,0 -119.95826450000001,38.29497569999997,0 -119.95629160000003,38.29679409999997,0 -119.95481400000003,38.29727809999997,0 -119.94991790000003,38.29742459999997,0 -119.94936280000002,38.29769389999997,0 -119.94883340000003,38.29843829999997,0 -119.94869290000003,38.29952699999997,0 -119.94834130000002,38.30015309999997,0 -119.94681120000003,38.301434599999965,0 -119.94548450000002,38.30200029999997,0 -119.9399649,38.302653599999964,0 -119.9392653,38.30299219999996,0 -119.938553,38.30367789999997,0 -119.9383519,38.30408819999997,0 -119.93793810000001,38.307042399999965,0 -119.93850630000001,38.308994099999964,0 -119.93845080000001,38.30970699999996,0 -119.93670620000002,38.31338129999996,0 -119.93566050000003,38.31432139999996,0 -119.93322480000003,38.31556379999996,0 -119.93154750000002,38.31609509999996,0 -119.92998340000003,38.31748219999996,0 -119.9261548,38.31979039999996,0 -119.9256637,38.32039439999996,0 -119.92526680000002,38.321363599999955,0 -119.92522300000002,38.323262499999956,0 -119.92470010000001,38.32415939999996,0 -119.9203316,38.32638549999996,0 -119.9198924,38.32682339999995,0 -119.9198107,38.32744899999996,0 -119.92015559999999,38.32796929999996,0 -119.92048829999999,38.328181099999966,0 -119.9268884,38.33031479999997,0 -119.9274563,38.33064179999997,0 -119.9281187,38.331630799999964,0 -119.92830520000001,38.334719599999964,0 -119.92693480000001,38.337824199999964,0 -119.92408820000003,38.34077639999997,0 -119.92312240000001,38.341411699999966,0 -119.9151934,38.344548499999966,0 -119.91301470000002,38.34459929999997,0 -119.91221990000003,38.344798199999964,0 -119.90702160000004,38.34836109999997,0 -119.90359280000004,38.349027099999965,0 -119.89854790000004,38.34890299999997,0 -119.89796750000004,38.349029499999965,0 -119.89727060000003,38.34942399999997,0 -119.89457570000003,38.352540999999974,0 -119.89407580000004,38.35279149999997,0 -119.89327120000003,38.352942199999966,0 -119.89111600000004,38.35274479999997,0 -119.88834160000005,38.35336599999997,0 -119.88587280000004,38.353355699999966,0 -119.88347920000004,38.354164199999964,0 -119.87748100000003,38.35533549999997,0 -119.87591920000004,38.35587479999997,0 -119.87441830000003,38.356121999999964,0 -119.87406870000004,38.35650409999997,0 -119.87401630000005,38.356958799999965,0 -119.87386800000006,38.357172799999965,0 -119.87302400000004,38.357640399999966,0 -119.87016150000004,38.357624599999966,0 -119.86927780000005,38.357120599999966,0 -119.86817520000005,38.35713369999996,0 -119.86579850000007,38.35607079999996,0 -119.86409560000007,38.35496519999997,0 -119.85895270000006,38.35248209999997,0 -119.85750320000007,38.35219839999997,0 -119.85516980000007,38.35255029999997,0 -119.85364250000006,38.35219269999997,0 -119.84971430000006,38.35216109999997,0 -119.84761760000005,38.35145779999997,0 -119.84583890000006,38.35017469999997,0 -119.84394260000005,38.347949099999965,0 -119.84220890000006,38.34705969999997,0 -119.84143500000005,38.34624349999997,0 -119.83644090000006,38.343442899999964,0 -119.83305120000006,38.340938599999966,0 -119.83179870000005,38.34035569999996,0 -119.82973140000004,38.34003729999996,0 -119.81974620000004,38.34136819999996,0 -119.81405740000002,38.33886649999996,0 -119.81349440000002,38.33882249999996,0 -119.80985410000001,38.33984709999996,0 -119.80431980000002,38.34039529999996,0 -119.80286130000002,38.34018119999996,0 -119.80079350000003,38.340769499999965,0 -119.79719930000002,38.34098019999997,0 -119.79580960000001,38.34054599999997,0 -119.79419660000002,38.34041169999996,0 -119.78990250000001,38.34229609999996,0 -119.78934120000001,38.34225559999996,0 -119.7875381,38.34101389999996,0 -119.78594680000002,38.34090229999996,0 -119.78394290000003,38.341071199999966,0 -119.78302940000002,38.34074319999996,0 -119.7809319,38.33919389999996,0 -119.77157910000001,38.336661599999964,0 -119.76640610000001,38.334279499999965,0 -119.7653978,38.334070199999964,0 -119.763564,38.33317939999997,0 -119.7626217,38.33330579999997,0 -119.76151519999999,38.332608099999966,0 -119.76110459999998,38.33196909999997,0 -119.75932129999998,38.33149279999997,0 -119.75698899999998,38.33039219999997,0 -119.75434789999997,38.32779799999997,0 -119.75418749999999,38.32731869999997,0 -119.75425889999998,38.32681949999997,0 -119.75409649999999,38.326131399999966,0 -119.75383029999998,38.32582759999997,0 -119.75241519999999,38.325091899999975,0 -119.75164809999998,38.32407349999997,0 -119.75147149999998,38.32239429999997,0 -119.75075309999998,38.32155069999997,0 -119.74953909999999,38.32112719999997,0 -119.74820619999998,38.32114399999997,0 -119.74806469999997,38.321260599999974,0 -119.74793559999998,38.32165779999997,0 -119.74762469999996,38.321796899999974,0 -119.74718389999997,38.321727599999974,0 -119.74636939999996,38.32075459999997,0 -119.74581659999997,38.32052109999997,0 -119.74440809999996,38.31867879999997,0 -119.74434979999997,38.31819729999997,0 -119.74405489999997,38.31773829999997,0 -119.74337319999995,38.317361399999974,0 -119.74298809999996,38.31608239999997,0 -119.74300919999996,38.31531199999997,0 -119.74286839999996,38.31512229999997,0 -119.74080629999996,38.314856799999966,0 -119.73679969999995,38.31375639999997,0 -119.73544879999996,38.31428489999996,0 -119.73446889999994,38.31502899999997,0 -119.73285659999993,38.31555149999996,0 -119.73210789999995,38.316076499999966,0 -119.73042389999996,38.31649089999996,0 -119.73029669999997,38.31661899999997,0 -119.73031339999997,38.31674999999997,0 -119.73096889999998,38.31707549999997,0 -119.73246969999998,38.31731659999998,0 -119.73269489999998,38.31728199999997,0 -119.73326409999999,38.31689009999997,0 -119.73342749999999,38.31692439999998,0 -119.73348309999999,38.31699629999997,0 -119.73345269999997,38.317139599999976,0 -119.73270499999997,38.31768959999997,0 -119.73021269999997,38.31826189999997,0 -119.72819359999997,38.31949029999997,0 -119.72550869999996,38.32022899999997,0 -119.71841469999995,38.32016449999997,0 -119.71803189999997,38.320300599999975,0 -119.71759709999996,38.321241899999976,0 -119.71759349999998,38.32155369999997,0 -119.71780449999997,38.32189919999997,0 -119.71777999999996,38.32208889999997,0 -119.71756199999996,38.322209699999966,0 -119.71606629999997,38.32249499999997,0 -119.71556149999998,38.32222619999997,0 -119.71541799999999,38.32225079999997,0 -119.71379999999998,38.32360759999997,0 -119.71075299999995,38.32448799999997,0 -119.70977989999996,38.32441469999996,0 -119.70794199999996,38.324696399999965,0 -119.70566249999997,38.32566469999997,0 -119.70444929999996,38.32547329999996,0 -119.70244649999995,38.32565989999996,0 -119.70166729999995,38.32536709999996,0 -119.70031419999995,38.32528189999996,0 -119.69969249999995,38.32547589999996,0 -119.69854689999994,38.32542779999996,0 -119.69623639999995,38.324559899999954,0 -119.69192459999995,38.32489769999995,0 -119.68967089999995,38.325542399999954,0 -119.68757689999995,38.32579769999996,0 -119.68670429999995,38.32617579999995,0 -119.68612059999995,38.32608039999996,0 -119.68471169999995,38.32518719999995,0 -119.68371559999996,38.32481749999995,0 -119.68313979999996,38.32498049999996,0 -119.68235299999995,38.32496329999996,0 -119.68109709999995,38.32458509999996,0 -119.67919179999996,38.32340749999996,0 -119.67286319999995,38.32145639999995,0 -119.67147779999996,38.32058379999996,0 -119.66922439999996,38.317801099999954,0 -119.66901179999995,38.317729999999955,0 -119.66788019999994,38.31825749999996,0 -119.66767879999995,38.31823689999995,0 -119.66696979999995,38.31748349999996,0 -119.66696289999994,38.31700189999996,0 -119.66682409999994,38.31692109999996,0 -119.66665069999996,38.316969899999954,0 -119.66622299999996,38.317382299999956,0 -119.66401899999995,38.318516199999955,0 -119.66322499999994,38.320068399999954,0 -119.66274249999992,38.32040389999995,0 -119.66266139999993,38.32124159999995,0 -119.65966499999993,38.32528319999995,0 -119.65977809999994,38.325929099999954,0 -119.65884289999994,38.32703919999995,0 -119.65771399999996,38.32734909999995,0 -119.65747269999996,38.327701999999945,0 -119.65759859999994,38.328674299999946,0 -119.65672589999994,38.32940889999995,0 -119.65404219999994,38.33338009999995,0 -119.65355319999993,38.33480849999995,0 -119.65271709999993,38.335996799999954,0 -119.65233399999993,38.33620679999995,0 -119.65192069999993,38.33621719999995,0 -119.65164609999992,38.33612459999995,0 -119.65090449999994,38.33542169999995,0 -119.65056939999994,38.335366199999946,0 -119.64917619999993,38.33560769999994,0 -119.64813849999994,38.336442299999945,0 -119.64767919999994,38.336585199999945,0 -119.64532969999995,38.33656999999995,0 -119.64335089999996,38.33585939999995,0 -119.64169339999995,38.33465099999995,0 -119.64107189999996,38.33338449999995,0 -119.64000529999996,38.33299639999995,0 -119.63671229999996,38.33001479999995,0 -119.63670839999996,38.32968109999995,0 -119.63738609999996,38.32886879999995,0 -119.63722259999996,38.327985499999954,0 -119.63688609999997,38.32768299999996,0 -119.63583279999995,38.32740159999995,0 -119.63439779999996,38.32775619999995,0 -119.63379549999995,38.32821629999995,0 -119.63233389999996,38.32890019999995,0 -119.63064209999996,38.328473499999944,0 -119.62905789999995,38.327596099999944,0 -119.62873759999994,38.32723589999995,0 -119.62854929999995,38.32716899999995,0 -119.62813329999996,38.32723059999994,0 -119.62744439999994,38.32705339999994,0 -119.62719699999995,38.326744999999946,0 -119.62636879999997,38.32619849999995,0 -119.62620489999998,38.32621499999995,0 -119.62611209999999,38.32630449999994,0 -119.6262101,38.32716279999995,0 -119.62508129999999,38.327655799999945,0 -119.62036479999999,38.32844939999995,0 -119.61696209999998,38.32806979999995,0 -119.61609119999997,38.32778529999995,0 -119.61461669999998,38.326362699999954,0 -119.6143237,38.32561719999995,0 -119.6147463,38.32477139999995,0 -119.6147002,38.32450489999996,0 -119.61338359999999,38.32313439999996,0 -119.6094577,38.320902199999956,0 -119.6088441,38.32020919999996,0 -119.60885259999999,38.31964379999996,0 -119.60864449999998,38.31926999999996,0 -119.60879499999999,38.318319899999956,0 -119.6090029,38.31825409999996,0 -119.6096266,38.31827949999996,0 -119.6097907,38.31819869999996,0 -119.60982270000001,38.31809959999996,0 -119.60904780000003,38.31699909999996,0 -119.60814600000002,38.316179699999964,0 -119.607848,38.31548919999996,0 -119.6067082,38.31479819999996,0 -119.60548419999999,38.314533799999964,0 -119.604159,38.31376509999996,0 -119.6002988,38.31265239999996,0 -119.59902670000001,38.31201569999997,0 -119.59858960000003,38.311531499999965,0 -119.59853410000002,38.31091039999997,0 -119.59839280000003,38.310727699999966,0 -119.59699510000002,38.31058879999997,0 -119.59659470000003,38.31033829999997,0 -119.59452750000001,38.310117299999966,0 -119.59422990000003,38.309931199999966,0 -119.59339320000002,38.30868369999997,0 -119.59369670000001,38.30672759999996,0 -119.5931984,38.30504409999996,0 -119.59294140000002,38.30485199999996,0 -119.59272890000003,38.30484749999996,0 -119.59149350000003,38.30652449999996,0 -119.59123520000004,38.30735389999996,0 -119.59076070000003,38.30773539999996,0 -119.58978980000003,38.30791159999996,0 -119.58750600000003,38.30755709999996,0 -119.58688510000003,38.30807139999996,0 -119.58689290000005,38.308814699999964,0 -119.58536530000005,38.309718899999964,0 -119.58388320000005,38.30985459999996,0 -119.58375520000006,38.30979039999996,0 -119.58358730000005,38.30942669999996,0 -119.58334620000004,38.30942699999996,0 -119.57816630000003,38.312892699999956,0 -119.57071320000003,38.31657149999996,0 -119.56794280000003,38.319270799999956,0 -119.56671540000002,38.319842899999955,0 -119.56489470000001,38.32034539999996,0 -119.56337820000002,38.321617699999955,0 -119.56281340000001,38.32176439999996,0 -119.56241080000001,38.32234269999996,0 -119.5610626,38.32343579999996,0 -119.56060990000002,38.324169799999964,0 -119.56049460000003,38.32468409999996,0 -119.55983070000002,38.325797499999965,0 -119.558569,38.32647849999997,0 -119.55721780000002,38.32649319999997,0 -119.55514690000001,38.327728899999975,0 -119.55497490000002,38.32767399999998,0 -119.55487570000003,38.32738769999998,0 -119.55574660000003,38.32654699999998,0 -119.55628990000004,38.32549259999998,0 -119.55669040000002,38.32310419999998,0 -119.55649160000003,38.32263029999998,0 -119.55620100000003,38.322422199999984,0 -119.55602450000004,38.322421599999984,0 -119.55583020000005,38.32261559999998,0 -119.55569200000004,38.32318159999998,0 -119.55469700000005,38.32412649999998,0 -119.55435610000004,38.324252899999976,0 -119.55299370000003,38.32553169999997,0 -119.55224460000002,38.32699089999998,0 -119.5519385,38.32826729999997,0 -119.552321,38.330202999999976,0 -119.5533585,38.33105519999997,0 -119.55378550000002,38.33264619999998,0 -119.55243520000002,38.33491889999998,0 -119.55129030000002,38.336078299999976,0 -119.54900890000002,38.340178699999974,0 -119.54775290000002,38.34106729999998,0 -119.54592010000002,38.344422699999974,0 -119.54516070000003,38.344880699999976,0 -119.54437130000002,38.34493079999997,0 -119.54336060000001,38.34530539999998,0 -119.5420647,38.34668939999998,0 -119.5414877,38.34679439999998,0 -119.54045960000002,38.34751229999998,0 -119.53789330000001,38.34848229999998,0 -119.5372825,38.34889159999998,0 -119.536252,38.35018339999998,0 -119.53506910000002,38.35065589999998,0 -119.5317103,38.35055919999997,0 -119.5105893,38.35756319999997,0 -119.50720290000001,38.35762549999997,0 -119.50637250000001,38.357847799999966,0 -119.50437590000003,38.35891539999997,0 -119.50030290000002,38.360463299999964,0 -119.49896860000003,38.36130409999997,0 -119.49659990000002,38.36362359999997,0 -119.49592260000001,38.36395269999997,0 -119.48847420000001,38.365809199999966,0 -119.48527500000002,38.36570619999997,0 -119.4841258,38.36598029999997,0 -119.4784263,38.36567319999997,0 -119.4765604,38.365221799999965,0 -119.4747188,38.36415679999997,0 -119.47200590000001,38.36035609999997,0 -119.46258500000002,38.35171959999997,0 -119.46112170000002,38.351014699999965,0 -119.45277940000001,38.34864859999997,0 -119.452556,38.348477999999965,0 -119.45250110000002,38.34831099999997,0 -119.45301520000001,38.34751719999997,0 -119.4532252,38.346352499999966,0 -119.4529028,38.34541819999997,0 -119.4523739,38.34474529999997,0 -119.4505007,38.34330289999997,0 -119.4484348,38.34254999999997,0 -119.4466623,38.342483499999965,0 -119.4384609,38.34345239999997,0 -119.4359484,38.34445939999996,0 -119.4269216,38.35086309999996,0 -119.4237864,38.35423509999996,0 -119.42302100000002,38.35479319999996,0 -119.4217272,38.35522599999996,0 -119.42061390000002,38.35525869999996,0 -119.38554140000002,38.349373999999955,0 -119.35411790000003,38.34811439999996,0 -119.34714120000002,38.34884389999996,0 -119.34449700000003,38.34885479999996,0 -119.32764970000004,38.34633149999996,0 -119.32625650000003,38.345831099999955,0 -119.32480710000003,38.34487909999996,0 -119.32403870000003,38.34403789999996,0 -119.31523190000004,38.32402019999996,0 -119.31395580000003,38.31744829999995,0 -119.31402670000003,38.30617769999996,0 -119.30955940000004,38.29347299999995,0 -119.30874040000003,38.29204839999995,0 -119.30296360000003,38.28493949999995,0 -119.30072900000005,38.28310119999995,0 -119.29263410000004,38.278953699999946,0 -119.29010350000004,38.277121099999945,0 -119.27198340000005,38.25822779999995,0 -119.27126810000006,38.25775379999995,0 -119.26996010000005,38.25736199999995,0 -119.23695810000004,38.25735719999995,0 -119.23124500000004,38.25566539999995,0 -119.22448300000005,38.25615009999995,0 -119.22373410000004,38.255863399999946,0 -119.22307100000005,38.25521079999995,0 -119.22095900000004,38.248564099999946,0 -119.22088410000005,38.24609949999995,0 -119.23147960000004,38.21283809999995,0 -119.22997330000005,38.20869759999995,0 -119.22332370000007,38.20251999999996,0 -119.22056710000007,38.19832219999996,0 -119.21892040000006,38.196806299999956,0 -119.20717410000006,38.190532099999956,0 -119.20365580000005,38.18720389999996,0 -119.20256340000005,38.18646289999996,0 -119.19962690000004,38.18508639999996,0 -119.19870640000005,38.18437749999996,0 -119.19682780000005,38.18188119999996,0 -119.19593880000005,38.17877219999996,0 -119.19486870000004,38.176934199999955,0 -119.19295070000004,38.16679069999996,0 -119.18767040000003,38.15856309999996,0 -119.18717960000002,38.157363199999956,0 -119.18484010000002,38.144775899999956,0 -119.18509780000002,38.142312599999954,0 -119.18455290000003,38.13964619999996,0 -119.18183230000002,38.13362789999996,0 -119.18150170000003,38.13185399999996,0 -119.18233380000004,38.12910569999996,0 -119.18243760000004,38.12767049999996,0 -119.18145830000005,38.12301639999996,0 -119.17767390000006,38.11495459999996,0 -119.17722790000005,38.10419519999996,0 -119.17825130000004,38.10155389999996,0 -119.17824570000003,38.09614389999996,0 -119.17913770000003,38.09252799999996,0 -119.17979990000002,38.09148189999996,0 -119.18178620000002,38.08961439999997,0 -119.18212290000001,38.08886989999996,0 -119.18220310000002,38.08792529999997,0 -119.18199310000003,38.08713839999997,0 -119.18131630000002,38.086185099999966,0 -119.17905520000002,38.08464139999997,0 -119.1782577,38.08357839999997,0 -119.1780423,38.08261419999997,0 -119.17870120000002,38.07661649999997,0 -119.17857460000002,38.07588679999997,0 -119.17828520000002,38.07537809999997,0 -119.17765510000002,38.07478579999997,0 -119.17680020000003,38.07439959999997,0 -119.17547010000004,38.07425459999997,0 -119.17423460000003,38.07457509999997,0 -119.17145860000002,38.07634089999997,0 -119.16848050000003,38.08018179999997,0 -119.16775690000003,38.08179139999997,0 -119.16684390000003,38.08284619999998,0 -119.16610260000003,38.083291099999975,0 -119.16218870000003,38.08459679999997,0 -119.16094830000002,38.08464219999997,0 -119.16009200000002,38.08443449999997,0 -119.15915100000002,38.08390599999997,0 -119.15845380000002,38.083035099999975,0 -119.15827420000001,38.08226199999997,0 -119.1586946,38.08095199999997,0 -119.1614474,38.078848799999975,0 -119.1646209,38.077428499999975,0 -119.1653513,38.076921399999975,0 -119.1660177,38.07610149999998,0 -119.16724860000001,38.072580099999975,0 -119.16917820000002,38.070812099999976,0 -119.16974580000002,38.069854299999975,0 -119.16990700000001,38.069061399999974,0 -119.16427200000001,38.050877199999974,0 -119.15953010000001,38.04319379999997,0 -119.15555650000002,38.02697769999997,0 -119.15565090000003,38.02594029999997,0 -119.15726840000002,38.02194819999996,0 -119.15750930000002,38.020425299999964,0 -119.15731220000002,38.019352199999965,0 -119.15521380000003,38.014329399999966,0 -119.15409400000003,38.00555089999997,0 -119.15302880000002,38.00361469999997,0 -119.14674020000002,37.998684999999966,0 -119.14545600000001,37.99694639999996,0 -119.14490740000002,37.993685699999965,0 -119.14130830000002,37.989439899999965,0 -119.1393623,37.98531179999997,0 -119.13930850000003,37.98281099999997,0 -119.13801530000002,37.979952299999965,0 -119.13415100000002,37.97496929999996,0 -119.13350450000002,37.97249989999996,0 -119.13059320000002,37.96798379999996,0 -119.12928300000002,37.966685699999964,0 -119.1261032,37.96508139999996,0 -119.1243439,37.963553599999955,0 -119.1192666,37.95667049999996,0 -119.1183518,37.954945799999955,0 -119.1180155,37.952766699999955,0 -119.11770459999998,37.952085199999956,0 -119.11673449999999,37.95122759999996,0 -119.1159718,37.950858599999954,0 -119.110921,37.950009999999956,0 -119.10945960000001,37.94955959999995,0 -119.10744890000001,37.94826859999995,0 -119.1027347,37.94270859999995,0 -119.101666,37.94032359999995,0 -119.0853041,37.856671899999945,0 -119.08309039999999,37.85199269999995,0 -119.08043819999999,37.84816049999995,0 -119.07715299999998,37.84114199999995,0 -119.07339959999999,37.83515249999995,0 -119.0726035,37.83232249999995,0 -119.07174710000001,37.83088999999995,0 -119.07072840000002,37.830067799999945,0 -119.06735750000001,37.828646299999946,0 -119.06544970000003,37.82728469999994,0 -119.06459760000003,37.82624609999994,0 -119.05984300000001,37.817808199999945,0 -119.04683300000002,37.807456599999945,0 -119.04267870000001,37.805099899999945,0 -119.0413967,37.80365299999994,0 -119.0408081,37.80182119999994,0 -119.04094650000002,37.798628399999934,0 -119.0407349,37.79740559999994,0 -119.0402045,37.796212799999935,0 -119.0390173,37.79479049999994,0 -119.03812609999999,37.79409369999994,0 -119.0235447,37.78647619999994,0 -119.0225694,37.785573499999934,0 -119.02188570000001,37.784569599999934,0 -119.02073370000001,37.780461799999934,0 -119.01957440000001,37.77866349999994,0 -119.01801850000001,37.777219399999936,0 -119.00414180000003,37.76832969999993,0 -118.99866990000001,37.763619099999936,0 -118.995509,37.762275899999935,0 -118.9925632,37.75993059999994,0 -118.9882218,37.75787599999994,0 -118.9865172,37.75632039999994,0 -118.98566409999998,37.75514599999994,0 -118.98273959999999,37.74891979999994,0 -118.97678159999998,37.743169299999934,0 -118.95431269999999,37.71280079999994,0 -118.95145019999998,37.70328199999994,0 -118.94876829999998,37.69709489999994,0 -118.94380429999998,37.69148509999994,0 -118.94304169999998,37.69011039999994,0 -118.93931329999998,37.67627609999994,0 -118.93559289999999,37.66818559999994,0 -118.92581459999998,37.65753749999994,0 -118.92486839999998,37.655491799999936,0 -118.92445639999998,37.65347539999994,0 -118.92445679999997,37.64927729999994,0 -118.92406599999998,37.64755949999994,0 -118.92331379999999,37.646074199999944,0 -118.92148369999998,37.64391699999994,0 -118.9182676,37.641194899999945,0 -118.9182814,37.641039199999945,0 -118.9184383,37.64089419999994,0 -118.92446240000001,37.63970619999994,0 -118.93012730000002,37.639650999999944,0 -118.93720410000002,37.64021509999994,0 -118.95213010000003,37.64597359999995,0 -118.95510860000003,37.64653739999995,0 -118.96339350000002,37.64660029999995,0 -118.96847040000003,37.64740759999995,0 -118.96842600000001,37.64765149999995,0 -118.9694424,37.64787139999995,0 -118.9692875,37.64841689999995,0 -118.96938989999998,37.648698499999945,0 -118.96949579999998,37.64873899999995,0 </coordinates></LineString><TimeSpan><begin>2020-10-10T00:48:31.999Z</begin><end>2020-10-10T04:57:16.734Z</end></TimeSpan></Placemark><Placemark><name>Empeiria High Sierra Hotel</name><address>3228 Main St, Mammoth Lakes, CA 93546</address><ExtendedData><Data name="Email"><value>syugen.zhou@gmail.com</value></Data><Data name="Category"><value>Hotel</value></Data><Data name="Distance"><value>0</value></Data></ExtendedData><description> Hotel from 2020-10-10T04:57:16.734Z to 2020-10-10T16:09:54.000Z. Distance 0m </description><Point><coordinates>-118.969133,37.648823,0</coordinates></Point><TimeSpan><begin>2020-10-10T04:57:16.734Z</begin><end>2020-10-10T16:09:54.000Z</end></TimeSpan></Placemark></Document></kml>
