<?xml version="1.0" encoding="UTF-8"?><kml xmlns="http://www.opengis.net/kml/2.2" xmlns:gx="http://www.google.com/kml/ext/2.2"><Document><name> Location history from 2020-10-10 to 2020-10-10 </name><open>1</open><description></description><StyleMap id="multiTrack"><Pair><key>normal</key><styleUrl>#multiTrack_n</styleUrl></Pair><Pair><key>highlight</key><styleUrl>#multiTrack_h</styleUrl></Pair></StyleMap><Style id="multiTrack_n"><IconStyle><Icon><href>https://earth.google.com/images/kml-icons/track-directional/track-0.png</href></Icon></IconStyle><LineStyle><color>99ffac59</color><width>6</width></LineStyle></Style><Style id="multiTrack_h"><IconStyle><scale>1.2</scale><Icon><href>https://earth.google.com/images/kml-icons/track-directional/track-0.png</href></Icon></IconStyle><LineStyle><color>99ffac59</color><width>8</width></LineStyle></Style><Placemark><name>Empeiria High Sierra Hotel</name><address>3228 Main St, Mammoth Lakes, CA 93546</address><ExtendedData><Data name="Email"><value>syugen.zhou@gmail.com</value></Data><Data name="Category"><value>Hotel</value></Data><Data name="Distance"><value>0</value></Data></ExtendedData><description> Hotel from 2020-10-10T04:57:16.734Z to 2020-10-10T16:09:54.000Z. Distance 0m </description><Point><coordinates>-118.969133,37.648823,0</coordinates></Point><TimeSpan><begin>2020-10-10T04:57:16.734Z</begin><end>2020-10-10T16:09:54.000Z</end></TimeSpan></Placemark><Placemark><name>Driving</name><address></address><ExtendedData><Data name="Email"><value>syugen.zhou@gmail.com</value></Data><Data name="Category"><value>Driving</value></Data><Data name="Distance"><value>79046</value></Data></ExtendedData><description> Driving from 2020-10-10T16:09:54.276Z to 2020-10-10T17:30:48.000Z. Distance 79046m </description><LineString><altitudeMode>clampToGround</altitudeMode><extrude>1</extrude><tesselate>1</tesselate><coordinates>-118.96930599999999,37.648488,0 -118.96928749999998,37.6484169,0 -118.96944239999998,37.6478714,0 -118.968426,37.6476515,0 -118.9684704,37.6474076,0 -118.96570070000001,37.646835300000006,0 -118.9633935,37.6466003,0 -118.95681789999999,37.6465465,0 -118.95540209999999,37.6464119,0 -118.95426809999998,37.6462249,0 -118.95012279999999,37.6449492,0 -118.94893409999999,37.644503799999995,0 -118.93916739999999,37.6402248,0 -118.93858759999998,37.6400126,0 -118.93763709999998,37.6397615,0 -118.93670269999998,37.639601799999994,0 -118.93584099999997,37.63954479999999,0 -118.93034739999997,37.639586699999995,0 -118.93012729999997,37.63965099999999,0 -118.92446239999995,37.63970619999999,0 -118.92289389999995,37.63990929999999,0 -118.91843829999996,37.640894199999984,0 -118.91836049999995,37.64087259999999,0 -118.91793539999995,37.640869899999984,0 -118.91769379999995,37.64083869999999,0 -118.91335659999996,37.63932949999999,0 -118.91306289999996,37.63928929999999,0 -118.91142429999996,37.63883219999999,0 -118.88895849999994,37.635829399999984,0 -118.88619359999996,37.635281499999984,0 -118.82125249999997,37.61757199999999,0 -118.81469859999997,37.61595949999999,0 -118.81401489999999,37.61574559999998,0 -118.8126959,37.61516709999999,0 -118.81192779999998,37.61469249999999,0 -118.81133699999998,37.614252599999986,0 -118.8107113,37.613675499999985,0 -118.81024839999999,37.613143499999985,0 -118.80979149999999,37.612476999999984,0 -118.8054519,37.60505419999999,0 -118.8045293,37.60381309999999,0 -118.79286989999999,37.59217179999999,0 -118.79133349999998,37.59100399999999,0 -118.78980249999998,37.59008519999999,0 -118.78893149999998,37.589652099999995,0 -118.76655489999999,37.57982649999999,0 -118.75620619999998,37.575961899999996,0 -118.75510759999997,37.575663399999996,0 -118.74077889999997,37.57331419999999,0 -118.73996289999998,37.573246999999995,0 -118.73860699999999,37.57324239999999,0 -118.72251079999998,37.57502019999999,0 -118.72169649999998,37.575048499999994,0 -118.72023149999998,37.57496509999999,0 -118.71958219999999,37.57487479999999,0 -118.71827859999999,37.57460149999999,0 -118.71731879999999,37.574293,0 -118.71674219999998,37.574059899999995,0 -118.71329189999999,37.572248499999986,0 -118.71256699999999,37.57195929999999,0 -118.71179049999999,37.57172019999999,0 -118.71041399999997,37.57145329999999,0 -118.70895699999997,37.57137329999999,0 -118.70120799999997,37.571968099999985,0 -118.69971049999995,37.57190749999998,0 -118.69863649999996,37.57175139999998,0 -118.69775229999996,37.571549199999986,0 -118.69629509999994,37.571055499999986,0 -118.69529559999995,37.570592799999986,0 -118.69447469999996,37.57010849999999,0 -118.68910699999995,37.56618489999998,0 -118.68839069999996,37.56575739999999,0 -118.68692359999996,37.56508179999999,0 -118.67653409999996,37.56156369999999,0 -118.67525619999996,37.56123429999999,0 -118.67325599999997,37.56088179999998,0 -118.66667279999997,37.560300799999986,0 -118.66574219999998,37.56016539999999,0 -118.66454989999998,37.55990869999999,0 -118.66332099999997,37.55949409999999,0 -118.66127609999998,37.558300399999986,0 -118.66068419999998,37.558016299999984,0 -118.66026859999998,37.55786929999998,0 -118.65945899999997,37.55768759999998,0 -118.65887669999996,37.55762489999998,0 -118.65821779999996,37.55762919999998,0 -118.65557369999996,37.55796919999999,0 -118.65509229999995,37.557976899999986,0 -118.65433909999996,37.55791309999998,0 -118.65328749999996,37.55763909999998,0 -118.65269499999997,37.55738769999998,0 -118.64153669999997,37.55137589999998,0 -118.64114359999998,37.551122599999985,0 -118.64036509999997,37.55042679999998,0 -118.64004629999997,37.55002809999998,0 -118.63970769999997,37.54946819999998,0 -118.63953299999996,37.549056999999976,0 -118.63936089999997,37.54835099999998,0 -118.63934159999998,37.54762599999998,0 -118.64000189999999,37.541555899999985,0 -118.64000779999998,37.54099519999998,0 -118.6398797,37.53993509999999,0 -118.6394744,37.538606399999985,0 -118.6390768,37.537826199999984,0 -118.6384218,37.536911899999986,0 -118.63770610000002,37.53614429999999,0 -118.63706050000002,37.535596799999986,0 -118.62084460000001,37.52365129999998,0 -118.6187294,37.522391099999986,0 -118.617734,37.52190359999999,0 -118.6156595,37.52106759999999,0 -118.6142231,37.52061499999999,0 -118.61281160000001,37.52026549999999,0 -118.6114127,37.51999889999998,0 -118.59719819999998,37.518394599999986,0 -118.59554099999998,37.51804499999999,0 -118.59418389999999,37.51764289999999,0 -118.59224509999997,37.516891599999994,0 -118.59128129999998,37.516417999999994,0 -118.58975369999997,37.515506599999995,0 -118.58882179999998,37.51483859999999,0 -118.58759599999999,37.51379809999999,0 -118.5868096,37.5129902,0 -118.5855103,37.511297299999995,0 -118.58453550000002,37.509470099999994,0 -118.58415570000001,37.5085043,0 -118.5837311,37.50676219999999,0 -118.5811971,37.47052249999999,0 -118.5809532,37.46898629999999,0 -118.5804836,37.46715649999999,0 -118.58012869999999,37.466135399999985,0 -118.57327479999998,37.450818099999985,0 -118.57274129999998,37.448992699999984,0 -118.57257709999996,37.44786389999998,0 -118.57241999999995,37.44444019999998,0 -118.57230579999997,37.44352709999998,0 -118.57195369999998,37.442070299999976,0 -118.57149009999996,37.44082719999998,0 -118.57090269999996,37.43965909999998,0 -118.56982479999998,37.43804359999998,0 -118.5602376,37.42665999999998,0 -118.5589055,37.42486019999998,0 -118.55688359999998,37.42177569999998,0 -118.55555099999997,37.41943839999998,0 -118.55218049999996,37.412877999999985,0 -118.55139829999996,37.411590299999986,0 -118.55029829999995,37.410209399999985,0 -118.54912069999995,37.409041899999984,0 -118.54756799999996,37.40781719999998,0 -118.54635439999996,37.40704739999998,0 -118.54502509999995,37.406347099999984,0 -118.54396509999995,37.40588349999998,0 -118.49888009999995,37.38869089999998,0 -118.49387869999995,37.38704809999998,0 -118.47787499999995,37.380949999999984,0 -118.47767319999997,37.38074519999998,0 -118.47764109999997,37.38069099999998,0 -118.47757949999996,37.38037999999998,0 -118.47760369999996,37.35780899999998,0 -118.47754149999994,37.35728619999998,0 -118.47600039999993,37.35306479999998,0 -118.47537589999995,37.351037499999975,0 -118.47410279999995,37.34604959999998,0 -118.47768629999996,37.34324839999998,0 -118.47854879999996,37.342734899999975,0 -118.47940719999995,37.34238199999998,0 -118.47981809999995,37.34226029999998,0 -118.48066439999995,37.34208579999998,0 -118.50602449999995,37.339642999999974,0 -118.50701499999995,37.339426699999976,0 -118.50822109999997,37.33900999999997,0 -118.52337679999998,37.331750199999966,0 -118.52381269999998,37.33146589999997,0 -118.52418689999998,37.331116799999975,0 -118.52451139999997,37.33065119999998,0 -118.52467829999998,37.33022189999998,0 -118.52474759999998,37.32979589999998,0 -118.5247412,37.32951549999998,0 -118.5246803,37.32917469999998,0 -118.52454650000001,37.328828999999985,0 -118.5243066,37.32842469999998,0 -118.5237805,37.327895699999985,0 -118.5233381,37.32761759999998,0 -118.5228513,37.32741619999998,0 -118.5224927,37.32731359999998,0 -118.52185379999999,37.32722999999998,0 -118.52135819999998,37.32723679999998,0 -118.52103529999997,37.32727769999998,0 -118.51902289999997,37.32773969999998,0 -118.51839779999996,37.32782389999998,0 -118.51769979999995,37.32782389999998,0 -118.51726629999995,37.32777419999998,0 -118.51661469999996,37.32762589999998,0 -118.51608179999997,37.327433899999974,0 -118.51564809999998,37.327218699999975,0 -118.51531859999999,37.327009499999974,0 -118.51491409999997,37.32668439999998,0 -118.51460459999998,37.32635619999998,0 -118.51437249999998,37.32603569999998,0 -118.51411739999999,37.325537499999975,0 -118.51394839999999,37.324871699999974,0 -118.51392989999998,37.32447129999998,0 -118.51398899999998,37.32397159999998,0 -118.51412689999997,37.323523199999975,0 -118.51875209999996,37.314467799999974,0 -118.51902499999994,37.31409439999998,0 -118.51943379999993,37.313661099999976,0 -118.51980479999993,37.31334819999998,0 -118.52720029999992,37.30801299999998,0 -118.52775619999993,37.30749619999998,0 -118.52814509999992,37.30698949999998,0 -118.52915599999993,37.30541009999998,0 -118.52975569999994,37.30474429999998,0 -118.53157879999995,37.30314149999998,0 -118.53220059999994,37.30272619999998,0 -118.53826859999994,37.29980389999998,0 -118.54532079999993,37.29686829999998,0 -118.55277629999993,37.29282069999998,0 -118.55335739999994,37.292450299999985,0 -118.57385229999994,37.27574489999998,0 -118.57457759999994,37.27499429999998,0 -118.57499109999993,37.27441529999998,0 -118.58021749999993,37.26482999999998,0 -118.58051409999995,37.26393159999998,0 -118.58057329999994,37.26356199999998,0 -118.58054599999994,37.26259949999998,0 -118.57973579999995,37.259026299999974,0 -118.57967479999995,37.258259099999975,0 -118.57978169999994,37.25709449999998,0 -118.58000499999994,37.25625999999998,0 -118.58026389999995,37.25564489999998,0 -118.58127049999995,37.253919799999984,0 -118.58141889999995,37.253583699999986,0 -118.58156189999995,37.25309979999998,0 -118.58159629999994,37.252576099999985,0 -118.58144119999994,37.25087109999998,0 -118.58152059999995,37.25047859999999,0 -118.58176889999996,37.25001019999999,0 -118.58200439999996,37.24974729999999,0 -118.58223249999996,37.24956079999999,0 -118.58257409999997,37.24935579999999,0 -118.58287099999998,37.24923229999999,0 -118.58326819999996,37.24912469999999,0 -118.58752059999998,37.248690899999986,0 -118.58815229999999,37.24853919999998,0 -118.58889269999999,37.24822719999998,0 -118.59583139999997,37.24339299999998,0 -118.59629499999998,37.24299249999998,0 -118.59678679999998,37.24236159999998,0 -118.59698859999996,37.241983799999986,0 -118.59716039999996,37.24148019999999,0 -118.59721379999996,37.24107559999999,0 -118.59718549999995,37.23277749999999,0 -118.59722459999995,37.23247249999999,0 -118.59740229999996,37.231927299999995,0 -118.59754389999996,37.23165289999999,0 -118.59922379999996,37.22912589999999,0 -118.60051639999998,37.22646459999999,0 -118.60105109999998,37.22558649999999,0 -118.60293949999998,37.22332149999999,0 -118.60448269999998,37.22179149999999,0 -118.60476479999997,37.221455199999994,0 -118.60499939999997,37.22151269999999,0 -118.60506449999997,37.221512799999985,0 -118.60528779999997,37.22145519999999,0 -118.60538079999999,37.221379099999986,0 -118.60559769999998,37.221298699999984,0 -118.60566849999998,37.22131289999999,0 -118.60570439999998,37.221358399999986,0 -118.60586579999998,37.221405099999984,0 -118.60671919999997,37.221506099999985,0 -118.60854939999999,37.221369299999985,0 -118.6087111,37.221325599999986,0 -118.60895069999998,37.22117679999998,0 -118.6090486,37.22116089999998,0 -118.60914689999998,37.221176999999976,0 -118.60919089999999,37.22121219999998,0 -118.60924699999998,37.22129899999998,0 -118.60926399999997,37.22151199999998,0 -118.60922999999995,37.221564199999975,0 -118.60908269999997,37.22163859999998,0 -118.60891709999997,37.221661499999975,0 -118.60866029999997,37.221744899999976,0 -118.60854879999997,37.221808099999976,0 -118.60847779999996,37.22188479999998,0 -118.60834519999997,37.22222689999998,0 -118.60834729999998,37.222335399999984,0 -118.60844539999998,37.222416999999986,0 -118.60853029999998,37.22244329999999,0 -118.60861969999999,37.222435699999984,0 -118.6088598,37.222368999999986,0 -118.60892580000001,37.22237109999998,0 -118.6089888,37.22240819999998,0 -118.60901190000001,37.22245729999998,0 -118.6090041,37.22250419999998,0 -118.60868599999999,37.22315089999998,0 -118.6082976,37.22371649999998,0 -118.6083213,37.224140599999984,0 -118.60842339999999,37.22441699999999,0 -118.6084266,37.22484029999998,0 -118.6082817,37.225310399999984,0 -118.60826480000001,37.22569379999998,0 -118.60803130000002,37.22616559999998,0 -118.60798840000002,37.22631509999998,0 -118.60805280000001,37.22666529999998,0 -118.60921700000002,37.22851599999998,0 -118.60961470000001,37.229296499999975,0 -118.6096636,37.22931939999997,0 -118.60974449999999,37.229324499999976,0 -118.60980839999999,37.229298999999976,0 -118.60995099999998,37.22927959999997,0 -118.6100408,37.22929849999998,0 -118.610879,37.22967689999997,0 -118.61167269999999,37.230323199999965,0 -118.61209299999999,37.23054979999997,0 -118.61216689999998,37.23061229999997,0 -118.61226729999997,37.23083489999997,0 -118.61234969999998,37.230919799999974,0 -118.61261529999997,37.23104379999997,0 -118.61268549999997,37.23105819999997,0 </coordinates></LineString><TimeSpan><begin>2020-10-10T16:09:54.276Z</begin><end>2020-10-10T17:30:48.000Z</end></TimeSpan></Placemark><Placemark><name>North Lake</name><address>California 93514</address><ExtendedData><Data name="Email"><value>syugen.zhou@gmail.com</value></Data><Data name="Category"><value>Lake</value></Data><Data name="Distance"><value>0</value></Data></ExtendedData><description> Lake from 2020-10-10T17:30:48.000Z to 2020-10-10T17:33:36.000Z. Distance 0m </description><Point><coordinates>-118.6144454,37.231593,0</coordinates></Point><TimeSpan><begin>2020-10-10T17:30:48.000Z</begin><end>2020-10-10T17:33:36.000Z</end></TimeSpan></Placemark><Placemark><name>Walking</name><address></address><ExtendedData><Data name="Email"><value>syugen.zhou@gmail.com</value></Data><Data name="Category"><value>Walking</value></Data><Data name="Distance"><value>1291</value></Data></ExtendedData><description> Walking from 2020-10-10T17:33:36.000Z to 2020-10-10T18:34:15.999Z. Distance 1291m </description><LineString><altitudeMode>clampToGround</altitudeMode><extrude>1</extrude><tesselate>1</tesselate><coordinates>-118.61513319999999,37.2318302,0 -118.61512629999999,37.2318429,0 -118.61504859999998,37.23203,0 -118.61501279999997,37.2321394,0 -118.6149591,37.2322632,0 -118.6149591,37.2322632,0 -118.61501279999997,37.2321394,0 -118.61504859999998,37.23203,0 -118.61512629999999,37.2318429,0 -118.61519179999998,37.2317225,0 -118.61522159999997,37.23166869999999,0 -118.61538029999997,37.2314704,0 -118.61549179999997,37.23135679999999,0 -118.61585609999997,37.2310459,0 -118.61587689999999,37.231028099999996,0 -118.61607559999999,37.230898599999996,0 -118.61629239999999,37.23079119999999,0 -118.6164447,37.2307284,0 -118.61665679999999,37.23065329999999,0 -118.61698409999998,37.230579899999995,0 -118.61739189999997,37.23052579999999,0 -118.61762329999996,37.230504399999994,0 -118.61840079999996,37.23052919999999,0 -118.61850649999997,37.230533199999996,0 -118.61869849999995,37.230519699999995,0 -118.61880769999995,37.23049909999999,0 -118.61899279999994,37.23043849999999,0 -118.61899279999994,37.23043849999999,0 -118.61907439999995,37.23033379999999,0 -118.61921909999994,37.23019279999999,0 -118.61927219999994,37.23015859999999,0 -118.61962349999995,37.22993239999999,0 -118.61970189999994,37.22988189999999,0 -118.62014699999995,37.22958839999998,0 -118.62040389999994,37.229400099999985,0 -118.62045829999995,37.22934129999998,0 -118.62053319999994,37.229219999999984,0 -118.62061679999995,37.229030299999984,0 -118.62062919999994,37.22893699999998,0 -118.62060289999994,37.22875779999998,0 -118.62060289999994,37.22875779999998,0 -118.62003659999995,37.22887799999999,0 -118.61995039999995,37.228902599999984,0 -118.61946249999995,37.22904179999998,0 -118.61929629999996,37.229082799999986,0 -118.61887919999997,37.229152699999986,0 -118.61886829999997,37.229153899999986,0 -118.61824199999997,37.22922419999999,0 -118.61798269999997,37.22926019999999,0 -118.61786869999997,37.229259199999994,0 -118.61775539999996,37.229239899999996,0 -118.61748259999997,37.229147999999995,0 -118.61737019999998,37.2291198,0 -118.61732919999997,37.2291138,0 -118.61729999999996,37.2291096,0 -118.61721269999995,37.2291239,0 -118.61710739999995,37.2291537,0 -118.61690749999995,37.2292292,0 -118.61638259999995,37.2294275,0 -118.61610019999995,37.2295517,0 -118.61567649999994,37.229738,0 -118.61552449999995,37.229833500000005,0 -118.61543369999994,37.2298905,0 -118.61518199999993,37.23006540000001,0 -118.61470339999994,37.23044980000001,0 -118.61447119999994,37.23063630000001,0 -118.61402709999994,37.230925500000005,0 -118.61399119999994,37.23094890000001,0 -118.61382549999995,37.23104230000001,0 -118.61356109999996,37.23110800000001,0 -118.61327219999995,37.231111200000015,0 -118.61299219999997,37.23108280000001,0 -118.61296029999997,37.23108120000001,0 -118.61274709999996,37.23107080000001,0 -118.61261529999997,37.231043800000016,0 -118.61245829999997,37.23098010000002,0 -118.61234969999997,37.23091980000002,0 -118.61226729999996,37.23083490000001,0 -118.61222299999996,37.23070520000002,0 -118.61216689999998,37.23061230000002,0 -118.61214069999997,37.230590200000016,0 -118.61209299999999,37.23054980000001,0 -118.61182589999997,37.23041100000002,0 -118.61177459999998,37.230381600000015,0 -118.61167269999999,37.23032320000002,0 -118.61129139999998,37.23000520000002,0 -118.61111309999997,37.22985660000002,0 </coordinates></LineString><TimeSpan><begin>2020-10-10T17:33:36.000Z</begin><end>2020-10-10T18:34:15.999Z</end></TimeSpan></Placemark><Placemark><name>Driving</name><address></address><ExtendedData><Data name="Email"><value>syugen.zhou@gmail.com</value></Data><Data name="Category"><value>Driving</value></Data><Data name="Distance"><value>212080</value></Data></ExtendedData><description> Driving from 2020-10-10T18:34:15.999Z to 2020-10-10T21:34:20.999Z. Distance 212080m </description><LineString><altitudeMode>clampToGround</altitudeMode><extrude>1</extrude><tesselate>1</tesselate><coordinates>-118.61111249999999,37.229856,0 -118.610879,37.229676899999994,0 -118.60995099999998,37.2292796,0 -118.60974449999999,37.2293245,0 -118.60961469999998,37.2292965,0 -118.6080528,37.2266653,0 -118.6079884,37.2263151,0 -118.60826479999999,37.2256938,0 -118.60842339999999,37.224416999999995,0 -118.6082976,37.223716499999995,0 -118.60901189999998,37.222457299999995,0 -118.60892579999998,37.2223711,0 -118.60853029999998,37.222443299999995,0 -118.60834729999998,37.22233539999999,0 -118.60847779999996,37.2218848,0 -118.60866029999997,37.2217449,0 -118.60922999999995,37.221564199999996,0 -118.60924699999995,37.221298999999995,0 -118.60914689999994,37.221177,0 -118.60895069999994,37.221176799999995,0 -118.60871109999994,37.2213256,0 -118.60671919999994,37.2215061,0 -118.60570439999995,37.2213584,0 -118.60566849999996,37.221312899999994,0 -118.60559769999996,37.2212987,0 -118.60506449999997,37.22151279999999,0 -118.60476479999997,37.221455199999994,0 -118.60105109999996,37.22558649999999,0 -118.59740229999996,37.231927299999995,0 -118.59722459999995,37.23247249999999,0 -118.59716039999996,37.24148019999999,0 -118.59678679999995,37.242361599999995,0 -118.59629499999996,37.24299249999999,0 -118.58889269999996,37.248227199999995,0 -118.58752059999995,37.2486909,0 -118.58326819999995,37.249124699999996,0 -118.58257409999995,37.249355800000004,0 -118.58176889999996,37.2500102,0 -118.58144119999994,37.2508711,0 -118.58156189999995,37.253099799999994,0 -118.58127049999995,37.25391979999999,0 -118.58026389999995,37.25564489999999,0 -118.57978169999996,37.257094499999994,0 -118.57967479999996,37.25825909999999,0 -118.58057329999997,37.263561999999986,0 -118.58021749999996,37.26482999999999,0 -118.57457759999997,37.27499429999999,0 -118.55335739999997,37.29245029999999,0 -118.54532079999996,37.29686829999999,0 -118.53220059999997,37.30272619999999,0 -118.53157879999996,37.30314149999999,0 -118.52915599999997,37.30541009999999,0 -118.52775619999998,37.30749619999999,0 -118.51943379999999,37.31366109999999,0 -118.51875209999999,37.31446779999999,0 -118.51398899999998,37.32397159999999,0 -118.51394839999999,37.32487169999999,0 -118.51437249999998,37.326035699999984,0 -118.51491409999997,37.32668439999999,0 -118.51608179999997,37.32743389999999,0 -118.51769979999997,37.32782389999999,0 -118.51839779999999,37.32782389999999,0 -118.5210353,37.327277699999996,0 -118.52185379999999,37.32722999999999,0 -118.5224927,37.32731359999999,0 -118.5233381,37.32761759999999,0 -118.5243066,37.32842469999999,0 -118.5246803,37.329174699999996,0 -118.52474760000001,37.32979589999999,0 -118.52451140000002,37.3306512,0 -118.52418690000003,37.3311168,0 -118.52337680000004,37.3317502,0 -118.50822110000001,37.33901,0 -118.50602450000002,37.33964300000001,0 -118.48066440000004,37.34208580000001,0 -118.47940720000003,37.34238200000001,0 -118.47768630000004,37.34324840000001,0 -118.46400830000005,37.353899000000006,0 -118.46160910000006,37.35651670000001,0 -118.45874680000004,37.35887510000001,0 -118.45683820000005,37.35994770000001,0 -118.45391560000006,37.36091060000001,0 -118.45205840000006,37.36118110000002,0 -118.39523970000005,37.36139400000001,0 -118.39523820000007,37.35863120000001,0 -118.39625120000007,37.35861300000002,0 -118.39629610000007,37.35987340000001,0 -118.39522970000006,37.35988990000002,0 -118.39540660000006,37.373559100000016,0 -118.39565140000006,37.37420880000002,0 -118.39614260000006,37.37483810000002,0 -118.39712380000007,37.37549040000002,0 -118.39819400000007,37.375841000000015,0 -118.46162220000008,37.37593010000001,0 -118.46384430000009,37.37620640000001,0 -118.46660730000009,37.37683570000001,0 -118.54492280000008,37.406692000000014,0 -118.5474883000001,37.40821930000001,0 -118.54912490000008,37.409563900000016,0 -118.55101890000009,37.41175180000002,0 -118.55659330000009,37.42209920000002,0 -118.55902080000008,37.425711100000015,0 -118.56943490000009,37.438185400000016,0 -118.57065090000009,37.440048200000014,0 -118.5718132000001,37.44323780000001,0 -118.5724475000001,37.45036750000001,0 -118.57798680000012,37.46316450000002,0 -118.57853140000012,37.46722780000002,0 -118.58054820000011,37.47256390000002,0 -118.58333610000011,37.51220960000001,0 -118.58417500000013,37.513922000000015,0 -118.58577830000011,37.515363500000014,0 -118.59358090000012,37.518568400000014,0 -118.60244840000013,37.520808400000014,0 -118.60365460000014,37.52093450000001,0 -118.60811130000013,37.52039610000001,0 -118.60983010000014,37.520498400000015,0 -118.61824490000014,37.52311790000002,0 -118.62021880000013,37.52416280000001,0 -118.62889470000015,37.531021400000014,0 -118.63585490000015,37.53489380000002,0 -118.63746130000015,37.53603910000002,0 -118.63885450000016,37.537642200000015,0 -118.63945920000018,37.53882530000001,0 -118.63983600000016,37.540265900000016,0 -118.63991030000017,37.54139900000001,0 -118.63928640000017,37.548362400000016,0 -118.63962070000017,37.549458000000016,0 -118.64012650000015,37.55026000000001,0 -118.64146630000016,37.55142760000001,0 -118.65266420000017,37.55746880000002,0 -118.65403700000016,37.55793180000001,0 -118.65532940000017,37.558052300000014,0 -118.65840500000019,37.55770370000001,0 -118.66022870000018,37.55796540000001,0 -118.66113450000017,37.55832620000001,0 -118.66331140000018,37.55957980000001,0 -118.66542410000017,37.56018100000001,0 -118.67423110000016,37.56122020000001,0 -118.67586260000016,37.56157110000001,0 -118.68684280000016,37.565262800000006,0 -118.68916050000017,37.566469500000004,0 -118.69548460000017,37.570912400000005,0 -118.69765980000017,37.57172840000001,0 -118.70010070000018,37.572134700000014,0 -118.70900840000016,37.571557700000014,0 -118.71089170000018,37.571716000000016,0 -118.71313790000016,37.572386000000016,0 -118.71694290000018,37.574368600000014,0 -118.71818090000018,37.574784500000014,0 -118.72047700000017,37.575204000000014,0 -118.72266390000017,37.57521600000002,0 -118.73881580000018,37.57341810000002,0 -118.74129390000017,37.57357320000002,0 -118.75488980000017,37.576290600000014,0 -118.75721760000017,37.576960700000015,0 -118.77496400000018,37.583850100000014,0 -118.79027790000018,37.59073150000001,0 -118.79313790000019,37.59280950000001,0 -118.80457330000017,37.60428510000001,0 -118.80997210000018,37.613146600000015,0 -118.8115239000002,37.614668500000015,0 -118.81300190000019,37.615541700000016,0 -118.8143642000002,37.616069400000015,0 -118.88784530000018,37.635981600000015,0 -118.91052650000019,37.638989600000016,0 -118.9126384000002,37.63949920000002,0 -118.91516960000021,37.640533200000014,0 -118.92146540000019,37.644552900000015,0 -118.92276200000019,37.64600340000001,0 -118.92337670000019,37.64704360000001,0 -118.92392640000018,37.648730700000016,0 -118.92404330000019,37.653387600000016,0 -118.9246848000002,37.655949100000015,0 -118.92546140000019,37.657476400000014,0 -118.9284152000002,37.66169020000002,0 -118.9316594000002,37.664724200000016,0 -118.93252640000019,37.665964500000015,0 -118.9334604000002,37.66816710000001,0 -118.93900030000019,37.67630600000002,0 -118.94271250000018,37.690062200000014,0 -118.94390030000018,37.69206170000001,0 -118.94760710000018,37.69601750000001,0 -118.95105820000019,37.70411160000001,0 -118.9532422000002,37.71220160000001,0 -118.9537927000002,37.71330290000001,0 -118.9766732000002,37.743662500000006,0 -118.98211740000019,37.74872710000001,0 -118.98259770000021,37.74942600000001,0 -118.9847790000002,37.75475430000001,0 -118.9853354000002,37.7555847,0 -118.9882695000002,37.758292,0 -118.9898332000002,37.7592924,0 -118.99215020000021,37.760090600000005,0 -118.9929189000002,37.76055710000001,0 -118.9943274000002,37.762207100000005,0 -118.99525670000021,37.7627575,0 -118.9979058000002,37.7635205,0 -118.99963700000019,37.7644712,0 -119.00325560000019,37.767776600000005,0 -119.01843470000018,37.7776524,0 -119.0200775000002,37.7794829,0 -119.0207307000002,37.7806795,0 -119.02156480000019,37.7844489,0 -119.02235230000018,37.786019700000004,0 -119.02316690000019,37.7869042,0 -119.0248180000002,37.787972700000005,0 -119.02905560000019,37.789517000000004,0 -119.0376526000002,37.793896800000006,0 -119.0389479000002,37.7948407,0 -119.0400783000002,37.796195600000004,0 -119.04062930000019,37.7974005,0 -119.04085920000018,37.7988219,0 -119.04071090000019,37.801880700000005,0 -119.04131750000019,37.803701600000004,0 -119.04258640000019,37.80514110000001,0 -119.04602490000019,37.807053700000004,0 -119.05414740000018,37.81329180000001,0 -119.05429130000019,37.81333440000001,0 -119.0589570000002,37.81724120000001,0 -119.0600702000002,37.81871910000001,0 -119.06408110000021,37.826104100000016,0 -119.06780680000021,37.830547500000016,0 -119.06917890000021,37.833272600000015,0 -119.07035240000022,37.839053800000016,0 -119.07211720000022,37.84243170000002,0 -119.07963560000022,37.85026790000002,0 -119.08452300000022,37.85817530000001,0 -119.0857040000002,37.860836100000014,0 -119.10127200000022,37.94048280000001,0 -119.10246040000023,37.94302010000001,0 -119.10733300000021,37.94862790000001,0 -119.10834160000022,37.94928700000001,0 -119.11016440000023,37.94997880000001,0 -119.11610180000024,37.95094480000001,0 -119.11673450000022,37.95122760000001,0 -119.11758370000022,37.95201110000001,0 -119.11792450000023,37.952839800000014,0 -119.11825670000023,37.95487890000001,0 -119.11835180000023,37.95494580000001,0 -119.11926660000023,37.956670500000016,0 -119.12434390000023,37.96355360000001,0 -119.12436180000023,37.963665100000014,0 -119.12527120000023,37.96459570000002,0 -119.12637950000023,37.96533170000002,0 -119.12898700000021,37.96659870000002,0 -119.13013900000021,37.96752580000002,0 -119.13051170000021,37.96801060000002,0 -119.13058090000021,37.968039400000016,0 -119.1335045000002,37.97249990000001,0 -119.1341510000002,37.97496930000001,0 -119.1380153000002,37.979952300000015,0 -119.1393085000002,37.98281100000002,0 -119.13936230000019,37.98531180000002,0 -119.14130830000019,37.989439900000015,0 -119.1449074000002,37.993685700000015,0 -119.1451304000002,37.99591990000002,0 -119.1454560000002,37.99694640000002,0 -119.14674020000021,37.998685000000016,0 -119.15082900000019,38.00162210000002,0 -119.1530288000002,38.00361470000002,0 -119.15359640000018,38.00439900000002,0 -119.15409400000017,38.005550900000024,0 -119.15473830000018,38.008570500000026,0 -119.15521380000018,38.01432940000002,0 -119.15731220000018,38.01935220000002,0 -119.15750930000016,38.02042530000002,0 -119.15726840000018,38.02194820000002,0 -119.15565090000018,38.02594030000002,0 -119.15555650000017,38.026977700000025,0 -119.15952090000016,38.043251500000025,0 -119.16427200000017,38.05087720000003,0 -119.16990700000017,38.06906140000003,0 -119.16974580000016,38.06985430000003,0 -119.16917820000018,38.07081210000003,0 -119.16724860000016,38.07258010000003,0 -119.16689760000018,38.07317120000003,0 -119.16601770000018,38.076101500000036,0 -119.16535130000018,38.07692140000003,0 -119.16462090000017,38.07742850000003,0 -119.16144740000018,38.07884880000003,0 -119.15869460000019,38.080952000000025,0 -119.15834750000019,38.081695000000025,0 -119.15827420000019,38.08226200000003,0 -119.15845380000019,38.08303510000003,0 -119.1591510000002,38.08390600000003,0 -119.1600920000002,38.08443450000003,0 -119.1609483000002,38.084642200000026,0 -119.1621887000002,38.08459680000003,0 -119.16610260000022,38.08329110000003,0 -119.16684390000022,38.082846200000034,0 -119.16775690000021,38.08179140000003,0 -119.1684805000002,38.08018180000003,0 -119.16987420000021,38.07857200000002,0 -119.17087720000019,38.07694240000003,0 -119.1714586000002,38.07634090000003,0 -119.1742346000002,38.074575100000025,0 -119.17547010000023,38.074254600000025,0 -119.17680020000022,38.07439960000003,0 -119.17765510000021,38.07478580000003,0 -119.1782852000002,38.07537810000003,0 -119.17857460000019,38.07588680000003,0 -119.17870120000019,38.07661650000003,0 -119.17804230000019,38.08261420000003,0 -119.17825770000019,38.08357840000003,0 -119.17905520000019,38.084641400000024,0 -119.1813163000002,38.08618510000002,0 -119.18199310000021,38.08713840000003,0 -119.1822031000002,38.08792530000002,0 -119.1821229000002,38.08886990000002,0 -119.1817862000002,38.08961440000002,0 -119.17979990000019,38.09148190000002,0 -119.1791377000002,38.092528000000016,0 -119.17824570000022,38.096143900000015,0 -119.17825130000021,38.10155390000002,0 -119.17736610000021,38.10346480000002,0 -119.1772279000002,38.10419520000002,0 -119.17733640000021,38.10866650000002,0 -119.17783680000022,38.112462300000026,0 -119.17767390000022,38.114954600000026,0 -119.1802329000002,38.12086380000002,0 -119.1814583000002,38.123016400000026,0 -119.1824376000002,38.12767050000002,0 -119.1823338000002,38.129105700000025,0 -119.18150170000018,38.131854000000025,0 -119.18183230000018,38.13362790000002,0 -119.18455290000018,38.13964620000002,0 -119.18509780000018,38.14231260000002,0 -119.18484010000017,38.14477590000002,0 -119.18717960000018,38.15736320000002,0 -119.18767040000019,38.15856310000002,0 -119.1929507000002,38.16679070000002,0 -119.1946828000002,38.17451640000002,0 -119.19486870000019,38.17693420000002,0 -119.19593880000019,38.178772200000026,0 -119.1964538000002,38.18108540000002,0 -119.1968278000002,38.18188120000003,0 -119.1987064000002,38.18437750000003,0 -119.1996269000002,38.18508640000003,0 -119.20256340000019,38.18646290000003,0 -119.2036558000002,38.18720390000003,0 -119.20717410000022,38.19053210000003,0 -119.20832360000021,38.19131490000003,0 -119.21723180000022,38.195723300000026,0 -119.21892040000021,38.19680630000003,0 -119.22056710000022,38.19832220000002,0 -119.22332370000021,38.20252000000002,0 -119.22493850000022,38.20426920000003,0 -119.22997330000021,38.20869760000003,0 -119.2313328000002,38.21198190000003,0 -119.2314796000002,38.212838100000035,0 -119.2314132000002,38.21341770000003,0 -119.2218515000002,38.241760500000034,0 -119.2208841000002,38.246099500000035,0 -119.22095900000019,38.24856410000003,0 -119.2230710000002,38.25521080000003,0 -119.2237341000002,38.25586340000003,0 -119.2244830000002,38.256150100000035,0 -119.22502720000021,38.25620450000004,0 -119.23018540000022,38.25563170000004,0 -119.23124500000023,38.25566540000004,0 -119.23695810000022,38.25735720000004,0 -119.26996010000023,38.257362000000036,0 -119.27126810000024,38.25775380000004,0 -119.27198340000024,38.258227800000036,0 -119.29010350000023,38.27712110000004,0 -119.29263410000021,38.27895370000004,0 -119.30072900000022,38.28310120000003,0 -119.30171560000021,38.28377420000004,0 -119.30296360000021,38.284939500000036,0 -119.3087404000002,38.29204840000004,0 -119.30955940000021,38.29347300000004,0 -119.31402670000021,38.30617770000004,0 -119.31395580000022,38.317448300000045,0 -119.31523190000021,38.32402020000005,0 -119.31616580000022,38.326816200000046,0 -119.32403870000022,38.344037900000046,0 -119.32480710000021,38.34487910000005,0 -119.3262565000002,38.34583110000005,0 -119.32764970000021,38.34633150000005,0 -119.34433910000021,38.34892050000005,0 -119.34740930000021,38.348899600000045,0 -119.35419850000021,38.34818820000005,0 -119.3855414000002,38.34937400000005,0 -119.42061390000019,38.35525870000005,0 -119.42172720000019,38.35522600000005,0 -119.42302100000019,38.35479320000005,0 -119.42378640000018,38.35423510000006,0 -119.42692160000018,38.350863100000055,0 -119.43594840000017,38.34445940000006,0 -119.43742490000018,38.34374230000006,0 -119.43846090000018,38.34345240000006,0 -119.44666230000018,38.342483500000064,0 -119.44843480000017,38.34255000000007,0 -119.44962490000017,38.34287710000007,0 -119.45050070000018,38.34330290000007,0 -119.45237390000018,38.34474530000006,0 -119.45290280000019,38.34541820000006,0 -119.45319050000019,38.34628390000007,0 -119.45310480000019,38.347069200000064,0 -119.4527863000002,38.347785500000064,0 -119.4522345000002,38.34849110000007,0 -119.46112170000019,38.35101470000007,0 -119.46258500000019,38.35171960000007,0 -119.4635307000002,38.352397400000065,0 -119.4720059000002,38.36035610000007,0 -119.47375640000018,38.36309430000007,0 -119.47471880000019,38.364156800000075,0 -119.47656040000018,38.36522180000007,0 -119.47842630000018,38.365673200000074,0 -119.48412580000019,38.365980300000075,0 -119.4852750000002,38.365706200000076,0 -119.4884742000002,38.36580920000008,0 -119.4959226000002,38.36395270000008,0 -119.49659990000019,38.363623600000075,0 -119.4989686000002,38.361304100000076,0 -119.50030290000021,38.36046330000008,0 -119.5043759000002,38.35891540000008,0 -119.5063725000002,38.35784780000007,0 -119.50720290000018,38.357625500000076,0 -119.50865320000018,38.357531800000075,0 -119.50984060000019,38.35763540000007,0 -119.51058930000018,38.35756320000007,0 -119.51745990000018,38.35555410000007,0 -119.53171030000019,38.35055920000007,0 -119.53506910000019,38.35065590000007,0 -119.53625200000019,38.35018340000007,0 -119.53653250000019,38.34996500000007,0 -119.53728250000017,38.34889160000007,0 -119.53789330000018,38.34848230000007,0 -119.54045960000019,38.347512300000076,0 -119.54148770000019,38.34679440000008,0 -119.54185030000018,38.346782000000076,0 -119.54206470000018,38.34668940000007,0 -119.54336060000018,38.34530540000007,0 -119.5443713000002,38.34493080000007,0 -119.5448765000002,38.34494770000007,0 -119.54516070000021,38.34488070000007,0 -119.54592010000019,38.344422700000074,0 -119.5471908000002,38.341785700000074,0 -119.54775290000019,38.34106730000007,0 -119.5490089000002,38.340178700000074,0 -119.5512903000002,38.33607830000007,0 -119.5524352000002,38.33491890000007,0 -119.55378550000019,38.33264620000007,0 -119.55335850000019,38.33105520000007,0 -119.55232100000019,38.330203000000076,0 -119.55193850000019,38.32826730000007,0 -119.55219450000018,38.32758510000007,0 -119.55224460000018,38.32699090000007,0 -119.55299370000019,38.32553170000007,0 -119.55435610000019,38.32425290000007,0 -119.55469700000019,38.32412650000007,0 -119.5554241000002,38.323546300000075,0 -119.55569200000018,38.323181600000076,0 -119.55583020000019,38.32261560000008,0 -119.55602450000019,38.32242160000008,0 -119.55620100000019,38.32242220000008,0 -119.55649160000017,38.32263030000008,0 -119.55669040000018,38.323104200000074,0 -119.55628990000018,38.325492600000075,0 -119.55574660000018,38.326547000000076,0 -119.55487570000017,38.327387700000074,0 -119.55486340000019,38.327474200000076,0 -119.55497490000018,38.32767400000007,0 -119.55514690000017,38.32772890000007,0 -119.55721780000017,38.326493200000066,0 -119.55856900000016,38.326478500000064,0 -119.55983070000018,38.325797500000064,0 -119.56049460000018,38.32468410000006,0 -119.56060990000017,38.32416980000006,0 -119.56106260000016,38.323435800000055,0 -119.56241080000017,38.32234270000006,0 -119.56281340000017,38.321764400000056,0 -119.56337820000016,38.321617700000054,0 -119.56489470000017,38.32034540000005,0 -119.56671540000018,38.319842900000054,0 -119.56794280000018,38.31927080000005,0 -119.57071320000018,38.31657150000005,0 -119.57155660000018,38.31621020000005,0 -119.57206150000016,38.31585380000005,0 -119.57297780000017,38.31554260000005,0 -119.57816630000016,38.312892700000056,0 -119.58334620000016,38.30942700000005,0 -119.58358730000018,38.30942670000005,0 -119.58368370000017,38.30952130000006,0 -119.58375520000016,38.309790400000054,0 -119.58388320000014,38.30985460000006,0 -119.58479650000014,38.30969650000006,0 -119.58536530000013,38.30971890000006,0 -119.58682850000014,38.308901500000054,0 -119.58689290000012,38.308814700000056,0 -119.58688510000012,38.30807140000006,0 -119.58730900000012,38.30764340000006,0 -119.5875060000001,38.307557100000054,0 -119.5897898000001,38.307911600000054,0 -119.5907607000001,38.307735400000055,0 -119.59102160000009,38.30759280000006,0 -119.59123520000009,38.30735390000006,0 -119.59149350000008,38.30652450000006,0 -119.59257350000007,38.30494560000006,0 -119.59272890000007,38.30484750000006,0 -119.59294140000006,38.30485200000006,0 -119.59319840000006,38.30504410000006,0 -119.59348430000004,38.305612900000064,0 -119.59369670000004,38.306727600000066,0 -119.59339320000005,38.30868370000007,0 -119.59422990000006,38.30993120000007,0 -119.59452750000004,38.31011730000007,0 -119.59508980000004,38.310098500000066,0 -119.59659470000004,38.31033830000007,0 -119.59699510000004,38.31058880000006,0 -119.59839280000006,38.310727700000065,0 -119.59853410000004,38.31091040000006,0 -119.59858960000005,38.31153150000006,0 -119.59902670000004,38.31201570000006,0 -119.60029880000003,38.31265240000006,0 -119.60415900000002,38.31376510000006,0 -119.60548420000002,38.314533800000056,0 -119.60670820000003,38.314798200000055,0 -119.60729860000004,38.315070700000064,0 -119.60784800000003,38.31548920000006,0 -119.60814600000003,38.31617970000006,0 -119.60904780000004,38.31699910000006,0 -119.60982270000004,38.31809960000006,0 -119.60979070000003,38.31819870000006,0 -119.60962660000003,38.31827950000006,0 -119.60900290000002,38.31825410000006,0 -119.60879500000001,38.31831990000006,0 -119.60871670000002,38.31842790000006,0 -119.60864450000001,38.31927000000006,0 -119.60885260000002,38.31964380000006,0 -119.60884410000003,38.32020920000006,0 -119.60945770000002,38.320902200000056,0 -119.61010470000001,38.32133030000006,0 -119.61107430000001,38.32169670000006,0 -119.61338359999999,38.32313440000006,0 -119.6147002,38.32450490000006,0 -119.6147463,38.32477140000005,0 -119.61433819999999,38.325467800000055,0 -119.6143237,38.32561720000006,0 -119.61461669999998,38.32636270000006,0 -119.61609119999997,38.32778530000006,0 -119.61696209999998,38.32806980000006,0 -119.62036479999999,38.32844940000005,0 -119.62141859999998,38.328381500000056,0 -119.62508129999999,38.32765580000006,0 -119.6262101,38.32716280000005,0 -119.62626389999997,38.326997500000054,0 -119.62611209999999,38.326304500000056,0 -119.62620489999998,38.32621500000006,0 -119.62636879999997,38.32619850000006,0 -119.62719699999995,38.32674500000006,0 -119.62744439999994,38.32705340000006,0 -119.62813329999996,38.32723060000006,0 -119.62854929999995,38.32716900000006,0 -119.62873759999994,38.32723590000006,0 -119.62905789999995,38.32759610000006,0 -119.63064209999996,38.32847350000006,0 -119.63233389999996,38.328900200000064,0 -119.63285919999997,38.32856190000006,0 -119.63379549999998,38.32821630000006,0 -119.63439779999997,38.32775620000006,0 -119.63583279999997,38.32740160000006,0 -119.63688609999998,38.327683000000064,0 -119.63722259999999,38.32798550000006,0 -119.63738609999999,38.328868800000066,0 -119.63670839999999,38.32968110000006,0 -119.63671229999999,38.33001480000006,0 -119.64000529999997,38.332996400000056,0 -119.64079589999999,38.33321170000006,0 -119.64107189999999,38.33338450000006,0 -119.64169339999998,38.33465100000006,0 -119.64214819999998,38.33510420000006,0 -119.64335089999999,38.335859400000054,0 -119.64532969999998,38.33657000000006,0 -119.64767919999997,38.33658520000006,0 -119.64813849999997,38.33644230000005,0 -119.64917619999996,38.335607700000054,0 -119.64967499999995,38.33544820000005,0 -119.65056939999994,38.33536620000005,0 -119.65090449999994,38.335421700000055,0 -119.65164609999992,38.336124600000055,0 -119.65192069999993,38.33621720000006,0 -119.65233399999993,38.336206800000056,0 -119.65271709999993,38.33599680000006,0 -119.65355319999993,38.33480850000006,0 -119.65404219999994,38.333380100000056,0 -119.65672589999994,38.32940890000006,0 -119.65759859999994,38.32867430000006,0 -119.65764789999994,38.32841090000006,0 -119.65747269999996,38.32770200000006,0 -119.65751859999996,38.32754520000005,0 -119.65771399999996,38.32734910000005,0 -119.65884289999994,38.32703920000005,0 -119.65977809999994,38.32592910000005,0 -119.65966499999993,38.32528320000005,0 -119.65979439999992,38.32498580000005,0 -119.66145379999993,38.323174900000055,0 -119.66266139999993,38.32124160000006,0 -119.66266269999994,38.320561700000056,0 -119.66274249999992,38.32040390000006,0 -119.66322499999994,38.32006840000006,0 -119.66401899999995,38.31851620000006,0 -119.66437489999996,38.31823860000006,0 -119.66622299999996,38.317382300000055,0 -119.66665069999996,38.31696990000006,0 -119.66682409999994,38.31692110000006,0 -119.66696289999994,38.31700190000006,0 -119.66696979999995,38.31748350000006,0 -119.66767879999995,38.31823690000006,0 -119.66788019999994,38.31825750000006,0 -119.66886679999993,38.31774770000006,0 -119.66901179999992,38.31773000000006,0 -119.66922439999993,38.31780110000006,0 -119.67147779999993,38.32058380000006,0 -119.67286319999992,38.32145640000006,0 -119.67919179999993,38.32340750000006,0 -119.68109709999992,38.32458510000006,0 -119.68235299999992,38.32496330000006,0 -119.68313979999994,38.32498050000006,0 -119.68371559999993,38.32481750000006,0 -119.68471169999992,38.32518720000006,0 -119.68612059999992,38.32608040000006,0 -119.68670429999992,38.32617580000006,0 -119.68701169999993,38.32611380000006,0 -119.68757689999993,38.32579770000006,0 -119.68967089999994,38.32554240000005,0 -119.69192459999992,38.32489770000006,0 -119.69623639999993,38.32455990000006,0 -119.69688309999992,38.324702300000055,0 -119.69854689999991,38.32542780000006,0 -119.69969249999993,38.32547590000006,0 -119.70031419999992,38.325281900000064,0 -119.70166729999993,38.325367100000065,0 -119.70244649999992,38.32565990000006,0 -119.70444929999994,38.32547330000006,0 -119.70534109999993,38.32568040000007,0 -119.70566249999992,38.32566470000007,0 -119.70794199999992,38.32469640000007,0 -119.7097798999999,38.32441470000007,0 -119.71075299999991,38.32448800000007,0 -119.71379999999992,38.323607600000074,0 -119.71444419999992,38.322924400000076,0 -119.7154179999999,38.32225080000007,0 -119.71556149999991,38.322226200000074,0 -119.7160662999999,38.32249500000007,0 -119.71756199999989,38.32220970000007,0 -119.71777999999988,38.32208890000007,0 -119.71780449999989,38.32189920000007,0 -119.7175934999999,38.321553700000074,0 -119.71759709999989,38.321241900000075,0 -119.7179281999999,38.32040010000007,0 -119.71803189999991,38.320300600000074,0 -119.71841469999991,38.320164500000075,0 -119.72550869999992,38.320229000000076,0 -119.72819359999993,38.31949030000007,0 -119.73021269999991,38.318261900000074,0 -119.73270499999991,38.31768960000007,0 -119.73305229999991,38.317517800000076,0 -119.7334526999999,38.317139600000075,0 -119.73348309999992,38.31699630000008,0 -119.7334274999999,38.316924400000076,0 -119.73326409999991,38.31689010000007,0 -119.7326948999999,38.31728200000008,0 -119.73246969999991,38.317316600000076,0 -119.7309688999999,38.31707550000007,0 -119.73031339999989,38.31675000000007,0 -119.7302966999999,38.31661900000007,0 -119.73042389999988,38.31649090000007,0 -119.73210789999987,38.316076500000065,0 -119.73285659999986,38.31555150000006,0 -119.73446889999987,38.31502900000007,0 -119.73544879999987,38.31428490000007,0 -119.73679969999988,38.31375640000007,0 -119.73702489999988,38.31377550000007,0 -119.73775469999987,38.31406280000007,0 -119.73924639999987,38.31428770000007,0 -119.74080629999986,38.31485680000008,0 -119.74286839999986,38.31512230000008,0 -119.74300919999986,38.31531200000008,0 -119.74298809999986,38.31608240000008,0 -119.74337319999985,38.31736140000008,0 -119.74405489999987,38.31773830000008,0 -119.74434979999985,38.31819730000008,0 -119.74440809999986,38.31867880000008,0 -119.74511199999986,38.319381700000086,0 -119.74528089999987,38.31984880000008,0 -119.74581659999986,38.32052110000008,0 -119.74636939999986,38.32075460000008,0 -119.74718389999987,38.32172760000008,0 -119.74762469999986,38.32179690000008,0 -119.74793559999986,38.32165780000008,0 -119.74806469999987,38.32126060000008,0 -119.74820619999988,38.32114400000008,0 -119.7495390999999,38.32112720000008,0 -119.75075309999988,38.32155070000008,0 -119.75147149999988,38.32239430000008,0 -119.75164809999988,38.324073500000075,0 -119.75241519999989,38.32509190000008,0 -119.75383029999988,38.325827600000075,0 -119.75409649999987,38.32613140000007,0 -119.75425889999988,38.32681950000008,0 -119.75418749999989,38.32731870000008,0 -119.75434789999987,38.32779800000008,0 -119.75499499999988,38.32827160000008,0 -119.75698899999988,38.33039220000008,0 -119.75932129999988,38.33149280000008,0 -119.76047139999987,38.33171680000008,0 -119.76110459999988,38.33196910000007,0 -119.76151519999989,38.33260810000007,0 -119.76233699999989,38.33320520000007,0 -119.76262169999987,38.333305800000076,0 -119.76356399999987,38.33317940000008,0 -119.76383309999987,38.33324410000008,0 -119.76539779999987,38.33407020000008,0 -119.76640609999988,38.33427950000008,0 -119.77191749999989,38.336762500000084,0 -119.7720307999999,38.33658420000008,0 -119.7724381999999,38.336569900000086,0 </coordinates></LineString><TimeSpan><begin>2020-10-10T18:34:15.999Z</begin><end>2020-10-10T21:34:20.999Z</end></TimeSpan></Placemark><Placemark><name>Douglas Creek</name><address>California</address><ExtendedData><Data name="Email"><value>syugen.zhou@gmail.com</value></Data><Data name="Category"><value>River</value></Data><Data name="Distance"><value>0</value></Data></ExtendedData><description> River from 2020-10-10T21:34:20.999Z to 2020-10-10T21:41:21.999Z. Distance 0m </description><Point><coordinates>-119.7580593,38.3611746,0</coordinates></Point><TimeSpan><begin>2020-10-10T21:34:20.999Z</begin><end>2020-10-10T21:41:21.999Z</end></TimeSpan></Placemark><Placemark><name>Driving</name><address></address><ExtendedData><Data name="Email"><value>syugen.zhou@gmail.com</value></Data><Data name="Category"><value>Driving</value></Data><Data name="Distance"><value>283091</value></Data></ExtendedData><description> Driving from 2020-10-10T21:41:21.999Z to 2020-10-11T01:20:30.000Z. Distance 283091m </description><LineString><altitudeMode>clampToGround</altitudeMode><extrude>1</extrude><tesselate>1</tesselate><coordinates>-119.77235929999999,38.336557899999995,0 -119.77258649999999,38.33663659999999,0 -119.7726346,38.33695709999999,0 -119.7785757,38.3386285,0 -119.78011120000001,38.3388905,0 -119.7809319,38.3391939,0 -119.78302940000002,38.3407432,0 -119.78365900000001,38.3410252,0 -119.78394290000003,38.341071199999995,0 -119.78594680000002,38.34090229999999,0 -119.7875381,38.34101389999999,0 -119.78908,38.34214709999999,0 -119.78934120000001,38.342255599999994,0 -119.78990250000001,38.34229609999999,0 -119.79039170000001,38.342174199999995,0 -119.79419660000002,38.3404117,0 -119.79580960000001,38.340545999999996,0 -119.79719930000002,38.3409802,0 -119.79936740000001,38.3408892,0 -119.80000690000001,38.3407387,0 -119.8007935,38.3407695,0 -119.80286129999999,38.340181199999996,0 -119.80431979999999,38.3403953,0 -119.80985409999998,38.3398471,0 -119.8134944,38.33882249999999,0 -119.81405740000001,38.338866499999995,0 -119.81893640000001,38.34114579999999,0 -119.81974620000001,38.34136819999999,0 -119.82973140000003,38.34003729999999,0 -119.83083980000002,38.340118999999994,0 -119.83179870000002,38.340355699999996,0 -119.83305120000003,38.340938599999994,0 -119.83644090000003,38.3434429,0 -119.84143500000003,38.3462435,0 -119.84220890000003,38.347059699999996,0 -119.84394260000003,38.3479491,0 -119.84583890000003,38.3501747,0 -119.84761760000004,38.3514578,0 -119.84850940000003,38.3518342,0 -119.84971430000003,38.3521611,0 -119.85228390000003,38.352076600000004,0 -119.85364250000002,38.3521927,0 -119.85516980000001,38.3525503,0 -119.85750320000002,38.3521984,0 -119.85895270000002,38.352482099999996,0 -119.86409560000003,38.354965199999995,0 -119.86579850000001,38.3560708,0 -119.86817520000001,38.3571337,0 -119.86927779999999,38.357120599999995,0 -119.86947609999999,38.357211299999996,0 -119.8697918,38.35749729999999,0 -119.8701615,38.357624599999994,0 -119.87152909999999,38.357739099999996,0 -119.87238159999998,38.357633099999994,0 -119.87284219999998,38.357673299999995,0 -119.873024,38.357640399999994,0 -119.873868,38.357172799999994,0 -119.8740163,38.356958799999994,0 -119.8740687,38.356504099999995,0 -119.87420299999998,38.3562892,0 -119.87441829999999,38.356122,0 -119.87591919999998,38.355874799999995,0 -119.87748099999999,38.355335499999995,0 -119.88347919999998,38.3541642,0 -119.88587279999999,38.3533557,0 -119.88834159999999,38.353366,0 -119.89111599999998,38.352744799999996,0 -119.89327119999997,38.3529422,0 -119.89407579999998,38.3527915,0 -119.89457569999998,38.352541,0 -119.89609339999998,38.350985200000004,0 -119.89727059999998,38.349424000000006,0 -119.8979675,38.34902950000001,0 -119.89854789999998,38.34890300000001,0 -119.90359279999998,38.34902710000001,0 -119.90619319999998,38.34862000000001,0 -119.90702159999998,38.348361100000005,0 -119.91221989999997,38.34479820000001,0 -119.91301469999996,38.344599300000006,0 -119.91519339999996,38.3445485,0 -119.91601169999996,38.3443581,0 -119.92312239999997,38.3414117,0 -119.92408819999997,38.34077640000001,0 -119.92693479999997,38.33782420000001,0 -119.92726719999997,38.3373063,0 -119.92830519999998,38.3347196,0 -119.92840149999998,38.3338721,0 -119.92811869999997,38.331630800000006,0 -119.92781889999998,38.331020900000006,0 -119.92745629999997,38.33064180000001,0 -119.92688839999997,38.330314800000004,0 -119.92048829999996,38.3281811,0 -119.92015559999996,38.3279693,0 -119.91981069999997,38.327448999999994,0 -119.91978339999997,38.327139599999995,0 -119.91989239999997,38.3268234,0 -119.92033159999997,38.3263855,0 -119.92174429999996,38.3257122,0 -119.92261719999996,38.325072500000005,0 -119.92405369999994,38.3245419,0 -119.92470009999995,38.3241594,0 -119.92500569999994,38.323802199999996,0 -119.92522299999996,38.3232625,0 -119.92526679999996,38.321363600000005,0 -119.92566369999996,38.320394400000005,0 -119.92615479999996,38.3197904,0 -119.92679879999996,38.3192994,0 -119.92998339999997,38.3174822,0 -119.93154749999997,38.316095100000005,0 -119.93322479999998,38.31556380000001,0 -119.93566049999997,38.314321400000004,0 -119.93670619999997,38.3133813,0 -119.93845079999996,38.30970700000001,0 -119.93850629999996,38.308994100000014,0 -119.93801919999997,38.30767400000001,0 -119.93793809999998,38.30704240000001,0 -119.93835189999997,38.30408820000001,0 -119.93855299999997,38.30367790000001,0 -119.93926529999999,38.30299220000001,0 -119.93996489999999,38.302653600000006,0 -119.94548449999999,38.30200030000001,0 -119.9468112,38.301434600000015,0 -119.9483413,38.30015310000002,0 -119.9486929,38.29952700000002,0 -119.9488334,38.298438300000015,0 -119.94906970000001,38.29798270000002,0 -119.94936280000002,38.29769390000001,0 -119.94991790000003,38.297424600000014,0 -119.95035560000004,38.297338300000014,0 -119.95481400000004,38.297278100000014,0 -119.95629160000004,38.296794100000014,0 -119.95696390000005,38.29633410000002,0 -119.95826450000004,38.294975700000016,0 -119.96093540000004,38.290726700000015,0 -119.96192250000006,38.287846000000016,0 -119.96236800000004,38.28734040000002,0 -119.96284390000004,38.28706250000002,0 -119.96467550000004,38.286559300000015,0 -119.96785890000005,38.284762100000016,0 -119.96832990000006,38.28414170000001,0 -119.96843790000005,38.283585500000015,0 -119.96834950000004,38.28254050000002,0 -119.96842510000005,38.28214530000002,0 -119.97045470000005,38.27939030000002,0 -119.97134580000005,38.278621000000015,0 -119.97286360000005,38.27769530000002,0 -119.97340560000006,38.277116100000015,0 -119.97389700000006,38.27625480000002,0 -119.97466060000006,38.275661100000015,0 -119.97514280000006,38.275474500000016,0 -119.97589390000005,38.27536520000002,0 -119.97781630000006,38.275378500000016,0 -119.97880630000004,38.27520370000001,0 -119.98552400000005,38.272802300000016,0 -119.98612580000005,38.27246950000002,0 -119.98754290000005,38.27122590000002,0 -119.98802790000006,38.27100660000002,0 -119.98883500000007,38.27092080000002,0 -119.99009170000005,38.27112440000002,0 -119.99082170000007,38.27110220000002,0 -119.99158010000008,38.270848000000015,0 -119.99204520000008,38.27049580000002,0 -119.99239780000009,38.26998250000002,0 -119.9925444000001,38.26929510000002,0 -119.99250430000009,38.26885640000002,0 -119.99144270000008,38.266051500000025,0 -119.99064980000007,38.26074330000002,0 -119.99067250000007,38.25985780000002,0 -119.99106780000007,38.25851950000002,0 -119.99158550000007,38.25764090000003,0 -119.99323580000006,38.255963100000024,0 -119.99385580000008,38.25562650000003,0 -119.99615330000006,38.25476240000003,0 -119.99719430000006,38.25395350000003,0 -119.99775700000005,38.25304030000003,0 -119.99790030000005,38.25247950000003,0 -119.99764230000005,38.249339900000024,0 -119.99783050000005,38.24869810000003,0 -119.99951280000005,38.24666690000003,0 -119.99972200000006,38.245825500000024,0 -119.99962390000006,38.24509130000003,0 -119.99929610000005,38.24447870000002,0 -119.99862490000005,38.24381810000003,0 -119.99792150000006,38.243461000000025,0 -119.99576300000005,38.24289170000003,0 -119.99505690000007,38.24245070000003,0 -119.99461800000006,38.24193230000003,0 -119.99434480000005,38.241094300000036,0 -119.99489310000006,38.23665100000004,0 -119.99522620000005,38.23553760000003,0 -119.99703100000004,38.23195530000003,0 -119.99749970000003,38.23056240000003,0 -119.99801020000002,38.22699600000003,0 -119.99778930000002,38.222217000000036,0 -119.99813710000002,38.22131170000004,0 -119.99882930000004,38.22056350000003,0 -119.99979690000004,38.220045700000036,0 -120.00236760000003,38.21931820000004,0 -120.00289690000002,38.218951300000036,0 -120.00365240000002,38.21804450000003,0 -120.00435610000001,38.21766320000003,0 -120.0056375,38.21746200000003,0 -120.006315,38.21749400000003,0 -120.0067858,38.21765070000003,0 -120.0078137,38.21827770000002,0 -120.00866250000001,38.21842410000003,0 -120.00928480000002,38.21831420000003,0 -120.00986500000002,38.21799330000003,0 -120.01014400000003,38.21769620000003,0 -120.01032430000002,38.21729930000003,0 -120.01020960000001,38.215640900000025,0 -120.0103083,38.215276600000024,0 -120.01067480000002,38.21476620000003,0 -120.01109740000003,38.21445320000003,0 -120.01252740000002,38.21397800000003,0 -120.01338790000003,38.21338490000003,0 -120.01441890000004,38.21160170000003,0 -120.01508250000002,38.21095780000004,0 -120.01687120000003,38.20978790000004,0 -120.01793620000004,38.208585000000035,0 -120.01827010000004,38.20795890000004,0 -120.01857730000003,38.20668770000004,0 -120.01845580000003,38.204619500000035,0 -120.01855000000003,38.204212000000034,0 -120.01903920000002,38.203412500000034,0 -120.01976280000002,38.20282570000004,0 -120.02031610000002,38.20257690000003,0 -120.02150610000001,38.20227070000004,0 -120.02187640000002,38.20206670000004,0 -120.02223510000002,38.20170610000004,0 -120.02239640000002,38.20136210000004,0 -120.02248590000002,38.200373200000044,0 -120.02300200000003,38.199168200000045,0 -120.02389350000003,38.198274300000044,0 -120.02414250000002,38.19783200000004,0 -120.02416520000001,38.197394500000044,0 -120.02395410000003,38.19688730000004,0 -120.02344160000003,38.19644720000004,0 -120.02301600000003,38.196274400000036,0 -120.02256250000003,38.19619310000004,0 -120.02205660000004,38.19622300000004,0 -120.02128360000003,38.196557600000034,0 -120.02093050000005,38.19690080000003,0 -120.02076510000003,38.19721480000003,0 -120.02052050000003,38.19872440000003,0 -120.02009930000001,38.19919930000003,0 -120.01964720000001,38.19939770000003,0 -120.01919950000001,38.19943930000003,0 -120.01783950000001,38.19932810000003,0 -120.0170349,38.19938100000003,0 -120.0159572,38.19963910000003,0 -120.0140514,38.20039080000004,0 -120.0133879,38.20048270000003,0 -120.0122588,38.200399000000026,0 -120.01002019999999,38.19968020000003,0 -120.00934189999998,38.19959970000003,0 -120.00839279999998,38.199647500000026,0 -120.00518579999996,38.20029710000003,0 -120.00445529999996,38.20020480000003,0 -120.00404749999998,38.200032300000025,0 -120.00361499999998,38.19963440000003,0 -120.00343129999999,38.19921260000003,0 -120.00341209999999,38.19889740000003,0 -120.0035269,38.198512300000026,0 -120.0037309,38.19820330000003,0 -120.00525019999998,38.19684130000003,0 -120.00734749999997,38.19588290000003,0 -120.00835119999998,38.19493330000003,0 -120.00886029999998,38.19463380000003,0 -120.01026799999998,38.19413780000003,0 -120.01051119999997,38.19393470000003,0 -120.01078619999997,38.193364100000025,0 -120.01072209999997,38.19293450000003,0 -120.01038929999997,38.19251230000003,0 -120.00822419999996,38.19117020000003,0 -120.00776319999997,38.190515600000026,0 -120.00760639999999,38.189903900000026,0 -120.00761859999997,38.189558500000025,0 -120.00860469999998,38.18676250000003,0 -120.00898519999997,38.18621630000003,0 -120.01012359999996,38.18511760000003,0 -120.01787869999995,38.18039100000003,0 -120.01861389999996,38.179766600000036,0 -120.01981789999996,38.178250800000036,0 -120.02060489999997,38.17774330000003,0 -120.03074389999996,38.17394150000003,0 -120.03253599999996,38.17271930000003,0 -120.03373369999997,38.17143090000003,0 -120.03431219999999,38.171002900000026,0 -120.03485309999999,38.17074380000003,0 -120.04171299999999,38.169282400000036,0 -120.04248529999998,38.16899760000003,0 -120.04287469999998,38.16872020000003,0 -120.043921,38.167143200000034,0 -120.04449319999999,38.16663780000004,0 -120.04541239999998,38.16618520000004,0 -120.05434089999999,38.16319620000004,0 -120.05508899999998,38.16282500000004,0 -120.05626799999999,38.16174330000004,0 -120.05803859999997,38.15791130000004,0 -120.05845719999999,38.15739570000004,0 -120.0597342,38.156466400000035,0 -120.06052930000001,38.15540600000004,0 -120.06104650000002,38.15506440000004,0 -120.06279490000003,38.15451630000004,0 -120.06395060000003,38.15396400000004,0 -120.06661820000002,38.15225480000004,0 -120.07176000000003,38.14956030000004,0 -120.07299320000004,38.14856910000004,0 -120.07395110000003,38.14810090000004,0 -120.08157410000003,38.14705090000004,0 -120.08238630000002,38.14672420000004,0 -120.08401450000002,38.14546970000004,0 -120.08422070000002,38.14519790000004,0 -120.08457860000001,38.14383370000004,0 -120.08498690000002,38.14325860000004,0 -120.08548,38.14295530000004,0 -120.08710489999999,38.14275360000004,0 -120.08767669999999,38.142446700000036,0 -120.09058939999998,38.13869300000004,0 -120.0910863,38.13746400000004,0 -120.09148970000001,38.13712410000004,0 -120.09471450000001,38.13593740000004,0 -120.09602590000003,38.135191000000034,0 -120.09770330000003,38.133880100000034,0 -120.10175580000003,38.12979030000004,0 -120.10590050000005,38.12623760000004,0 -120.10789230000005,38.125108200000035,0 -120.11056490000003,38.12419590000004,0 -120.11128190000004,38.12382300000004,0 -120.11935340000004,38.117079200000035,0 -120.12048020000005,38.115926400000035,0 -120.12154560000005,38.11441890000003,0 -120.12263030000004,38.11171050000004,0 -120.12334700000004,38.106565300000035,0 -120.12280490000003,38.10300750000003,0 -120.12288350000003,38.101923400000025,0 -120.12320560000002,38.10110630000003,0 -120.12422070000001,38.09990780000003,0 -120.12775520000001,38.09737560000003,0 -120.1300001,38.09483120000003,0 -120.13080950000001,38.09428390000003,0 -120.13134360000001,38.09407990000003,0 -120.13732350000002,38.09309740000003,0 -120.13818110000001,38.092760000000034,0 -120.1386111,38.092466300000034,0 -120.14047430000002,38.08995360000004,0 -120.14150660000003,38.089424400000034,0 -120.14266360000002,38.08925950000003,0 -120.14364170000002,38.08939150000003,0 -120.14414930000002,38.08956900000003,0 -120.14583540000002,38.09060260000004,0 -120.14665310000002,38.09092310000004,0 -120.14749390000003,38.09101540000004,0 -120.14822490000002,38.09094360000004,0 -120.14928420000003,38.09053530000004,0 -120.15013550000002,38.08988960000004,0 -120.15225650000001,38.08725010000004,0 -120.15317480000002,38.08661840000004,0 -120.15644460000003,38.08516760000005,0 -120.15722820000003,38.084555100000046,0 -120.15945210000002,38.08164930000005,0 -120.16066020000001,38.08054860000004,0 -120.16197930000001,38.07971440000005,0 -120.16489910000001,38.07836380000005,0 -120.16913540000002,38.077368200000045,0 -120.17020000000001,38.07687100000004,0 -120.17245770000001,38.07486480000004,0 -120.1731129,38.074508500000036,0 -120.1780062,38.07315750000004,0 -120.1795432,38.07242170000004,0 -120.17986789999999,38.07217630000004,0 -120.18028709999999,38.07156090000004,0 -120.18108679999999,38.07105600000004,0 -120.18144609999997,38.07061930000004,0 -120.18166209999995,38.06996630000004,0 -120.18153869999996,38.06877300000004,0 -120.18163649999998,38.06844460000005,0 -120.18211209999998,38.06786590000005,0 -120.18214459999997,38.06761520000005,0 -120.18203629999998,38.06739140000005,0 -120.18169359999999,38.06705330000005,0 -120.1814883,38.06661720000005,0 -120.1814693,38.06606730000005,0 -120.18178400000001,38.06569380000005,0 -120.18373830000002,38.06526790000005,0 -120.18416010000001,38.06530240000005,0 -120.18606910000001,38.066602100000054,0 -120.18666650000002,38.06736680000005,0 -120.18712470000001,38.06757260000005,0 -120.18756660000001,38.06761510000005,0 -120.1881886,38.06748150000005,0 -120.1916175,38.06561820000005,0 -120.19334210000001,38.06506370000005,0 -120.1947999,38.06495230000006,0 -120.19530170000002,38.06466580000006,0 -120.1956751,38.06404220000005,0 -120.1969395,38.06278060000005,0 -120.1975328,38.062477900000054,0 -120.1986556,38.062169700000055,0 -120.19917629999999,38.061724100000056,0 -120.2007759,38.05961920000006,0 -120.20117299999998,38.05876660000006,0 -120.20166609999997,38.05680640000006,0 -120.20165049999997,38.05499490000006,0 -120.20231369999998,38.05423180000007,0 -120.20273919999997,38.04946440000007,0 -120.20295819999997,38.04902780000007,0 -120.20377819999997,38.04807460000007,0 -120.20409799999997,38.04706090000007,0 -120.20595239999997,38.04547560000007,0 -120.20663329999996,38.04516910000007,0 -120.20705079999998,38.04515180000007,0 -120.20764579999998,38.04528670000007,0 -120.20792089999998,38.04545460000007,0 -120.20894609999998,38.04659910000007,0 -120.20923379999998,38.046691000000074,0 -120.20944619999997,38.04668130000007,0 -120.20982199999996,38.046464200000074,0 -120.20994979999996,38.04618060000007,0 -120.20986579999996,38.045476800000074,0 -120.21011889999997,38.04480110000007,0 -120.21050059999996,38.044384100000066,0 -120.21116989999994,38.04404720000007,0 -120.21266339999994,38.04383750000007,0 -120.21359209999993,38.04355930000007,0 -120.21423089999995,38.04323780000007,0 -120.21512459999995,38.04247300000007,0 -120.21559529999996,38.04170980000007,0 -120.21565329999996,38.04167570000008,0 -120.21645969999996,38.04029790000008,0 -120.21705359999997,38.039666000000075,0 -120.21808909999997,38.03909040000007,0 -120.22258819999998,38.037575300000064,0 -120.22323609999997,38.03725340000006,0 -120.22419649999996,38.03645190000007,0 -120.22452939999997,38.03596980000006,0 -120.22616089999997,38.03226700000006,0 -120.22684259999997,38.03156220000006,0 -120.23219759999998,38.02800030000006,0 -120.23746369999998,38.02556260000006,0 -120.23878479999999,38.02463650000005,0 -120.24005759999999,38.02316020000005,0 -120.2407769,38.02262140000005,0 -120.2414306,38.02232880000005,0 -120.24439939999998,38.02167570000005,0 -120.24562029999998,38.02107640000005,0 -120.24633419999998,38.020396300000044,0 -120.25013989999997,38.01561940000005,0 -120.25177049999996,38.014246100000044,0 -120.25418309999998,38.01140570000005,0 -120.25545489999998,38.01031120000005,0 -120.25794139999996,38.00863860000004,0 -120.25862269999996,38.00791220000004,0 -120.25999789999995,38.005099700000045,0 -120.26016379999994,38.00246370000004,0 -120.26043549999993,38.00183170000005,0 -120.26083149999992,38.001302000000045,0 -120.26878999999992,37.995717400000046,0 -120.27281089999993,37.99414990000004,0 -120.27475789999991,37.99275510000004,0 -120.2795401999999,37.99033710000004,0 -120.28445949999991,37.98741840000004,0 -120.28873109999992,37.985773100000046,0 -120.29005499999991,37.98507830000005,0 -120.29399639999991,37.982256900000046,0 -120.2948926999999,37.98196750000004,0 -120.29564789999992,37.981892600000045,0 -120.29734559999991,37.98201990000004,0 -120.30679339999993,37.98184850000004,0 -120.30834189999993,37.98158070000004,0 -120.31182349999995,37.98055630000004,0 -120.31457959999995,37.98030090000004,0 -120.32911109999993,37.98132980000004,0 -120.33115329999994,37.98123370000003,0 -120.34154699999995,37.978803700000036,0 -120.35571049999997,37.97726560000004,0 -120.35735049999997,37.976645800000036,0 -120.35858799999995,37.97582940000004,0 -120.36173919999997,37.97268170000004,0 -120.36272129999996,37.97193450000004,0 -120.36469599999997,37.971044300000045,0 -120.37482319999995,37.96919550000004,0 -120.37672999999994,37.96867160000004,0 -120.37777329999993,37.968180500000045,0 -120.38104499999993,37.96605460000004,0 -120.38211499999993,37.96551640000005,0 -120.38367689999993,37.965037100000046,0 -120.38575539999994,37.96477750000005,0 -120.39301109999994,37.965286900000045,0 -120.39502169999993,37.964886800000045,0 -120.39900839999993,37.96330320000005,0 -120.40024349999993,37.963051300000046,0 -120.40992839999993,37.96236270000005,0 -120.41098689999993,37.96205420000005,0 -120.42263299999992,37.95604220000005,0 -120.42365859999991,37.95525850000005,0 -120.42409399999993,37.95474570000005,0 -120.42465729999992,37.95357390000005,0 -120.42476429999992,37.95297240000005,0 -120.42469859999993,37.95054320000005,0 -120.42623829999992,37.94672070000005,0 -120.42692909999991,37.94567630000005,0 -120.4285714999999,37.94406800000006,0 -120.4340055999999,37.94026010000005,0 -120.4427815999999,37.93536960000005,0 -120.4433915999999,37.93479670000006,0 -120.4440138999999,37.933871700000054,0 -120.44496229999991,37.92987450000006,0 -120.44656379999992,37.92528350000006,0 -120.44718959999993,37.92406740000006,0 -120.45084239999993,37.91981740000006,0 -120.45230609999992,37.91846180000006,0 -120.45463899999991,37.916941500000064,0 -120.45899869999991,37.91497170000006,0 -120.45992779999992,37.91439640000006,0 -120.47000009999991,37.90649460000006,0 -120.4755982999999,37.90298840000006,0 -120.47733359999991,37.90160900000006,0 -120.48422059999992,37.893555100000064,0 -120.48498209999991,37.89287320000006,0 -120.48668579999992,37.89182330000006,0 -120.49549659999992,37.88815200000006,0 -120.49658169999991,37.88749170000006,0 -120.50160129999992,37.88349870000006,0 -120.50485109999993,37.88171030000006,0 -120.50555819999992,37.88105700000006,0 -120.50604039999992,37.880333600000064,0 -120.5112763999999,37.86698510000006,0 -120.5116472999999,37.86538450000006,0 -120.51197909999989,37.858740400000066,0 -120.5116876999999,37.85750870000007,0 -120.50686429999989,37.84673260000007,0 -120.50673229999991,37.84600730000007,0 -120.50695829999991,37.844734100000075,0 -120.5074974999999,37.84387710000007,0 -120.5080443999999,37.84333290000007,0 -120.50874329999989,37.84289190000007,0 -120.50948589999989,37.84257890000007,0 -120.5153179999999,37.841052600000076,0 -120.5172654999999,37.84097120000008,0 -120.5324994999999,37.843689600000076,0 -120.53370539999992,37.84377600000008,0 -120.53874429999992,37.84339800000008,0 -120.54163339999992,37.843426800000074,0 -120.54339399999992,37.84368920000007,0 -120.55196979999991,37.846302200000075,0 -120.55624119999992,37.847119300000074,0 -120.56651229999993,37.84736030000007,0 -120.56956669999992,37.84762420000007,0 -120.58903659999991,37.85069310000007,0 -120.59107969999994,37.850821000000074,0 -120.59266079999992,37.85075440000007,0 -120.5948883999999,37.85041610000007,0 -120.5963628999999,37.85002750000007,0 -120.60171069999991,37.847923000000065,0 -120.60403919999992,37.84724350000007,0 -120.60776469999993,37.84672870000007,0 -120.61059529999993,37.84678940000007,0 -120.61177379999992,37.84656260000007,0 -120.61869569999992,37.84421420000007,0 -120.62470729999991,37.840792600000064,0 -120.62554319999991,37.83995620000006,0 -120.6260923999999,37.839167900000064,0 -120.62875039999992,37.83352230000006,0 -120.62926859999992,37.83284960000007,0 -120.63135359999993,37.83107440000006,0 -120.63371979999991,37.82949510000006,0 -120.6397260999999,37.82381140000006,0 -120.64139189999992,37.82271890000006,0 -120.64263449999993,37.82216760000006,0 -120.64457719999993,37.821618900000054,0 -120.64845189999994,37.82086850000006,0 -120.65014689999995,37.82016060000006,0 -120.65075259999996,37.819738400000055,0 -120.65421779999997,37.816340200000056,0 -120.65647509999998,37.814799500000056,0 -120.66068529999998,37.812850700000055,0 -120.66707459999996,37.80788190000005,0 -120.67441469999996,37.80384040000005,0 -120.67558289999997,37.80342360000005,0 -120.67673589999997,37.803251800000055,0 -120.67838569999996,37.80336170000005,0 -120.67933289999996,37.80362530000006,0 -120.68465609999996,37.806339400000056,0 -120.68572699999994,37.80667910000005,0 -120.68695619999994,37.80680030000005,0 -120.68911989999994,37.806775800000054,0 -120.68991759999994,37.806895500000046,0 -120.69189839999994,37.807496700000044,0 -120.69327099999992,37.80771970000004,0 -120.69523809999993,37.80761180000004,0 -120.69643779999991,37.807287600000045,0 -120.7011280999999,37.805264700000045,0 -120.7044635999999,37.80452190000005,0 -120.7063338999999,37.804588000000045,0 -120.7082215999999,37.805208100000044,0 -120.7098080999999,37.80618570000005,0 -120.71070029999991,37.80650250000004,0 -120.7124720999999,37.80677180000005,0 -120.71333929999989,37.80674610000005,0 -120.71426779999987,37.80649570000005,0 -120.71494589999989,37.806140800000044,0 -120.71863179999988,37.80307930000004,0 -120.72419349999987,37.79588450000005,0 -120.72506199999988,37.793804100000045,0 -120.7254418999999,37.79225630000005,0 -120.72603779999989,37.79124820000005,0 -120.72860709999988,37.78821770000005,0 -120.72915369999988,37.787844400000054,0 -120.72972919999988,37.78761210000005,0 -120.77401999999988,37.776901900000055,0 -120.77623139999989,37.77659420000005,0 -120.81471239999989,37.77637460000005,0 -120.81633849999987,37.77623800000005,0 -120.82702349999988,37.77426500000005,0 -120.8401360999999,37.76911040000005,0 -120.84350099999989,37.76810210000006,0 -120.8470287999999,37.766637200000055,0 -120.85122189999991,37.772907700000054,0 -120.8514152999999,37.77372800000005,0 -120.85540719999992,37.78122630000005,0 -120.85601199999992,37.78198760000005,0 -120.86495119999992,37.78937610000005,0 -120.86714249999993,37.79047800000005,0 -120.86850729999993,37.79089030000005,0 -120.87073479999992,37.79121100000005,0 -120.88974219999993,37.791542200000045,0 -120.90390109999994,37.79294710000004,0 -120.98910699999993,37.79428470000004,0 -120.98960509999995,37.79446710000004,0 -120.99222209999994,37.79645970000004,0 -120.99259209999995,37.79660750000004,0 -120.99530849999994,37.796722500000044,0 -120.99744339999994,37.79776550000005,0 -120.99748169999992,37.79784620000005,0 -120.99831109999994,37.79840900000005,0 -120.99867489999993,37.79853530000005,0 -120.99928909999994,37.79860400000005,0 -120.99942659999994,37.79855260000004,0 -121.00001489999994,37.79856400000005,0 -121.00012559999993,37.79860920000005,0 -121.18977489999992,37.79754810000005,0 -121.18994279999993,37.79761200000005,0 -121.19196819999993,37.79760080000005,0 -121.19192669999994,37.797262100000054,0 -121.19131299999994,37.79618090000005,0 -121.19073989999994,37.79462430000005,0 -121.19062239999995,37.794542300000046,0 -121.18968599999995,37.790891000000045,0 -121.18936509999995,37.78627340000005,0 -121.18950059999993,37.78577720000005,0 -121.18990399999994,37.78505580000005,0 -121.19048239999995,37.784469800000046,0 -121.19147609999995,37.78389000000005,0 -121.19243719999996,37.78360990000005,0 -121.26198689999995,37.78334970000005,0 -121.26498859999995,37.78368430000005,0 -121.28956869999995,37.79007400000005,0 -121.29286169999993,37.79042070000005,0 -121.29438519999994,37.79039820000005,0 -121.29736559999994,37.78997700000004,0 -121.30246789999993,37.78856130000005,0 -121.31163689999993,37.782151900000045,0 -121.31166879999992,37.78201160000004,0 -121.32843199999992,37.76981000000004,0 -121.32863079999991,37.76979090000004,0 -121.33210999999993,37.767824900000036,0 -121.33351859999993,37.76734230000004,0 -121.33500949999993,37.76702570000004,0 -121.35419299999992,37.76513950000004,0 -121.41097339999993,37.764899100000044,0 -121.42242019999992,37.76325360000004,0 -121.42471469999992,37.763089800000046,0 -121.43827579999993,37.76305040000005,0 -121.44198299999994,37.76258000000005,0 -121.44450349999994,37.76186600000005,0 -121.49296519999994,37.742054600000046,0 -121.49545529999993,37.74127910000005,0 -121.49812679999992,37.74080850000005,0 -121.50121479999993,37.74065760000005,0 -121.55073749999993,37.743662200000045,0 -121.57934229999994,37.74154050000005,0 -121.59908349999992,37.73850050000005,0 -121.61006219999993,37.73771610000005,0 -121.62821639999993,37.73458830000005,0 -121.62926669999992,37.73429050000005,0 -121.63096469999992,37.733563700000055,0 -121.63286039999991,37.732145800000055,0 -121.63482609999991,37.72955850000005,0 -121.63611859999992,37.728310300000054,0 -121.63817469999994,37.72710030000005,0 -121.64020289999993,37.726445600000055,0 -121.64509749999993,37.72585080000005,0 -121.64706799999992,37.72527430000005,0 -121.66026139999992,37.71951630000005,0 -121.66476169999991,37.71824290000005,0 -121.66669119999993,37.71803980000006,0 -121.66921859999994,37.718349100000054,0 -121.67123749999993,37.71909780000005,0 -121.67379119999994,37.720723000000056,0 -121.67534439999994,37.72132530000005,0 -121.68027949999994,37.72194640000006,0 -121.68252019999994,37.72182360000005,0 -121.70425329999995,37.717367300000056,0 -121.73668009999996,37.70373910000005,0 -121.73985029999997,37.70279970000005,0 -121.74240269999997,37.70249340000005,0 -121.76089579999997,37.70300360000005,0 -121.77536749999997,37.700744300000046,0 -121.78704299999997,37.69967870000005,0 -121.78929389999996,37.69981490000005,0 -121.79401539999998,37.70081050000005,0 -121.79516029999998,37.700887200000054,0 -121.79540739999997,37.70101340000005,0 -121.7980935,37.701226900000044,0 -121.79860529999998,37.70134810000005,0 -121.80024919999997,37.70243730000004,0 -121.80389459999996,37.69930290000005,0 -121.80482679999996,37.69817690000005,0 -121.80518609999994,37.69748780000005,0 -121.80553719999996,37.69620840000005,0 -121.80587319999997,37.68684090000005,0 -121.80551779999998,37.68279290000005,0 -121.80564409999998,37.651579600000055,0 -121.80539589999997,37.650213900000054,0 -121.80434709999997,37.64780390000005,0 -121.80336969999995,37.64649790000005,0 -121.80079479999995,37.64412470000005,0 -121.79960189999994,37.64257670000005,0 -121.79891219999992,37.64101840000005,0 -121.79869649999993,37.640067100000046,0 -121.79864219999992,37.63831310000005,0 -121.79883069999993,37.63763770000004,0 -121.79919359999994,37.637057400000046,0 -121.80153359999993,37.635107900000044,0 -121.80196219999992,37.63437080000005,0 -121.80209599999992,37.63368740000005,0 -121.80184129999992,37.63049170000005,0 -121.80203669999993,37.62953900000005,0 -121.80275019999993,37.62828490000005,0 -121.80405159999994,37.62709170000005,0 -121.80704329999993,37.62513510000005,0 -121.80787479999992,37.624381900000046,0 -121.80885839999993,37.622849100000046,0 -121.80968129999994,37.62038870000005,0 -121.81036399999995,37.619232600000046,0 -121.81106939999995,37.61847800000005,0 -121.81459069999994,37.615661200000055,0 -121.82143449999994,37.61121440000005,0 -121.82266939999994,37.61063330000005,0 -121.82573339999995,37.60960730000006,0 -121.82910659999995,37.60760260000006,0 -121.84675999999995,37.60241770000005,0 -121.84759269999994,37.60197590000005,0 -121.84822079999992,37.601492400000055,0 -121.84962079999991,37.60002070000005,0 -121.8525761999999,37.59821850000005,0 -121.85401109999991,37.59776950000005,0 -121.85958009999992,37.59715560000005,0 -121.8686748999999,37.59484290000005,0 -121.8693864999999,37.59444330000005,0 -121.87010099999989,37.59377440000005,0 -121.87050849999989,37.59313300000005,0 -121.87070299999988,37.59247850000005,0 -121.87069379999987,37.589860900000055,0 -121.87121419999988,37.58857930000005,0 -121.8711701999999,37.58843100000005,0 -121.87548889999991,37.580271700000054,0 -121.8761646999999,37.579466200000056,0 -121.87893229999992,37.577122200000055,0 -121.88031439999992,37.57630180000005,0 -121.8849829999999,37.57471790000005,0 -121.8859613999999,37.57423270000005,0 -121.8903026999999,37.57144220000006,0 -121.90228559999991,37.56493950000006,0 -121.9053390999999,37.562304000000054,0 -121.90670269999993,37.561448000000055,0 -121.91132299999991,37.559912200000056,0 -121.91259019999991,37.55922380000005,0 -121.9132566999999,37.558703300000055,0 -121.9162005999999,37.555240000000055,0 -121.9197750999999,37.54862560000006,0 -121.92030439999989,37.54528170000006,0 -121.92067179999988,37.54452900000006,0 -121.9214716999999,37.54351350000006,0 -121.92654669999989,37.53912330000006,0 -121.94147259999987,37.53127280000006,0 -121.94559579999986,37.52840000000006,0 -121.94625429999986,37.52761530000006,0 -121.94674679999986,37.526622900000056,0 -121.94694609999985,37.52575230000006,0 -121.94685509999985,37.52442030000006,0 -121.94642809999984,37.52335570000006,0 -121.94584119999983,37.52251650000006,0 -121.94364319999984,37.52032380000006,0 -121.94153949999983,37.517466600000056,0 -121.93519759999985,37.506499100000056,0 -121.93344439999984,37.504439600000055,0 -121.92894709999985,37.500424200000054,0 -121.92890139999984,37.50026260000005,0 -121.92562909999984,37.49703510000005,0 -121.92488649999984,37.49487800000005,0 -121.92487599999984,37.49452880000005,0 -121.92527549999983,37.493843400000046,0 -121.92694839999983,37.49199680000004,0 -121.93067569999982,37.489245300000036,0 -121.93312319999983,37.48648250000004,0 -121.93528449999981,37.48526190000003,0 -121.93627199999982,37.484373100000035,0 -121.93668609999982,37.48340240000004,0 -121.93660079999982,37.482289500000036,0 -121.93342489999984,37.47731600000003,0 -121.93323779999983,37.47725230000003,0 -121.92384999999983,37.45777410000004,0 -121.91914469999983,37.432837700000036,0 -121.91924099999983,37.43252780000004,0 -121.91913669999983,37.43089910000004,0 -121.91834599999981,37.42772040000004,0 -121.91830869999981,37.42690380000004,0 -121.91844329999982,37.42633510000004,0 -121.91879249999981,37.42566050000004,0 -121.91965369999981,37.424821000000044,0 -121.9204590999998,37.42439280000004,0 -121.92589029999979,37.42286240000004,0 -121.9326364999998,37.42203860000004,0 -121.94414559999981,37.419468100000046,0 -121.9574941999998,37.41944220000004,0 -121.9690025999998,37.418969300000036,0 -121.97024199999981,37.41877610000004,0 -121.9713387999998,37.418453700000036,0 -121.9860178999998,37.41234330000004,0 -121.9893621999998,37.411369700000044,0 -122.0233157999998,37.40378550000004,0 -122.0267427999998,37.40322490000004,0 -122.03168889999978,37.402015600000034,0 -122.03354479999976,37.40174680000004,0 -122.03534879999977,37.40199000000004,0 -122.03583189999978,37.40192050000004,0 -122.03698599999977,37.401393200000044,0 -122.03755369999976,37.401324500000044,0 -122.03966859999976,37.40165940000004,0 -122.06848219999976,37.408274700000035,0 -122.08093619999977,37.41322140000004,0 -122.08318529999978,37.41443610000004,0 -122.09841019999978,37.425579000000035,0 -122.12622019999976,37.45188910000004,0 -122.17777749999976,37.482158200000036,0 -122.18120389999976,37.483636300000036,0 -122.18347739999976,37.48437150000004,0 -122.18789089999976,37.48536690000004,0 -122.20894929999976,37.488073600000035,0 -122.21302039999975,37.48906800000003,0 -122.21592799999976,37.49009640000003,0 -122.22423329999977,37.493727000000035,0 -122.23577749999976,37.49726210000003,0 -122.23792859999976,37.49827010000003,0 -122.23940459999977,37.49931610000003,0 -122.26722699999978,37.52385880000003,0 -122.26726939999978,37.52405270000003,0 -122.26822449999979,37.52509140000003,0 -122.2684251999998,37.52567030000003,0 -122.26838689999981,37.52655590000003,0 -122.26852309999981,37.526833100000026,0 -122.2689555999998,37.527255100000026,0 -122.2715015999998,37.52540100000003,0 -122.2725870999998,37.52426010000003,0 -122.27367809999978,37.52251140000003,0 -122.27437829999978,37.52185500000002,0 -122.27442429999978,37.52173550000003,0 -122.27522989999977,37.521049500000025,0 -122.27534099999977,37.521011800000025,0 -122.27602929999976,37.52042520000002,0 -122.27607189999976,37.52031960000002,0 -122.27689249999976,37.519632200000025,0 -122.27666529999976,37.51946790000002,0 </coordinates></LineString><TimeSpan><begin>2020-10-10T21:41:21.999Z</begin><end>2020-10-11T01:20:30.000Z</end></TimeSpan></Placemark><Placemark><name>Sushi Monster</name><address>955 Ralston Ave, Belmont, CA 94002</address><ExtendedData><Data name="Email"><value>syugen.zhou@gmail.com</value></Data><Data name="Category"><value>Japanese</value></Data><Data name="Distance"><value>0</value></Data></ExtendedData><description> Japanese from 2020-10-11T01:20:30.000Z to 2020-10-11T01:23:52.000Z. Distance 0m </description><Point><coordinates>-122.2768857,37.519427,0</coordinates></Point><TimeSpan><begin>2020-10-11T01:20:30.000Z</begin><end>2020-10-11T01:23:52.000Z</end></TimeSpan></Placemark><Placemark><name>Driving</name><address></address><ExtendedData><Data name="Email"><value>syugen.zhou@gmail.com</value></Data><Data name="Category"><value>Driving</value></Data><Data name="Distance"><value>7929</value></Data></ExtendedData><description> Driving from 2020-10-11T01:23:52.000Z to 2020-10-11T01:35:04.000Z. Distance 7929m </description><LineString><altitudeMode>clampToGround</altitudeMode><extrude>1</extrude><tesselate>1</tesselate><coordinates>-122.27667500000001,37.5194749,0 -122.27689250000002,37.5196322,0 -122.27654280000003,37.5199441,0 -122.27607190000002,37.5203196,0 -122.27591920000002,37.5203383,0 -122.27580730000001,37.520428,0 -122.2752594,37.520948000000004,0 -122.2752299,37.521049500000004,0 -122.2744243,37.521735500000005,0 -122.27428470000001,37.5217868,0 -122.27373469999999,37.52227330000001,0 -122.27348999999998,37.52255060000001,0 -122.27316679999998,37.52311830000001,0 -122.27245199999997,37.524208200000004,0 -122.27213189999999,37.524584100000006,0 -122.2718247,37.524903,0 -122.27123279999999,37.5254411,0 -122.27069519999999,37.52584500000001,0 -122.27007509999999,37.52624530000001,0 -122.26959169999999,37.526610600000005,0 -122.26943329999999,37.526642800000005,0 -122.2692117,37.526725600000006,0 -122.2691678,37.52673290000001,0 -122.2690755,37.52673440000001,0 -122.2690038,37.52672590000001,0 -122.26886999999999,37.52668980000001,0 -122.26880299999998,37.526655700000006,0 -122.26873719999996,37.52660780000001,0 -122.26868689999998,37.52655190000001,0 -122.26865899999997,37.5265046,0 -122.26863359999997,37.5264383,0 -122.26862219999997,37.52635050000001,0 -122.26859909999996,37.5262946,0 -122.26860389999996,37.5262695,0 -122.26865659999997,37.526162500000005,0 -122.26869819999996,37.526113200000005,0 -122.26875289999995,37.5260673,0 -122.26886729999997,37.526004900000004,0 -122.26896679999997,37.5259777,0 -122.26904509999997,37.5259675,0 -122.26917279999996,37.5259731,0 -122.26925539999998,37.5259956,0 -122.26936919999997,37.526045800000006,0 -122.26947579999997,37.526109500000004,0 -122.27001359999997,37.52649900000001,0 -122.27003119999996,37.526504900000006,0 -122.27019569999997,37.526524200000004,0 -122.27421679999996,37.53006190000001,0 -122.27492619999995,37.530732400000005,0 -122.27570369999997,37.5315255,0 -122.29208049999997,37.5491917,0 -122.29205169999997,37.5493209,0 -122.29328989999999,37.550929000000004,0 -122.29329729999998,37.5509682,0 -122.29368639999998,37.5516042,0 -122.2937798,37.551804000000004,0 -122.29380619999998,37.5518918,0 -122.29382609999999,37.5520221,0 -122.2938268,37.5521509,0 -122.29379649999998,37.5523497,0 -122.29375719999999,37.552463900000006,0 -122.29363749999999,37.55268310000001,0 -122.29345219999998,37.55288360000001,0 -122.29328269999999,37.55301610000001,0 -122.29301219999999,37.55315900000001,0 -122.291583,37.55375780000001,0 -122.29154059999999,37.553841000000006,0 -122.28898559999999,37.5547078,0 -122.28806379999999,37.555052800000006,0 -122.28666729999999,37.55563190000001,0 -122.2850003,37.5564012,0 -122.2842388,37.5568,0 -122.282709,37.5576771,0 -122.2761363,37.5618039,0 -122.27595620000001,37.561818,0 -122.2750754,37.562275500000005,0 -122.27444100000001,37.56256830000001,0 -122.2742424,37.562642100000005,0 -122.2740929,37.56267630000001,0 -122.27395969999999,37.56269030000001,0 -122.2738165,37.56269090000001,0 -122.2736943,37.56267480000001,0 -122.2734741,37.56261150000001,0 -122.273296,37.56252050000001,0 -122.2729158,37.56220870000001,0 -122.2725008,37.561804400000014,0 -122.2721606,37.56202350000001,0 -122.27210350000001,37.562071900000014,0 -122.27167930000002,37.562542700000016,0 -122.27146520000001,37.56261160000002,0 -122.27128050000002,37.56263400000002,0 -122.2705835,37.56225570000002,0 -122.26993470000001,37.56179180000002,0 -122.2694598,37.56148630000002,0 -122.2660564,37.55957270000002,0 -122.2659346,37.55952010000002,0 -122.2601882,37.556282900000014,0 -122.25982049999999,37.556050800000015,0 -122.2556705,37.55372120000002,0 -122.2552025,37.55424980000002,0 </coordinates></LineString><TimeSpan><begin>2020-10-11T01:23:52.000Z</begin><end>2020-10-11T01:35:04.000Z</end></TimeSpan></Placemark><Placemark><name>702 Marlin Ave</name><address>702 Marlin Ave, Foster City, CA 94404</address><ExtendedData><Data name="Email"><value>syugen.zhou@gmail.com</value></Data><Data name="Category"><value></value></Data><Data name="Distance"><value>0</value></Data></ExtendedData><description>  from 2020-10-11T01:35:04.000Z to 2020-10-11T17:28:42.000Z. Distance 0m </description><Point><coordinates>-122.25498479999999,37.5541321,0</coordinates></Point><TimeSpan><begin>2020-10-11T01:35:04.000Z</begin><end>2020-10-11T17:28:42.000Z</end></TimeSpan></Placemark></Document></kml>
