<?xml version="1.0" encoding="UTF-8"?><kml xmlns="http://www.opengis.net/kml/2.2" xmlns:gx="http://www.google.com/kml/ext/2.2"><Document><name> Location history from 2019-12-26 to 2019-12-26 </name><open>1</open><description></description><StyleMap id="multiTrack"><Pair><key>normal</key><styleUrl>#multiTrack_n</styleUrl></Pair><Pair><key>highlight</key><styleUrl>#multiTrack_h</styleUrl></Pair></StyleMap><Style id="multiTrack_n"><IconStyle><Icon><href>https://earth.google.com/images/kml-icons/track-directional/track-0.png</href></Icon></IconStyle><LineStyle><color>99ffac59</color><width>6</width></LineStyle></Style><Style id="multiTrack_h"><IconStyle><scale>1.2</scale><Icon><href>https://earth.google.com/images/kml-icons/track-directional/track-0.png</href></Icon></IconStyle><LineStyle><color>99ffac59</color><width>8</width></LineStyle></Style><Placemark><name>Hilton Munich Park</name><address>Am Tucherpark 7, 80538 München, Germany</address><ExtendedData><Data name="Email"><value>syugen.zhou@gmail.com</value></Data><Data name="Category"><value>Hotel</value></Data><Data name="Distance"><value>0</value></Data></ExtendedData><description> Hotel from 2019-12-25T19:42:32.000Z to 2019-12-26T08:28:48.093Z. Distance 0m </description><Point><coordinates>11.5983381,48.1523708,0</coordinates></Point><TimeSpan><begin>2019-12-25T19:42:32.000Z</begin><end>2019-12-26T08:28:48.093Z</end></TimeSpan></Placemark><Placemark><name>Driving</name><address></address><ExtendedData><Data name="Email"><value>syugen.zhou@gmail.com</value></Data><Data name="Category"><value>Driving</value></Data><Data name="Distance"><value>120446</value></Data></ExtendedData><description> Driving from 2019-12-26T08:28:48.093Z to 2019-12-26T10:10:23.999Z. Distance 120446m </description><LineString><altitudeMode>clampToGround</altitudeMode><extrude>1</extrude><tesselate>1</tesselate><coordinates>11.5994252,48.1530956,0 11.5998801,48.1536027,0 11.6000735,48.1536912,0 11.6004221,48.1536819,0 11.600920200000001,48.15354060000001,0 11.604059600000001,48.1576378,0 11.604217,48.1583429,0 11.6040316,48.1588607,0 11.603755400000002,48.159123400000006,0 11.603338,48.1593323,0 11.601886400000001,48.15947740000001,0 11.6003713,48.1607956,0 11.5970445,48.1627371,0 11.596440600000001,48.1633269,0 11.596127000000001,48.1639928,0 11.596081700000001,48.164758500000005,0 11.596328,48.1654582,0 11.599995900000001,48.1708756,0 11.6001188,48.171358600000005,0 11.600033100000001,48.17175040000001,0 11.599687000000001,48.17220500000001,0 11.594083000000003,48.17509430000001,0 11.588553100000002,48.17729200000001,0 11.587155000000003,48.17755850000001,0 11.581383300000002,48.17756330000001,0 11.574565600000003,48.17810610000001,0 11.572845000000003,48.178067000000006,0 11.565417000000002,48.17611080000001,0 11.564700800000002,48.17603700000001,0 11.541829600000003,48.17659140000001,0 11.540858900000003,48.176425500000015,0 11.540255200000002,48.176190700000014,0 11.539502500000003,48.175636800000014,0 11.539189100000003,48.17520660000002,0 11.538156100000002,48.16954960000002,0 11.536461200000003,48.147264700000015,0 11.534983900000002,48.14508950000001,0 11.534325200000003,48.14051950000001,0 11.534203000000003,48.135970600000014,0 11.533616800000003,48.133758100000016,0 11.532733800000003,48.13278820000001,0 11.524082800000002,48.12780460000001,0 11.521955400000003,48.126248200000006,0 11.521311100000002,48.12559840000001,0 11.520658200000003,48.124563500000015,0 11.520577900000003,48.124541000000015,0 11.520319900000002,48.12427730000001,0 11.519990500000002,48.12414390000001,0 11.519493800000003,48.12411630000001,0 11.513785400000003,48.12465480000001,0 11.513597700000004,48.12462340000001,0 11.502878400000002,48.12589600000001,0 11.500247000000002,48.12581670000001,0 11.498202700000002,48.12552930000001,0 11.492746100000002,48.12430910000001,0 11.489813000000002,48.12392550000001,0 11.474842500000001,48.12370320000001,0 11.459000000000001,48.124427600000004,0 11.4533819,48.12502010000001,0 11.451684100000001,48.12540150000001,0 11.445843600000002,48.12755830000002,0 11.444333600000002,48.12791590000001,0 11.441795200000001,48.128110700000015,0 11.440582400000002,48.12803640000001,0 11.437219800000001,48.12739220000002,0 11.435256900000002,48.127226700000016,0 11.432578200000002,48.12754260000001,0 11.424470200000002,48.130116100000016,0 11.422334300000001,48.13040460000001,0 11.4195752,48.130479000000015,0 11.414027100000002,48.12997760000001,0 11.4101092,48.12910460000001,0 11.4064817,48.127824400000016,0 11.4042066,48.12646200000001,0 11.4028746,48.125260400000016,0 11.400231300000002,48.122167300000015,0 11.3982732,48.12070910000002,0 11.396849000000001,48.119955900000015,0 11.3944696,48.119052400000015,0 11.391860000000001,48.11837540000002,0 11.386001400000001,48.11744630000002,0 11.381300800000002,48.11714880000002,0 11.373198600000002,48.11712650000002,0 11.370003700000002,48.11671630000002,0 11.352031500000002,48.11149900000002,0 11.346121100000001,48.10929220000003,0 11.3438694,48.10795350000002,0 11.3371884,48.10233080000002,0 11.333684900000002,48.10017240000002,0 11.3311542,48.09902660000002,0 11.3262046,48.09746690000002,0 11.3200853,48.096558100000024,0 11.3103055,48.09644120000002,0 11.307385400000001,48.09618140000002,0 11.299298,48.09423740000002,0 11.291464100000002,48.09321170000002,0 11.285999700000001,48.093026100000024,0 11.276423600000001,48.09425550000002,0 11.273578400000002,48.094040700000015,0 11.267167800000001,48.09209680000002,0 11.2643255,48.09187270000002,0 11.2598234,48.09220670000002,0 11.253509,48.092039000000014,0 11.2465483,48.09312890000001,0 11.243536800000001,48.09300740000002,0 11.238343200000001,48.09178760000002,0 11.228590000000002,48.08791260000002,0 11.225936400000002,48.087206600000016,0 11.224191000000001,48.086930000000024,0 11.2153667,48.086645500000024,0 11.202735900000002,48.08488510000002,0 11.197700800000002,48.08457240000003,0 11.1868409,48.08464300000003,0 11.181504200000001,48.08439300000003,0 11.1705286,48.08285380000003,0 11.168653500000001,48.082759100000025,0 11.165363300000001,48.082979100000024,0 11.158087800000002,48.08473500000002,0 11.156155900000002,48.084940700000026,0 11.154079200000002,48.08495810000003,0 11.151354500000002,48.08471080000003,0 11.147998000000001,48.084013500000026,0 11.139016400000001,48.08021200000003,0 11.135568300000001,48.079252700000026,0 11.132914600000001,48.07893010000003,0 11.122727300000003,48.078366600000024,0 11.115858700000002,48.077624800000024,0 11.1083469,48.07595430000003,0 11.105264300000002,48.075573500000026,0 11.099264200000002,48.07536780000003,0 11.088500200000002,48.073661100000024,0 11.080186600000001,48.07291790000003,0 11.071879000000001,48.07141250000002,0 11.0670041,48.071005300000024,0 11.061767600000001,48.07115660000002,0 11.0587069,48.07166000000002,0 11.050695500000002,48.073739600000025,0 11.047890100000002,48.07418510000002,0 11.043559100000001,48.07436000000003,0 11.040451200000001,48.074110600000026,0 11.0369799,48.073441000000024,0 11.033327900000002,48.07222050000003,0 11.0238907,48.06747490000002,0 11.0207023,48.066314400000024,0 11.0186455,48.065886400000025,0 11.0148893,48.06563510000002,0 11.0062894,48.066135600000024,0 11.0019402,48.06592930000002,0 10.999270399999999,48.06556280000002,0 10.993547,48.06423780000002,0 10.9805251,48.06017480000003,0 10.976566599999998,48.059422500000025,0 10.953572099999999,48.057660500000026,0 10.942685699999998,48.05569370000002,0 10.9400177,48.05541460000002,0 10.9380535,48.05544750000002,0 10.9310019,48.05618150000002,0 10.9208088,48.05622810000002,0 10.914406699999999,48.057539800000015,0 10.9112802,48.057714200000014,0 10.904482000000002,48.057127500000014,0 10.898000900000001,48.05711740000002,0 10.893936600000002,48.057510100000016,0 10.8897641,48.058303500000015,0 10.884126700000001,48.060111700000014,0 10.8771716,48.06357600000002,0 10.8740824,48.06480020000002,0 10.870424600000002,48.06569720000002,0 10.867926300000002,48.06600910000002,0 10.8651122,48.06611050000002,0 10.862518200000002,48.065972200000026,0 10.858342200000001,48.06532140000002,0 10.8550502,48.06447280000002,0 10.852998300000001,48.06371290000002,0 10.850760300000001,48.06249430000002,0 10.8497351,48.06172120000002,0 10.8478831,48.05981070000002,0 10.8440296,48.05362410000002,0 10.842600800000001,48.05188830000002,0 10.840892800000002,48.05045310000002,0 10.839014200000001,48.04941190000002,0 10.8386543,48.04935240000002,0 10.838082,48.04943390000002,0 10.8371784,48.04935170000002,0 10.8364254,48.04906300000002,0 10.8359193,48.04856950000002,0 10.8357319,48.047998600000014,0 10.836035200000001,48.04728840000002,0 10.836393000000001,48.04694530000002,0 10.8370602,48.04664880000002,0 10.8379373,48.046445300000016,0 10.838502700000001,48.04556490000002,0 10.8407323,48.04382940000002,0 10.842794500000002,48.041094500000014,0 10.845153800000002,48.039144100000016,0 10.849861900000002,48.03684980000002,0 10.851575200000003,48.035796500000025,0 10.852371100000004,48.03508950000002,0 10.853370700000003,48.03376380000002,0 10.854526800000004,48.03094520000002,0 10.855302800000004,48.02988660000002,0 10.856424000000002,48.028891600000016,0 10.860994000000003,48.02583050000002,0 10.861859600000003,48.02476890000001,0 10.8622741,48.023565800000014,0 10.862055400000003,48.02196280000001,0 10.860977000000002,48.019895000000005,0 10.853757500000002,47.98238800000001,0 10.8536759,47.982288000000004,0 10.8529821,47.978762700000004,0 10.853224,47.977294400000005,0 10.861561100000001,47.9611431,0 10.861839000000002,47.960018500000004,0 10.861906000000001,47.9576203,0 10.8621797,47.956400200000004,0 10.8642099,47.95296270000001,0 10.8645142,47.95050460000001,0 10.865706600000001,47.94647210000001,0 10.8657013,47.94566870000001,0 10.8642743,47.94046080000002,0 10.8643778,47.939131500000016,0 10.8667382,47.935236900000014,0 10.868217600000001,47.93153010000001,0 10.869224500000001,47.92581650000001,0 10.8737068,47.91826510000001,0 10.875296800000001,47.91247130000001,0 10.876813100000001,47.91005890000001,0 10.881823800000001,47.90429600000001,0 10.885426800000003,47.89754120000001,0 10.886787900000002,47.89326800000001,0 10.886754800000002,47.89309160000001,0 10.889291600000002,47.88472890000001,0 10.892056900000002,47.88015330000001,0 10.894269900000001,47.87448780000001,0 10.894579700000003,47.87308190000001,0 10.893869700000002,47.868058800000014,0 10.893924000000002,47.866821500000015,0 10.894812300000002,47.86420180000002,0 10.894325300000002,47.86128090000002,0 10.894393900000003,47.86077620000002,0 10.8965115,47.855587100000015,0 10.897683700000002,47.84959590000001,0 10.897579100000002,47.84864750000001,0 10.8983331,47.845100500000015,0 10.899065000000002,47.84403120000001,0 10.900840200000001,47.84219320000001,0 10.9014737,47.84118830000001,0 10.9017657,47.83966630000001,0 10.901659,47.83893060000001,0 10.9011709,47.837787200000015,0 10.900074600000002,47.83656290000001,0 10.8984234,47.83558920000001,0 10.8972976,47.835175500000005,0 10.8929465,47.83440240000001,0 10.890199599999999,47.83353420000001,0 10.8884765,47.83253080000001,0 10.887264199999999,47.83143590000001,0 10.8861282,47.829627900000006,0 10.8840564,47.82279220000001,0 10.8811357,47.81836440000001,0 10.8670399,47.80447890000001,0 10.8660656,47.802491,0 10.8658541,47.80063630000001,0 10.866155299999999,47.79913940000001,0 10.8665579,47.7982409,0 10.8679536,47.796434100000006,0 10.8692528,47.7953653,0 10.8713667,47.7942005,0 10.8968818,47.784683300000005,0 10.9096786,47.78174490000001,0 10.9099364,47.781528400000006,0 10.909936199999999,47.78124160000001,0 10.9097134,47.78090740000001,0 10.9094199,47.78073740000001,0 10.909213699999999,47.78068980000001,0 10.908743799999998,47.78070820000001,0 10.908233399999999,47.780907500000005,0 10.9058358,47.77539500000001,0 10.9048764,47.774267900000005,0 10.9048242,47.773899400000005,0 10.9052039,47.772246200000005,0 10.905008,47.77129660000001,0 10.902722500000001,47.76720230000001,0 10.902345100000002,47.76610180000001,0 10.902336900000002,47.76294820000001,0 10.8989592,47.754923300000016,0 10.8978687,47.753640200000014,0 10.8949817,47.75178190000001,0 10.8940137,47.750943000000014,0 10.889387900000001,47.745149300000016,0 10.886507100000001,47.74312120000002,0 10.885007600000002,47.74132150000002,0 10.8843715,47.739750100000016,0 10.8843394,47.73853660000001,0 10.8856603,47.73483490000001,0 10.8856602,47.73358370000001,0 10.885024600000001,47.73115510000001,0 10.885120100000002,47.73092370000001,0 10.885395600000003,47.730679300000006,0 10.885774900000003,47.730540000000005,0 10.887774200000003,47.7303142,0 10.888443100000002,47.73003680000001,0 10.889143300000002,47.72939470000001,0 10.889382500000002,47.72858840000001,0 10.889659400000001,47.72822070000001,0 10.890779600000002,47.72730760000001,0 10.891116900000002,47.72672420000001,0 10.891176000000002,47.7261554,0 10.890758700000003,47.724214,0 10.889209400000002,47.7204819,0 10.888699700000002,47.719708,0 10.888353500000003,47.7182921,0 10.888027500000003,47.717994600000004,0 10.887486600000003,47.7177644,0 10.884871500000001,47.7171488,0 10.8846188,47.7169498,0 10.8840584,47.716036700000004,0 10.883479100000002,47.715555300000005,0 10.882181200000002,47.71364690000001,0 10.882129300000003,47.7128463,0 10.880557700000002,47.7113687,0 10.879090900000003,47.7106015,0 10.876465400000003,47.7099355,0 10.875494200000004,47.7093927,0 10.875157500000004,47.709092399999996,0 10.874484600000004,47.708077,0 10.873141800000004,47.7076215,0 10.870516300000004,47.7074486,0 10.869438900000004,47.7071924,0 10.868096800000004,47.7064081,0 10.865997200000004,47.7057048,0 10.862743600000003,47.7042678,0 10.862260600000004,47.703939299999995,0 10.860515800000003,47.702145599999994,0 10.860012700000002,47.70123699999999,0 10.859978300000002,47.700587099999986,0 10.860874800000003,47.69891049999999,0 10.860972200000003,47.695417299999995,0 10.861472200000001,47.69337769999999,0 10.861401100000002,47.69295119999999,0 10.860592800000003,47.691643599999985,0 10.860517100000003,47.690773599999986,0 10.861015300000002,47.68915779999999,0 10.858109800000001,47.68077429999999,0 10.857886800000001,47.67892159999999,0 10.856372,47.67713529999999,0 10.855783100000002,47.675301699999984,0 10.854580800000003,47.67389499999999,0 10.852831100000001,47.67064699999999,0 10.852598200000003,47.66894509999999,0 10.852186600000003,47.66827519999999,0 10.850255600000002,47.66677069999999,0 10.847380300000003,47.663491399999984,0 10.845292400000002,47.66218819999998,0 10.844545900000002,47.66140199999998,0 10.843529000000002,47.65977129999998,0 10.842924000000002,47.65922169999998,0 10.840471,47.65761479999998,0 10.839859900000002,47.656900999999976,0 10.839584900000002,47.65593089999998,0 10.839654800000003,47.654605899999986,0 10.839041800000002,47.653550399999986,0 10.838505800000004,47.653111199999984,0 10.831871200000002,47.64978809999998,0 10.830322000000002,47.64834299999998,0 10.828151800000004,47.644400199999986,0 10.827529000000004,47.640734299999984,0 10.821263000000005,47.632732099999984,0 10.820958400000006,47.632055999999984,0 10.820714900000004,47.62853209999999,0 10.820327100000004,47.62765479999998,0 10.819880600000003,47.62714849999998,0 10.810837700000004,47.62193509999999,0 10.809456100000006,47.62080139999998,0 10.806987500000005,47.616151399999985,0 10.803984300000005,47.61345929999998,0 10.803896700000005,47.613438299999984,0 10.799145600000005,47.608735999999986,0 10.797814600000004,47.60616349999999,0 10.796779800000003,47.605192899999984,0 10.794682900000003,47.60400789999999,0 10.793123100000003,47.602396599999985,0 10.791197600000002,47.601230399999984,0 10.7902201,47.59963189999999,0 10.7897361,47.59916419999999,0 10.7889172,47.59867289999999,0 10.786845300000001,47.59803199999999,0 10.7862556,47.597654699999985,0 10.7854816,47.59645889999999,0 10.7849445,47.59604319999999,0 10.7837051,47.59542069999999,0 10.7817744,47.59380689999999,0 10.7805913,47.59328409999999,0 10.771632799999999,47.59129899999999,0 10.768574,47.5901813,0 10.767277999999997,47.58943789999999,0 10.763629799999999,47.586207499999986,0 10.761777399999998,47.58531709999999,0 10.7519371,47.58205349999999,0 10.7520136,47.581924499999985,0 10.7519967,47.58171929999999,0 10.7476459,47.576357999999985,0 10.7427127,47.56436229999999,0 10.741224,47.55836169999999,0 </coordinates></LineString><TimeSpan><begin>2019-12-26T08:28:48.093Z</begin><end>2019-12-26T10:10:23.999Z</end></TimeSpan></Placemark><Placemark><name>Walking</name><address></address><ExtendedData><Data name="Email"><value>syugen.zhou@gmail.com</value></Data><Data name="Category"><value>Walking</value></Data><Data name="Distance"><value>626</value></Data></ExtendedData><description> Walking from 2019-12-26T10:10:23.999Z to 2019-12-26T10:29:56.000Z. Distance 626m </description><LineString><altitudeMode>clampToGround</altitudeMode><extrude>1</extrude><tesselate>1</tesselate><coordinates>10.741250599999999,47.5584687,0 10.7410877,47.557812500000004,0 10.7410606,47.5577031,0 10.7409458,47.5571318,0 10.740939400000002,47.5571001,0 10.740936800000002,47.557086899999995,0 10.740932300000003,47.557064499999996,0 10.7409019,47.55690859999999,0 10.740867100000003,47.5567303,0 10.740847200000001,47.5566171,0 10.740847200000001,47.5566171,0 10.740835600000002,47.5564764,0 10.740818700000002,47.556353800000004,0 10.740810700000003,47.5563189,0 10.740797300000002,47.5562599,0 10.740749100000002,47.556170800000004,0 10.740696800000002,47.5560923,0 10.740623700000002,47.555998100000004,0 10.740607300000002,47.55598170000001,0 10.740566300000001,47.55594080000001,0 10.7405342,47.55590860000001,0 10.740418400000001,47.55581640000001,0 10.7403445,47.55577060000001,0 10.7402729,47.55572560000001,0 10.7400985,47.55559070000001,0 10.740058099999999,47.555559900000006,0 10.7395974,47.55520820000001,0 </coordinates></LineString><TimeSpan><begin>2019-12-26T10:10:23.999Z</begin><end>2019-12-26T10:29:56.000Z</end></TimeSpan></Placemark><Placemark><name>Ticket-Center Hohenschwangau</name><address>Alpseestraße 12, 87645 Schwangau, Germany</address><ExtendedData><Data name="Email"><value>syugen.zhou@gmail.com</value></Data><Data name="Category"><value>Event ticket seller</value></Data><Data name="Distance"><value>0</value></Data></ExtendedData><description> Event ticket seller from 2019-12-26T10:29:56.000Z to 2019-12-26T11:22:49.000Z. Distance 0m </description><Point><coordinates>10.7392899,47.5554128,0</coordinates></Point><TimeSpan><begin>2019-12-26T10:29:56.000Z</begin><end>2019-12-26T11:22:49.000Z</end></TimeSpan></Placemark><Placemark><name>Walking</name><address></address><ExtendedData><Data name="Email"><value>syugen.zhou@gmail.com</value></Data><Data name="Category"><value>Walking</value></Data><Data name="Distance"><value>356</value></Data></ExtendedData><description> Walking from 2019-12-26T11:22:49.413Z to 2019-12-26T11:33:33.000Z. Distance 356m </description><LineString><altitudeMode>clampToGround</altitudeMode><extrude>1</extrude><tesselate>1</tesselate><coordinates>10.739629299999999,47.5552326,0 10.739528499999999,47.5551556,0 10.739344899999999,47.555015499999996,0 10.7391548,47.5549354,0 10.7389555,47.55487719999999,0 10.7386252,47.55480409999999,0 10.7385398,47.55479089999999,0 10.7383342,47.55477419999999,0 10.7382271,47.55476859999999,0 10.7378511,47.554739899999994,0 10.7375902,47.55468929999999,0 10.7374001,47.554624299999986,0 10.7373148,47.554590099999984,0 10.7372605,47.55456749999999,0 10.7371278,47.55450779999999,0 10.7369527,47.55439339999999,0 10.7368677,47.554335499999986,0 10.736728,47.55421609999999,0 10.736655,47.55417409999999,0 10.7365358,47.55410479999999,0 10.736276100000001,47.553974899999986,0 10.735906900000002,47.55380619999999,0 10.735906900000002,47.55380619999999,0 10.735907800000001,47.553716499999986,0 10.7358857,47.553633699999985,0 10.7358468,47.553551099999986,0 10.735791099999998,47.55347549999999,0 10.735704999999998,47.55338909999999,0 10.735580099999998,47.55330929999999,0 10.7355404,47.55326329999999,0 10.7355067,47.55320469999999,0 10.7353084,47.55304469999999,0 10.7351603,47.55289839999999,0 10.7350735,47.55275619999999,0 10.7350487,47.55271559999999,0 10.7350098,47.552625199999994,0 10.735025799999999,47.552570599999996,0 10.7351079,47.5525271,0 10.7351079,47.5525271,0 10.735189499999999,47.5525309,0 10.735262299999999,47.5526115,0 10.735412899999998,47.55292949999999,0 10.735487999999998,47.552970499999994,0 10.735513599999999,47.5530931,0 10.7355067,47.553204699999995,0 10.7355404,47.5532633,0 10.735580099999998,47.553309299999995,0 10.735704999999998,47.5533891,0 10.735791099999998,47.5534755,0 10.7358468,47.55355109999999,0 10.7358857,47.55363369999999,0 10.735907800000001,47.55371649999999,0 10.735906900000002,47.5538062,0 10.735906900000002,47.5538062,0 10.7359354,47.55381919999999,0 </coordinates></LineString><TimeSpan><begin>2019-12-26T11:22:49.413Z</begin><end>2019-12-26T11:33:33.000Z</end></TimeSpan></Placemark><Placemark><name>Museum of the Bavarian kings</name><address>Alpseestraße 27, 87645 Schwangau, Germany</address><ExtendedData><Data name="Email"><value>syugen.zhou@gmail.com</value></Data><Data name="Category"><value>History museum</value></Data><Data name="Distance"><value>0</value></Data></ExtendedData><description> History museum from 2019-12-26T11:33:33.000Z to 2019-12-26T13:06:29.000Z. Distance 0m </description><Point><coordinates>10.7361484,47.5535814,0</coordinates></Point><TimeSpan><begin>2019-12-26T11:33:33.000Z</begin><end>2019-12-26T13:06:29.000Z</end></TimeSpan></Placemark><Placemark><name>Walking</name><address></address><ExtendedData><Data name="Email"><value>syugen.zhou@gmail.com</value></Data><Data name="Category"><value>Walking</value></Data><Data name="Distance"><value>300</value></Data></ExtendedData><description> Walking from 2019-12-26T13:06:29.000Z to 2019-12-26T13:20:37.000Z. Distance 300m </description><LineString><altitudeMode>clampToGround</altitudeMode><extrude>1</extrude><tesselate>1</tesselate><coordinates>10.737579,47.5546855,0 10.7375902,47.5546893,0 10.7378511,47.5547399,0 10.7382271,47.554768599999996,0 10.7382271,47.554768599999996,0 10.738140999999999,47.554922299999994,0 10.7381238,47.554981899999994,0 10.7381517,47.555037799999994,0 10.7382158,47.555099899999995,0 10.7382204,47.5551044,0 10.7382502,47.555131599999996,0 10.7382326,47.5552053,0 10.7382159,47.5552545,0 10.7382159,47.5552545,0 10.738299,47.55531259999999,0 10.7383339,47.55533699999999,0 10.7383437,47.55534879999999,0 10.7382689,47.55535989999999,0 10.738071699999999,47.55538899999999,0 10.738013399999998,47.55540789999999,0 10.7378963,47.555445799999994,0 10.7378587,47.55546799999999,0 10.7377442,47.55553559999999,0 10.737846600000001,47.55566629999999,0 10.737846600000001,47.55566629999999,0 10.7375696,47.55576959999999,0 10.737364300000001,47.555723099999994,0 10.737196100000002,47.55568499999999,0 10.737166100000001,47.555628399999996,0 10.737115700000002,47.555533,0 10.737004200000001,47.55551019999999,0 10.736971500000001,47.55550349999999,0 10.736898700000001,47.555505999999994,0 10.736816300000001,47.555546799999995,0 10.73676,47.55555369999999,0 10.736721999999999,47.555558299999994,0 10.736586899999999,47.55548629999999,0 10.736474799999998,47.55548159999999,0 10.736474799999998,47.55548159999999,0 10.736586899999999,47.55548629999999,0 10.736721999999999,47.555558299999994,0 10.73676,47.55555369999999,0 10.736816300000001,47.555546799999995,0 10.736898700000001,47.555505999999994,0 10.736971500000001,47.55550349999999,0 10.737004200000001,47.55551019999999,0 10.737115700000002,47.555533,0 10.737166100000001,47.555628399999996,0 10.737196100000002,47.55568499999999,0 10.737364300000001,47.555723099999994,0 10.7375696,47.55576959999999,0 10.737846600000001,47.55566629999999,0 10.737846600000001,47.55566629999999,0 10.7377442,47.55553559999999,0 10.7378587,47.55546799999999,0 10.7378963,47.555445799999994,0 10.738013399999998,47.55540789999999,0 10.738071699999999,47.55538899999999,0 10.7382689,47.55535989999999,0 10.7383437,47.55534879999999,0 10.7383339,47.55533699999999,0 10.738299,47.55531259999999,0 10.7382159,47.5552545,0 10.7382159,47.5552545,0 10.7382326,47.5552053,0 10.7382502,47.555131599999996,0 10.7382204,47.5551044,0 10.7382158,47.555099899999995,0 10.7381517,47.555037799999994,0 10.7381238,47.554981899999994,0 10.738140999999999,47.554922299999994,0 10.7382271,47.554768599999996,0 10.7382271,47.554768599999996,0 10.7378511,47.5547399,0 10.7375902,47.5546893,0 10.7374001,47.55462429999999,0 10.7373148,47.55459009999999,0 10.7372605,47.5545675,0 10.7371278,47.554507799999996,0 10.7369527,47.554393399999995,0 10.7368677,47.55433549999999,0 10.736728,47.5542161,0 10.736655,47.5541741,0 10.7365358,47.5541048,0 10.736276100000001,47.55397489999999,0 10.735906900000002,47.5538062,0 </coordinates></LineString><TimeSpan><begin>2019-12-26T13:06:29.000Z</begin><end>2019-12-26T13:20:37.000Z</end></TimeSpan></Placemark><Placemark><name>Hohenschwangau Castle</name><address>Alpseestraße 30, 87645 Schwangau, Germany</address><ExtendedData><Data name="Email"><value>syugen.zhou@gmail.com</value></Data><Data name="Category"><value>Castle</value></Data><Data name="Distance"><value>0</value></Data></ExtendedData><description> Castle from 2019-12-26T13:21:05.000Z to 2019-12-26T13:31:37.000Z. Distance 0m </description><Point><coordinates>10.7363804,47.5556743,0</coordinates></Point><TimeSpan><begin>2019-12-26T13:21:05.000Z</begin><end>2019-12-26T13:31:37.000Z</end></TimeSpan></Placemark><Placemark><name>Walking</name><address></address><ExtendedData><Data name="Email"><value>syugen.zhou@gmail.com</value></Data><Data name="Category"><value>Walking</value></Data><Data name="Distance"><value>2056</value></Data></ExtendedData><description> Walking from 2019-12-26T13:31:37.000Z to 2019-12-26T14:20:26.000Z. Distance 2056m </description><LineString><altitudeMode>clampToGround</altitudeMode><extrude>1</extrude><tesselate>1</tesselate><coordinates>10.736423,47.555526699999994,0 10.7365014,47.55548269999999,0 10.736586899999999,47.55548629999999,0 10.736721999999999,47.555558299999994,0 10.7368163,47.555546799999995,0 10.7368987,47.555505999999994,0 10.7369715,47.55550349999999,0 10.7371157,47.555533,0 10.7371961,47.555685,0 10.737569599999999,47.5557696,0 10.7378466,47.5556663,0 10.737744199999998,47.5555356,0 10.737896299999997,47.5554458,0 10.738071699999997,47.555389,0 10.738343699999998,47.5553488,0 10.738333899999999,47.555336999999994,0 10.738215899999998,47.5552545,0 10.738250199999998,47.555131599999996,0 10.7381517,47.555037799999994,0 10.738123799999999,47.554981899999994,0 10.738140999999999,47.554922299999994,0 10.7382271,47.554768599999996,0 10.7385398,47.55479089999999,0 10.7386252,47.5548041,0 10.7386389,47.554722999999996,0 10.738662899999998,47.554666,0 10.7387032,47.554620899999996,0 10.7387325,47.554599399999994,0 10.738817599999999,47.5545671,0 10.738867199999998,47.5545565,0 10.738942499999999,47.55455479999999,0 10.7394404,47.5546071,0 10.7401515,47.55464719999999,0 10.740226,47.55463929999999,0 10.7402794,47.554619899999985,0 10.740305600000001,47.554600599999986,0 10.7403213,47.55458139999999,0 10.7403451,47.55452849999999,0 10.7403452,47.554515999999985,0 10.740326900000001,47.554481999999986,0 10.740292700000001,47.554447299999985,0 10.740164000000002,47.55436049999999,0 10.7397547,47.554150799999995,0 10.739312600000002,47.55389929999999,0 10.739587800000002,47.553864799999985,0 10.739844200000002,47.55384389999998,0 10.740458700000001,47.55376779999999,0 10.740767400000003,47.55365719999998,0 10.741126300000003,47.55363459999999,0 10.741420900000001,47.553633199999986,0 10.741656700000004,47.55365959999998,0 10.741937500000004,47.553715099999984,0 10.742306000000005,47.55381389999999,0 10.742594400000003,47.55391419999999,0 10.742737300000003,47.553980899999985,0 10.742797600000003,47.554033299999986,0 10.742930900000003,47.554178399999984,0 10.743616900000003,47.55477239999998,0 10.743906300000003,47.554971999999985,0 10.744512300000002,47.555223599999984,0 10.7449629,47.555343499999985,0 10.745246300000002,47.555466199999984,0 10.745361800000003,47.55558229999998,0 10.745652500000002,47.55592019999999,0 10.7458626,47.55612439999999,0 10.746080500000001,47.55626209999999,0 10.746427900000002,47.556358299999985,0 10.746731500000003,47.55651649999999,0 10.746819200000003,47.556653199999985,0 10.747099100000002,47.557234499999986,0 10.747241600000002,47.557420599999986,0 10.747404400000002,47.55755209999999,0 10.747563900000001,47.55765009999999,0 10.747709900000002,47.55771629999999,0 10.747880000000002,47.55776979999999,0 10.748301000000001,47.55785269999999,0 10.748760600000002,47.55800769999999,0 10.748809900000001,47.55809609999999,0 10.748817800000003,47.558183299999996,0 10.748780100000003,47.55830889999999,0 10.748735700000003,47.558400299999995,0 10.748667700000002,47.5584675,0 10.748654400000003,47.5585489,0 10.748726800000002,47.5586195,0 10.748921300000001,47.5586811,0 10.749275800000001,47.558729299999996,0 10.749492400000001,47.5587204,0 10.749803900000002,47.5586819,0 10.7500055,47.558646499999995,0 10.7501567,47.55858799999999,0 10.7502259,47.558509599999994,0 10.7502444,47.558434999999996,0 10.7502096,47.55834469999999,0 10.750123199999999,47.55827849999999,0 10.7498437,47.55822009999999,0 10.749763699999999,47.558172899999995,0 10.749730499999998,47.5581311,0 10.7497361,47.558043,0 10.749765,47.5579584,0 10.749849099999999,47.55790199999999,0 </coordinates></LineString><TimeSpan><begin>2019-12-26T13:31:37.000Z</begin><end>2019-12-26T14:20:26.000Z</end></TimeSpan></Placemark><Placemark><name>Neuschwanstein Castle</name><address>Neuschwansteinstraße 20, 87645 Schwangau, Germany</address><ExtendedData><Data name="Email"><value>syugen.zhou@gmail.com</value></Data><Data name="Category"><value>Castle</value></Data><Data name="Distance"><value>0</value></Data></ExtendedData><description> Castle from 2019-12-26T14:20:26.000Z to 2019-12-26T15:55:22.000Z. Distance 0m </description><Point><coordinates>10.7498004,47.557573999999995,0</coordinates></Point><TimeSpan><begin>2019-12-26T14:20:26.000Z</begin><end>2019-12-26T15:55:22.000Z</end></TimeSpan></Placemark><Placemark><name>Walking</name><address></address><ExtendedData><Data name="Email"><value>syugen.zhou@gmail.com</value></Data><Data name="Category"><value>Walking</value></Data><Data name="Distance"><value>1401</value></Data></ExtendedData><description> Walking from 2019-12-26T15:55:22.000Z to 2019-12-26T16:09:36.000Z. Distance 1401m </description><LineString><altitudeMode>clampToGround</altitudeMode><extrude>1</extrude><tesselate>1</tesselate><coordinates>10.749849099999999,47.557902,0 10.749765,47.557958400000004,0 10.7497361,47.558043000000005,0 10.749730499999998,47.558131100000004,0 10.749763699999999,47.5581729,0 10.7498437,47.5582201,0 10.750123199999999,47.5582785,0 10.7502096,47.5583447,0 10.7502444,47.558435,0 10.7502259,47.5585096,0 10.7501567,47.558588,0 10.7500055,47.5586465,0 10.749803900000002,47.5586819,0 10.749492400000001,47.558720400000006,0 10.749275800000001,47.5587293,0 10.748921300000001,47.5586811,0 10.748726800000002,47.558619500000006,0 10.748654400000003,47.558548900000005,0 10.748667700000002,47.5584675,0 10.748735700000003,47.5584003,0 10.748780100000003,47.5583089,0 10.748817800000003,47.5581833,0 10.748809900000001,47.5580961,0 10.748760600000002,47.5580077,0 10.748301000000001,47.5578527,0 10.748058800000003,47.5578095,0 10.747880000000002,47.557769799999996,0 10.747709900000002,47.557716299999996,0 10.747563900000001,47.55765009999999,0 10.747404400000002,47.557552099999995,0 10.747241600000002,47.55742059999999,0 10.747099100000002,47.55723449999999,0 10.746916400000002,47.55687089999999,0 10.746819200000001,47.5566532,0 10.746731500000001,47.5565165,0 10.7464279,47.5563583,0 10.7460805,47.5562621,0 10.7458626,47.5561244,0 10.7456525,47.5559202,0 10.745361800000001,47.5555823,0 10.7452463,47.5554662,0 10.7449629,47.5553435,0 10.7445123,47.5552236,0 10.7442077,47.5551034,0 10.7439063,47.554972,0 10.743616900000001,47.5547724,0 10.7433517,47.5545498,0 10.743079,47.554297,0 10.742930900000001,47.5541784,0 10.742797600000001,47.5540333,0 10.742737300000002,47.5539809,0 10.742594400000002,47.5539142,0 10.742306000000003,47.5538139,0 10.741937500000002,47.5537151,0 10.741656700000002,47.553659599999996,0 10.741420900000001,47.5536332,0 10.741126300000001,47.5536346,0 10.740767400000001,47.553657199999996,0 10.7404587,47.553767799999996,0 10.7398442,47.5538439,0 10.7395878,47.5538648,0 10.7393126,47.553899300000005,0 10.739754699999999,47.55415080000001,0 10.740164,47.5543605,0 10.7402927,47.5544473,0 10.7403269,47.554482,0 10.7403392,47.5545001,0 10.740345199999998,47.554516,0 10.740345099999999,47.554528499999996,0 10.7403401,47.5545446,0 10.740321299999998,47.5545814,0 10.7403056,47.55460059999999,0 10.740279399999999,47.55461989999999,0 10.740254699999998,47.55463069999999,0 10.740225999999998,47.55463929999999,0 10.740151499999998,47.55464719999999,0 10.739440399999998,47.5546071,0 10.738942499999999,47.55455479999999,0 10.738867199999998,47.5545565,0 10.738817599999997,47.5545671,0 10.738767499999998,47.55458349999999,0 10.738732499999998,47.554599399999994,0 10.738703199999998,47.554620899999996,0 10.738662899999996,47.554666,0 10.738638899999998,47.554722999999996,0 10.738625199999998,47.5548041,0 10.738955499999998,47.5548772,0 10.739154799999998,47.5549354,0 10.739344899999997,47.5550155,0 10.740272899999999,47.5557256,0 10.740418399999998,47.555816400000005,0 10.740534199999999,47.5559086,0 10.740623699999997,47.5559981,0 10.740696799999998,47.556092299999996,0 10.740749099999999,47.5561708,0 10.740797299999997,47.55625989999999,0 10.740818699999997,47.5563538,0 10.740847199999997,47.5566171,0 10.741060599999997,47.5577031,0 10.741279699999998,47.5585861,0 </coordinates></LineString><TimeSpan><begin>2019-12-26T15:55:22.000Z</begin><end>2019-12-26T16:09:36.000Z</end></TimeSpan></Placemark><Placemark><name>Parkplatz P2 Königsschlösser</name><address>87645 Schwangau, Germany</address><ExtendedData><Data name="Email"><value>syugen.zhou@gmail.com</value></Data><Data name="Category"><value>Parking lot</value></Data><Data name="Distance"><value>0</value></Data></ExtendedData><description> Parking lot from 2019-12-26T16:09:36.000Z to 2019-12-26T16:26:11.000Z. Distance 0m </description><Point><coordinates>10.7404443,47.558492099999995,0</coordinates></Point><TimeSpan><begin>2019-12-26T16:09:36.000Z</begin><end>2019-12-26T16:26:11.000Z</end></TimeSpan></Placemark><Placemark><name>Driving</name><address></address><ExtendedData><Data name="Email"><value>syugen.zhou@gmail.com</value></Data><Data name="Category"><value>Driving</value></Data><Data name="Distance"><value>127247</value></Data></ExtendedData><description> Driving from 2019-12-26T16:26:11.213Z to 2019-12-26T18:39:00.516Z. Distance 127247m </description><LineString><altitudeMode>clampToGround</altitudeMode><extrude>1</extrude><tesselate>1</tesselate><coordinates>10.739671,47.5586087,0 10.7386247,47.561555600000005,0 10.737681700000001,47.5679842,0 10.7377316,47.5696672,0 10.737316600000002,47.5703915,0 10.737064600000002,47.5723367,0 10.736867700000001,47.5728942,0 10.736812,47.5757938,0 10.7370861,47.576717099999996,0 10.7369985,47.5767963,0 10.738311900000001,47.5778592,0 10.7392366,47.578377599999996,0 10.7539821,47.5826734,0 10.7627318,47.5857163,0 10.763629799999999,47.58620749999999,0 10.764769199999998,47.58704959999999,0 10.767277999999997,47.5894379,0 10.768574,47.5901813,0 10.771508299999999,47.5912381,0 10.774362499999999,47.5920078,0 10.7805913,47.5932841,0 10.7817744,47.5938069,0 10.7837051,47.5954207,0 10.7849445,47.5960432,0 10.7854816,47.596458899999995,0 10.7862556,47.59765469999999,0 10.786845300000001,47.598031999999996,0 10.7889172,47.5986729,0 10.7897361,47.5991642,0 10.7902201,47.59963189999999,0 10.791197600000002,47.60123039999999,0 10.791619500000001,47.60156049999999,0 10.7931231,47.60239659999999,0 10.794682900000002,47.60400789999999,0 10.796779800000001,47.60519289999999,0 10.797424200000002,47.605709899999994,0 10.797814600000002,47.606163499999994,0 10.799145600000003,47.60873599999999,0 10.803983200000003,47.61340519999999,0 10.803984300000003,47.61345929999999,0 10.806987500000004,47.61615139999999,0 10.809528600000004,47.62085339999999,0 10.810068400000004,47.62139109999999,0 10.810837700000004,47.621935099999995,0 10.818927600000004,47.626467299999995,0 10.819880600000003,47.62714849999999,0 10.820327100000004,47.62765479999999,0 10.820714900000004,47.62853209999999,0 10.820875800000005,47.63033469999999,0 10.820796200000004,47.63116049999999,0 10.820958400000004,47.63205599999999,0 10.821263000000004,47.63273209999999,0 10.827242700000005,47.640185899999985,0 10.827529000000004,47.64073429999999,0 10.827761400000005,47.64288739999999,0 10.828151800000006,47.64440019999999,0 10.829767200000004,47.647476999999995,0 10.830731100000005,47.64869989999999,0 10.831436500000006,47.64936399999999,0 10.833034800000007,47.650468999999994,0 10.838505800000007,47.65311119999999,0 10.839041800000006,47.653550399999986,0 10.839515400000005,47.65420929999999,0 10.839710300000005,47.65473029999999,0 10.839640900000006,47.65620809999999,0 10.839859900000006,47.65690099999999,0 10.840471000000004,47.6576148,0 10.842924000000005,47.659221699999996,0 10.843529000000006,47.659771299999996,0 10.844545900000005,47.661401999999995,0 10.845292400000005,47.662188199999996,0 10.847380300000005,47.6634914,0 10.848067000000006,47.66409949999999,0 10.850255600000006,47.666770699999994,0 10.852186600000007,47.6682752,0 10.852598200000006,47.668945099999995,0 10.852831100000005,47.670646999999995,0 10.853038100000004,47.671195899999994,0 10.853811900000006,47.67232939999999,0 10.854580800000006,47.67389499999999,0 10.855783100000005,47.675301699999984,0 10.856372000000004,47.67713529999999,0 10.857535500000004,47.67838579999999,0 10.857886800000003,47.67892159999999,0 10.858042200000003,47.67938149999999,0 10.858109800000005,47.68077429999999,0 10.860899900000003,47.68840729999999,0 10.861015300000004,47.68915779999998,0 10.860929000000004,47.689722099999976,0 10.860517100000004,47.69077359999998,0 10.860592800000004,47.69164359999997,0 10.861401100000004,47.692951199999975,0 10.861472200000003,47.69337769999998,0 10.861348200000004,47.69431849999997,0 10.860972200000004,47.695417299999974,0 10.860988100000004,47.69661359999998,0 10.860798700000005,47.697549199999976,0 10.860874800000005,47.698910499999975,0 10.859978300000003,47.70058709999998,0 10.860012700000004,47.70123699999998,0 10.860515800000005,47.70214559999998,0 10.862260600000004,47.70393929999998,0 10.862743600000005,47.70426779999998,0 10.865997200000006,47.705704799999985,0 10.868096800000005,47.70640809999998,0 10.869438900000006,47.70719239999998,0 10.870516300000006,47.707448599999985,0 10.873141800000006,47.70762149999999,0 10.873864500000005,47.70780349999999,0 10.874484600000006,47.70807699999999,0 10.875157500000006,47.70909239999999,0 10.875494200000006,47.70939269999999,0 10.876465400000004,47.70993549999999,0 10.879090900000005,47.71060149999999,0 10.880557700000004,47.71136869999999,0 10.881214500000006,47.71203169999999,0 10.881878900000004,47.712509399999995,0 10.882129300000004,47.71284629999999,0 10.882181200000003,47.71364689999999,0 10.883479100000004,47.71555529999999,0 10.884058400000002,47.71603669999999,0 10.884618800000002,47.71694979999999,0 10.884871500000003,47.71714879999999,0 10.885864500000002,47.717459099999985,0 10.887486600000003,47.71776439999998,0 10.888027500000003,47.71799459999998,0 10.888353500000003,47.718292099999985,0 10.888699700000002,47.71970799999998,0 10.889209400000002,47.72048189999998,0 10.890758700000003,47.72421399999999,0 10.891176000000002,47.72615539999999,0 10.891116900000002,47.72672419999999,0 10.890779600000002,47.72730759999999,0 10.889659400000001,47.72822069999999,0 10.889382500000002,47.728588399999985,0 10.889143300000002,47.729394699999986,0 10.888443100000002,47.730036799999986,0 10.887774200000003,47.73031419999999,0 10.886656100000002,47.73050469999999,0 10.885774900000003,47.73053999999998,0 10.885395600000003,47.73067929999999,0 10.885120100000002,47.73092369999999,0 10.885024600000001,47.731155099999995,0 10.8856602,47.7335837,0 10.8856603,47.734834899999996,0 10.8843394,47.738536599999996,0 10.8843715,47.739750099999995,0 10.885007600000002,47.7413215,0 10.885892300000002,47.7425211,0 10.886507100000001,47.7431212,0 10.889387900000001,47.7451493,0 10.8940137,47.75094299999999,0 10.8949817,47.7517819,0 10.8978687,47.75364019999999,0 10.8989592,47.754923299999994,0 10.902336900000002,47.76294819999999,0 10.902447200000001,47.763688099999996,0 10.902345100000002,47.766101799999994,0 10.902722500000001,47.767202299999994,0 10.905008,47.77129659999999,0 10.9052039,47.77224619999999,0 10.9048242,47.77389939999999,0 10.9048764,47.77426789999999,0 10.905092199999999,47.77462809999999,0 10.9058358,47.77539499999999,0 10.906379799999998,47.77643809999999,0 10.9071074,47.77878199999999,0 10.9094497,47.78323639999999,0 10.908697899999998,47.78336499999999,0 10.908192399999999,47.783300899999986,0 10.9078385,47.78308719999999,0 10.9074586,47.78250099999999,0 10.907279999999998,47.78239279999999,0 10.906927699999999,47.78235079999999,0 10.896881799999997,47.78468329999998,0 10.871366699999998,47.79420049999999,0 10.869252799999998,47.795365299999986,0 10.867953599999998,47.796434099999985,0 10.866557899999998,47.79824089999998,0 10.866155299999997,47.79913939999999,0 10.865854099999998,47.80063629999999,0 10.866065599999999,47.80249099999999,0 10.866460599999998,47.80351559999999,0 10.867039899999998,47.804478899999985,0 10.868190599999997,47.805809199999985,0 10.881135699999996,47.818364399999986,0 10.883018599999996,47.82091149999999,0 10.884056399999997,47.82279219999999,0 10.885313099999998,47.826036499999994,0 10.886128199999996,47.82962789999999,0 10.886640899999996,47.830612599999995,0 10.887264199999997,47.83143589999999,0 10.888476499999998,47.83253079999999,0 10.890199599999997,47.83353419999999,0 10.891402199999996,47.83399169999999,0 10.892946499999997,47.834402399999995,0 10.897297599999996,47.8351755,0 10.898423399999997,47.8355892,0 10.900074599999998,47.836562900000004,0 10.901170899999999,47.8377872,0 10.901658999999997,47.8389306,0 10.901800199999997,47.8402132,0 10.901473699999999,47.8411883,0 10.900840199999998,47.8421932,0 10.899064999999998,47.8440312,0 10.898417499999999,47.845013,0 10.897784099999997,47.847165100000005,0 10.897634399999998,47.85027590000001,0 10.896511499999999,47.8555871,0 10.895617199999998,47.858262800000006,0 10.894393899999999,47.860776200000004,0 10.894325299999998,47.861280900000004,0 10.8947972,47.86341650000001,0 10.894812299999998,47.864201800000004,0 10.893923999999998,47.8668215,0 10.8938697,47.8680588,0 10.894563,47.8718648,0 10.8945797,47.8730819,0 10.8942699,47.874487800000004,0 10.892129899999999,47.8801842,0 10.889291599999998,47.884728900000006,0 10.888313199999999,47.887274700000006,0 10.887188699999998,47.8915111,0 10.887214799999999,47.891695500000004,0 10.8854268,47.897541200000006,0 10.882500499999999,47.90345310000001,0 10.881981499999998,47.90418910000001,0 10.8818238,47.90429600000001,0 10.876813099999998,47.9100589,0 10.875296799999997,47.9124713,0 10.873706799999997,47.918265100000006,0 10.873065499999997,47.919538,0 10.870285599999997,47.9236493,0 10.869224499999998,47.9258165,0 10.868217599999998,47.9315301,0 10.866738199999999,47.93523690000001,0 10.864377799999998,47.93913150000001,0 10.864243099999998,47.939638400000014,0 10.864274299999998,47.94046080000001,0 10.865701299999998,47.945668700000006,0 10.865692899999997,47.947245200000005,0 10.865080099999998,47.94899840000001,0 10.865017099999998,47.9490606,0 10.864514199999999,47.9505046,0 10.864209899999999,47.9529627,0 10.8640137,47.953474899999996,0 10.862179699999999,47.9564002,0 10.8619405,47.95752949999999,0 10.861988,47.95967029999999,0 10.8616932,47.960888499999996,0 10.859993,47.964742799999996,0 10.853223999999999,47.97729439999999,0 10.8529821,47.97876269999999,0 10.8531865,47.97993729999999,0 10.853242999999999,47.980006999999986,0 10.853791,47.982294899999985,0 10.853757499999999,47.982387999999986,0 10.859355099999998,48.01067239999999,0 10.859327799999999,48.01074949999998,0 10.860976999999998,48.019894999999984,0 10.8620554,48.02196279999998,0 10.8622936,48.02296399999998,0 10.862274099999999,48.02356579999998,0 10.861859599999999,48.024768899999984,0 10.860994,48.025830499999984,0 10.856424,48.02889159999999,0 10.8553028,48.02988659999999,0 10.8545268,48.03094519999999,0 10.853370700000001,48.03376379999999,0 10.852371100000001,48.035089499999984,0 10.8515752,48.03579649999999,0 10.8498619,48.036849799999985,0 10.8469694,48.03812139999999,0 10.8451538,48.03914409999999,0 10.8427945,48.041094499999986,0 10.840732299999999,48.043829399999986,0 10.8385027,48.04556489999999,0 10.8381723,48.04620219999998,0 10.838213699999999,48.04636749999998,0 10.8383138,48.04646639999998,0 10.8391437,48.04677899999998,0 10.8397434,48.04717729999998,0 10.8400673,48.047698199999985,0 10.840041499999998,48.04835279999999,0 10.839727999999997,48.048973199999985,0 10.839774799999997,48.04911639999999,0 10.843419099999998,48.05252609999999,0 10.846998399999997,48.058353099999984,0 10.848779499999997,48.06064519999999,0 10.850246499999997,48.06197999999999,0 10.852700299999999,48.063457199999995,0 10.855488299999998,48.064493199999994,0 10.857702399999999,48.065066599999994,0 10.862215799999998,48.0658373,0 10.864553999999998,48.06599549999999,0 10.868218999999998,48.0658743,0 10.8708976,48.065503899999996,0 10.8738216,48.0647714,0 10.877066099999999,48.0635001,0 10.882002499999999,48.06092759999999,0 10.8862974,48.0591947,0 10.8903277,48.0580625,0 10.893906099999999,48.0574076,0 10.897524599999999,48.0570393,0 10.903760299999998,48.056990299999995,0 10.9115871,48.05761609999999,0 10.9135893,48.05752639999999,0 10.915196299999998,48.0573084,0 10.919820099999999,48.0562591,0 10.921741399999998,48.0560477,0 10.930847999999997,48.0560881,0 10.9378865,48.05535379999999,0 10.940587799999998,48.05533739999999,0 10.943096099999998,48.055654999999994,0 10.951590199999996,48.057295499999995,0 10.956440999999998,48.0578471,0 10.975147799999997,48.059122099999996,0 10.979563899999999,48.059864999999995,0 10.982520799999998,48.06058589999999,0 10.991865399999998,48.06363459999999,0 10.996798299999998,48.064965699999995,0 11.000027499999996,48.065585399999996,0 11.002922799999997,48.0659207,0 11.007474899999997,48.066011599999996,0 11.015159399999996,48.0655375,0 11.017681699999995,48.06566359999999,0 11.020059399999996,48.06605869999999,0 11.023280799999997,48.067088999999996,0 11.032391299999995,48.071687399999995,0 11.036030799999995,48.073076699999994,0 11.040190499999996,48.0739768,0 11.043455999999997,48.074258699999994,0 11.045710999999997,48.074249099999996,0 11.049199399999997,48.0739139,0 11.050726399999997,48.0736335,0 11.059225499999997,48.0714516,0 11.062035199999995,48.071032900000006,0 11.067389299999995,48.07092240000001,0 11.070975199999996,48.071197600000005,0 11.081781099999995,48.0730251,0 11.088818999999997,48.07360380000001,0 11.097241099999996,48.0750715,0 11.106333999999997,48.075568700000005,0 11.109574099999996,48.0761078,0 11.113273999999997,48.077029800000005,0 11.117224299999997,48.077722900000005,0 11.123090699999995,48.07828560000001,0 11.133838499999996,48.07888260000001,0 11.136565999999995,48.07932410000001,0 11.139235099999995,48.08014200000001,0 11.147022799999995,48.08357810000001,0 11.148515099999994,48.08404770000001,0 11.151652199999994,48.084650400000015,0 11.154059799999994,48.084861300000014,0 11.157127599999994,48.08476980000002,0 11.159045699999995,48.08445970000001,0 11.163529199999994,48.083231900000015,0 11.167050599999994,48.08270780000001,0 11.169317399999995,48.08267870000002,0 11.171051699999994,48.08280960000001,0 11.181471199999994,48.08429180000001,0 11.186114599999994,48.08453920000001,0 11.197600599999994,48.084477800000016,0 11.201522699999995,48.08467120000001,0 11.213211799999995,48.08635050000001,0 11.224012799999995,48.086808100000006,0 11.226892599999996,48.087313400000006,0 11.228173999999994,48.087666600000006,0 11.238511299999995,48.091728,0 11.243019299999995,48.09282700000001,0 11.245114299999994,48.09303440000001,0 11.246991299999994,48.093002500000004,0 11.248677199999994,48.092805000000006,0 11.252149899999996,48.092093500000004,0 11.254795299999996,48.09188720000001,0 11.259575999999996,48.0921086,0 11.264156899999996,48.09178210000001,0 11.265558499999997,48.091797500000006,0 11.267667899999998,48.09209400000001,0 11.272460399999996,48.09365340000001,0 11.273888099999997,48.09396410000001,0 11.275963399999997,48.094135300000005,0 11.277839399999998,48.0940226,0 11.284608699999998,48.0930145,0 11.289200199999998,48.0929406,0 11.295075099999996,48.0934188,0 11.300019599999997,48.094245300000004,0 11.305968299999998,48.095768400000004,0 11.308390999999997,48.0961621,0 11.321455499999997,48.09652440000001,0 11.325668499999997,48.0971861,0 11.328395299999997,48.0978821,0 11.331997999999997,48.099201799999996,0 11.333913399999998,48.10007009999999,0 11.337945799999996,48.102638999999996,0 11.343607899999999,48.10756069999999,0 11.344818499999999,48.10832539999999,0 11.344877499999997,48.10840639999999,0 11.346327699999998,48.10921429999999,0 11.349417399999997,48.11047119999999,0 11.369361699999997,48.11641399999999,0 11.371776599999997,48.11686689999999,0 11.373065199999997,48.11697459999999,0 11.383267499999997,48.11707249999999,0 11.387782499999997,48.117509199999986,0 11.393410599999998,48.118578799999995,0 11.395899399999998,48.1193767,0 11.397810299999996,48.1202172,0 11.399214999999998,48.1210816,0 11.400577499999997,48.122217,0 11.401521099999997,48.1232829,0 11.401553099999996,48.12340519999999,0 11.402984499999995,48.125187399999994,0 11.404299699999994,48.1263553,0 11.406032199999993,48.12744789999999,0 11.407638299999993,48.12818889999999,0 11.411367099999994,48.12929929999999,0 11.414961299999995,48.129977999999994,0 11.417445399999995,48.130242599999995,0 11.420967999999993,48.13032709999999,0 11.424255599999993,48.13000189999999,0 11.426319699999993,48.129490699999984,0 11.431919499999994,48.127552299999984,0 11.433932999999994,48.12715319999999,0 11.435600399999995,48.12708649999999,0 11.436519099999995,48.12714459999999,0 11.440406199999996,48.12786119999999,0 11.442528799999996,48.12795329999999,0 11.443905799999996,48.127827199999984,0 11.445641699999994,48.127452199999986,0 11.450601899999993,48.125570199999984,0 11.452601799999995,48.12501709999999,0 11.454226999999994,48.124740999999986,0 11.466697299999993,48.123781399999984,0 11.476065299999993,48.12354629999999,0 11.489085799999993,48.12372749999999,0 11.491064699999994,48.12390099999998,0 11.499766599999992,48.12561509999998,0 11.501833099999992,48.12575039999998,0 11.505754799999991,48.12553109999998,0 11.513702599999993,48.12443949999998,0 11.513888799999991,48.12445059999998,0 11.521164799999992,48.123489099999986,0 11.521131299999992,48.12348559999999,0 11.521638399999992,48.123503599999985,0 11.522034799999991,48.12359939999999,0 11.522226599999993,48.12369889999999,0 11.522425399999992,48.12389089999999,0 11.522515699999992,48.12420439999999,0 11.522462699999993,48.12436389999999,0 11.522258499999994,48.12458799999999,0 11.521719199999993,48.12492429999999,0 11.521520499999994,48.12516659999999,0 11.521524299999992,48.12562639999999,0 11.522037199999993,48.12615149999999,0 11.524044099999994,48.127623699999994,0 11.533152299999994,48.13292209999999,0 11.533420199999993,48.13317999999999,0 11.533941799999994,48.134038699999984,0 11.534551699999994,48.13742409999998,0 11.534468799999994,48.14003249999998,0 11.535103299999994,48.14493619999998,0 11.535307399999994,48.14544439999999,0 11.536565899999994,48.14709519999999,0 11.536738399999994,48.147774199999986,0 11.538180899999993,48.168644599999986,0 11.538662799999992,48.17145509999999,0 11.539184199999992,48.17291099999999,0 11.539985399999992,48.17395739999999,0 11.540717699999991,48.174601899999985,0 11.542956599999993,48.175943099999984,0 11.543584099999993,48.17611059999999,0 11.544808999999994,48.17618969999999,0 11.564604399999993,48.17595329999998,0 11.565844399999992,48.17610389999999,0 11.572031699999993,48.17784099999999,0 11.573038199999992,48.178004999999985,0 11.574464799999994,48.177999499999984,0 11.580883399999994,48.17748549999998,0 11.586170099999995,48.17753619999998,0 11.587454699999995,48.17742759999998,0 11.588538899999994,48.17720339999998,0 11.594653499999994,48.17473359999998,0 11.599620399999994,48.172139399999985,0 11.599944399999993,48.17168859999998,0 11.599957899999993,48.17107359999998,0 11.596163699999993,48.16549929999998,0 11.595902799999992,48.16456959999998,0 11.596016699999993,48.16388539999998,0 11.596564199999992,48.16303219999998,0 11.597208599999993,48.16251129999998,0 11.600693499999993,48.16043519999998,0 11.603249899999993,48.157512699999984,0 11.603361999999994,48.15720119999998,0 11.603340899999992,48.156935199999985,0 11.600794599999993,48.15356869999999,0 11.600422099999992,48.15368189999998,0 11.600073499999992,48.15369119999998,0 11.599880099999991,48.15360269999998,0 11.598622099999991,48.152183799999975,0 11.598384799999991,48.15210149999998,0 11.598226799999992,48.15210639999998,0 11.597919399999991,48.15220119999998,0 11.598074599999991,48.15236859999998,0 11.59816939999999,48.15238879999998,0 11.59864909999999,48.15221329999998,0 11.59988009999999,48.15360269999998,0 11.60007349999999,48.15369119999998,0 11.60042209999999,48.15368189999998,0 11.60092019999999,48.153540599999985,0 11.60405959999999,48.15763779999998,0 11.604216999999991,48.15834289999999,0 11.604031599999992,48.158860699999984,0 11.603755399999992,48.159123399999984,0 11.603337999999992,48.15933229999999,0 11.603066699999992,48.159391499999984,0 11.602126799999994,48.159415199999984,0 11.601886399999993,48.159477399999986,0 11.600371299999992,48.16079559999998,0 11.59727649999999,48.162577099999986,0 11.597274199999992,48.16263919999999,0 11.59642249999999,48.163749799999984,0 11.596081799999991,48.16399659999999,0 11.59463479999999,48.164560899999984,0 11.593290099999992,48.16347909999998,0 11.59292819999999,48.16294519999998,0 11.589952899999991,48.16359629999998,0 11.590105499999991,48.16405459999998,0 </coordinates></LineString><TimeSpan><begin>2019-12-26T16:26:11.213Z</begin><end>2019-12-26T18:39:00.516Z</end></TimeSpan></Placemark><Placemark><name>Cevicheria Pez</name><address>Occamstraße 26, 80802 München, Germany</address><ExtendedData><Data name="Email"><value>syugen.zhou@gmail.com</value></Data><Data name="Category"><value>Peruvian</value></Data><Data name="Distance"><value>0</value></Data></ExtendedData><description> Peruvian from 2019-12-26T18:39:00.516Z to 2019-12-26T20:29:54.573Z. Distance 0m </description><Point><coordinates>11.5906339,48.1631445,0</coordinates></Point><TimeSpan><begin>2019-12-26T18:39:00.516Z</begin><end>2019-12-26T20:29:54.573Z</end></TimeSpan></Placemark><Placemark><name>Driving</name><address></address><ExtendedData><Data name="Email"><value>syugen.zhou@gmail.com</value></Data><Data name="Category"><value>Driving</value></Data><Data name="Distance"><value>2069</value></Data></ExtendedData><description> Driving from 2019-12-26T20:29:54.573Z to 2019-12-26T20:43:56.968Z. Distance 2069m </description><LineString><altitudeMode>clampToGround</altitudeMode><extrude>1</extrude><tesselate>1</tesselate><coordinates>11.590586600000002,48.163270399999995,0 11.590701500000002,48.1634427,0 11.589952900000002,48.163596299999995,0 11.590105500000002,48.16405459999999,0 11.590195800000002,48.16428559999999,0 11.590258700000001,48.16442309999999,0 11.5903297,48.164552799999996,0 11.5904043,48.164639099999995,0 11.590605,48.1648498,0 11.591116600000001,48.1653349,0 11.591158900000002,48.1653829,0 11.591719000000001,48.1659206,0 11.592550300000001,48.1655304,0 11.593105000000001,48.165283800000005,0 11.593125700000002,48.1652689,0 11.593843800000002,48.16492540000001,0 11.5939127,48.16490010000001,0 11.5943342,48.16467090000001,0 11.594418200000002,48.16463020000001,0 11.594554100000002,48.16445790000001,0 11.595056200000002,48.16412480000001,0 11.595438000000003,48.163851500000014,0 11.595716400000002,48.163617400000014,0 11.595988500000002,48.16340150000001,0 11.5960891,48.163307300000014,0 11.5965158,48.16295350000002,0 11.5968391,48.16270540000002,0 11.596903900000001,48.162661700000015,0 11.596918100000002,48.162656100000014,0 11.597019500000002,48.16264440000001,0 11.5972086,48.16251130000001,0 11.597626300000002,48.16226860000001,0 11.5994299,48.16127220000001,0 11.5999656,48.16095520000001,0 11.6002463,48.160770700000015,0 11.6003982,48.16066340000001,0 11.6006935,48.16043520000001,0 11.6009056,48.16025170000001,0 11.6010832,48.16008440000001,0 11.601296800000002,48.159859800000014,0 11.601517600000001,48.15959440000001,0 11.602055000000002,48.15887480000001,0 11.602334,48.15852490000001,0 11.6024597,48.15838640000001,0 11.602577400000001,48.15826850000001,0 11.602732900000001,48.15812430000001,0 11.6029134,48.15796790000002,0 11.602976300000002,48.15784820000002,0 11.603052900000002,48.15775190000002,0 11.6031105,48.15769150000002,0 11.6032061,48.15757660000002,0 11.6032499,48.15751270000002,0 11.603301900000002,48.15741650000002,0 11.603325400000001,48.15736000000002,0 11.603352700000002,48.15725840000002,0 11.603362000000002,48.157201200000024,0 11.603366800000002,48.15711610000002,0 11.603364600000003,48.157077100000016,0 11.603340900000003,48.15693520000002,0 11.603308000000002,48.15684680000002,0 11.603263300000002,48.15675950000002,0 11.603195300000001,48.15664400000002,0 11.603057700000003,48.15645460000002,0 11.601379800000002,48.15428970000002,0 11.600875000000002,48.15365890000002,0 11.600794600000002,48.153568700000015,0 11.600513900000003,48.15366190000002,0 11.600422100000001,48.153681900000024,0 11.600329300000002,48.15369470000002,0 11.600242600000001,48.15369990000002,0 11.600073500000002,48.153691200000026,0 11.599978100000001,48.15366170000002,0 11.599945100000001,48.153645000000026,0 11.599880100000002,48.15360270000002,0 11.599753400000003,48.153474800000026,0 11.598880200000004,48.152465900000024,0 11.598622100000004,48.15218380000003,0 11.598482400000002,48.152121900000026,0 11.598447700000003,48.152111600000026,0 11.598384800000002,48.15210150000003,0 11.598310100000003,48.15210100000002,0 11.598226800000003,48.15210640000002,0 11.598162600000002,48.15211970000003,0 11.598049900000001,48.15215360000003,0 11.5979194,48.15220120000003,0 11.598023900000001,48.15232210000003,0 11.5980636,48.152360300000026,0 11.5980746,48.152368600000024,0 11.598098100000001,48.152382000000024,0 11.598120600000001,48.15238830000002,0 11.5981488,48.15239030000002,0 11.5981694,48.152388800000026,0 11.5981823,48.152385700000025,0 11.5982802,48.15235220000003,0 11.5984833,48.15227540000003,0 11.598437500000001,48.152241900000035,0 11.5984098,48.152228500000035,0 11.598394900000002,48.152224800000035,0 11.598363500000001,48.15222210000003,0 11.598279200000002,48.152223500000034,0 </coordinates></LineString><TimeSpan><begin>2019-12-26T20:29:54.573Z</begin><end>2019-12-26T20:43:56.968Z</end></TimeSpan></Placemark><Placemark><name>Hilton Munich Park</name><address>Am Tucherpark 7, 80538 München, Germany</address><ExtendedData><Data name="Email"><value>syugen.zhou@gmail.com</value></Data><Data name="Category"><value>Hotel</value></Data><Data name="Distance"><value>0</value></Data></ExtendedData><description> Hotel from 2019-12-26T20:43:56.968Z to 2019-12-27T08:49:10.179Z. Distance 0m </description><Point><coordinates>11.5983381,48.1523708,0</coordinates></Point><TimeSpan><begin>2019-12-26T20:43:56.968Z</begin><end>2019-12-27T08:49:10.179Z</end></TimeSpan></Placemark></Document></kml>
