<?xml version="1.0" encoding="UTF-8"?><kml xmlns="http://www.opengis.net/kml/2.2" xmlns:gx="http://www.google.com/kml/ext/2.2"><Document><name> Location history from 2019-12-28 to 2019-12-28 </name><open>1</open><description></description><StyleMap id="multiTrack"><Pair><key>normal</key><styleUrl>#multiTrack_n</styleUrl></Pair><Pair><key>highlight</key><styleUrl>#multiTrack_h</styleUrl></Pair></StyleMap><Style id="multiTrack_n"><IconStyle><Icon><href>https://earth.google.com/images/kml-icons/track-directional/track-0.png</href></Icon></IconStyle><LineStyle><color>99ffac59</color><width>6</width></LineStyle></Style><Style id="multiTrack_h"><IconStyle><scale>1.2</scale><Icon><href>https://earth.google.com/images/kml-icons/track-directional/track-0.png</href></Icon></IconStyle><LineStyle><color>99ffac59</color><width>8</width></LineStyle></Style><Placemark><name>Hilton Vienna Danube Waterfront</name><address>Handelskai 269, 1020 Wien, Austria</address><ExtendedData><Data name="Email"><value>syugen.zhou@gmail.com</value></Data><Data name="Category"><value>Hotel</value></Data><Data name="Distance"><value>0</value></Data></ExtendedData><description> Hotel from 2019-12-27T19:19:57.000Z to 2019-12-28T08:39:11.000Z. Distance 0m </description><Point><coordinates>16.4215545,48.214045,0</coordinates></Point><TimeSpan><begin>2019-12-27T19:19:57.000Z</begin><end>2019-12-28T08:39:11.000Z</end></TimeSpan></Placemark><Placemark><name>Driving</name><address></address><ExtendedData><Data name="Email"><value>syugen.zhou@gmail.com</value></Data><Data name="Category"><value>Driving</value></Data><Data name="Distance"><value>72374</value></Data></ExtendedData><description> Driving from 2019-12-28T08:39:11.047Z to 2019-12-28T09:29:01.274Z. Distance 72374m </description><LineString><altitudeMode>clampToGround</altitudeMode><extrude>1</extrude><tesselate>1</tesselate><coordinates>16.4203369,48.213820999999996,0 16.420310399999998,48.213920599999994,0 16.4205464,48.21415389999999,0 16.431959799999998,48.20604769999999,0 16.4306603,48.205191799999994,0 16.4303488,48.20482099999999,0 16.4305827,48.20339429999999,0 16.4302568,48.20275309999999,0 16.428105699999996,48.20119729999999,0 16.428068299999996,48.20111149999999,0 16.418998699999996,48.19502669999999,0 16.418214899999995,48.19484589999999,0 16.415295199999996,48.19469159999999,0 16.414322099999996,48.19429339999999,0 16.413989599999994,48.19400019999999,0 16.413956299999995,48.19370989999999,0 16.414117199999993,48.19347309999999,0 16.422418399999994,48.18891229999999,0 16.426405199999994,48.18733569999999,0 16.450127299999995,48.18037159999999,0 16.451298299999994,48.179803799999995,0 16.452436199999994,48.17891279999999,0 16.454210599999993,48.175939099999994,0 16.455447899999992,48.1715905,0 16.45614459999999,48.170345499999996,0 16.457066799999993,48.16930249999999,0 16.45821369999999,48.168396699999995,0 16.46027299999999,48.167308,0 16.46183029999999,48.1667751,0 16.472236799999987,48.1644292,0 16.473777199999986,48.163869500000004,0 16.475501899999987,48.1627916,0 16.476731399999988,48.161358,0 16.478418199999986,48.1561275,0 16.479146899999986,48.1548557,0 16.48039819999999,48.153656,0 16.481511499999986,48.1529848,0 16.483122799999986,48.152357599999995,0 16.488855499999985,48.1508614,0 16.502028899999985,48.14670329999999,0 16.514930899999985,48.143356899999986,0 16.517759999999985,48.14233749999999,0 16.523022799999985,48.13968629999999,0 16.528327299999987,48.13618179999999,0 16.532692399999988,48.134092199999984,0 16.542763099999988,48.13101549999998,0 16.551412699999986,48.129485899999985,0 16.556874499999985,48.12896079999998,0 16.577785299999988,48.12804799999998,0 16.588519499999986,48.12686189999998,0 16.617594399999987,48.12112599999998,0 16.622770099999986,48.119428099999986,0 16.625832999999986,48.11810029999998,0 16.629496099999987,48.11611749999998,0 16.635566899999986,48.11198549999998,0 16.647827199999988,48.10194339999998,0 16.659975399999986,48.09496979999998,0 16.665342299999985,48.09130629999998,0 16.669706699999985,48.08770969999998,0 16.681512399999985,48.07517599999998,0 16.687074099999982,48.07053579999998,0 16.69367519999998,48.06608449999998,0 16.70279309999998,48.06114049999998,0 16.70872799999998,48.05868829999998,0 16.74321179999998,48.047123999999975,0 16.753020399999983,48.04484919999998,0 16.76013869999998,48.04387859999998,0 16.78235319999998,48.04256989999998,0 16.78834749999998,48.04177699999998,0 16.79744539999998,48.03994529999998,0 16.82560699999998,48.03235979999998,0 16.82755069999998,48.03159079999998,0 16.830251399999977,48.030176699999984,0 16.83289369999998,48.02821689999998,0 16.83521549999998,48.02564539999998,0 16.83640539999998,48.02321859999998,0 16.83638739999998,48.02238409999998,0 16.83609239999998,48.02201419999998,0 16.83516399999998,48.021516999999974,0 16.83487589999998,48.02125099999998,0 16.83477519999998,48.02099369999998,0 16.83493689999998,48.020542299999974,0 16.83524849999998,48.02032549999998,0 16.83583809999998,48.02018699999998,0 16.83874089999998,48.02050639999998,0 16.84125429999998,48.021366899999975,0 16.850051899999983,48.02614949999998,0 16.854464999999983,48.027734099999975,0 16.858241799999984,48.02843019999998,0 16.859914399999983,48.02857539999998,0 16.866738399999985,48.028609199999984,0 16.873400399999984,48.02930349999998,0 16.878058699999983,48.03033269999998,0 16.883186599999984,48.032086499999984,0 16.896088099999982,48.038916599999986,0 16.898263999999983,48.03963119999998,0 16.900862599999982,48.040009599999976,0 16.90251389999998,48.04002459999998,0 16.904217699999982,48.03985269999998,0 16.90602939999998,48.03944749999998,0 16.90736969999998,48.03898529999998,0 16.90891759999998,48.03821049999998,0 16.91946669999998,48.03100509999997,0 16.92261419999998,48.02926419999998,0 16.925508199999978,48.02802389999998,0 16.929206899999976,48.02683439999998,0 16.935839999999978,48.02561109999997,0 16.94056389999998,48.025345799999975,0 16.94390159999998,48.02546889999998,0 16.94933549999998,48.02618559999998,0 16.95234069999998,48.02688429999997,0 16.95690889999998,48.02843729999997,0 16.962558099999985,48.03106589999997,0 16.967402899999982,48.03261669999997,0 16.979379499999983,48.034468899999965,0 16.981892799999983,48.03513259999996,0 16.984576699999984,48.03615049999996,0 16.986576799999984,48.03718289999996,0 16.98987689999998,48.03965949999996,0 16.991329899999982,48.04129419999997,0 16.992533299999984,48.04327489999997,0 16.995116599999985,48.049798499999966,0 16.996544799999985,48.052451199999965,0 16.998196899999982,48.05475779999997,0 17.000669699999982,48.057441999999966,0 17.00853499999998,48.064189699999964,0 17.010322199999983,48.066113599999966,0 17.01403129999998,48.07158849999996,0 17.016793699999983,48.07424309999996,0 17.02228879999998,48.07817809999996,0 17.02469269999998,48.079508199999964,0 17.02716279999998,48.080522499999965,0 17.029224099999983,48.08114589999997,0 17.032988699999983,48.081844999999966,0 17.036472699999983,48.08204299999996,0 17.038690799999983,48.081956199999965,0 17.042377699999985,48.08142809999997,0 17.045327699999987,48.08063519999997,0 17.064297599999986,48.07333349999997,0 17.070613299999984,48.07139709999997,0 17.081479799999986,48.06885009999996,0 17.083188799999984,48.06873099999997,0 17.085446399999984,48.068797399999966,0 17.089468399999983,48.069582799999964,0 17.10024789999998,48.073292499999965,0 17.101169199999983,48.07375179999997,0 17.101748899999983,48.07420889999997,0 17.102198199999982,48.074873999999966,0 17.102353099999984,48.07543799999996,0 17.102143699999985,48.07649759999997,0 17.101511199999983,48.07759259999996,0 17.099398399999984,48.08541969999996,0 17.09895489999998,48.093917199999964,0 17.09821129999998,48.09752259999996,0 17.096886499999982,48.100057699999965,0 17.095402699999983,48.10193499999996,0 17.092994199999982,48.104096899999966,0 17.087232699999984,48.10827469999997,0 17.084565699999985,48.11105959999997,0 17.079588199999986,48.11776009999997,0 17.078121699999986,48.120345599999965,0 17.076529299999983,48.124371899999964,0 17.07648289999998,48.12494689999997,0 17.076734799999983,48.12570309999997,0 17.077526699999982,48.12650489999997,0 17.078236299999983,48.12685659999997,0 17.083245499999983,48.12817729999997,0 17.089094399999983,48.13051039999997,0 17.089275199999985,48.13051749999997,0 17.091241699999983,48.13115859999997,0 17.092955499999984,48.131510399999975,0 17.095617499999985,48.13179999999997,0 17.105708699999983,48.13148019999997,0 17.106128599999984,48.131319499999975,0 17.106207199999982,48.130900599999975,0 17.105846199999984,48.13053899999997,0 17.105396099999986,48.13046729999997,0 17.105159999999984,48.13055719999998,0 17.104984899999987,48.130903599999975,0 17.104443199999988,48.141578699999975,0 17.103888699999985,48.14500259999997,0 17.103996099999986,48.14550169999997,0 17.10459409999999,48.146221999999966,0 17.11059109999999,48.14979859999997,0 17.11119019999999,48.149849499999966,0 17.113524599999987,48.14906399999997,0 17.11503049999999,48.14972489999997,0 17.117210499999988,48.14957319999996,0 17.11630649999999,48.148219899999965,0 17.11467059999999,48.146763599999964,0 17.115460099999993,48.14639049999997,0 17.11584609999999,48.14602529999996,0 17.11649939999999,48.14491299999996,0 17.11754929999999,48.14524109999996,0 17.11815549999999,48.14453919999996,0 17.116611699999993,48.14420909999996,0 </coordinates></LineString><TimeSpan><begin>2019-12-28T08:39:11.047Z</begin><end>2019-12-28T09:29:01.274Z</end></TimeSpan></Placemark><Placemark><name>Bratislava I</name><address>Old Town, Slovakia</address><ExtendedData><Data name="Email"><value>syugen.zhou@gmail.com</value></Data><Data name="Category"><value></value></Data><Data name="Distance"><value>0</value></Data></ExtendedData><description>  from 2019-12-28T09:29:01.274Z to 2019-12-28T09:42:39.000Z. Distance 0m </description><Point><coordinates>17.1023435,48.147135999999996,0</coordinates></Point><TimeSpan><begin>2019-12-28T09:29:01.274Z</begin><end>2019-12-28T09:42:39.000Z</end></TimeSpan></Placemark><Placemark><name>Walking</name><address></address><ExtendedData><Data name="Email"><value>syugen.zhou@gmail.com</value></Data><Data name="Category"><value>Walking</value></Data><Data name="Distance"><value>714</value></Data></ExtendedData><description> Walking from 2019-12-28T09:42:39.000Z to 2019-12-28T10:03:00.000Z. Distance 714m </description><LineString><altitudeMode>clampToGround</altitudeMode><extrude>1</extrude><tesselate>1</tesselate><coordinates>17.1168722,48.1440568,0 17.1168101,48.144223000000004,0 17.1168101,48.144223000000004,0 17.1164081,48.1441948,0 17.1160449,48.1441576,0 17.11573,48.1441323,0 17.1154538,48.1440839,0 17.115193400000003,48.1440282,0 17.114926200000003,48.1439524,0 17.114568300000006,48.1437931,0 17.114016200000005,48.143483700000004,0 17.113446100000004,48.14320930000001,0 17.113405200000006,48.143169400000005,0 17.113405200000006,48.143169400000005,0 17.113120000000006,48.1433875,0 17.113079900000006,48.14344300000001,0 17.113040000000005,48.14348610000001,0 17.112960300000005,48.14364350000001,0 17.112907200000002,48.14380880000001,0 17.112834200000005,48.14410870000001,0 17.112834200000005,48.14410870000001,0 17.1126907,48.144084500000005,0 17.112445200000003,48.1441293,0 17.112226600000003,48.144179400000006,0 17.112174300000003,48.14418380000001,0 17.112118000000006,48.1441749,0 17.112048300000005,48.144148900000005,0 17.111340200000004,48.143835700000004,0 17.1107447,48.1435619,0 17.1107447,48.1435619,0 17.1103801,48.143891100000005,0 17.1099796,48.1441265,0 17.1099796,48.1441265,0 17.1094243,48.1439623,0 17.109385,48.1439531,0 17.10936,48.1439514,0 17.109334699999998,48.1439552,0 17.1093037,48.1439674,0 17.1092269,48.1440814,0 17.1092269,48.1440814,0 17.1097201,48.14430109999999,0 17.1097201,48.14430109999999,0 17.1096502,48.1443568,0 17.1095953,48.144399899999996,0 17.109458,48.14452849999999,0 17.109353099999996,48.144647199999994,0 17.109244299999997,48.144833799999994,0 17.1091904,48.14492619999999,0 </coordinates></LineString><TimeSpan><begin>2019-12-28T09:42:39.000Z</begin><end>2019-12-28T10:03:00.000Z</end></TimeSpan></Placemark><Placemark><name>Bezbariérová verejná toaleta</name><address>Uršulínska, 811 01 Staré Mesto, Slovakia</address><ExtendedData><Data name="Email"><value>syugen.zhou@gmail.com</value></Data><Data name="Category"><value>Public wheelchair-accessible bathroom</value></Data><Data name="Distance"><value>0</value></Data></ExtendedData><description> Public wheelchair-accessible bathroom from 2019-12-28T10:03:00.000Z to 2019-12-28T10:05:35.000Z. Distance 0m </description><Point><coordinates>17.109026699999998,48.1446791,0</coordinates></Point><TimeSpan><begin>2019-12-28T10:03:00.000Z</begin><end>2019-12-28T10:05:35.000Z</end></TimeSpan></Placemark><Placemark><name>Walking</name><address></address><ExtendedData><Data name="Email"><value>syugen.zhou@gmail.com</value></Data><Data name="Category"><value>Walking</value></Data><Data name="Distance"><value>340</value></Data></ExtendedData><description> Walking from 2019-12-28T10:05:35.000Z to 2019-12-28T10:15:58.000Z. Distance 340m </description><LineString><altitudeMode>clampToGround</altitudeMode><extrude>1</extrude><tesselate>1</tesselate><coordinates>17.109294,48.1447485,0 17.109353099999996,48.1446472,0 17.109458,48.1445285,0 17.1095953,48.1443999,0 17.1096502,48.144356800000004,0 17.1097201,48.1443011,0 17.109902499999997,48.144175800000006,0 17.1099796,48.1441265,0 17.1099796,48.1441265,0 17.109424299999997,48.1439623,0 17.109384999999996,48.1439531,0 17.109359999999995,48.1439514,0 17.109334699999994,48.1439552,0 17.109303699999998,48.1439674,0 17.109226899999996,48.1440814,0 17.109226899999996,48.1440814,0 17.109121299999995,48.1440498,0 17.108960999999997,48.143998999999994,0 17.108844399999995,48.14394219999999,0 17.108696299999995,48.14387179999999,0 17.10857899999999,48.143805699999994,0 17.10857899999999,48.143805699999994,0 17.107786999999995,48.143375199999994,0 17.107786999999995,48.143375199999994,0 17.107714099999992,48.1434068,0 17.107007399999993,48.143681799999996,0 </coordinates></LineString><TimeSpan><begin>2019-12-28T10:05:35.000Z</begin><end>2019-12-28T10:15:58.000Z</end></TimeSpan></Placemark><Placemark><name>Cukráreň Konditorei Kormuth</name><address>Sedlárska 363, 811 01 Bratislava, Slovakia</address><ExtendedData><Data name="Email"><value>syugen.zhou@gmail.com</value></Data><Data name="Category"><value>Cake shop</value></Data><Data name="Distance"><value>0</value></Data></ExtendedData><description> Cake shop from 2019-12-28T10:16:00.000Z to 2019-12-28T11:20:00.000Z. Distance 0m </description><Point><coordinates>17.1073554,48.143508399999995,0</coordinates></Point><TimeSpan><begin>2019-12-28T10:16:00.000Z</begin><end>2019-12-28T11:20:00.000Z</end></TimeSpan></Placemark><Placemark><name>Walking</name><address></address><ExtendedData><Data name="Email"><value>syugen.zhou@gmail.com</value></Data><Data name="Category"><value>Walking</value></Data><Data name="Distance"><value>198</value></Data></ExtendedData><description> Walking from 2019-12-28T11:20:00.000Z to 2019-12-28T11:28:00.000Z. Distance 198m </description><LineString><altitudeMode>clampToGround</altitudeMode><extrude>1</extrude><tesselate>1</tesselate><coordinates>17.107380199999998,48.1435368,0 17.106576800000003,48.1438494,0 17.106576800000003,48.1438494,0 17.1066593,48.1441988,0 17.1067865,48.145044,0 17.106745399999998,48.145143499999996,0 </coordinates></LineString><TimeSpan><begin>2019-12-28T11:20:00.000Z</begin><end>2019-12-28T11:28:00.000Z</end></TimeSpan></Placemark><Placemark><name>Michael's Gate</name><address>Michalská ulica 22 806/24, 811 03 Staré Mesto, Slovakia</address><ExtendedData><Data name="Email"><value>syugen.zhou@gmail.com</value></Data><Data name="Category"><value>Historical landmark</value></Data><Data name="Distance"><value>0</value></Data></ExtendedData><description> Historical landmark from 2019-12-28T11:28:00.000Z to 2019-12-28T11:33:00.000Z. Distance 0m </description><Point><coordinates>17.106735,48.1451668,0</coordinates></Point><TimeSpan><begin>2019-12-28T11:28:00.000Z</begin><end>2019-12-28T11:33:00.000Z</end></TimeSpan></Placemark><Placemark><name>Walking</name><address></address><ExtendedData><Data name="Email"><value>syugen.zhou@gmail.com</value></Data><Data name="Category"><value>Walking</value></Data><Data name="Distance"><value>1359</value></Data></ExtendedData><description> Walking from 2019-12-28T11:33:00.000Z to 2019-12-28T12:30:00.000Z. Distance 1359m </description><LineString><altitudeMode>clampToGround</altitudeMode><extrude>1</extrude><tesselate>1</tesselate><coordinates>17.106735699999998,48.1451669,0 17.1067865,48.145044000000006,0 17.1066593,48.144198800000005,0 17.106576800000003,48.14384940000001,0 17.1084647,48.143100200000006,0 17.1089396,48.14287290000001,0 17.1084031,48.14271090000001,0 17.106807200000002,48.14214350000001,0 17.1065457,48.14202720000001,0 17.1064867,48.14217130000001,0 17.106473299999998,48.14225900000001,0 17.1064854,48.14285500000001,0 17.106535,48.143309600000016,0 17.10518,48.14308530000001,0 17.105165300000003,48.14229610000001,0 17.1051523,48.142233900000015,0 17.1046132,48.14219900000001,0 17.104478699999998,48.142020400000014,0 17.104480399999996,48.141991400000016,0 17.10456,48.141838800000016,0 17.104718,48.14142440000001,0 17.1041695,48.14139550000001,0 17.1041911,48.14160560000001,0 17.1042071,48.14165090000001,0 17.1039882,48.141706800000016,0 17.1038756,48.14170140000002,0 17.10372,48.14164060000002,0 17.103602000000002,48.14156720000002,0 17.103419600000002,48.14154030000002,0 17.103248600000004,48.14155800000002,0 17.102970100000004,48.14141470000002,0 17.102828000000002,48.14136280000002,0 17.102658200000004,48.14134050000002,0 17.102212900000005,48.141219900000024,0 17.101994200000004,48.141207200000025,0 17.101173200000005,48.14126160000003,0 17.100670900000004,48.14132190000003,0 17.100632200000007,48.141337900000025,0 17.10059070000001,48.14136890000003,0 17.10057050000001,48.14142940000003,0 17.10052630000001,48.141507600000025,0 17.100532100000006,48.14151440000003,0 17.100540400000007,48.14151710000002,0 17.10058860000001,48.14151760000003,0 17.10059860000001,48.14151950000002,0 17.10060300000001,48.14152420000003,0 17.10060320000001,48.14152960000002,0 17.10060150000001,48.14153380000002,0 17.10059780000001,48.14153630000002,0 17.10059210000001,48.14153830000002,0 17.10053980000001,48.14154130000002,0 17.10053020000001,48.14154640000002,0 17.10052750000001,48.14155330000002,0 17.10052960000001,48.14155820000002,0 17.10053420000001,48.14156120000002,0 17.10060050000001,48.14156260000002,0 17.10060410000001,48.14156360000002,0 17.10061000000001,48.14156980000002,0 17.10061040000001,48.14157320000002,0 17.100609000000013,48.141577300000016,0 17.100601100000013,48.141582200000016,0 17.100517500000013,48.141588200000015,0 17.10051310000001,48.141590000000015,0 17.10050980000001,48.14159290000002,0 17.100508600000012,48.14159560000002,0 17.100512000000013,48.141602800000015,0 17.100516900000013,48.14160560000001,0 17.100523200000016,48.141607000000015,0 17.100604100000016,48.14160660000002,0 17.100614100000016,48.141610700000015,0 17.100615500000014,48.14161280000002,0 17.100615500000014,48.141614900000015,0 17.100612600000012,48.14162020000002,0 17.100607800000017,48.14162370000002,0 17.100603900000017,48.14162490000002,0 17.10027810000002,48.14164940000002,0 17.100025700000018,48.141609000000024,0 17.099879500000018,48.14161780000002,0 17.09967630000002,48.141615200000025,0 17.099446500000017,48.14163480000002,0 17.099231200000016,48.14166840000002,0 17.099006600000017,48.141745300000025,0 17.098906800000016,48.14179490000003,0 17.099026400000017,48.14190610000003,0 17.099081100000017,48.141975900000034,0 17.099095400000017,48.14200190000003,0 17.099158700000018,48.14201110000003,0 17.09918840000002,48.14203230000003,0 17.09927010000002,48.14200290000004,0 17.09929850000002,48.14198010000003,0 17.09937480000002,48.141864800000036,0 17.099225000000022,48.141842800000035,0 17.09894550000002,48.141774800000036,0 17.09900660000002,48.14174530000003,0 17.099231200000023,48.14166840000003,0 17.099446500000024,48.14163480000003,0 17.099676300000024,48.141615200000025,0 17.099879500000025,48.14161780000003,0 17.100025700000025,48.14160900000003,0 17.100051200000024,48.141924600000024,0 </coordinates></LineString><TimeSpan><begin>2019-12-28T11:33:00.000Z</begin><end>2019-12-28T12:30:00.000Z</end></TimeSpan></Placemark><Placemark><name>Bratislava Castle</name><address>Hrad, 811 06 Bratislava, Slovakia</address><ExtendedData><Data name="Email"><value>syugen.zhou@gmail.com</value></Data><Data name="Category"><value>Castle</value></Data><Data name="Distance"><value>0</value></Data></ExtendedData><description> Castle from 2019-12-28T12:30:00.000Z to 2019-12-28T13:36:00.000Z. Distance 0m </description><Point><coordinates>17.1002348,48.1421086,0</coordinates></Point><TimeSpan><begin>2019-12-28T12:30:00.000Z</begin><end>2019-12-28T13:36:00.000Z</end></TimeSpan></Placemark><Placemark><name>Walking</name><address></address><ExtendedData><Data name="Email"><value>syugen.zhou@gmail.com</value></Data><Data name="Category"><value>Walking</value></Data><Data name="Distance"><value>1229</value></Data></ExtendedData><description> Walking from 2019-12-28T13:36:00.000Z to 2019-12-28T14:04:44.000Z. Distance 1229m </description><LineString><altitudeMode>clampToGround</altitudeMode><extrude>1</extrude><tesselate>1</tesselate><coordinates>17.1005513,48.141964099999996,0 17.100743599999998,48.1419475,0 17.100817199999998,48.1420342,0 17.1008981,48.142147099999995,0 17.100960999999998,48.142254799999996,0 17.101018599999996,48.1423693,0 17.101044799999997,48.1424252,0 17.101090899999996,48.1425662,0 17.101254299999994,48.1425546,0 17.101199899999994,48.142704699999996,0 17.10112699999999,48.1431476,0 17.101625999999992,48.1432509,0 17.101695099999993,48.143271299999995,0 17.101729199999994,48.1432959,0 17.101761599999993,48.1433005,0 17.10186179999999,48.1433129,0 17.101854499999995,48.1433383,0 17.102069399999994,48.143376100000005,0 17.10212259999999,48.14338250000001,0 17.10226009999999,48.1433989,0 17.102271399999992,48.1434159,0 17.10234399999999,48.1434654,0 17.102486899999995,48.1430393,0 17.102486899999995,48.1430393,0 17.102933199999995,48.143097999999995,0 17.102933199999995,48.143097999999995,0 17.102976699999996,48.142922399999996,0 17.103069099999995,48.14293289999999,0 17.103266699999995,48.142943499999994,0 17.103346699999996,48.14291099999999,0 17.103376699999995,48.14289879999999,0 17.103582299999996,48.14282359999999,0 17.103725199999996,48.14322729999999,0 17.103729999999995,48.14331649999999,0 17.103715999999995,48.143461499999994,0 17.103668799999994,48.14369419999999,0 17.103678499999997,48.14373259999999,0 17.103691499999996,48.143757599999994,0 17.103736799999997,48.14379229999999,0 17.103667099999996,48.144042299999995,0 17.103631299999996,48.14410919999999,0 17.103561499999994,48.14421769999999,0 17.103409699999993,48.14439839999999,0 17.103304799999993,48.14450559999999,0 17.103304799999993,48.14450559999999,0 17.103437199999995,48.14451129999999,0 17.103543099999996,48.14451719999999,0 17.103609999999996,48.144517699999994,0 17.103849599999997,48.14454159999999,0 17.103875499999994,48.14454729999999,0 17.104131499999998,48.1446037,0 17.104242899999996,48.144628299999994,0 17.104472899999998,48.1446895,0 17.1045438,48.144711799999996,0 17.104603199999996,48.144731099999994,0 17.104671999999997,48.144754999999996,0 17.104747699999994,48.144775499999994,0 17.104818299999994,48.14480369999999,0 17.104866599999994,48.14482519999999,0 17.104950299999995,48.14472699999999,0 17.105083499999996,48.144570599999994,0 17.105174799999993,48.144465399999994,0 17.105918099999993,48.143958399999995,0 17.105930599999994,48.1439089,0 17.10656539999999,48.14380009999999,0 17.106576799999992,48.14384939999999,0 17.107714099999992,48.1434068,0 17.107786999999995,48.143375199999994,0 17.108331699999994,48.143155099999994,0 17.108464699999995,48.1431002,0 17.108939599999996,48.14287289999999,0 17.108403099999993,48.1427109,0 17.107889499999995,48.142528299999995,0 17.107481799999995,48.1423869,0 17.106807199999995,48.142143499999996,0 17.106545699999995,48.142027199999994,0 17.105712899999997,48.141591399999996,0 17.105454799999997,48.1414721,0 17.105230499999994,48.1413718,0 17.105184899999994,48.141413400000005,0 17.105147299999995,48.141432,0 17.105113999999993,48.141443200000005,0 17.105085199999994,48.14144900000001,0 17.105034399999994,48.141454700000004,0 17.104717999999995,48.141424400000005,0 17.104169499999994,48.1413955,0 17.104169499999994,48.1413955,0 17.104191099999994,48.141605600000005,0 17.104207099999993,48.1416509,0 17.104207099999993,48.1416509,0 17.103988199999993,48.14170680000001,0 17.10387559999999,48.14170140000001,0 17.103735499999992,48.14164660000001,0 17.103719999999992,48.14164060000001,0 17.10360199999999,48.14156720000001,0 17.10351379999999,48.14155420000001,0 17.103419599999995,48.14154030000001,0 17.103248599999993,48.14155800000001,0 17.103248599999993,48.14155800000001,0 17.103362399999995,48.14165010000001,0 </coordinates></LineString><TimeSpan><begin>2019-12-28T13:36:00.000Z</begin><end>2019-12-28T14:04:44.000Z</end></TimeSpan></Placemark><Placemark><name>Modrá Hviezda</name><address>Beblavého 292/14, 811 01 Staré Mesto-Hrad, Slovakia</address><ExtendedData><Data name="Email"><value>syugen.zhou@gmail.com</value></Data><Data name="Category"><value>Restaurant</value></Data><Data name="Distance"><value>0</value></Data></ExtendedData><description> Restaurant from 2019-12-28T14:04:44.000Z to 2019-12-28T15:09:35.000Z. Distance 0m </description><Point><coordinates>17.103339,48.141663,0</coordinates></Point><TimeSpan><begin>2019-12-28T14:04:44.000Z</begin><end>2019-12-28T15:09:35.000Z</end></TimeSpan></Placemark><Placemark><name>Walking</name><address></address><ExtendedData><Data name="Email"><value>syugen.zhou@gmail.com</value></Data><Data name="Category"><value>Walking</value></Data><Data name="Distance"><value>1062</value></Data></ExtendedData><description> Walking from 2019-12-28T15:09:35.000Z to 2019-12-28T15:21:57.000Z. Distance 1062m </description><LineString><altitudeMode>clampToGround</altitudeMode><extrude>1</extrude><tesselate>1</tesselate><coordinates>17.103362399999998,48.14165010000001,0 17.103248599999997,48.141558,0 17.103248599999997,48.141558,0 17.103419599999995,48.1415403,0 17.103513799999995,48.1415542,0 17.103601999999995,48.141567200000004,0 17.103719999999996,48.1416406,0 17.103735499999996,48.1416466,0 17.103875599999995,48.1417014,0 17.103988199999996,48.1417068,0 17.104207099999996,48.1416509,0 17.104207099999996,48.1416509,0 17.104191099999998,48.1416056,0 17.104169499999998,48.1413955,0 17.104169499999998,48.1413955,0 17.104717999999995,48.1414244,0 17.105034399999997,48.1414547,0 17.105085199999998,48.141449,0 17.105113999999997,48.1414432,0 17.1051473,48.141431999999995,0 17.105184899999998,48.1414134,0 17.105230499999998,48.141371799999995,0 17.105230499999998,48.141371799999995,0 17.105454799999997,48.141472099999994,0 17.105712899999997,48.141591399999996,0 17.106545699999998,48.142027199999994,0 17.1068072,48.14214349999999,0 17.1074818,48.14238689999999,0 17.1078895,48.14252829999999,0 17.108403099999997,48.14271089999999,0 17.1089396,48.14287289999999,0 17.1089396,48.14287289999999,0 17.1095243,48.14305449999999,0 17.1096329,48.14309749999999,0 17.110652199999997,48.143516299999995,0 17.110744699999998,48.143561899999995,0 17.1113402,48.14383569999999,0 17.1120483,48.14414889999999,0 17.112118000000002,48.14417489999999,0 17.1121743,48.14418379999999,0 17.1122266,48.14417939999999,0 17.1124452,48.14412929999999,0 17.112690699999998,48.14408449999999,0 17.1128342,48.1441087,0 17.1128342,48.1441087,0 17.1129072,48.143808799999995,0 17.1129603,48.1436435,0 17.11304,48.1434861,0 17.113079900000002,48.143443,0 17.113120000000002,48.143387499999996,0 17.113405200000003,48.14316939999999,0 17.113405200000003,48.14316939999999,0 17.1134461,48.143209299999995,0 17.114016200000002,48.14348369999999,0 17.114568300000002,48.14379309999999,0 17.1149262,48.14395239999999,0 17.1151934,48.14402819999999,0 17.115453799999997,48.14408389999999,0 17.115729999999996,48.14413229999999,0 17.1160449,48.144157599999986,0 17.116408099999997,48.144194799999994,0 17.116681199999995,48.14421399999999,0 </coordinates></LineString><TimeSpan><begin>2019-12-28T15:09:35.000Z</begin><end>2019-12-28T15:21:57.000Z</end></TimeSpan></Placemark><Placemark><name>Driving</name><address></address><ExtendedData><Data name="Email"><value>syugen.zhou@gmail.com</value></Data><Data name="Category"><value>Driving</value></Data><Data name="Distance"><value>5591</value></Data></ExtendedData><description> Driving from 2019-12-28T15:21:57.000Z to 2019-12-28T15:34:50.000Z. Distance 5591m </description><LineString><altitudeMode>clampToGround</altitudeMode><extrude>1</extrude><tesselate>1</tesselate><coordinates>17.116319,48.1441857,0 17.11573,48.1441323,0 17.1154538,48.1440839,0 17.115193400000003,48.1440282,0 17.114926200000003,48.1439524,0 17.114568300000006,48.1437931,0 17.114016200000005,48.143483700000004,0 17.113446100000004,48.14320930000001,0 17.113302000000004,48.14333560000001,0 17.113215100000005,48.143425300000004,0 17.113164100000002,48.143495400000006,0 17.113123500000004,48.143564500000004,0 17.112954200000004,48.14415770000001,0 17.112925800000003,48.14437850000001,0 17.112925800000003,48.1444467,0 17.112935400000005,48.1445014,0 17.113015400000005,48.1447118,0 17.113111700000008,48.144868300000006,0 17.113197700000008,48.14498450000001,0 17.11334800000001,48.145157100000006,0 17.11366420000001,48.145574200000006,0 17.113980800000007,48.14593820000001,0 17.11417670000001,48.14613570000001,0 17.11479500000001,48.14669740000001,0 17.114985700000013,48.14685090000001,0 17.116345500000012,48.14806950000001,0 17.116436900000014,48.14816610000001,0 17.116493700000014,48.14823920000001,0 17.116738600000016,48.14863950000001,0 17.117052300000015,48.14909000000001,0 17.117317200000016,48.14955750000001,0 17.11747790000002,48.149893000000006,0 17.117596300000017,48.1502217,0 17.117749400000015,48.150532,0 17.117836900000015,48.1506371,0 17.118287700000014,48.1508487,0 17.118744600000014,48.1510393,0 17.119009600000016,48.1511659,0 17.119475700000017,48.1514258,0 17.119864300000017,48.1517568,0 17.119945400000017,48.1518078,0 17.120638800000016,48.1523009,0 17.121856500000018,48.1532567,0 17.122084800000017,48.1534574,0 17.12354060000002,48.1545072,0 17.12457960000002,48.1553453,0 17.12494350000002,48.15561089999999,0 17.125042900000018,48.15572379999999,0 17.12525040000002,48.15588699999999,0 17.12550460000002,48.15606559999999,0 17.12701600000002,48.15722549999999,0 17.12752300000002,48.15764879999999,0 17.12795530000002,48.15798879999999,0 17.12811850000002,48.15810309999999,0 17.128612900000025,48.158562399999994,0 17.129085700000026,48.15909769999999,0 17.129608500000025,48.15962099999999,0 17.129714500000023,48.15974709999999,0 17.130926300000024,48.161023699999994,0 17.131375200000022,48.16153159999999,0 17.13189650000002,48.16205499999999,0 17.13354290000002,48.163788799999985,0 17.13537370000002,48.16565459999998,0 17.13545180000002,48.16574949999999,0 17.13671660000002,48.16700429999999,0 17.137486700000018,48.167832299999986,0 17.139125700000015,48.169528599999985,0 17.13999000000002,48.170390199999986,0 17.14033170000002,48.17076809999999,0 17.141292600000018,48.17171549999999,0 17.14153690000002,48.17198849999999,0 17.141614200000017,48.172024399999984,0 17.14166820000002,48.17203819999999,0 17.14172160000002,48.17204409999999,0 17.14200590000002,48.17204609999999,0 17.14349320000002,48.17137899999999,0 17.14722260000002,48.16976969999999,0 17.147647100000018,48.16955579999998,0 17.14784260000002,48.169424099999986,0 17.14803700000002,48.169273199999985,0 17.14825070000002,48.16908689999999,0 17.148520600000023,48.16880909999998,0 17.148777500000023,48.16841609999998,0 17.14895790000002,48.168097199999984,0 17.149333500000022,48.16736849999998,0 17.15017180000002,48.16584839999998,0 17.15006990000002,48.16540559999998,0 17.15004580000002,48.16535099999998,0 17.14997600000002,48.16524189999998,0 17.14993110000002,48.16518879999998,0 17.146402400000017,48.16374519999998,0 17.145903200000017,48.16356329999998,0 17.14403100000002,48.162819499999976,0 17.14346190000002,48.162574399999976,0 17.140813500000018,48.16151189999998,0 17.13905720000002,48.16075909999998,0 17.13863570000002,48.16060819999998,0 17.138370100000017,48.16070929999998,0 17.13778870000002,48.16133759999998,0 17.13718400000002,48.16108969999998,0 </coordinates></LineString><TimeSpan><begin>2019-12-28T15:21:57.000Z</begin><end>2019-12-28T15:34:50.000Z</end></TimeSpan></Placemark><Placemark><name>DoubleTree by Hilton Bratislava</name><address>Trnavská cesta 27/A, 831 04 Bratislava, Slovakia</address><ExtendedData><Data name="Email"><value>syugen.zhou@gmail.com</value></Data><Data name="Category"><value>Hotel</value></Data><Data name="Distance"><value>0</value></Data></ExtendedData><description> Hotel from 2019-12-28T15:34:50.000Z to 2019-12-28T15:39:01.000Z. Distance 0m </description><Point><coordinates>17.1377801,48.160797599999995,0</coordinates></Point><TimeSpan><begin>2019-12-28T15:34:50.000Z</begin><end>2019-12-28T15:39:01.000Z</end></TimeSpan></Placemark><Placemark><name>Driving</name><address></address><ExtendedData><Data name="Email"><value>syugen.zhou@gmail.com</value></Data><Data name="Category"><value>Driving</value></Data><Data name="Distance"><value>81045</value></Data></ExtendedData><description> Driving from 2019-12-28T15:39:01.000Z to 2019-12-28T16:44:31.000Z. Distance 81045m </description><LineString><altitudeMode>clampToGround</altitudeMode><extrude>1</extrude><tesselate>1</tesselate><coordinates>17.137858,48.161265,0 17.1383701,48.16070930000001,0 17.1383652,48.16049160000001,0 17.1353867,48.15929480000001,0 17.135404400000002,48.15909380000001,0 17.140930400000002,48.16138650000001,0 17.1381292,48.164439000000016,0 17.138044200000003,48.16488320000002,0 17.1378002,48.165001300000014,0 17.137481,48.16501020000002,0 17.1371537,48.16516230000002,0 17.1370092,48.165129700000016,0 17.135451800000002,48.16574950000002,0 17.1353419,48.16583500000002,0 17.1319159,48.16231290000002,0 17.1337561,48.16141070000002,0 17.1343234,48.160830500000024,0 17.136497999999996,48.16171800000002,0 17.136891199999997,48.16178080000002,0 17.137210399999997,48.16173780000002,0 17.137437,48.161647000000016,0 17.1383701,48.160709300000015,0 17.1383652,48.16049160000002,0 17.1353867,48.15929480000002,0 17.135404400000002,48.15909380000002,0 17.1402682,48.16111310000002,0 17.140788,48.16113530000002,0 17.1443397,48.15726220000002,0 17.1497752,48.14857390000002,0 17.1514878,48.144097100000025,0 17.1514214,48.14322790000002,0 17.1512862,48.14290040000002,0 17.1510383,48.14262040000002,0 17.150659,48.14240090000002,0 17.149039499999997,48.14183350000002,0 17.146662199999998,48.139913100000015,0 17.146545,48.139748300000015,0 17.1384145,48.13356920000001,0 17.1354798,48.13194540000001,0 17.133794899999998,48.13141850000002,0 17.130415099999997,48.13100950000001,0 17.128317199999998,48.13094760000001,0 17.0952281,48.13204000000002,0 17.092417199999996,48.131677500000016,0 17.089901399999995,48.13097020000001,0 17.082844399999995,48.12824030000001,0 17.077155499999996,48.12684500000001,0 17.0762075,48.12626690000001,0 17.075698299999996,48.12554360000001,0 17.075627599999994,48.12462190000001,0 17.077442799999996,48.1209031,0 17.081275799999997,48.114951,0 17.084757699999997,48.110579300000005,0 17.086454099999997,48.108819600000004,0 17.0938636,48.1032014,0 17.096523299999998,48.1002844,0 17.097967199999996,48.0976785,0 17.098560699999997,48.0956934,0 17.098956999999995,48.0871566,0 17.100949199999995,48.07846979999999,0 17.101176299999995,48.07620789999999,0 17.100750699999995,48.074890499999995,0 17.100112099999993,48.074065899999994,0 17.09939539999999,48.07343579999999,0 17.09846869999999,48.07287619999999,0 17.08881209999999,48.06951919999999,0 17.08577559999999,48.068976799999994,0 17.08419559999999,48.06883829999999,0 17.08282359999999,48.06885079999999,0 17.079623999999992,48.069261899999994,0 17.070058299999992,48.07192649999999,0 17.067479999999993,48.072478399999994,0 17.058103599999992,48.07566519999999,0 17.04627249999999,48.08042479999999,0 17.04315189999999,48.081373199999994,0 17.04052479999999,48.081868099999994,0 17.038246099999988,48.08209709999999,0 17.03384279999999,48.08204789999999,0 17.03149619999999,48.0817512,0 17.02827609999999,48.08100889999999,0 17.02619799999999,48.08028049999999,0 17.023983399999988,48.07928369999999,0 17.022609699999986,48.0785048,0 17.016731499999988,48.07436499999999,0 17.014859199999986,48.07269109999999,0 17.012856099999986,48.07032029999999,0 17.010687799999985,48.066834199999995,0 17.007915199999985,48.063814099999995,0 17.000393599999985,48.057370299999995,0 16.998230699999986,48.055030599999995,0 16.996167199999984,48.0521313,0 16.995097999999984,48.0501383,0 16.991999699999983,48.042589,0 16.991121599999985,48.0412691,0 16.988504799999987,48.0386271,0 16.985429899999986,48.036701699999995,0 16.983783599999985,48.0359449,0 16.98145429999998,48.03511919999999,0 16.97937359999998,48.03458779999999,0 16.969433399999982,48.03316799999999,0 16.966432799999982,48.03249189999999,0 16.96377729999998,48.03165639999999,0 16.95678729999998,48.02851679999999,0 16.953981099999982,48.02749589999999,0 16.95021769999998,48.02648329999999,0 16.94618469999998,48.025778899999985,0 16.94266369999998,48.02550749999999,0 16.93941819999998,48.02548019999999,0 16.93460459999998,48.02587339999999,0 16.931219599999977,48.026467099999984,0 16.928407699999976,48.02718239999999,0 16.925486499999977,48.02815849999999,0 16.923335199999975,48.02906199999999,0 16.920607399999977,48.03046679999999,0 16.90809449999998,48.03879569999999,0 16.90595509999998,48.03959159999999,0 16.903153899999978,48.040094299999986,0 16.901219299999976,48.040142299999985,0 16.898872999999977,48.039877899999986,0 16.896838499999976,48.03933449999998,0 16.895580899999977,48.03882079999999,0 16.885303999999977,48.03317669999999,0 16.88200169999998,48.03174129999999,0 16.878780499999976,48.030658499999994,0 16.876265399999976,48.02999969999999,0 16.870823699999978,48.02904089999999,0 16.867044899999975,48.02873689999999,0 16.859509599999974,48.02866329999999,0 16.856167199999973,48.028231899999994,0 16.854076399999975,48.02775139999999,0 16.851697299999977,48.026978099999994,0 16.849639199999977,48.02608989999999,0 16.841239099999974,48.021500299999985,0 16.840037299999977,48.020996299999986,0 16.839485399999976,48.02085969999999,0 16.838866899999978,48.02081819999999,0 16.838252899999976,48.02092799999999,0 16.837809999999976,48.02112679999999,0 16.837505899999975,48.02137009999999,0 16.835903599999977,48.024902399999995,0 16.834257699999977,48.027062799999996,0 16.832442999999973,48.02875589999999,0 16.830261799999974,48.03029639999999,0 16.828288499999974,48.03136249999999,0 16.825692799999974,48.03242839999999,0 16.813625999999974,48.03591479999999,0 16.793353299999975,48.04092939999999,0 16.785855599999973,48.04222849999999,0 16.781814199999975,48.04268849999999,0 16.762131999999973,48.04378359999999,0 16.752975999999975,48.04495179999999,0 16.744048099999976,48.04697819999999,0 16.706707699999978,48.05955879999999,0 16.70227049999998,48.06147129999999,0 16.697659499999975,48.06388099999999,0 16.690321899999976,48.06835929999999,0 16.684234299999975,48.072904099999995,0 16.68045419999998,48.07636599999999,0 16.672798699999976,48.084871699999994,0 16.66936509999998,48.08815969999999,0 16.66317019999998,48.09301709999999,0 16.660436799999978,48.094803299999995,0 16.65021449999998,48.10051229999999,0 16.646464699999978,48.10304079999999,0 16.63422889999998,48.113155099999986,0 16.628232399999977,48.11702869999999,0 16.62416549999998,48.11900059999999,0 16.61843029999998,48.12101349999999,0 16.61598819999998,48.12164859999999,0 16.590696099999978,48.12663349999999,0 16.58370329999998,48.1276191,0 16.57521879999998,48.12831649999999,0 16.55766879999998,48.129045399999995,0 16.55220359999998,48.1295175,0 16.54555369999998,48.130563099999996,0 16.54042259999998,48.13175029999999,0 16.53361499999998,48.133911299999994,0 16.52893039999998,48.1360021,0 16.52223219999998,48.1403275,0 16.51815729999998,48.142306,0 16.51335859999998,48.1439652,0 16.50166629999998,48.146938799999994,0 16.48865629999998,48.1510372,0 16.48283159999998,48.15257379999999,0 16.481573199999982,48.153087299999996,0 16.48076029999998,48.15355539999999,0 16.47974379999998,48.15438179999999,0 16.47895979999998,48.15538859999999,0 16.47708099999998,48.161025399999986,0 16.47634429999998,48.162172699999985,0 16.47559849999998,48.16289669999998,0 16.47435359999998,48.163726799999985,0 16.47342789999998,48.16415409999998,0 16.471647399999977,48.16471439999999,0 16.46208029999998,48.166830199999985,0 16.460473699999977,48.16735889999998,0 16.458389499999974,48.16844339999999,0 16.457052999999977,48.16951869999999,0 16.456269699999975,48.17044779999999,0 16.455519299999974,48.17189159999999,0 16.454523599999973,48.17556829999999,0 16.453658499999975,48.17742699999999,0 16.452184099999975,48.17963739999999,0 16.449930499999976,48.18218679999999,0 16.448730299999976,48.18312209999999,0 16.447931599999976,48.18350589999999,0 16.447039399999976,48.18378499999999,0 16.445651299999977,48.1840066,0 16.44232469999998,48.18418639999999,0 16.440193499999978,48.18449779999999,0 16.42620519999998,48.18852459999999,0 16.42247099999998,48.190060299999985,0 16.419032499999982,48.19212569999999,0 16.41858729999998,48.19268329999999,0 16.41817249999998,48.19292069999999,0 16.41701209999998,48.193276399999995,0 16.416180499999978,48.1938408,0 16.41599449999998,48.1942148,0 16.416158399999976,48.194528299999995,0 16.416415199999978,48.19465949999999,0 16.416826799999978,48.194691799999994,0 16.417202199999977,48.19456579999999,0 16.417384899999977,48.19438029999999,0 16.417407999999977,48.19407389999999,0 16.41714909999998,48.19369019999999,0 16.415558599999976,48.19255099999999,0 16.415438999999978,48.19239469999999,0 16.405641899999978,48.18568779999999,0 16.40463109999998,48.18443359999999,0 16.403725399999974,48.18216449999999,0 16.403660899999974,48.18214809999999,0 16.403105699999976,48.18145349999999,0 16.402502999999978,48.18108059999999,0 16.402077499999976,48.18096349999998,0 16.401397499999977,48.18091949999998,0 16.40079789999998,48.18102069999998,0 16.40031969999998,48.18122189999998,0 16.40007669999998,48.181408699999984,0 16.398356999999976,48.18378779999999,0 16.397256599999977,48.18473259999999,0 16.396063099999978,48.18609709999999,0 16.394972999999975,48.18690889999999,0 16.393835999999975,48.18755369999999,0 16.392309899999976,48.18801639999999,0 16.391477099999975,48.18813329999999,0 16.383956699999974,48.188506699999984,0 16.383772999999977,48.18846579999999,0 16.381572299999974,48.188446099999986,0 16.381282299999977,48.188380899999984,0 16.381185999999975,48.18854349999998,0 16.381087599999976,48.18858009999999,0 16.378510999999975,48.19291119999998,0 16.377124899999973,48.19454349999999,0 16.375194599999972,48.19773509999999,0 16.37537759999997,48.19884929999999,0 16.37569609999997,48.199294899999984,0 16.37568849999997,48.199544999999986,0 16.37522699999997,48.20034529999999,0 16.37482239999997,48.20024029999998,0 16.375149699999973,48.19966509999999,0 </coordinates></LineString><TimeSpan><begin>2019-12-28T15:39:01.000Z</begin><end>2019-12-28T16:44:31.000Z</end></TimeSpan></Placemark><Placemark><name>Innere Stadt</name><address>1010 Vienna, Austria</address><ExtendedData><Data name="Email"><value>syugen.zhou@gmail.com</value></Data><Data name="Category"><value></value></Data><Data name="Distance"><value>0</value></Data></ExtendedData><description>  from 2019-12-28T16:44:31.782Z to 2019-12-28T16:53:07.000Z. Distance 0m </description><Point><coordinates>16.3697428,48.2088774,0</coordinates></Point><TimeSpan><begin>2019-12-28T16:44:31.782Z</begin><end>2019-12-28T16:53:07.000Z</end></TimeSpan></Placemark><Placemark><name>Walking</name><address></address><ExtendedData><Data name="Email"><value>syugen.zhou@gmail.com</value></Data><Data name="Category"><value>Walking</value></Data><Data name="Distance"><value>2870</value></Data></ExtendedData><description> Walking from 2019-12-28T16:53:07.000Z to 2019-12-28T17:58:47.939Z. Distance 2870m </description><LineString><altitudeMode>clampToGround</altitudeMode><extrude>1</extrude><tesselate>1</tesselate><coordinates>16.3750611,48.199584099999996,0 16.374918,48.1998324,0 16.3748929,48.199825999999995,0 16.374807999999998,48.1999862,0 16.374812499999997,48.1999874,0 16.374713299999996,48.2001643,0 16.374708999999996,48.2001632,0 16.374613099999998,48.2003224,0 16.374665499999995,48.2003353,0 16.374104399999997,48.201349199999996,0 16.3740517,48.2013353,0 16.374008999999997,48.2013931,0 16.374132499999995,48.20142559999999,0 16.373610599999996,48.2012831,0 16.3728584,48.2014622,0 16.3728755,48.2014983,0 16.3727837,48.2015196,0 16.3727646,48.2014793,0 16.3714732,48.2017618,0 16.3715319,48.2018757,0 16.3715677,48.201867799999995,0 16.3716049,48.201938899999995,0 16.371568399999997,48.201946899999996,0 16.371620999999998,48.2020501,0 16.371647,48.2020443,0 16.371677099999996,48.202111099999996,0 16.371600199999996,48.2021317,0 16.371840499999998,48.2025969,0 16.371032099999997,48.2027776,0 16.370920799999997,48.2028584,0 16.370162299999997,48.203038199999995,0 16.3703887,48.2035395,0 16.3703865,48.2035344,0 16.370429299999998,48.2036346,0 16.370364,48.203648400000006,0 16.3703452,48.20368860000001,0 16.370533,48.20423520000001,0 16.3714085,48.20598240000001,0 16.3718131,48.20794380000001,0 16.3716391,48.20799100000001,0 16.3720547,48.20834790000001,0 16.373173599999998,48.2080289,0 16.3738349,48.208094200000005,0 16.3738785,48.20811640000001,0 16.3741129,48.208423200000006,0 16.3745794,48.2082667,0 16.374702,48.208416,0 16.374302599999996,48.2085449,0 16.374325099999997,48.2085771,0 16.373715399999995,48.208739200000004,0 16.372947899999996,48.209113699999996,0 16.373518899999993,48.209598899999996,0 16.373534999999997,48.2095908,0 16.373593099999997,48.2096285,0 16.373559399999994,48.2096454,0 16.374316399999994,48.2101399,0 16.374434099999995,48.2100815,0 16.374524899999997,48.209913199999995,0 16.374764399999997,48.2097914,0 16.374930099999997,48.209936000000006,0 16.3747193,48.2100432,0 16.3744341,48.2100815,0 16.3742368,48.2102063,0 16.374187499999998,48.21018110000001,0 16.3734558,48.2105654,0 16.373535899999997,48.2106484,0 16.373191799999997,48.210803299999995,0 16.373104899999998,48.210739399999994,0 16.373519799999997,48.2105257,0 16.3734237,48.2104399,0 16.3736763,48.2103143,0 16.3737415,48.2103002,0 16.3740895,48.2101282,0 16.373406999999997,48.209665699999995,0 16.372867699999997,48.2092074,0 16.3728552,48.2091041,0 16.3716391,48.20799099999999,0 16.3718131,48.207943799999995,0 16.3714085,48.205982399999996,0 16.370533,48.2042352,0 16.3703452,48.20368859999999,0 16.370364,48.20364839999999,0 16.370429299999998,48.203634599999994,0 16.370162299999997,48.20303819999999,0 16.370920799999997,48.20285839999999,0 16.371032099999997,48.20277759999999,0 16.371840499999998,48.202596899999996,0 16.371600199999996,48.202131699999995,0 16.371677099999996,48.20211109999999,0 16.371647,48.20204429999999,0 16.371620999999998,48.202050099999994,0 16.371568399999997,48.20194689999999,0 16.3716049,48.20193889999999,0 16.3715677,48.20186779999999,0 16.3715319,48.201875699999995,0 16.3712265,48.201260899999994,0 16.3724685,48.200950299999995,0 16.372427000000002,48.2008673,0 16.3724999,48.200851099999994,0 16.372335200000002,48.200531,0 </coordinates></LineString><TimeSpan><begin>2019-12-28T16:53:07.000Z</begin><end>2019-12-28T17:58:47.939Z</end></TimeSpan></Placemark><Placemark><name>Vienna Music Society</name><address>Musikvereinspl. 1, 1010 Wien, Austria</address><ExtendedData><Data name="Email"><value>syugen.zhou@gmail.com</value></Data><Data name="Category"><value>Concert hall</value></Data><Data name="Distance"><value>0</value></Data></ExtendedData><description> Concert hall from 2019-12-28T17:58:47.939Z to 2019-12-28T20:49:02.250Z. Distance 0m </description><Point><coordinates>16.3723626,48.2005443,0</coordinates></Point><TimeSpan><begin>2019-12-28T17:58:47.939Z</begin><end>2019-12-28T20:49:02.250Z</end></TimeSpan></Placemark><Placemark><name>Driving</name><address></address><ExtendedData><Data name="Email"><value>syugen.zhou@gmail.com</value></Data><Data name="Category"><value>Driving</value></Data><Data name="Distance"><value>79810</value></Data></ExtendedData><description> Driving from 2019-12-28T20:49:02.250Z to 2019-12-28T21:59:18.548Z. Distance 79810m </description><LineString><altitudeMode>clampToGround</altitudeMode><extrude>1</extrude><tesselate>1</tesselate><coordinates>16.3751419,48.1996787,0 16.3752974,48.1994089,0 16.375473600000003,48.1992752,0 16.375941400000002,48.1991336,0 16.378160900000005,48.20034770000001,0 16.379885900000005,48.201606000000005,0 16.380743900000002,48.20244680000001,0 16.382993800000005,48.204109200000005,0 16.383211300000006,48.20439360000001,0 16.383289300000005,48.204888800000006,0 16.383097300000006,48.20519970000001,0 16.382656100000005,48.20557970000001,0 16.382512800000008,48.20580040000001,0 16.382496500000006,48.20596950000001,0 16.383540700000005,48.20760280000001,0 16.383725200000008,48.20769010000001,0 16.384452500000005,48.208666500000014,0 16.385216700000008,48.211111400000014,0 16.385573400000006,48.21147480000001,0 16.386180000000007,48.211690900000015,0 16.386461400000005,48.21193210000001,0 16.386677700000007,48.21227190000001,0 16.38693170000001,48.21251640000001,0 16.387111400000006,48.21260020000001,0 16.388565900000007,48.212938500000014,0 16.389785400000008,48.21303630000001,0 16.39091920000001,48.21291970000001,0 16.392331600000006,48.212648400000006,0 16.393032100000006,48.212338800000005,0 16.393493100000008,48.21194470000001,0 16.395016800000008,48.20994110000001,0 16.395900400000006,48.208210600000015,0 16.396622300000004,48.204819500000006,0 16.396917200000008,48.20425360000001,0 16.39783000000001,48.20331020000001,0 16.39845880000001,48.20289900000001,0 16.399610300000006,48.20239870000001,0 16.40494530000001,48.20130140000001,0 16.40560520000001,48.20109140000002,0 16.406260700000008,48.20077910000002,0 16.406928900000008,48.200286100000014,0 16.41026230000001,48.19644700000001,0 16.41206200000001,48.19502190000001,0 16.42241840000001,48.18891230000001,0 16.424072100000007,48.18816470000001,0 16.426405200000005,48.187335700000006,0 16.450127300000005,48.1803716,0 16.451298300000005,48.1798038,0 16.452436200000008,48.178912800000006,0 16.452913500000008,48.178328900000004,0 16.454210600000007,48.1759391,0 16.455447900000006,48.1715905,0 16.456144600000005,48.1703455,0 16.457066800000003,48.1693025,0 16.4582137,48.1683967,0 16.460273,48.167308000000006,0 16.4618303,48.16677510000001,0 16.4722368,48.16442920000001,0 16.4737772,48.16386950000001,0 16.4744776,48.163507,0 16.475501899999998,48.162791600000006,0 16.4760515,48.162272300000005,0 16.4767314,48.16135800000001,0 16.4784182,48.156127500000004,0 16.4791469,48.154855700000006,0 16.4803982,48.153656000000005,0 16.4815115,48.1529848,0 16.483122799999997,48.1523576,0 16.4888555,48.1508614,0 16.5020289,48.1467033,0 16.514930899999996,48.14335689999999,0 16.51776,48.1423375,0 16.5208712,48.1408924,0 16.5230228,48.139686299999994,0 16.5283273,48.13618179999999,0 16.5303866,48.13509439999999,0 16.5326924,48.13409219999999,0 16.540029599999997,48.13171179999999,0 16.5427631,48.13101549999999,0 16.5514127,48.12948589999999,0 16.5568745,48.12896079999999,0 16.5777853,48.128047999999986,0 16.5885195,48.12686189999999,0 16.6098985,48.12284469999999,0 16.6175944,48.12112599999999,0 16.6227701,48.11942809999999,0 16.625832999999997,48.11810029999999,0 16.629496099999997,48.11611749999999,0 16.635566899999997,48.11198549999999,0 16.644481499999998,48.10446409999999,0 16.647827199999995,48.10194339999999,0 16.650405899999996,48.10027889999999,0 16.659975399999993,48.094969799999994,0 16.665342299999995,48.09130629999999,0 16.669706699999992,48.08770969999999,0 16.673416099999994,48.084047099999985,0 16.681512399999992,48.07517599999999,0 16.687074099999993,48.070535799999995,0 16.69367519999999,48.066084499999995,0 16.69786119999999,48.063658999999994,0 16.70279309999999,48.06114049999999,0 16.70872799999999,48.05868829999999,0 16.74321179999999,48.04712399999999,0 16.74919389999999,48.04560599999999,0 16.75302039999999,48.044849199999994,0 16.76013869999999,48.04387859999999,0 16.78235319999999,48.0425699,0 16.78834749999999,48.04177699999999,0 16.79744539999999,48.03994529999999,0 16.81719969999999,48.0348404,0 16.825606999999987,48.0323598,0 16.82755069999999,48.0315908,0 16.830251399999987,48.030176700000005,0 16.83289369999999,48.028216900000004,0 16.83423409999999,48.0268717,0 16.83521549999999,48.0256454,0 16.83640539999999,48.0232186,0 16.83646729999999,48.022749499999996,0 16.83638739999999,48.0223841,0 16.836092399999988,48.0220142,0 16.83516399999999,48.021516999999996,0 16.83487589999999,48.02125099999999,0 16.83477519999999,48.0209937,0 16.83480569999999,48.020764099999994,0 16.834936899999988,48.020542299999995,0 16.835248499999985,48.0203255,0 16.835456999999987,48.0202488,0 16.835838099999986,48.020187,0 16.837582599999987,48.0202997,0 16.838740899999983,48.020506399999995,0 16.840275999999985,48.0209656,0 16.84125429999998,48.0213669,0 16.850051899999983,48.0261495,0 16.851730099999983,48.0268626,0 16.854464999999983,48.027734099999996,0 16.85824179999998,48.028430199999995,0 16.85991439999998,48.0285754,0 16.86673839999998,48.0286092,0 16.869603499999982,48.028804,0 16.87340039999998,48.029303500000005,0 16.87805869999998,48.0303327,0 16.88067449999998,48.0311361,0 16.88318659999998,48.0320865,0 16.886550499999977,48.0336728,0 16.89608809999998,48.0389166,0 16.89826399999998,48.0396312,0 16.89966629999998,48.0398944,0 16.90086259999998,48.0400096,0 16.90251389999998,48.0400246,0 16.90421769999998,48.0398527,0 16.906029399999976,48.0394475,0 16.907369699999975,48.03898529999999,0 16.908917599999977,48.03821049999999,0 16.919466699999976,48.031005099999994,0 16.922614199999977,48.02926419999999,0 16.925508199999975,48.028023899999994,0 16.929206899999972,48.02683439999999,0 16.933215299999972,48.025977499999996,0 16.935839999999974,48.02561109999999,0 16.940563899999976,48.0253458,0 16.943901599999975,48.02546889999999,0 16.946659599999975,48.02574429999999,0 16.949335499999975,48.02618559999999,0 16.952340699999976,48.02688429999999,0 16.956908899999977,48.02843729999999,0 16.96255809999998,48.03106589999999,0 16.96400459999998,48.03161099999999,0 16.967402899999982,48.03261669999999,0 16.97045229999998,48.03321089999999,0 16.97937949999998,48.03446889999999,0 16.98189279999998,48.03513259999999,0 16.98457669999998,48.03615049999999,0 16.98657679999998,48.03718289999999,0 16.988432299999978,48.03842199999999,0 16.98987689999998,48.03965949999999,0 16.99132989999998,48.041294199999996,0 16.99253329999998,48.04327489999999,0 16.99511659999998,48.049798499999994,0 16.99654479999998,48.05245119999999,0 16.99819689999998,48.0547578,0 17.00066969999998,48.057441999999995,0 17.008534999999977,48.06418969999999,0 17.01032219999998,48.066113599999994,0 17.014031299999978,48.07158849999999,0 17.01679369999998,48.07424309999999,0 17.022288799999977,48.07817809999999,0 17.024971599999976,48.079638299999985,0 17.02513659999998,48.07965979999999,0 17.02682389999998,48.08034769999999,0 17.02782889999998,48.08063339999999,0 17.03024109999998,48.081062299999985,0 17.031004699999983,48.08131509999998,0 17.031281299999982,48.081290899999985,0 17.03149069999998,48.08134029999999,0 17.031666499999982,48.08145779999999,0 17.031732599999984,48.08156829999999,0 17.031724499999985,48.08174539999998,0 17.031574399999982,48.08191099999998,0 17.031385599999982,48.08198679999998,0 17.031239399999983,48.082005799999976,0 17.030988899999983,48.08225149999998,0 17.031003199999983,48.082510999999975,0 17.031206299999983,48.082802899999976,0 17.03149209999998,48.082976699999975,0 17.033258999999983,48.08327129999997,0 17.035742399999982,48.08393879999998,0 17.044877399999983,48.085666499999974,0 17.053182799999984,48.088735299999975,0 17.058075399999982,48.09212489999997,0 17.05885689999998,48.092847899999974,0 17.05885679999998,48.092913099999976,0 17.05875469999998,48.09298569999997,0 17.05820999999998,48.09302099999997,0 17.057625499999983,48.09328169999997,0 17.056634999999982,48.09404639999997,0 17.05614119999998,48.09425519999997,0 17.053586899999978,48.094969299999974,0 17.05039759999998,48.09698769999997,0 17.04617589999998,48.10021119999997,0 17.04514179999998,48.101273399999975,0 17.04377839999998,48.10359849999997,0 17.04382719999998,48.10511219999997,0 17.04333199999998,48.10626389999997,0 17.04037959999998,48.109576599999976,0 17.03931519999998,48.110515399999976,0 17.035126199999983,48.11569069999997,0 17.03032859999998,48.126298399999975,0 17.03026569999998,48.12665629999997,0 17.03033079999998,48.126687599999975,0 17.03056799999998,48.126671199999976,0 17.04557599999998,48.121886699999976,0 17.047436699999977,48.12152579999998,0 17.04870559999998,48.12147839999998,0 17.061455899999977,48.12192589999998,0 17.07827579999998,48.12407879999998,0 17.07873279999998,48.12244479999998,0 17.07868619999998,48.12229019999998,0 17.078521799999976,48.12214049999998,0 17.078093999999975,48.122044099999975,0 17.077922299999976,48.12204199999998,0 17.077589499999977,48.12213549999998,0 17.077309099999976,48.12242319999998,0 17.076529299999976,48.124371899999986,0 17.076482899999974,48.12494689999998,0 17.076734799999972,48.12570309999999,0 17.077119699999972,48.126180599999984,0 17.077526699999975,48.126504899999986,0 17.078236299999976,48.12685659999999,0 17.083245499999972,48.12817729999999,0 17.090722799999973,48.131124599999985,0 17.091954399999974,48.131458299999984,0 17.093999499999974,48.13182599999998,0 17.096087899999976,48.13196319999999,0 17.128374999999973,48.130819299999985,0 17.130913999999976,48.13093769999998,0 17.133587099999975,48.13124519999999,0 17.134864899999975,48.13157669999998,0 17.13667959999998,48.13237199999998,0 17.13886079999998,48.13373379999999,0 17.146115299999977,48.139191799999985,0 17.14625419999998,48.13922549999999,0 17.14760239999998,48.139904499999986,0 17.14907979999998,48.14029299999999,0 17.15243419999998,48.14054749999999,0 17.15280139999998,48.14063529999999,0 17.15313619999998,48.14078369999999,0 17.153857999999982,48.141326099999986,0 17.15397419999998,48.141721299999986,0 17.15384219999998,48.14216309999999,0 17.15355709999998,48.14248139999999,0 17.15297039999998,48.14281729999999,0 17.15234479999998,48.14336899999999,0 17.151660099999983,48.14425789999999,0 17.14960149999998,48.14922239999999,0 17.14465839999998,48.15727359999999,0 17.140813499999982,48.16151189999999,0 17.13863569999998,48.16060819999999,0 17.13837009999998,48.16070929999999,0 17.13778869999998,48.161337599999996,0 17.137694899999982,48.161299199999995,0 </coordinates></LineString><TimeSpan><begin>2019-12-28T20:49:02.250Z</begin><end>2019-12-28T21:59:18.548Z</end></TimeSpan></Placemark><Placemark><name>DoubleTree by Hilton Bratislava</name><address>Trnavská cesta 27/A, 831 04 Bratislava, Slovakia</address><ExtendedData><Data name="Email"><value>syugen.zhou@gmail.com</value></Data><Data name="Category"><value>Hotel</value></Data><Data name="Distance"><value>0</value></Data></ExtendedData><description> Hotel from 2019-12-28T21:59:18.548Z to 2019-12-29T07:44:55.524Z. Distance 0m </description><Point><coordinates>17.1377801,48.160797599999995,0</coordinates></Point><TimeSpan><begin>2019-12-28T21:59:18.548Z</begin><end>2019-12-29T07:44:55.524Z</end></TimeSpan></Placemark></Document></kml>
