<?xml version="1.0" encoding="UTF-8"?><kml xmlns="http://www.opengis.net/kml/2.2" xmlns:gx="http://www.google.com/kml/ext/2.2"><Document><name> Location history from 2019-12-29 to 2019-12-29 </name><open>1</open><description></description><StyleMap id="multiTrack"><Pair><key>normal</key><styleUrl>#multiTrack_n</styleUrl></Pair><Pair><key>highlight</key><styleUrl>#multiTrack_h</styleUrl></Pair></StyleMap><Style id="multiTrack_n"><IconStyle><Icon><href>https://earth.google.com/images/kml-icons/track-directional/track-0.png</href></Icon></IconStyle><LineStyle><color>99ffac59</color><width>6</width></LineStyle></Style><Style id="multiTrack_h"><IconStyle><scale>1.2</scale><Icon><href>https://earth.google.com/images/kml-icons/track-directional/track-0.png</href></Icon></IconStyle><LineStyle><color>99ffac59</color><width>8</width></LineStyle></Style><Placemark><name>DoubleTree by Hilton Bratislava</name><address>Trnavská cesta 27/A, 831 04 Bratislava, Slovakia</address><ExtendedData><Data name="Email"><value>syugen.zhou@gmail.com</value></Data><Data name="Category"><value>Hotel</value></Data><Data name="Distance"><value>0</value></Data></ExtendedData><description> Hotel from 2019-12-28T21:59:18.548Z to 2019-12-29T07:44:55.524Z. Distance 0m </description><Point><coordinates>17.1377801,48.160797599999995,0</coordinates></Point><TimeSpan><begin>2019-12-28T21:59:18.548Z</begin><end>2019-12-29T07:44:55.524Z</end></TimeSpan></Placemark><Placemark><name>Driving</name><address></address><ExtendedData><Data name="Email"><value>syugen.zhou@gmail.com</value></Data><Data name="Category"><value>Driving</value></Data><Data name="Distance"><value>35279</value></Data></ExtendedData><description> Driving from 2019-12-29T07:44:55.524Z to 2019-12-29T08:16:12.000Z. Distance 35279m </description><LineString><altitudeMode>clampToGround</altitudeMode><extrude>1</extrude><tesselate>1</tesselate><coordinates>17.138229799999998,48.1608656,0 17.137437,48.161647,0 17.137006799999998,48.1617673,0 17.1372859,48.1621708,0 17.139184399999998,48.1629204,0 17.144339699999996,48.1572622,0 17.149775199999997,48.148573899999995,0 17.151487799999998,48.144097099999996,0 17.1512862,48.142900399999995,0 17.1510383,48.1426204,0 17.150659,48.14240089999999,0 17.149039499999997,48.14183349999999,0 17.1384145,48.1335692,0 17.1354479,48.13199899999999,0 17.134658499999997,48.13173989999999,0 17.1332408,48.13157069999999,0 17.129153199999998,48.13161629999999,0 17.1286478,48.13139619999999,0 17.128467099999998,48.13113579999999,0 17.128461499999997,48.13090299999999,0 17.1295522,48.1301765,0 17.129758099999997,48.1299073,0 17.129833499999997,48.1279971,0 17.130304399999996,48.1266882,0 17.134340799999997,48.1213226,0 17.134644199999997,48.1206724,0 17.134675499999997,48.1189252,0 17.133858999999994,48.117453899999994,0 17.129842099999998,48.113560899999996,0 17.126601199999996,48.109833,0 17.126595199999997,48.1097464,0 17.122356799999995,48.105330499999994,0 17.121636399999996,48.10414419999999,0 17.120841699999993,48.09546509999999,0 17.121703099999994,48.09339519999999,0 17.121721799999992,48.09302559999999,0 17.12161559999999,48.09292269999999,0 17.12136159999999,48.09284789999998,0 17.12119539999999,48.092691299999984,0 17.12116139999999,48.09256719999998,0 17.121247799999992,48.09237909999999,0 17.12167409999999,48.091979299999984,0 17.12430679999999,48.086054699999984,0 17.12458699999999,48.08469129999999,0 17.125874199999988,48.081927499999985,0 17.12729289999999,48.08017389999999,0 17.13116449999999,48.077467099999986,0 17.13260209999999,48.07584559999999,0 17.13383799999999,48.074815499999985,0 17.135020299999994,48.07419059999999,0 17.13806079999999,48.07304759999999,0 17.139194399999994,48.07236309999998,0 17.139686799999993,48.07190829999998,0 17.141818799999996,48.06888729999998,0 17.142527599999994,48.068228099999985,0 17.145948499999992,48.06635879999998,0 17.146521599999993,48.065875599999984,0 17.147065099999992,48.064919199999984,0 17.14712389999999,48.06430739999999,0 17.146025699999992,48.061799399999984,0 17.146259799999992,48.05828019999999,0 17.14520779999999,48.05598229999999,0 17.145345999999993,48.05540509999999,0 17.15025719999999,48.051088799999995,0 17.152046199999994,48.04797789999999,0 17.152283699999995,48.047026999999986,0 17.153041599999995,48.045834499999984,0 17.163547999999995,48.03574609999998,0 17.180500599999995,48.01249089999998,0 17.180651199999996,48.01239229999998,0 17.185042599999996,48.00597109999999,0 17.185670699999996,48.00608839999998,0 17.186103499999994,48.00605389999998,0 17.186775699999995,48.00581589999998,0 17.187109099999997,48.005580899999984,0 17.187412,48.00505139999998,0 17.1873479,48.00467649999998,0 17.1871363,48.00439139999998,0 17.186698999999997,48.00412639999998,0 17.184796799999997,48.00344009999998,0 17.184542499999996,48.00357959999997,0 17.184268299999996,48.00354429999998,0 17.184131199999996,48.00342609999998,0 17.184135099999995,48.003256899999975,0 17.181658999999996,48.00240359999998,0 17.181232999999995,48.00233679999997,0 17.1810068,48.00237139999997,0 17.180873,48.00230249999997,0 17.180848599999997,48.00217949999997,0 17.1809101,48.00210889999997,0 17.1810342,48.00206589999997,0 17.181635300000003,48.00074949999997,0 17.183146400000002,47.99995339999997,0 17.1841323,47.99924109999997,0 17.1852559,47.99701159999997,0 17.1858411,47.99491579999997,0 17.186280600000003,47.99050559999998,0 17.185774400000003,47.98670919999998,0 17.184866400000004,47.98386599999998,0 17.183308400000005,47.98072839999998,0 17.169015800000004,47.958052299999984,0 17.167197600000005,47.95378049999998,0 17.165905000000006,47.947750599999985,0 17.166249600000004,47.94162739999998,0 17.1683622,47.93502369999998,0 17.1806044,47.91362069999998,0 17.1819199,47.91064319999998,0 17.182957000000002,47.906606299999986,0 17.1830768,47.903583799999986,0 17.180736399999997,47.89074859999999,0 17.181003299999997,47.889698199999984,0 17.181452599999997,47.88911189999998,0 17.181931299999995,47.888739999999984,0 17.183102099999996,47.88819479999999,0 17.185310599999994,47.88770069999998,0 17.186947899999996,47.887055899999986,0 17.188023399999995,47.88637579999999,0 17.188183599999995,47.88634289999999,0 17.19661469999999,47.881341499999984,0 17.21334199999999,47.872662799999986,0 17.21388669999999,47.87222389999999,0 17.21393479999999,47.87202819999999,0 17.21457309999999,47.871750599999984,0 17.21472819999999,47.87154529999998,0 </coordinates></LineString><TimeSpan><begin>2019-12-29T07:44:55.524Z</begin><end>2019-12-29T08:16:12.000Z</end></TimeSpan></Placemark><Placemark><name>Mol Vigneta Pt Austri</name><address>Levél, 9221 Hungary</address><ExtendedData><Data name="Email"><value>syugen.zhou@gmail.com</value></Data><Data name="Category"><value>Gas station</value></Data><Data name="Distance"><value>0</value></Data></ExtendedData><description> Gas station from 2019-12-29T08:16:12.000Z to 2019-12-29T08:22:11.000Z. Distance 0m </description><Point><coordinates>17.2145603,47.871488199999995,0</coordinates></Point><TimeSpan><begin>2019-12-29T08:16:12.000Z</begin><end>2019-12-29T08:22:11.000Z</end></TimeSpan></Placemark><Placemark><name>Driving</name><address></address><ExtendedData><Data name="Email"><value>syugen.zhou@gmail.com</value></Data><Data name="Category"><value>Driving</value></Data><Data name="Distance"><value>161152</value></Data></ExtendedData><description> Driving from 2019-12-29T08:22:11.000Z to 2019-12-29T09:51:35.000Z. Distance 161152m </description><LineString><altitudeMode>clampToGround</altitudeMode><extrude>1</extrude><tesselate>1</tesselate><coordinates>17.2147282,47.8715453,0 17.214904,47.8713126,0 17.2144855,47.871131600000005,0 17.2145956,47.87103410000001,0 17.214702499999998,47.871022700000005,0 17.214773599999997,47.87090090000001,0 17.2152753,47.87089410000001,0 17.215324,47.87085430000001,0 17.215687099999997,47.87032150000001,0 17.217292599999997,47.870349200000014,0 17.217720599999996,47.870302500000015,0 17.218179299999996,47.87015430000001,0 17.222017699999995,47.86822390000001,0 17.222252399999995,47.86816790000001,0 17.226728999999995,47.86586620000001,0 17.232001099999998,47.86292400000001,0 17.2362921,47.86027130000001,0 17.2407719,47.857277700000004,0 17.270551499999996,47.835404200000006,0 17.2742442,47.8322993,0 17.278248799999997,47.8284979,0 17.293927499999995,47.8122595,0 17.297447699999992,47.8088814,0 17.301187799999994,47.8056718,0 17.306068799999995,47.8019426,0 17.310255199999993,47.7991089,0 17.314682399999995,47.796388199999996,0 17.321557399999993,47.7926831,0 17.326593799999994,47.7902804,0 17.397216499999995,47.7608507,0 17.401838099999992,47.7587335,0 17.40712539999999,47.7560121,0 17.412067799999992,47.7531761,0 17.417723699999993,47.7496339,0 17.447617499999993,47.7291731,0 17.454279699999994,47.725167199999994,0 17.503275399999993,47.6983543,0 17.506550099999995,47.6967265,0 17.509886199999993,47.6952303,0 17.515645199999994,47.6930389,0 17.520904699999992,47.6913649,0 17.529728899999995,47.688943,0 17.532049199999992,47.68822,0 17.533419599999995,47.687668099999996,0 17.535533499999996,47.6866092,0 17.537343599999996,47.6854309,0 17.542412099999996,47.6810784,0 17.544982299999994,47.679167799999995,0 17.547673499999995,47.6776963,0 17.575200699999993,47.665276299999995,0 17.618289299999994,47.644270899999995,0 17.619743499999995,47.6436279,0 17.621959199999996,47.6428754,0 17.623715999999995,47.6424131,0 17.662508699999993,47.6335968,0 17.666325099999995,47.633046,0 17.668564899999993,47.6328525,0 17.669183999999994,47.632836,0 17.671026999999995,47.6329188,0 17.673293599999994,47.6331801,0 17.675799699999992,47.6336777,0 17.678265599999996,47.63442669999999,0 17.720172299999994,47.652408599999994,0 17.724420099999996,47.65409029999999,0 17.732978099999997,47.65723069999999,0 17.738613299999997,47.65906379999999,0 17.771427699999997,47.668743199999994,0 17.773290099999997,47.66939429999999,0 17.775898599999994,47.67046849999999,0 17.777637999999996,47.671287799999995,0 17.779827799999996,47.6724664,0 17.783060899999995,47.6745522,0 17.784599099999994,47.6757127,0 17.789948299999995,47.680269,0 17.792052499999997,47.6817553,0 17.793101399999994,47.682379899999994,0 17.794787299999996,47.683258,0 17.79639239999999,47.6839601,0 17.798038399999992,47.684579500000005,0 17.801715799999997,47.6856523,0 17.803291799999997,47.685960300000005,0 17.805286399999996,47.6862537,0 17.806915399999998,47.6864174,0 17.810451799999996,47.686541000000005,0 17.812924399999996,47.6864441,0 17.814862499999997,47.68627320000001,0 17.824961599999995,47.68504330000001,0 17.8290524,47.684687000000004,0 17.836692599999996,47.68431540000001,0 17.842827399999997,47.684237100000004,0 17.8699709,47.68451650000001,0 17.877146999999997,47.68431480000001,0 17.881962799999997,47.684008900000016,0 17.8898159,47.68323970000001,0 17.911191,47.68065750000001,0 17.917985799999997,47.679953700000006,0 17.9281746,47.67925740000001,0 17.9356899,47.679011200000005,0 17.9431842,47.67900600000001,0 17.9485959,47.6791568,0 17.9558063,47.679518800000004,0 17.9656448,47.680202900000005,0 17.9921996,47.6825484,0 17.9997885,47.6829991,0 18.007170600000002,47.683133500000004,0 18.0150615,47.682891100000006,0 18.017892,47.6826963,0 18.0232262,47.682162500000004,0 18.0274079,47.681610600000006,0 18.0332112,47.680632200000005,0 18.0566908,47.6757646,0 18.064295299999998,47.67470010000001,0 18.069705499999998,47.674233400000006,0 18.074124499999996,47.67404090000001,0 18.079151399999997,47.67403750000001,0 18.0918578,47.67465620000001,0 18.095825399999995,47.67472910000001,0 18.100753599999997,47.6746392,0 18.104624699999995,47.674418800000005,0 18.109281099999993,47.673978600000005,0 18.112391999999996,47.673577,0 18.118018499999994,47.6726322,0 18.123313599999996,47.6714645,0 18.138741299999992,47.6672054,0 18.14420399999999,47.665840800000005,0 18.149537999999993,47.664699600000006,0 18.157625299999992,47.66327040000001,0 18.163081199999993,47.66251290000001,0 18.173026899999993,47.661374900000006,0 18.17625079999999,47.660912100000004,0 18.17832549999999,47.6605147,0 18.18081239999999,47.6599208,0 18.184308399999992,47.6588688,0 18.18735809999999,47.657718800000005,0 18.19095999999999,47.65605180000001,0 18.20515769999999,47.648175800000004,0 18.21262909999999,47.64446100000001,0 18.21656439999999,47.642723000000004,0 18.22202019999999,47.64061660000001,0 18.22807249999999,47.638684700000006,0 18.24065589999999,47.63528740000001,0 18.25736169999999,47.629788700000006,0 18.264298899999986,47.627703800000006,0 18.26697509999999,47.627032,0 18.27146549999999,47.6261461,0 18.27508239999999,47.625679600000005,0 18.27905859999999,47.6254057,0 18.28176439999999,47.62535410000001,0 18.29906899999999,47.62562900000001,0 18.30548439999999,47.62543480000001,0 18.30958709999999,47.625108800000014,0 18.31347339999999,47.62466690000001,0 18.32009129999999,47.62359170000001,0 18.32434329999999,47.62268510000001,0 18.33105769999999,47.62084440000001,0 18.33641429999999,47.61907390000001,0 18.380749699999992,47.60248810000001,0 18.38363669999999,47.60125060000001,0 18.38652559999999,47.599853400000015,0 18.393309799999994,47.59622200000001,0 18.395907799999993,47.594635400000016,0 18.39710429999999,47.593774300000014,0 18.398597199999994,47.59250950000001,0 18.40935749999999,47.581422300000014,0 18.41040969999999,47.58046500000002,0 18.41125169999999,47.579856700000015,0 18.412634599999993,47.57906890000002,0 18.413673499999994,47.57862280000002,0 18.414885499999993,47.57820670000002,0 18.416039399999992,47.577919000000016,0 18.417370799999993,47.57768220000001,0 18.443672099999993,47.57477320000001,0 18.445838299999995,47.574679400000015,0 18.446954899999994,47.57471560000001,0 18.449739499999996,47.575067200000014,0 18.455719099999996,47.57608780000001,0 18.456567999999994,47.57617650000002,0 18.458677899999994,47.57626480000001,0 18.460156799999996,47.57624480000001,0 18.462114499999995,47.57611550000001,0 18.463370299999994,47.575940100000004,0 18.465421799999998,47.5755551,0 18.468265299999995,47.574725300000004,0 18.469951999999996,47.574076700000006,0 18.471679899999998,47.57322860000001,0 18.473301999999997,47.57218690000001,0 18.474606599999998,47.57115770000001,0 18.475361899999996,47.57047140000001,0 18.476442699999996,47.569305500000006,0 18.477554999999995,47.567680300000006,0 18.479603799999996,47.563580300000005,0 18.480449799999995,47.56215000000001,0 18.481292099999994,47.56102630000001,0 18.482277199999995,47.55991990000001,0 18.483441699999993,47.55879960000001,0 18.489570299999993,47.55406530000001,0 18.490968099999993,47.55281690000001,0 18.493355499999993,47.550395500000015,0 18.495024999999995,47.54837340000002,0 18.496053299999996,47.54694220000002,0 18.497615799999995,47.54438250000001,0 18.499057999999998,47.54118200000001,0 18.499739999999996,47.53905010000001,0 18.501119099999997,47.53246040000001,0 18.501701299999997,47.530750200000014,0 18.502341699999995,47.52941820000001,0 18.503402799999996,47.52795500000001,0 18.504657199999997,47.52676800000001,0 18.505887199999997,47.525870300000015,0 18.507558699999997,47.52494530000001,0 18.509079599999996,47.52432500000001,0 18.524729999999998,47.51919380000001,0 18.526244199999997,47.51861140000001,0 18.527822699999998,47.51787690000001,0 18.530244099999997,47.516507300000015,0 18.533235799999996,47.51444760000001,0 18.534203899999994,47.513673100000005,0 18.540131499999998,47.50842290000001,0 18.542245799999996,47.50680350000001,0 18.543921499999996,47.50576660000001,0 18.545743999999996,47.50480910000001,0 18.568401299999994,47.49449590000001,0 18.569658199999996,47.49401720000001,0 18.571666299999993,47.49342560000001,0 18.572710799999992,47.49323130000001,0 18.57454089999999,47.49300390000001,0 18.575609899999993,47.492934300000016,0 18.576695599999994,47.49292490000001,0 18.577676799999995,47.492969600000016,0 18.579064299999995,47.493109900000015,0 18.581338399999996,47.49352310000001,0 18.582841999999996,47.49394610000002,0 18.5846499,47.494662300000016,0 18.5859033,47.49526160000002,0 18.602962499999997,47.505196800000014,0 18.604281899999997,47.50586460000002,0 18.606527,47.50684010000002,0 18.6099706,47.507954300000016,0 18.6114775,47.508316600000015,0 18.614279500000002,47.50882870000002,0 18.6171255,47.509180600000015,0 18.6438964,47.51093580000002,0 18.646813400000003,47.51103240000002,0 18.6505593,47.51095800000002,0 18.6541216,47.51072230000002,0 18.679242600000002,47.50791630000002,0 18.6833068,47.50756740000002,0 18.6855452,47.50748140000002,0 18.688968,47.507483000000015,0 18.6920479,47.50762620000001,0 18.6946677,47.507835700000015,0 18.7204868,47.51064330000001,0 18.725445699999998,47.510923900000016,0 18.728081599999996,47.51099230000001,0 18.735087299999996,47.51092430000001,0 18.739274599999998,47.51065780000001,0 18.746147699999995,47.50988420000001,0 18.752170699999994,47.50884640000001,0 18.783549599999997,47.50155260000001,0 18.790728999999995,47.500144800000015,0 18.811682499999996,47.496533100000015,0 18.814553399999994,47.495886700000014,0 18.817656499999995,47.49501690000001,0 18.820637699999995,47.49398510000001,0 18.824255999999995,47.49245830000001,0 18.827571199999994,47.490746300000005,0 18.829510699999993,47.48959460000001,0 18.842185899999993,47.480712100000005,0 18.844603699999993,47.47916990000001,0 18.850121899999994,47.47596910000001,0 18.866952299999994,47.4674612,0 18.869171699999992,47.46646870000001,0 18.871477499999994,47.465579500000004,0 18.904042499999992,47.45452350000001,0 18.907050099999996,47.453638600000005,0 18.909115599999993,47.4531326,0 18.912323899999993,47.45251950000001,0 18.915792799999995,47.45212510000001,0 18.918759999999995,47.45195910000001,0 18.922389399999993,47.4518873,0 18.956808799999994,47.45218940000001,0 18.959794699999996,47.45228650000001,0 18.962726999999994,47.4525166,0 18.964757199999994,47.452757000000005,0 18.968094199999996,47.45331530000001,0 18.971185499999997,47.454032500000004,0 18.975654899999995,47.45524280000001,0 18.984427899999996,47.4579856,0 18.987749199999996,47.45872550000001,0 19.004136799999998,47.461497200000004,0 19.004313199999995,47.46156010000001,0 19.008013199999997,47.46246640000001,0 19.011221399999997,47.46352160000001,0 19.013450299999995,47.46451760000001,0 19.01519349999999,47.46544870000001,0 19.016117599999994,47.46610780000002,0 19.01686979999999,47.466779400000014,0 19.01781939999999,47.467879900000014,0 19.01833749999999,47.468653300000014,0 19.02034789999999,47.47099150000001,0 19.02138709999999,47.471973300000016,0 19.02188769999999,47.47263670000001,0 19.02285019999999,47.47422320000001,0 19.02294659999999,47.47431480000001,0 19.02304219999999,47.47436230000001,0 19.02322719999999,47.47439040000001,0 19.02333499999999,47.47438840000001,0 19.024014099999988,47.47424470000001,0 19.024054799999988,47.47414220000001,0 19.024269399999987,47.47394870000001,0 19.024487599999986,47.47386710000001,0 19.024558999999986,47.47385900000001,0 19.027551199999987,47.47304580000001,0 19.027577599999987,47.47302830000001,0 19.027607699999983,47.47298100000001,0 19.033977299999982,47.473659900000015,0 19.029900299999984,47.48273420000002,0 19.029872999999984,47.48292220000001,0 19.029997399999985,47.483069000000015,0 19.030016599999986,47.48312050000001,0 19.031483399999985,47.484849900000015,0 19.031561399999987,47.48501680000002,0 19.031688399999986,47.48552430000002,0 19.031679699999984,47.48671590000002,0 19.031716099999986,47.48687650000003,0 19.032953999999986,47.488423000000026,0 19.032932299999985,47.488501400000025,0 19.032949199999983,47.488601800000026,0 19.032885299999982,47.488769600000026,0 19.032503499999983,47.48873840000003,0 19.031914999999984,47.48955210000003,0 19.030696999999982,47.48949400000003,0 19.030501499999982,47.489948100000035,0 19.03034819999998,47.49177510000003,0 19.030243799999983,47.49204170000003,0 19.028777599999984,47.49454170000003,0 19.02863869999998,47.49487230000003,0 19.02869909999998,47.49493010000003,0 19.02873559999998,47.494947100000026,0 19.029804099999982,47.49583730000003,0 19.02989399999998,47.49596330000003,0 19.03019519999998,47.49614520000003,0 19.03093919999998,47.49647210000003,0 19.03151419999998,47.49657290000003,0 19.031620799999978,47.49661770000003,0 19.03190489999998,47.496686500000024,0 19.03195849999998,47.49668070000002,0 19.03971809999998,47.49821910000002,0 19.040075099999978,47.498224300000025,0 19.04019269999998,47.49824640000003,0 19.04024399999998,47.49822950000002,0 19.04033709999998,47.49823240000003,0 19.040405899999982,47.49826490000003,0 19.04043109999998,47.49830300000003,0 19.04042829999998,47.49834450000003,0 19.04040419999998,47.498383700000026,0 </coordinates></LineString><TimeSpan><begin>2019-12-29T08:22:11.000Z</begin><end>2019-12-29T09:51:35.000Z</end></TimeSpan></Placemark><Placemark><name>Flying</name><address></address><ExtendedData><Data name="Email"><value>syugen.zhou@gmail.com</value></Data><Data name="Category"><value>Flying</value></Data><Data name="Distance"><value>0</value></Data></ExtendedData><description> Flying from 2019-12-29T09:51:35.000Z to 2019-12-29T09:52:51.000Z. Distance 0m </description><TimeSpan><begin>2019-12-29T09:51:35.000Z</begin><end>2019-12-29T09:52:51.000Z</end></TimeSpan></Placemark><Placemark><name>Driving</name><address></address><ExtendedData><Data name="Email"><value>syugen.zhou@gmail.com</value></Data><Data name="Category"><value>Driving</value></Data><Data name="Distance"><value>1707</value></Data></ExtendedData><description> Driving from 2019-12-29T09:52:51.000Z to 2019-12-29T10:43:49.000Z. Distance 1707m </description><LineString><altitudeMode>clampToGround</altitudeMode><extrude>1</extrude><tesselate>1</tesselate><coordinates>19.046413899999997,47.4995124,0 19.0466353,47.4994866,0 19.046698,47.499478,0 19.0467444,47.499469000000005,0 19.046775699999998,47.499459200000004,0 19.046812599999996,47.49944250000001,0 19.046821799999996,47.499438700000006,0 19.046868299999996,47.49940730000001,0 19.046897199999997,47.499388800000006,0 19.046945899999994,47.4993544,0 19.047007899999997,47.4992828,0 19.047202999999996,47.4987823,0 19.047311099999995,47.4986856,0 19.04736009999999,47.498654,0 19.04742689999999,47.498612699999995,0 19.04749309999999,47.49857899999999,0 19.04755869999999,47.498550699999996,0 19.04764419999999,47.49853709999999,0 19.04773809999999,47.498537899999995,0 19.047815199999988,47.498560899999994,0 19.048198899999992,47.49858079999999,0 19.048343299999992,47.498578499999994,0 19.048500199999992,47.4986755,0 19.04972639999999,47.4988007,0 19.050339499999993,47.498866899999996,0 19.05084909999999,47.498918599999996,0 19.05104159999999,47.4989481,0 19.051116199999992,47.498961900000005,0 19.05138779999999,47.49899740000001,0 19.05151699999999,47.4989931,0 19.051547299999992,47.498993600000006,0 19.05159129999999,47.498997,0 19.05173239999999,47.4990097,0 19.05241809999999,47.499075600000005,0 19.05247799999999,47.4990787,0 19.05250499999999,47.499079200000004,0 19.05269499999999,47.4990946,0 19.053395699999992,47.4991495,0 19.053563499999992,47.4991557,0 19.053848399999993,47.4991747,0 19.054003699999992,47.499193399999996,0 19.054111399999993,47.49921069999999,0 19.05416559999999,47.499223199999996,0 19.05424829999999,47.49924609999999,0 19.05434659999999,47.49927889999999,0 19.05450649999999,47.499357999999994,0 19.05481479999999,47.49955229999999,0 19.05482009999999,47.49987089999998,0 19.05482449999999,47.500368499999986,0 19.05482809999999,47.50049219999998,0 19.05482979999999,47.50107879999999,0 19.05485039999999,47.50137689999998,0 19.05485559999999,47.50148729999999,0 19.054904399999987,47.50231449999999,0 19.05491829999999,47.50264329999999,0 19.054916299999988,47.50283329999999,0 19.05491729999999,47.50288379999999,0 19.054964299999988,47.50354069999999,0 19.05494929999999,47.5038114,0 19.05500469999999,47.504760299999994,0 19.05499619999999,47.5048031,0 19.05501769999999,47.5058606,0 19.05500639999999,47.5058941,0 19.05503179999999,47.506444099999996,0 19.05502799999999,47.50668279999999,0 19.055021899999993,47.50689779999999,0 19.055023699999992,47.50690619999999,0 19.05503149999999,47.50697829999999,0 19.05501539999999,47.50711239999999,0 19.05501499999999,47.50719659999999,0 19.05501919999999,47.507303699999994,0 19.05502539999999,47.507873299999986,0 19.055037899999988,47.50804259999999,0 19.055057799999986,47.508642399999985,0 19.055068599999988,47.50883709999999,0 19.055080199999985,47.509290599999986,0 19.055098299999983,47.50952819999999,0 19.055119199999982,47.50962809999999,0 19.055146399999984,47.50972459999999,0 19.055188499999982,47.509830799999996,0 19.055198499999985,47.50985179999999,0 19.055284399999984,47.51000069999999,0 19.055446299999982,47.5102297,0 19.055544599999983,47.5103526,0 19.055550099999984,47.510359199999996,0 19.055636899999982,47.51046769999999,0 19.05563769999998,47.510468499999995,0 19.055710699999977,47.5105614,0 19.05571139999998,47.5105624,0 19.055774499999977,47.510641899999996,0 19.055823699999976,47.5107023,0 19.056290099999977,47.5113208,0 19.056616599999977,47.511744900000004,0 19.056908799999974,47.5121312,0 19.056960799999974,47.512198000000005,0 19.057207599999973,47.512520900000005,0 19.057830799999977,47.513343400000004,0 19.057915699999977,47.513453500000004,0 19.057991199999975,47.513541800000006,0 19.058162399999976,47.5137671,0 </coordinates></LineString><TimeSpan><begin>2019-12-29T09:52:51.000Z</begin><end>2019-12-29T10:43:49.000Z</end></TimeSpan></Placemark><Placemark><name>Walking</name><address></address><ExtendedData><Data name="Email"><value>syugen.zhou@gmail.com</value></Data><Data name="Category"><value>Walking</value></Data><Data name="Distance"><value>2120</value></Data></ExtendedData><description> Walking from 2019-12-29T10:43:49.123Z to 2019-12-29T11:20:28.000Z. Distance 2120m </description><LineString><altitudeMode>clampToGround</altitudeMode><extrude>1</extrude><tesselate>1</tesselate><coordinates>19.058301,47.5136934,0 19.058792,47.5143396,0 19.058879,47.5143773,0 19.0589723,47.5144509,0 19.0589814,47.5144485,0 19.0590734,47.514570600000006,0 19.0589912,47.51459010000001,0 19.059054500000002,47.51465820000001,0 19.058729200000002,47.5147388,0 19.0587026,47.51474820000001,0 19.0586632,47.51467960000001,0 19.057375700000005,47.5151005,0 19.057235400000003,47.51515340000001,0 19.054359700000003,47.51608110000001,0 19.054233500000002,47.51611570000001,0 19.052002500000004,47.516836500000004,0 19.052010000000003,47.51684710000001,0 19.051884800000003,47.516891900000005,0 19.051875600000006,47.5168789,0 19.050898400000005,47.5172006,0 19.0509066,47.51721230000001,0 19.050725200000002,47.51727110000001,0 19.0507081,47.51724660000001,0 19.0501808,47.517416600000004,0 19.049779499999996,47.51684370000001,0 19.0497135,47.51680350000001,0 19.049643699999997,47.51680830000001,0 19.049612599999996,47.51681570000001,0 19.049214199999998,47.51694450000001,0 19.049129399999998,47.516967900000004,0 19.049008599999997,47.51699180000001,0 19.048933299999998,47.51701830000001,0 19.048857599999998,47.517035100000015,0 19.048883699999998,47.517081900000015,0 19.048946199999996,47.51714330000001,0 19.0493234,47.51764360000001,0 19.049223199999997,47.51767730000001,0 19.049177899999997,47.51761620000001,0 19.049173399999997,47.51761350000001,0 19.0491645,47.51761100000002,0 19.049156399999998,47.51761050000001,0 19.049137799999997,47.517612800000016,0 19.049184399999998,47.51759650000002,0 19.049131899999995,47.517529300000014,0 19.048638599999997,47.51682080000001,0 19.048518899999998,47.516748800000016,0 19.048294299999995,47.51682560000001,0 19.047857299999993,47.516194200000015,0 19.047800199999994,47.516076900000016,0 19.047268699999996,47.51524730000001,0 19.047225099999995,47.51511820000001,0 19.04720899999999,47.51504970000001,0 19.046388599999993,47.51375340000002,0 19.046241799999994,47.513415500000015,0 19.046171499999993,47.51322560000001,0 19.046094099999994,47.512898600000014,0 19.046002999999992,47.51232530000001,0 19.04604359999999,47.51221230000001,0 19.04577429999999,47.51103520000001,0 19.04577459999999,47.51100040000001,0 19.04576849999999,47.51095260000001,0 19.045754399999993,47.510913900000006,0 19.04587239999999,47.51090680000001,0 19.04574729999999,47.51039120000001,0 19.04571859999999,47.5103244,0 19.04576469999999,47.5103041,0 19.04580089999999,47.510271100000004,0 19.04578769999999,47.5102342,0 19.045804799999992,47.5101504,0 19.045770299999994,47.5101467,0 19.04574119999999,47.5101393,0 19.04571189999999,47.51012789999999,0 19.04569379999999,47.510109099999994,0 19.045662499999995,47.51002259999999,0 19.045628599999993,47.509851899999994,0 19.045620099999997,47.50983049999999,0 19.045514399999995,47.5093464,0 19.045471099999993,47.5092083,0 19.045461199999995,47.50919919999999,0 19.045510499999995,47.509163099999995,0 19.045503599999993,47.50904479999999,0 19.045486399999994,47.508977399999985,0 19.045510999999994,47.50894309999999,0 19.045484099999992,47.508880699999985,0 19.04547839999999,47.50885289999999,0 19.045577199999993,47.50884349999998,0 19.04556419999999,47.50872229999999,0 19.046590799999993,47.50865679999999,0 19.046654599999993,47.50866969999999,0 19.046672799999993,47.508640899999996,0 19.046726199999995,47.50860579999999,0 19.046771899999992,47.508588999999986,0 19.046855599999997,47.50856969999999,0 19.046923999999994,47.50855779999999,0 19.047802699999995,47.50852859999999,0 19.04785589999999,47.50848959999999,0 19.04786259999999,47.50737849999999,0 19.047782099999992,47.50737849999999,0 19.046904399999992,47.50743909999999,0 19.046826699999993,47.50699789999999,0 </coordinates></LineString><TimeSpan><begin>2019-12-29T10:43:49.123Z</begin><end>2019-12-29T11:20:28.000Z</end></TimeSpan></Placemark><Placemark><name>Kossuth Lajos Square</name><address>Budapest, Kossuth Lajos tér, 1055 Hungary</address><ExtendedData><Data name="Email"><value>syugen.zhou@gmail.com</value></Data><Data name="Category"><value>Plaza</value></Data><Data name="Distance"><value>0</value></Data></ExtendedData><description> Plaza from 2019-12-29T11:20:28.000Z to 2019-12-29T11:37:58.000Z. Distance 0m </description><Point><coordinates>19.0473596,47.5070167,0</coordinates></Point><TimeSpan><begin>2019-12-29T11:20:28.000Z</begin><end>2019-12-29T11:37:58.000Z</end></TimeSpan></Placemark><Placemark><name>Hiking</name><address></address><ExtendedData><Data name="Email"><value>syugen.zhou@gmail.com</value></Data><Data name="Category"><value>Hiking</value></Data><Data name="Distance"><value>4084</value></Data></ExtendedData><description> Hiking from 2019-12-29T11:38:00.000Z to 2019-12-29T15:14:05.000Z. Distance 4084m </description><LineString><altitudeMode>clampToGround</altitudeMode><extrude>1</extrude><tesselate>1</tesselate><coordinates>19.0469002,47.506976200000004,0 19.0449622,47.5054309,0 19.0450123,47.5032366,0 19.0451701,47.50279,0 19.0455415,47.5013569,0 19.0460116,47.4996863,0 19.0423535,47.4989423,0 19.040214,47.4984166,0 19.0402891,47.4974969,0 19.0392254,47.4970541,0 19.0399666,47.4963354,0 19.0389358,47.4962492,0 19.0398844,47.496404,0 19.0389265,47.4964314,0 19.0388769,47.4971391,0 19.0393412,47.4964194,0 19.0398016,47.4957286,0 19.0408566,47.4958393,0 19.0391389,47.4962136,0 19.0403626,47.495601,0 19.0396018,47.496388,0 19.0388207,47.4972864,0 19.0361794,47.4978531,0 19.0355394,47.4995626,0 19.0344051,47.5017301,0 19.0344894,47.5028907,0 19.0354923,47.5029151,0 19.0348034,47.5046555,0 19.0366093,47.5052333,0 19.0380699,47.5057016,0 19.0390358,47.5063359,0 19.0390358,47.5063359,0 </coordinates></LineString><TimeSpan><begin>2019-12-29T11:38:00.000Z</begin><end>2019-12-29T15:14:05.000Z</end></TimeSpan></Placemark><Placemark><name>On the subway</name><address></address><ExtendedData><Data name="Email"><value>syugen.zhou@gmail.com</value></Data><Data name="Category"><value>On the subway</value></Data><Data name="Distance"><value>6972</value></Data></ExtendedData><description> On the subway from 2019-12-29T15:14:05.000Z to 2019-12-29T16:06:13.000Z. Distance 6972m </description><LineString><altitudeMode>clampToGround</altitudeMode><extrude>1</extrude><tesselate>1</tesselate><coordinates>19.0390358,47.5063359,0 19.0540211,47.4970712,0 19.070434,47.4975628,0 19.0701748,47.4986718,0 19.069795,47.4990802,0 19.0668661,47.5021714,0 19.0634629,47.5050304,0 19.065857,47.506897,0 19.0548563,47.4997634,0 19.0546358,47.4983691,0 19.046878,47.5061977,0 19.0389734,47.5063259,0 </coordinates></LineString><TimeSpan><begin>2019-12-29T15:14:05.000Z</begin><end>2019-12-29T16:06:13.000Z</end></TimeSpan></Placemark><Placemark><name>Batthyány tér</name><address>Budapest, 1011 Hungary</address><ExtendedData><Data name="Email"><value>syugen.zhou@gmail.com</value></Data><Data name="Category"><value>Subway station</value></Data><Data name="Distance"><value>0</value></Data></ExtendedData><description> Subway station from 2019-12-29T16:06:13.000Z to 2019-12-29T16:20:26.000Z. Distance 0m </description><Point><coordinates>19.0389734,47.5063259,0</coordinates></Point><TimeSpan><begin>2019-12-29T16:06:13.000Z</begin><end>2019-12-29T16:20:26.000Z</end></TimeSpan></Placemark><Placemark><name>In a cable car</name><address></address><ExtendedData><Data name="Email"><value>syugen.zhou@gmail.com</value></Data><Data name="Category"><value>In a cable car</value></Data><Data name="Distance"><value>3036</value></Data></ExtendedData><description> In a cable car from 2019-12-29T16:20:26.000Z to 2019-12-29T16:49:49.000Z. Distance 3036m </description><LineString><altitudeMode>clampToGround</altitudeMode><extrude>1</extrude><tesselate>1</tesselate><coordinates>19.0389734,47.5063259,0 19.0394442,47.505879,0 19.0394856,47.5041759,0 19.0415563,47.4974404,0 19.0458889,47.4913705,0 19.0447225,47.4928198,0 19.0405947,47.5004318,0 19.0390184,47.5017373,0 </coordinates></LineString><TimeSpan><begin>2019-12-29T16:20:26.000Z</begin><end>2019-12-29T16:49:49.000Z</end></TimeSpan></Placemark><Placemark><name>Walking</name><address></address><ExtendedData><Data name="Email"><value>syugen.zhou@gmail.com</value></Data><Data name="Category"><value>Walking</value></Data><Data name="Distance"><value>337</value></Data></ExtendedData><description> Walking from 2019-12-29T16:49:49.000Z to 2019-12-29T16:59:27.000Z. Distance 337m </description><LineString><altitudeMode>clampToGround</altitudeMode><extrude>1</extrude><tesselate>1</tesselate><coordinates>19.0390184,47.5017373,0 19.0390184,47.5017373,0 19.0361616,47.5012439,0 19.0349724,47.5019065,0 19.0349724,47.5019065,0 </coordinates></LineString><TimeSpan><begin>2019-12-29T16:49:49.000Z</begin><end>2019-12-29T16:59:27.000Z</end></TimeSpan></Placemark><Placemark><name>On a bus</name><address></address><ExtendedData><Data name="Email"><value>syugen.zhou@gmail.com</value></Data><Data name="Category"><value>On a bus</value></Data><Data name="Distance"><value>3500</value></Data></ExtendedData><description> On a bus from 2019-12-29T16:59:27.000Z to 2019-12-29T17:30:51.000Z. Distance 3500m </description><LineString><altitudeMode>clampToGround</altitudeMode><extrude>1</extrude><tesselate>1</tesselate><coordinates>19.0349724,47.5019065,0 19.0338744,47.5015057,0 19.0349622,47.498636,0 19.0383634,47.4946222,0 19.0331563,47.4965135,0 19.0397787,47.4982796,0 19.0460659,47.4992883,0 19.04712,47.49802,0 19.0480369,47.495995,0 19.0513671,47.4911701,0 19.0505283,47.4919759,0 19.0505283,47.4919759,0 </coordinates></LineString><TimeSpan><begin>2019-12-29T16:59:27.000Z</begin><end>2019-12-29T17:30:51.000Z</end></TimeSpan></Placemark><Placemark><name>Dock #11 Szatta</name><address>Budapest, Jane Haining rkp. 11, 1052 Hungary</address><ExtendedData><Data name="Email"><value>syugen.zhou@gmail.com</value></Data><Data name="Category"><value>Ferry service</value></Data><Data name="Distance"><value>0</value></Data></ExtendedData><description> Ferry service from 2019-12-29T17:30:51.000Z to 2019-12-29T17:54:26.000Z. Distance 0m </description><Point><coordinates>19.0505283,47.4919759,0</coordinates></Point><TimeSpan><begin>2019-12-29T17:30:51.000Z</begin><end>2019-12-29T17:54:26.000Z</end></TimeSpan></Placemark><Placemark><name>On a ferry</name><address></address><ExtendedData><Data name="Email"><value>syugen.zhou@gmail.com</value></Data><Data name="Category"><value>On a ferry</value></Data><Data name="Distance"><value>9455</value></Data></ExtendedData><description> On a ferry from 2019-12-29T17:54:26.438Z to 2019-12-29T19:45:15.000Z. Distance 9455m </description><LineString><altitudeMode>clampToGround</altitudeMode><extrude>1</extrude><tesselate>1</tesselate><coordinates>19.0505283,47.4919759,0 19.0503891,47.4922484,0 19.046307,47.4960183,0 19.0460398,47.4993669,0 19.043456,47.5021558,0 19.0440767,47.5064521,0 19.043295,47.5086226,0 19.0402597,47.5110848,0 19.043078,47.4986603,0 19.0470893,47.4914158,0 19.0680525,47.4748375,0 19.0667339,47.4797579,0 19.0550611,47.4869601,0 19.0519387,47.4901752,0 19.0505283,47.4919759,0 19.0505283,47.4919759,0 </coordinates></LineString><TimeSpan><begin>2019-12-29T17:54:26.438Z</begin><end>2019-12-29T19:45:15.000Z</end></TimeSpan></Placemark><Placemark><name>Dock #11 Szatta</name><address>Budapest, Jane Haining rkp. 11, 1052 Hungary</address><ExtendedData><Data name="Email"><value>syugen.zhou@gmail.com</value></Data><Data name="Category"><value>Ferry service</value></Data><Data name="Distance"><value>0</value></Data></ExtendedData><description> Ferry service from 2019-12-29T19:45:15.000Z to 2019-12-29T19:58:20.000Z. Distance 0m </description><Point><coordinates>19.0505283,47.4919759,0</coordinates></Point><TimeSpan><begin>2019-12-29T19:45:15.000Z</begin><end>2019-12-29T19:58:20.000Z</end></TimeSpan></Placemark><Placemark><name>On a ferry</name><address></address><ExtendedData><Data name="Email"><value>syugen.zhou@gmail.com</value></Data><Data name="Category"><value>On a ferry</value></Data><Data name="Distance"><value>10456</value></Data></ExtendedData><description> On a ferry from 2019-12-29T19:58:20.999Z to 2019-12-29T21:15:38.000Z. Distance 10456m </description><LineString><altitudeMode>clampToGround</altitudeMode><extrude>1</extrude><tesselate>1</tesselate><coordinates>19.0505283,47.4919759,0 19.0500821,47.4920315,0 19.0479937,47.4947166,0 19.0457464,47.4966442,0 19.0441001,47.500287,0 19.0393723,47.503491,0 19.0429953,47.5060216,0 19.0427056,47.5124894,0 19.0414439,47.5131401,0 19.0397298,47.5082112,0 19.0471328,47.4923167,0 19.0576893,47.4828165,0 19.0622687,47.4792928,0 19.066344,47.472987,0 19.068226,47.4743671,0 19.0680289,47.4763839,0 19.0646994,47.4797501,0 19.061428,47.4821871,0 19.0554495,47.4867263,0 19.0508176,47.4906745,0 19.0505283,47.4919759,0 19.0505283,47.4919759,0 </coordinates></LineString><TimeSpan><begin>2019-12-29T19:58:20.999Z</begin><end>2019-12-29T21:15:38.000Z</end></TimeSpan></Placemark><Placemark><name>Dock #11 Szatta</name><address>Budapest, Jane Haining rkp. 11, 1052 Hungary</address><ExtendedData><Data name="Email"><value>syugen.zhou@gmail.com</value></Data><Data name="Category"><value>Ferry service</value></Data><Data name="Distance"><value>0</value></Data></ExtendedData><description> Ferry service from 2019-12-29T21:15:38.000Z to 2019-12-29T21:22:04.000Z. Distance 0m </description><Point><coordinates>19.0505283,47.4919759,0</coordinates></Point><TimeSpan><begin>2019-12-29T21:15:38.000Z</begin><end>2019-12-29T21:22:04.000Z</end></TimeSpan></Placemark><Placemark><name>On the subway</name><address></address><ExtendedData><Data name="Email"><value>syugen.zhou@gmail.com</value></Data><Data name="Category"><value>On the subway</value></Data><Data name="Distance"><value>2908</value></Data></ExtendedData><description> On the subway from 2019-12-29T21:22:04.647Z to 2019-12-29T21:46:11.929Z. Distance 2908m </description><LineString><altitudeMode>clampToGround</altitudeMode><extrude>1</extrude><tesselate>1</tesselate><coordinates>19.0505283,47.4919759,0 19.0499981,47.4928138,0 19.0533203,47.4928723,0 19.0555402,47.4929896,0 19.0545938,47.5033875,0 19.0581963,47.5131863,0 19.059258099999997,47.5138536,0 19.059258099999997,47.5138536,0 </coordinates></LineString><TimeSpan><begin>2019-12-29T21:22:04.647Z</begin><end>2019-12-29T21:46:11.929Z</end></TimeSpan></Placemark><Placemark><name>Westend Shopping Center</name><address>Budapest, Váci út 1-3, 1062 Hungary</address><ExtendedData><Data name="Email"><value>syugen.zhou@gmail.com</value></Data><Data name="Category"><value>Shopping mall</value></Data><Data name="Distance"><value>0</value></Data></ExtendedData><description> Shopping mall from 2019-12-29T21:46:11.929Z to 2019-12-30T07:01:11.313Z. Distance 0m </description><Point><coordinates>19.059258099999997,47.5138536,0</coordinates></Point><TimeSpan><begin>2019-12-29T21:46:11.929Z</begin><end>2019-12-30T07:01:11.313Z</end></TimeSpan></Placemark></Document></kml>
