<?xml version="1.0" encoding="UTF-8"?><kml xmlns="http://www.opengis.net/kml/2.2" xmlns:gx="http://www.google.com/kml/ext/2.2"><Document><name> Location history from 2019-12-30 to 2019-12-30 </name><open>1</open><description></description><StyleMap id="multiTrack"><Pair><key>normal</key><styleUrl>#multiTrack_n</styleUrl></Pair><Pair><key>highlight</key><styleUrl>#multiTrack_h</styleUrl></Pair></StyleMap><Style id="multiTrack_n"><IconStyle><Icon><href>https://earth.google.com/images/kml-icons/track-directional/track-0.png</href></Icon></IconStyle><LineStyle><color>99ffac59</color><width>6</width></LineStyle></Style><Style id="multiTrack_h"><IconStyle><scale>1.2</scale><Icon><href>https://earth.google.com/images/kml-icons/track-directional/track-0.png</href></Icon></IconStyle><LineStyle><color>99ffac59</color><width>8</width></LineStyle></Style><Placemark><name>Westend Shopping Center</name><address>Budapest, Váci út 1-3, 1062 Hungary</address><ExtendedData><Data name="Email"><value>syugen.zhou@gmail.com</value></Data><Data name="Category"><value>Shopping mall</value></Data><Data name="Distance"><value>0</value></Data></ExtendedData><description> Shopping mall from 2019-12-29T21:46:11.929Z to 2019-12-30T07:01:11.313Z. Distance 0m </description><Point><coordinates>19.059258099999997,47.5138536,0</coordinates></Point><TimeSpan><begin>2019-12-29T21:46:11.929Z</begin><end>2019-12-30T07:01:11.313Z</end></TimeSpan></Placemark><Placemark><name>Driving</name><address></address><ExtendedData><Data name="Email"><value>syugen.zhou@gmail.com</value></Data><Data name="Category"><value>Driving</value></Data><Data name="Distance"><value>187181</value></Data></ExtendedData><description> Driving from 2019-12-30T07:01:11.313Z to 2019-12-30T08:53:29.000Z. Distance 187181m </description><LineString><altitudeMode>clampToGround</altitudeMode><extrude>1</extrude><tesselate>1</tesselate><coordinates>19.0577287,47.5132087,0 19.0586781,47.514445900000005,0 19.0587561,47.5144726,0 19.0588674,47.5145604,0 19.0593532,47.515162100000005,0 19.059473699999998,47.515184500000004,0 19.0596124,47.515318900000004,0 19.0597,47.515365800000005,0 19.060003,47.515378500000004,0 19.063483399999996,47.512785,0 19.063525699999996,47.512617500000005,0 19.063490099999996,47.5124853,0 19.062392299999992,47.511811,0 19.062208699999992,47.51165,0 19.062173399999992,47.5115265,0 19.062241699999987,47.5114275,0 19.05749029999999,47.5085655,0 19.057421999999992,47.50848340000001,0 19.05559989999999,47.507212300000006,0 19.05527959999999,47.50712640000001,0 19.05501539999999,47.50711240000001,0 19.054803099999994,47.498487200000014,0 19.05474419999999,47.498411200000014,0 19.054685999999993,47.498234300000014,0 19.054684699999992,47.49787520000001,0 19.054755199999992,47.49761890000001,0 19.05489559999999,47.497466400000015,0 19.058948499999993,47.49555920000002,0 19.059155499999996,47.49535640000001,0 19.059817999999993,47.494343500000014,0 19.055605399999994,47.49325980000002,0 19.053329399999992,47.49244440000002,0 19.052685099999994,47.492130400000015,0 19.052050299999994,47.49190940000001,0 19.051794999999995,47.49185910000001,0 19.046638499999993,47.49003460000001,0 19.046283999999993,47.49002880000001,0 19.046083899999992,47.49008980000001,0 19.045011499999994,47.49086760000001,0 19.044836199999995,47.49090770000001,0 19.044702899999994,47.49091230000001,0 19.044487999999994,47.49084200000001,0 19.044394099999995,47.490747600000006,0 19.044204999999994,47.490365700000005,0 19.044037099999997,47.490258000000004,0 19.0432562,47.490292000000004,0 19.040931599999997,47.490653800000004,0 19.039631799999995,47.490722500000004,0 19.038703799999997,47.49064510000001,0 19.037732,47.490407700000006,0 19.034428299999995,47.489097500000014,0 19.033587599999997,47.48884920000001,0 19.032503499999997,47.48873840000001,0 19.0308665,47.48842360000001,0 19.030211599999998,47.48835270000001,0 19.029358399999996,47.488390300000006,0 19.028407999999995,47.488353100000005,0 19.0283332,47.48833140000001,0 19.0269785,47.488231500000005,0 19.026932,47.4882396,0 19.0258655,47.488057,0 19.025363900000002,47.4878733,0 19.025038400000003,47.487679799999995,0 19.0247365,47.4874113,0 19.0245216,47.4871102,0 19.0243958,47.486736699999994,0 19.0244012,47.48635229999999,0 19.0246405,47.48580719999999,0 19.025516999999997,47.48479699999999,0 19.0267156,47.482577799999994,0 19.0268265,47.4819123,0 19.0266049,47.480340299999995,0 19.026362199999998,47.47952779999999,0 19.0260884,47.47898769999999,0 19.0252482,47.477850299999986,0 19.0251813,47.47779879999999,0 19.0236719,47.47548199999999,0 19.0227186,47.47438079999999,0 19.022680899999997,47.47424949999999,0 19.022236799999998,47.47349509999999,0 19.0222203,47.47330939999999,0 19.0213476,47.47206819999999,0 19.0202514,47.47108769999999,0 19.017778399999997,47.46825079999999,0 19.017761599999996,47.46810779999999,0 19.016929099999995,47.467085199999985,0 19.015809099999995,47.466070899999984,0 19.015095099999996,47.46558089999999,0 19.011866899999998,47.46394329999999,0 19.009675299999998,47.46310779999999,0 19.007796499999998,47.462526299999986,0 19.002375799999996,47.46129999999999,0 18.988293699999996,47.458964899999984,0 18.983019199999994,47.45774739999999,0 18.972829199999996,47.454619399999984,0 18.967752699999995,47.45338779999999,0 18.962644799999996,47.452646999999985,0 18.959770099999997,47.452418399999985,0 18.928065099999994,47.45211529999999,0 18.920659099999995,47.45276299999998,0 18.918672699999995,47.45275039999998,0 18.915791599999995,47.45246649999998,0 18.914845999999997,47.45246299999998,0 18.912203699999996,47.452725999999984,0 18.909864899999995,47.45315729999999,0 18.907021199999996,47.45383259999998,0 18.904508999999997,47.45456139999998,0 18.869109599999998,47.46664519999998,0 18.866463099999997,47.46783229999998,0 18.8515661,47.47535769999998,0 18.845955,47.478523799999984,0 18.8405605,47.48197819999998,0 18.8285718,47.49032449999998,0 18.8246042,47.49243509999997,0 18.821453,47.493797899999976,0 18.817276500000002,47.495260099999975,0 18.813389400000002,47.49628409999997,0 18.8110179,47.496781199999965,0 18.788660600000004,47.50063509999997,0 18.7815419,47.502074599999965,0 18.7525745,47.508884999999964,0 18.745373800000003,47.51009309999996,0 18.7398174,47.510713299999956,0 18.731299000000003,47.51110809999996,0 18.726572200000003,47.51107679999996,0 18.720913900000003,47.51078519999996,0 18.695806,47.50805839999996,0 18.6913024,47.50768959999996,0 18.685541800000003,47.50758239999996,0 18.681714000000003,47.50778919999996,0 18.655395600000002,47.510737099999965,0 18.6518242,47.511010799999966,0 18.6481709,47.511140899999965,0 18.644456700000003,47.51109599999997,0 18.616207100000004,47.50923509999996,0 18.613542000000002,47.50886609999996,0 18.6109179,47.50833429999996,0 18.6084388,47.50763939999996,0 18.6053046,47.50642499999996,0 18.6018642,47.50473409999996,0 18.586664499999998,47.495852499999955,0 18.584541299999998,47.494796899999955,0 18.5823005,47.493954099999954,0 18.580373599999998,47.493479899999954,0 18.5785378,47.49319879999995,0 18.5770153,47.493092599999954,0 18.5758792,47.49308749999995,0 18.5735901,47.49325939999996,0 18.5720147,47.493518899999955,0 18.570529699999998,47.493903199999956,0 18.5684406,47.494640699999955,0 18.545426699999997,47.50510189999996,0 18.5434232,47.50618129999996,0 18.543037899999998,47.50646689999996,0 18.542842399999998,47.50656329999996,0 18.540677799999997,47.50813689999996,0 18.534290799999997,47.51374559999996,0 18.5309419,47.51618959999996,0 18.528295699999997,47.51774879999996,0 18.5264097,47.51864899999996,0 18.524732399999998,47.51929949999996,0 18.50847,47.52471299999996,0 18.5069237,47.52544229999996,0 18.505795600000003,47.52614829999996,0 18.504335700000002,47.527283899999965,0 18.503467200000003,47.528181299999964,0 18.502706500000002,47.52922999999996,0 18.501874700000005,47.53079739999996,0 18.501372800000006,47.53215159999996,0 18.500233700000003,47.53784109999996,0 18.499543100000004,47.54030519999996,0 18.498494400000006,47.54292439999996,0 18.497668800000007,47.54456819999996,0 18.496129900000007,47.54708509999996,0 18.493469100000006,47.550476299999964,0 18.489998400000005,47.553865999999964,0 18.483571000000005,47.55889289999996,0 18.4818174,47.56064319999996,0 18.480440200000004,47.56246039999996,0 18.477738600000006,47.56768109999996,0 18.476611700000007,47.56933769999996,0 18.475677100000006,47.570373299999964,0 18.474154300000006,47.571722599999966,0 18.473158600000005,47.57244949999996,0 18.470266400000007,47.574078699999966,0 18.468471100000006,47.574810699999965,0 18.465511500000005,47.575659399999964,0 18.462862000000005,47.57612499999996,0 18.461153800000005,47.57630599999996,0 18.458184300000006,47.57638439999996,0 18.456604000000006,47.57629639999996,0 18.454528600000007,47.57603569999996,0 18.449234000000008,47.575105599999965,0 18.447287200000005,47.57488129999996,0 18.445370800000006,47.57483279999996,0 18.443674300000005,47.57489999999996,0 18.418450500000006,47.577659199999964,0 18.416364600000005,47.577996199999966,0 18.415396500000007,47.57822129999996,0 18.413328700000005,47.57892809999996,0 18.412163100000004,47.57949499999996,0 18.411306800000002,47.580032399999965,0 18.409683400000002,47.58129509999996,0 18.398066400000005,47.59316169999996,0 18.396256400000002,47.594561199999966,0 18.392822500000005,47.59665069999996,0 18.385528100000005,47.60048749999996,0 18.380833300000003,47.60256709999996,0 18.334432300000003,47.61988729999996,0 18.331012700000002,47.62098509999996,0 18.325652600000005,47.62246619999996,0 18.318299400000004,47.62402079999996,0 18.313693600000004,47.624742799999964,0 18.305861300000004,47.62552679999997,0 18.302237500000004,47.62568569999997,0 18.295549100000006,47.62574629999997,0 18.281825700000006,47.62545529999997,0 18.278749900000005,47.62553019999997,0 18.273477200000002,47.62597109999997,0 18.270170300000004,47.626485699999975,0 18.267022300000004,47.627140499999975,0 18.260653800000004,47.62887959999997,0 18.241142500000006,47.635235799999975,0 18.226461100000005,47.63929089999997,0 18.221784000000003,47.640830699999974,0 18.216522500000004,47.64287969999997,0 18.211816900000006,47.64498689999997,0 18.204555500000005,47.64864419999997,0 18.191038100000004,47.656135299999974,0 18.188631900000004,47.65728879999997,0 18.185296200000003,47.65865299999997,0 18.181715500000003,47.65979729999997,0 18.17792,47.660713699999974,0 18.173495700000004,47.66142739999997,0 18.1604072,47.66298389999997,0 18.1504582,47.66463249999997,0 18.1437641,47.66606159999997,0 18.1219832,47.67188089999997,0 18.1175993,47.67281689999997,0 18.112879399999997,47.673603699999965,0 18.105312299999998,47.674478699999966,0 18.099291499999996,47.674795499999966,0 18.09237,47.67478709999997,0 18.0809078,47.674203199999965,0 18.073612699999998,47.67415669999997,0 18.066403899999997,47.674600199999965,0 18.062377299999998,47.675037399999965,0 18.056472599999996,47.67592359999996,0 18.033400499999996,47.680740099999966,0 18.025142399999996,47.682088599999965,0 18.018186599999996,47.682819399999964,0 18.009147199999997,47.68324309999996,0 18.000193799999995,47.68312609999997,0 17.995010799999992,47.682841899999964,0 17.965352199999995,47.680276699999965,0 17.950678699999994,47.67935339999997,0 17.942773099999993,47.67911119999997,0 17.93346079999999,47.67916219999997,0 17.92628019999999,47.67945069999997,0 17.91761659999999,47.68008359999997,0 17.889767799999994,47.68334989999997,0 17.881158899999992,47.68415649999997,0 17.870337899999992,47.68460259999997,0 17.83664719999999,47.68442049999997,0 17.83077739999999,47.68468919999997,0 17.82321249999999,47.68534309999997,0 17.81309689999999,47.68654169999997,0 17.80983179999999,47.68662599999997,0 17.80582769999999,47.68640639999997,0 17.80404029999999,47.68616949999997,0 17.801124399999992,47.68560109999997,0 17.798708099999992,47.684923499999975,0 17.79559889999999,47.683756699999975,0 17.79379829999999,47.68288879999998,0 17.791962099999992,47.68183009999997,0 17.789893299999992,47.68037879999997,0 17.784462999999988,47.67577109999997,0 17.780475799999987,47.67288929999997,0 17.77822469999999,47.67157149999997,0 17.77652019999999,47.67072679999997,0 17.77419419999999,47.66974789999997,0 17.77174899999999,47.66891709999997,0 17.73858309999999,47.659143799999974,0 17.73058949999999,47.65649119999997,0 17.72253589999999,47.65345889999997,0 17.67862379999999,47.63471059999998,0 17.67615809999999,47.633903499999974,0 17.67383869999999,47.633392199999975,0 17.67214109999999,47.63313489999997,0 17.669905099999994,47.63296399999998,0 17.668625199999994,47.63295389999998,0 17.665874699999993,47.63311599999998,0 17.662945799999992,47.63355699999998,0 17.623589699999993,47.64256699999998,0 17.621055899999995,47.64330299999998,0 17.61874999999999,47.64420469999998,0 17.57366369999999,47.66610749999998,0 17.55310919999999,47.675320099999986,0 17.552972899999993,47.67542289999998,0 17.54905519999999,47.67724129999998,0 17.548843199999993,47.67745119999998,0 17.548789099999993,47.67762309999998,0 17.548813699999993,47.67774919999998,0 17.54892909999999,47.67793579999998,0 17.54903489999999,47.67802639999998,0 17.549277899999993,47.67814549999998,0 17.54955379999999,47.67819539999998,0 17.54975449999999,47.67819039999998,0 17.550096599999993,47.678106899999975,0 17.550708099999994,47.67779009999998,0 17.550889599999994,47.677628299999974,0 17.55098239999999,47.677386399999975,0 17.550908299999993,47.67731349999998,0 17.550867299999993,47.67721769999998,0 17.550949999999993,47.67703619999998,0 17.55111579999999,47.67696309999998,0 17.551312299999992,47.67694889999998,0 17.551452699999995,47.67697889999997,0 17.55156759999999,47.67703999999998,0 17.551665299999993,47.677187599999975,0 17.55159919999999,47.67735129999998,0 17.55149949999999,47.67743229999998,0 17.55142689999999,47.677461699999974,0 17.55129779999999,47.67747719999997,0 17.55116129999999,47.67752789999997,0 17.55034219999999,47.67807529999997,0 17.549755699999988,47.67828989999997,0 17.54745709999999,47.678388899999966,0 17.546916199999988,47.67849149999997,0 17.546221099999986,47.67871809999997,0 17.545444299999986,47.67911629999997,0 17.54270759999999,47.68102499999997,0 17.54256679999999,47.68107849999997,0 17.537454699999987,47.68547669999997,0 17.53609499999999,47.68639869999997,0 17.53408709999999,47.68748309999997,0 17.532101399999988,47.68830869999997,0 17.517041699999986,47.69265969999997,0 17.509983399999985,47.69530329999997,0 17.506601899999986,47.69681389999997,0 17.502239099999986,47.69901279999997,0 17.453923899999985,47.72549269999997,0 17.44709309999999,47.72965789999997,0 17.41810039999999,47.74952229999997,0 17.411034099999988,47.75392099999997,0 17.405054399999987,47.75718979999997,0 17.398877199999987,47.760180899999966,0 17.326703599999988,47.79036779999997,0 17.321586299999986,47.792789199999966,0 17.317027199999988,47.79515349999997,0 17.310413699999987,47.799005599999965,0 17.305014299999986,47.80267099999997,0 17.300400299999986,47.80622069999996,0 17.295525099999985,47.81056429999996,0 17.278646799999986,47.828256899999964,0 17.272442799999986,47.83397199999996,0 17.268130099999986,47.83741959999996,0 17.240888299999988,47.85733179999996,0 17.232673499999986,47.86267259999996,0 17.227518399999987,47.86557839999996,0 17.194003299999988,47.88292589999996,0 17.18993779999999,47.88537869999996,0 17.184209699999986,47.889262399999964,0 17.184219799999987,47.88930959999996,0 17.182869799999985,47.89058639999997,0 17.182511499999986,47.89107359999996,0 17.182050199999985,47.891918199999964,0 17.181659499999984,47.89328589999997,0 17.181614799999984,47.89390389999997,0 17.183021199999985,47.90152369999997,0 17.183219299999987,47.903737799999966,0 17.183170999999987,47.90560769999996,0 17.182758499999988,47.908334999999965,0 17.182303099999988,47.909972899999964,0 17.180724299999987,47.91371109999996,0 17.169582899999988,47.93286899999996,0 17.16755289999999,47.937220899999964,0 17.16638159999999,47.94163839999996,0 17.16604979999999,47.944298399999965,0 17.16605049999999,47.94774439999996,0 17.166406699999992,47.950315399999965,0 17.16732839999999,47.95376149999996,0 17.168143799999996,47.955917599999964,0 17.169142799999992,47.95802529999997,0 17.171318799999995,47.96176529999996,0 17.183293299999995,47.98039189999996,0 17.185127799999997,47.984180799999955,0 17.185805499999994,47.98624679999996,0 17.186270799999996,47.98860219999996,0 17.186427299999995,47.99115639999996,0 17.18606949999999,47.99458659999996,0 17.185649699999992,47.99627329999996,0 17.184856499999988,47.99847399999996,0 17.182086599999987,48.00341739999996,0 17.17334559999999,48.016689199999966,0 17.17085159999999,48.01949709999997,0 17.169415099999988,48.020912999999965,0 17.167075399999987,48.022839899999965,0 17.163497299999985,48.02514549999996,0 17.161003599999987,48.02644989999996,0 17.15826309999999,48.02767319999996,0 17.15458889999999,48.02905459999997,0 17.14867029999999,48.03087339999997,0 17.132683699999987,48.035241699999965,0 17.126330499999987,48.03739669999997,0 17.12400199999999,48.03832109999996,0 17.12117909999999,48.039630999999964,0 17.116276099999986,48.04243349999996,0 17.113407499999987,48.04449599999996,0 17.11044199999999,48.04705549999996,0 17.107735599999987,48.04993769999996,0 17.106053199999984,48.05218139999996,0 17.104780299999984,48.05425619999996,0 17.103246399999986,48.05754479999996,0 17.102438099999983,48.05987059999996,0 17.102032899999983,48.06169839999996,0 17.101827599999982,48.063829199999965,0 17.101821999999984,48.07108569999996,0 17.101888899999985,48.07115679999996,0 17.102143399999985,48.07238769999996,0 17.102292199999983,48.072593099999956,0 17.102517799999983,48.07272119999996,0 17.102805599999982,48.07276719999996,0 17.102993099999985,48.07274729999996,0 17.103253399999986,48.072645299999955,0 17.103412999999982,48.07244359999996,0 17.10343139999998,48.072271999999955,0 17.103333699999983,48.072089599999956,0 17.103164999999983,48.07198939999996,0 17.102883099999982,48.07191279999996,0 17.10237229999998,48.071863999999955,0 17.099276699999983,48.07194699999995,0 17.098539099999982,48.07201759999995,0 17.096516799999986,48.072066399999954,0 17.095627999999984,48.07202839999996,0 17.094964299999983,48.071934399999954,0 17.093601999999983,48.07160229999995,0 17.090162699999983,48.070065499999956,0 17.088993999999982,48.06963149999996,0 17.08881209999998,48.06951919999996,0 17.08577559999998,48.06897679999996,0 17.08419559999998,48.06883829999996,0 17.082823599999983,48.06885079999996,0 17.081504599999985,48.06897009999996,0 17.07962399999998,48.06926189999996,0 17.072090999999983,48.07134329999996,0 17.071975499999983,48.07142599999996,0 17.070623799999986,48.071840799999954,0 </coordinates></LineString><TimeSpan><begin>2019-12-30T07:01:11.313Z</begin><end>2019-12-30T08:53:29.000Z</end></TimeSpan></Placemark><Placemark><name>Kittsee A6/Staatsgrenze (Grenzübergang)</name><address>2421 Bratislava, Slovakia</address><ExtendedData><Data name="Email"><value>syugen.zhou@gmail.com</value></Data><Data name="Category"><value>Bus stop</value></Data><Data name="Distance"><value>0</value></Data></ExtendedData><description> Bus stop from 2019-12-30T08:53:29.000Z to 2019-12-30T09:00:44.000Z. Distance 0m </description><Point><coordinates>17.0727539,48.070938999999996,0</coordinates></Point><TimeSpan><begin>2019-12-30T08:53:29.000Z</begin><end>2019-12-30T09:00:44.000Z</end></TimeSpan></Placemark><Placemark><name>Driving</name><address></address><ExtendedData><Data name="Email"><value>syugen.zhou@gmail.com</value></Data><Data name="Category"><value>Driving</value></Data><Data name="Distance"><value>83408</value></Data></ExtendedData><description> Driving from 2019-12-30T09:00:44.671Z to 2019-12-30T09:56:54.000Z. Distance 83408m </description><LineString><altitudeMode>clampToGround</altitudeMode><extrude>1</extrude><tesselate>1</tesselate><coordinates>17.0706217,48.0718414,0 17.0699082,48.0720207,0 17.0698009,48.0720977,0 17.0697183,48.072243500000006,0 17.069689,48.0722613,0 17.0685059,48.072546100000004,0 17.068313500000002,48.0725415,0 17.067959600000002,48.072478,0 17.067770000000003,48.07249039999999,0 17.064266400000005,48.0734837,0 17.058103600000003,48.075665199999996,0 17.0462725,48.080424799999996,0 17.0445232,48.0810092,0 17.043151899999998,48.081373199999994,0 17.0405248,48.0818681,0 17.0382461,48.0820971,0 17.038217299999996,48.0821169,0 17.038157999999996,48.082133299999995,0 17.033528499999996,48.0822538,0 17.032384099999994,48.0821639,0 17.031834999999994,48.08206959999999,0 17.031467699999993,48.08196289999999,0 17.031239399999993,48.0820058,0 17.03103129999999,48.08198579999999,0 17.03081849999999,48.08189349999999,0 17.030719799999993,48.08179869999999,0 17.03066859999999,48.081629899999996,0 17.03070139999999,48.0815225,0 17.030800199999995,48.0814117,0 17.030893899999995,48.08135529999999,0 17.031129499999995,48.08129199999999,0 17.031281299999996,48.08129089999999,0 17.031490699999996,48.081340299999994,0 17.031666499999996,48.081457799999995,0 17.032457699999995,48.08148359999999,0 17.035144299999995,48.081927799999995,0 17.036056599999995,48.08198719999999,0 17.039014099999996,48.08188549999999,0 17.039215799999994,48.08190659999999,0 17.040583699999996,48.08174459999999,0 17.042377699999996,48.0814281,0 17.0437262,48.081109299999994,0 17.045327699999998,48.080635199999996,0 17.056750599999997,48.076036499999994,0 17.064297599999996,48.0733335,0 17.070613299999998,48.07139709999999,0 17.072319399999998,48.07099989999999,0 17.072775399999998,48.07094259999999,0 17.07887,48.06932859999999,0 17.080491799999997,48.06898909999999,0 17.081479799999997,48.068850099999985,0 17.083188799999995,48.068730999999985,0 17.084496199999997,48.06873299999999,0 17.085446399999995,48.068797399999994,0 17.086913899999995,48.06899539999999,0 17.088696799999997,48.069368299999994,0 17.089468399999998,48.0695828,0 17.1002479,48.073292499999994,0 17.100796399999997,48.073536999999995,0 17.101169199999998,48.0737518,0 17.101748899999997,48.074208899999995,0 17.1021982,48.074873999999994,0 17.102353100000002,48.07543799999999,0 17.1023383,48.07587519999999,0 17.1021437,48.076497599999996,0 17.101511199999997,48.077592599999996,0 17.1004534,48.08144899999999,0 17.1003164,48.08167639999999,0 17.0993984,48.08541969999999,0 17.0989742,48.08921199999999,0 17.0989549,48.093917199999986,0 17.0986749,48.09597319999999,0 17.098211300000003,48.09752259999999,0 17.097499300000003,48.099067199999986,0 17.0968865,48.10005769999999,0 17.095402699999998,48.10193499999998,0 17.0940241,48.10324819999999,0 17.0929942,48.10409689999999,0 17.0889788,48.106881999999985,0 17.0872327,48.10827469999998,0 17.0862993,48.10916399999998,0 17.0845657,48.11105959999998,0 17.081148399999996,48.11546179999998,0 17.0795882,48.11776009999998,0 17.0774278,48.121682199999974,0 17.0766253,48.123500299999975,0 17.0756632,48.12621739999997,0 17.0750648,48.128494099999976,0 17.074600500000003,48.13142259999998,0 17.0744526,48.135684999999974,0 17.074745200000002,48.13875639999997,0 17.076039100000003,48.14592429999997,0 17.0764725,48.15081439999997,0 17.0763363,48.15956499999997,0 17.076184100000003,48.16068009999997,0 17.076006700000004,48.16127769999997,0 17.075495800000002,48.16227249999997,0 17.074945700000004,48.16301989999997,0 17.073706600000005,48.16416949999997,0 17.073051200000005,48.16457879999997,0 17.072234500000008,48.164999199999976,0 17.070095300000006,48.16591809999997,0 17.068953400000005,48.166506999999974,0 17.067688500000006,48.16730719999997,0 17.065904600000007,48.168982799999974,0 17.065483900000004,48.16950469999997,0 17.064767700000004,48.17069759999997,0 17.063036700000005,48.17624889999997,0 17.062513600000006,48.17711299999997,0 17.06175380000001,48.17788519999997,0 17.061047000000006,48.17842929999997,0 17.060266400000007,48.17889049999997,0 17.05933750000001,48.179318699999975,0 17.05530080000001,48.18066779999997,0 17.05389810000001,48.181210899999975,0 17.05216430000001,48.18207499999997,0 17.050336000000012,48.183177199999975,0 17.04931570000001,48.18394299999997,0 17.04784020000001,48.185383199999976,0 17.04660870000001,48.186858299999976,0 17.04574820000001,48.18828179999997,0 17.04518120000001,48.18965149999997,0 17.04286950000001,48.19798699999997,0 17.04099120000001,48.20291229999997,0 17.03871100000001,48.207565699999975,0 17.03606090000001,48.211942299999976,0 17.033975400000013,48.21497729999997,0 17.027148500000013,48.223434899999965,0 17.023209400000013,48.22885949999997,0 17.019568200000013,48.23465149999997,0 17.01602690000001,48.24138699999997,0 17.01431900000001,48.24535519999997,0 17.01241530000001,48.25059979999997,0 17.010303500000013,48.25862809999997,0 17.00950240000001,48.263354599999964,0 17.00897170000001,48.26931369999996,0 17.00897270000001,48.27753899999996,0 17.00994250000001,48.28596469999996,0 17.010730600000013,48.289760399999956,0 17.01223210000001,48.295272699999956,0 17.01450590000001,48.30166279999995,0 17.016885500000015,48.30689559999996,0 17.019541800000013,48.31213549999996,0 17.02096650000001,48.31544159999996,0 17.02207210000001,48.31862359999996,0 17.02361160000001,48.324776299999954,0 17.024019700000007,48.32807709999995,0 17.024235800000007,48.333303399999956,0 17.023889700000005,48.338392599999956,0 17.023330600000005,48.34170149999996,0 17.020944400000005,48.352257899999955,0 17.020145200000005,48.35758659999996,0 17.01972960000001,48.36482599999996,0 17.019780400000005,48.36775619999996,0 17.020185700000006,48.372581599999954,0 17.020877700000007,48.37706239999996,0 17.022084700000008,48.38234939999996,0 17.02366930000001,48.38740679999996,0 17.025063500000005,48.39103099999996,0 17.027072800000006,48.39550919999996,0 17.028783500000007,48.39883549999996,0 17.036750600000005,48.411988599999965,0 17.038767200000006,48.41623089999996,0 17.040443100000005,48.42041009999996,0 17.041054000000006,48.422337199999966,0 17.042425200000007,48.428235599999965,0 17.042958500000005,48.432123999999966,0 17.043231000000006,48.437121899999966,0 17.043143000000004,48.440508499999964,0 17.042270200000004,48.44685009999997,0 17.041384200000003,48.450715499999966,0 17.039897700000004,48.45540759999997,0 17.035900100000003,48.46536139999997,0 17.034495800000002,48.46940049999997,0 17.032755,48.47635449999997,0 17.032205800000003,48.47997999999996,0 17.031783100000002,48.485051099999964,0 17.031752700000006,48.48797269999996,0 17.032320500000004,48.49950059999996,0 17.032216900000005,48.501722599999965,0 17.031831600000007,48.504862499999966,0 17.031408100000004,48.506805599999964,0 17.030580700000005,48.509535199999966,0 17.029003000000003,48.51328459999997,0 17.027936600000007,48.51533059999996,0 17.017029200000007,48.53366669999997,0 17.014743400000008,48.53853679999997,0 17.013217800000007,48.54293359999996,0 17.012495500000007,48.54562399999996,0 17.01192440000001,48.54858319999996,0 17.011462500000007,48.55278479999996,0 17.011506200000007,48.55704289999996,0 17.011732800000008,48.559928599999964,0 17.01246980000001,48.564172099999965,0 17.014453300000007,48.571970099999966,0 17.015143100000007,48.575481999999965,0 17.015988900000007,48.58160959999997,0 17.016431000000008,48.588177499999965,0 17.01645730000001,48.59295629999997,0 17.01579840000001,48.601578599999975,0 17.014153600000007,48.61040629999997,0 17.01254760000001,48.616107399999976,0 17.010885200000008,48.62092849999998,0 17.00863680000001,48.62643219999998,0 17.005349600000006,48.63311609999998,0 17.002584900000006,48.637883799999976,0 16.998707900000007,48.64398639999998,0 16.99591510000001,48.64907489999998,0 16.99372260000001,48.65374509999998,0 16.992380000000008,48.65724559999998,0 16.99055660000001,48.663074799999976,0 16.989256800000007,48.668403999999974,0 16.98816410000001,48.674957399999975,0 16.98729870000001,48.68443069999998,0 16.98762160000001,48.70167679999997,0 16.98709820000001,48.708544499999974,0 16.985902400000008,48.71521569999997,0 16.98435250000001,48.720776299999976,0 16.98391770000001,48.72190259999997,0 16.983947900000008,48.72199609999998,0 16.98308190000001,48.724488199999975,0 16.98313030000001,48.72528539999997,0 16.983229500000007,48.72564829999997,0 16.983098500000008,48.72621529999997,0 </coordinates></LineString><TimeSpan><begin>2019-12-30T09:00:44.671Z</begin><end>2019-12-30T09:56:54.000Z</end></TimeSpan></Placemark><Placemark><name>Parkoviště</name><address>E65, 691 51 Lanžhot, Czechia</address><ExtendedData><Data name="Email"><value>syugen.zhou@gmail.com</value></Data><Data name="Category"><value>Truck stop</value></Data><Data name="Distance"><value>0</value></Data></ExtendedData><description> Truck stop from 2019-12-30T09:56:54.000Z to 2019-12-30T10:05:37.000Z. Distance 0m </description><Point><coordinates>16.9836241,48.7267134,0</coordinates></Point><TimeSpan><begin>2019-12-30T09:56:54.000Z</begin><end>2019-12-30T10:05:37.000Z</end></TimeSpan></Placemark><Placemark><name>Driving</name><address></address><ExtendedData><Data name="Email"><value>syugen.zhou@gmail.com</value></Data><Data name="Category"><value>Driving</value></Data><Data name="Distance"><value>256557</value></Data></ExtendedData><description> Driving from 2019-12-30T10:05:37.631Z to 2019-12-30T12:13:35.655Z. Distance 256557m </description><LineString><altitudeMode>clampToGround</altitudeMode><extrude>1</extrude><tesselate>1</tesselate><coordinates>16.9830941,48.726243499999995,0 16.9829094,48.7273285,0 16.982264699999998,48.729154199999996,0 16.9821252,48.7292359,0 16.9812183,48.729471,0 16.9806952,48.729737799999995,0 16.980312099999995,48.730110599999996,0 16.979256399999997,48.73190559999999,0 16.974147499999997,48.7382916,0 16.9710105,48.7414892,0 16.948359099999998,48.759989899999994,0 16.9430218,48.765016599999996,0 16.9276518,48.78113609999999,0 16.8881625,48.814630199999996,0 16.8577062,48.84248089999999,0 16.827484,48.86819599999999,0 16.8056175,48.88924969999999,0 16.7990904,48.89497239999999,0 16.7762821,48.9128014,0 16.7615739,48.92529939999999,0 16.7569011,48.9285035,0 16.7455135,48.935194499999994,0 16.7424838,48.9375132,0 16.7407395,48.9394452,0 16.739702,48.9412395,0 16.7384185,48.9445574,0 16.7372951,48.9465846,0 16.735559600000002,48.9486095,0 16.7329946,48.950633700000004,0 16.725920100000003,48.954787100000004,0 16.723841400000005,48.95634450000001,0 16.715060200000003,48.96443260000001,0 16.706731300000005,48.97078820000001,0 16.702280700000003,48.97465950000001,0 16.698876900000002,48.97818860000001,0 16.694414300000002,48.983931800000015,0 16.691276300000002,48.98956380000001,0 16.688995900000002,48.99576270000001,0 16.687968600000005,49.00095600000001,0 16.686749300000002,49.01794540000001,0 16.685803800000002,49.023217200000005,0 16.684141300000004,49.0294906,0 16.681119300000002,49.0375955,0 16.678740200000004,49.0425953,0 16.665356200000005,49.064933800000006,0 16.662547300000004,49.0711166,0 16.661024800000007,49.075436100000005,0 16.653212500000006,49.10471820000001,0 16.649396600000006,49.11405530000001,0 16.633158200000008,49.14315690000001,0 16.633173600000006,49.14323180000001,0 16.631327900000006,49.14715230000001,0 16.63069860000001,49.149348700000004,0 16.630406800000006,49.1521418,0 16.630708100000007,49.156753900000005,0 16.631678700000005,49.1601506,0 16.631982600000004,49.1604821,0 16.632246300000006,49.160598400000005,0 16.632463400000006,49.160627100000006,0 16.632766500000006,49.160590000000006,0 16.632979600000006,49.1605069,0 16.633190100000007,49.16027030000001,0 16.633196600000005,49.16006890000001,0 16.633068200000004,49.159881700000014,0 16.632712700000006,49.15970540000001,0 16.632297600000005,49.15963410000001,0 16.611546700000005,49.15900660000001,0 16.609156200000005,49.15904280000001,0 16.605562700000004,49.159294200000005,0 16.587118800000002,49.1613538,0 16.582629900000004,49.161509800000005,0 16.580037200000003,49.1613893,0 16.574545500000006,49.16080610000001,0 16.571501000000005,49.16069120000001,0 16.568428700000005,49.160841600000005,0 16.565267600000006,49.16127850000001,0 16.563311000000006,49.161708100000006,0 16.547519700000006,49.166803400000006,0 16.538897200000005,49.16877530000001,0 16.521744000000005,49.17109380000001,0 16.519273000000005,49.1715547,0 16.517138000000006,49.1721347,0 16.510564500000005,49.1744311,0 16.508312000000004,49.1749852,0 16.499690500000003,49.1762932,0 16.494999600000003,49.1772662,0 16.482057200000003,49.1816592,0 16.474149700000005,49.1837368,0 16.448611600000003,49.18843939999999,0 16.441628200000004,49.190412499999994,0 16.4377418,49.191849,0 16.4333513,49.1938277,0 16.427641500000004,49.1971207,0 16.425542800000002,49.1986719,0 16.422440400000003,49.201621100000004,0 16.4206065,49.2039899,0 16.4168342,49.2104062,0 16.4144834,49.2131459,0 16.411812400000002,49.215398900000004,0 16.409067300000004,49.21715160000001,0 16.405994600000003,49.218647700000005,0 16.402692100000003,49.2198919,0 16.395103700000007,49.2222922,0 16.391906000000006,49.22367,0 16.389715200000005,49.2249122,0 16.387521400000008,49.226457,0 16.382272000000007,49.2315198,0 16.380401300000006,49.2329528,0 16.376315800000008,49.2355025,0 16.373281400000007,49.2377806,0 16.368681900000006,49.2419788,0 16.365741500000006,49.2441892,0 16.350396200000006,49.2530763,0 16.34772540000001,49.2544062,0 16.344680800000006,49.2555732,0 16.342608100000007,49.256184600000005,0 16.33940640000001,49.2568842,0 16.335351600000006,49.257378100000004,0 16.322880200000007,49.25771710000001,0 16.320337000000006,49.25790620000001,0 16.316599800000006,49.258411800000005,0 16.312596900000003,49.2592664,0 16.308812600000003,49.260421400000006,0 16.291810200000004,49.267275000000005,0 16.289469500000003,49.2680688,0 16.284741800000003,49.269246700000004,0 16.281370200000005,49.269812300000005,0 16.278826900000002,49.2700912,0 16.241170900000004,49.2723319,0 16.238117600000002,49.272702599999995,0 16.2356921,49.273146,0 16.225924900000003,49.2755641,0 16.2069085,49.279481499999996,0 16.203362400000003,49.280529,0 16.199138300000005,49.2820608,0 16.196044500000006,49.2833901,0 16.177951400000005,49.2932409,0 16.169435500000006,49.296933100000004,0 16.160472500000008,49.299849,0 16.152351100000008,49.3017856,0 16.127983300000007,49.3056491,0 16.122000700000008,49.307083,0 16.116277900000007,49.308972399999995,0 16.11147950000001,49.311031299999996,0 16.103336800000005,49.3150972,0 16.099094700000006,49.3168331,0 16.088233000000006,49.3203294,0 16.084029100000006,49.322254699999995,0 16.081054800000004,49.3241228,0 16.075656100000003,49.3285792,0 16.072744400000005,49.3304416,0 16.061360800000003,49.3357744,0 16.057524700000002,49.33778199999999,0 16.049837600000004,49.342366399999996,0 16.040045000000003,49.34767079999999,0 16.037730000000003,49.34932419999999,0 16.033153700000003,49.353119599999985,0 16.030419300000005,49.354721199999986,0 16.028299000000008,49.35568309999999,0 16.020189200000008,49.35842759999999,0 16.014019500000007,49.36098329999999,0 16.010560300000005,49.361968799999985,0 16.007235800000007,49.36261889999999,0 16.003471600000008,49.36304779999998,0 15.998027000000008,49.36333729999998,0 15.992007600000008,49.364074899999984,0 15.987610600000007,49.36500979999998,0 15.984352400000006,49.36593519999998,0 15.923345900000006,49.38608609999998,0 15.922566900000005,49.38642079999998,0 15.917529100000003,49.38802989999998,0 15.912622300000004,49.389309599999976,0 15.904940500000004,49.390781599999976,0 15.900397100000003,49.39191509999998,0 15.887712900000002,49.39622289999998,0 15.884445100000002,49.39705749999998,0 15.881363400000003,49.39756999999998,0 15.872368900000005,49.39849569999998,0 15.840754400000005,49.40402289999997,0 15.834112200000007,49.404742999999975,0 15.822122400000007,49.40563029999998,0 15.810097400000005,49.40717229999998,0 15.803731200000007,49.407669999999975,0 15.797783200000005,49.40770429999998,0 15.786685500000006,49.40724869999998,0 15.783007600000005,49.407281399999974,0 15.780103900000004,49.40745809999998,0 15.768845100000004,49.40878609999998,0 15.764676800000005,49.40902919999998,0 15.754598800000005,49.40895739999998,0 15.751714000000005,49.40908929999998,0 15.730571500000005,49.41143419999998,0 15.722810000000006,49.412002299999976,0 15.717353600000006,49.41279369999998,0 15.714194100000006,49.41361989999998,0 15.711613100000008,49.41452609999998,0 15.699830000000008,49.42002279999998,0 15.695801000000008,49.42135929999998,0 15.692628800000008,49.422126299999974,0 15.68976290000001,49.422632799999974,0 15.674486100000008,49.424583499999976,0 15.668316500000008,49.42579219999997,0 15.66297830000001,49.427299399999974,0 15.65944050000001,49.428569099999976,0 15.65513750000001,49.43045249999997,0 15.632417900000009,49.442004499999975,0 15.609891400000011,49.45200839999997,0 15.605235800000012,49.45333849999997,0 15.60333640000001,49.45362049999997,0 15.59733760000001,49.45412149999998,0 15.59477780000001,49.454471399999974,0 15.592022900000012,49.455127599999976,0 15.590758700000011,49.45553769999997,0 15.587577700000013,49.45695809999997,0 15.585846800000015,49.458038199999976,0 15.583872600000015,49.459669399999974,0 15.579833800000017,49.463864099999974,0 15.578869200000016,49.46469579999997,0 15.577402200000016,49.46567699999998,0 15.576235000000015,49.466274399999975,0 15.571322500000015,49.46825429999998,0 15.569580500000017,49.46926859999998,0 15.567877300000017,49.47076299999998,0 15.565536100000017,49.47416949999998,0 15.564026700000015,49.47572719999998,0 15.562190600000017,49.47696649999998,0 15.560613600000014,49.477706199999986,0 15.559364600000016,49.47814839999999,0 15.557617900000016,49.47859659999998,0 15.535122100000017,49.48214779999998,0 15.530303800000018,49.48330939999998,0 15.514614400000019,49.48772749999998,0 15.48962550000002,49.49347709999998,0 15.48640740000002,49.49453729999998,0 15.48183740000002,49.49656779999998,0 15.478236700000021,49.49874049999998,0 15.472682400000021,49.503299699999985,0 15.466456800000023,49.50737489999998,0 15.465315100000025,49.508265899999984,0 15.463459000000025,49.51002449999998,0 15.460005900000025,49.51415859999998,0 15.458603400000026,49.515283099999984,0 15.457541600000027,49.51593699999998,0 15.454894100000026,49.51713249999998,0 15.452381300000026,49.51784039999998,0 15.450665500000026,49.51814679999998,0 15.448642200000027,49.518327099999986,0 15.446034400000027,49.51830429999998,0 15.444244500000028,49.51812149999998,0 15.437738600000028,49.51702919999998,0 15.429173100000027,49.516448899999986,0 15.420691800000025,49.51534059999999,0 15.417508600000026,49.51508219999999,0 15.414046500000026,49.51499759999999,0 15.410951300000026,49.51509729999999,0 15.406574000000024,49.515528299999986,0 15.403372000000024,49.51607949999999,0 15.400227200000025,49.51681259999999,0 15.382318800000023,49.52268249999999,0 15.376708400000025,49.52390399999999,0 15.373977000000023,49.52431089999999,0 15.367741200000024,49.52488939999999,0 15.352886700000026,49.52579209999999,0 15.349473000000025,49.52636369999999,0 15.345315200000023,49.52752019999999,0 15.342418600000022,49.52869079999999,0 15.339025500000021,49.53058179999999,0 15.33628300000002,49.532696599999994,0 15.33511600000002,49.5338948,0 15.333608700000019,49.5358332,0 15.33268750000002,49.5374456,0 15.331677000000019,49.5399604,0 15.32926920000002,49.54816639999999,0 15.32864850000002,49.5495087,0 15.32708620000002,49.5519636,0 15.325220300000018,49.554031,0 15.323912800000016,49.5551836,0 15.322126200000016,49.556478,0 15.319732900000016,49.5578913,0 15.317881800000015,49.5587917,0 15.314486900000015,49.560061600000004,0 15.312435200000014,49.5606516,0 15.309019800000014,49.561357699999995,0 15.299522800000013,49.5623996,0 15.297561400000012,49.562733099999996,0 15.293832000000013,49.563657299999996,0 15.291612200000012,49.564418599999996,0 15.282668100000011,49.568397399999995,0 15.276537700000011,49.570526799999996,0 15.273323500000009,49.5719999,0 15.271119000000011,49.5733066,0 15.268466700000012,49.5753269,0 15.25871690000001,49.5841699,0 15.25630730000001,49.58585119999999,0 15.25337640000001,49.5874191,0 15.24577960000001,49.5905469,0 15.23396870000001,49.5967741,0 15.23083130000001,49.5979779,0 15.22943860000001,49.598394799999994,0 15.226904500000012,49.59895849999999,0 15.225150200000014,49.59918759999999,0 15.223094000000016,49.59929509999999,0 15.221051600000015,49.599204599999986,0 15.218687300000015,49.59884679999999,0 15.216615200000016,49.598291199999984,0 15.213088500000016,49.597002799999984,0 15.211105600000016,49.596481899999986,0 15.209441100000015,49.59621989999999,0 15.207426600000014,49.596087099999984,0 15.205057000000014,49.59616039999999,0 15.202798900000014,49.596498799999985,0 15.201410600000015,49.596842399999986,0 15.199555800000013,49.597491699999985,0 15.195701800000013,49.59929369999999,0 15.193631100000013,49.59997899999998,0 15.188570200000012,49.60113239999999,0 15.177272300000011,49.60478729999999,0 15.173725300000013,49.60553269999999,0 15.145635500000012,49.610207999999986,0 15.144236900000012,49.61054829999999,0 15.14241940000001,49.61117139999999,0 15.140267000000012,49.612257099999994,0 15.138308000000011,49.61376459999999,0 15.137327200000012,49.61487639999999,0 15.136657600000012,49.61594979999999,0 15.129223100000011,49.631860399999994,0 15.11563400000001,49.67810879999999,0 15.11493000000001,49.679675899999985,0 15.11394320000001,49.68117209999999,0 15.11192270000001,49.68327779999999,0 15.109218100000012,49.685177899999985,0 15.107894100000012,49.68588139999999,0 15.10536660000001,49.686954499999985,0 15.097559200000012,49.68959539999999,0 15.095711900000012,49.69046849999999,0 15.09468660000001,49.691119499999985,0 15.093232000000013,49.69235789999999,0 15.092595000000012,49.69309939999999,0 15.091732000000013,49.69452709999999,0 15.091433400000012,49.69541179999999,0 15.090857200000013,49.69926369999998,0 15.090235000000012,49.70123139999998,0 15.089543200000014,49.702478099999986,0 15.088031900000013,49.70431519999998,0 15.086998300000012,49.70524049999998,0 15.085305200000013,49.70642739999999,0 15.082354900000011,49.70789319999999,0 15.08098860000001,49.708387899999984,0 15.05838640000001,49.71409469999998,0 15.056747100000011,49.71474459999999,0 15.054683800000014,49.71590329999999,0 15.052758200000012,49.71754269999999,0 15.039569800000011,49.73888529999999,0 15.038123600000011,49.740433999999986,0 15.03657820000001,49.74171679999999,0 15.032099100000012,49.74466819999999,0 15.030805100000013,49.745745199999995,0 15.026506200000012,49.750381299999994,0 15.025068200000014,49.7513814,0 15.022997300000013,49.7523736,0 15.020800100000013,49.7530368,0 15.018999300000011,49.753363699999994,0 15.016714200000012,49.7535241,0 15.014853200000013,49.7534439,0 15.013169100000015,49.75321399999999,0 15.000862400000015,49.75015499999999,0 14.997073000000016,49.74964049999999,0 14.994151200000015,49.74945919999999,0 14.989749000000016,49.74952749999999,0 14.985466200000015,49.7500028,0 14.982102700000015,49.750674399999994,0 14.980013500000016,49.75123249999999,0 14.975843200000016,49.75273939999999,0 14.973659500000014,49.753775899999994,0 14.968328400000015,49.756920199999996,0 14.967129800000015,49.75746339999999,0 14.965032400000014,49.758148899999995,0 14.957993500000013,49.759457499999996,0 14.956391200000015,49.760017899999994,0 14.954783400000013,49.76080639999999,0 14.953514100000014,49.761658,0 14.952087900000013,49.76303539999999,0 14.950282700000015,49.765808199999995,0 14.949323200000014,49.76694289999999,0 14.948071300000015,49.767982999999994,0 14.938660700000014,49.77380949999999,0 14.936733900000014,49.775545099999995,0 14.926757500000013,49.78873249999999,0 14.924606300000013,49.793009099999985,0 14.923923500000011,49.79401139999999,0 14.922641400000012,49.79528219999999,0 14.920951700000012,49.796413399999985,0 14.919066500000012,49.79729789999999,0 14.888915200000012,49.80900349999998,0 14.88584400000001,49.810404099999985,0 14.881766300000011,49.81278979999998,0 14.87778120000001,49.81596229999999,0 14.86635670000001,49.82694809999999,0 14.86369810000001,49.82908249999999,0 14.861653000000011,49.83036089999999,0 14.857975300000009,49.83211489999999,0 14.853443800000008,49.833591799999994,0 14.826098000000007,49.8394415,0 14.820091000000007,49.84038699999999,0 14.805663000000008,49.841935199999995,0 14.80317910000001,49.842621799999996,0 14.80173120000001,49.8432368,0 14.79976520000001,49.844454299999995,0 14.79865160000001,49.84544329999999,0 14.798048000000012,49.846170799999996,0 14.797165900000014,49.8478031,0 14.796909000000012,49.8487795,0 14.797163200000014,49.853560900000005,0 14.796545400000015,49.8558303,0 14.795653200000016,49.857245400000004,0 14.794742000000015,49.8582441,0 14.793091000000015,49.8595521,0 14.787632300000016,49.863080700000005,0 14.781959000000017,49.8676619,0 14.780286200000017,49.8685816,0 14.778885700000016,49.869149500000006,0 14.777327300000016,49.869622500000006,0 14.770288200000016,49.87108200000001,0 14.768310700000015,49.8716759,0 14.766224200000014,49.872486300000006,0 14.764094600000016,49.873512500000004,0 14.761926400000016,49.87477450000001,0 14.760565300000016,49.87583240000001,0 14.759444100000014,49.87694650000001,0 14.757790700000013,49.87930960000001,0 14.757049800000013,49.881478600000015,0 14.756603600000012,49.88409580000001,0 14.755752000000014,49.88637110000001,0 14.754690800000015,49.88803290000001,0 14.752985300000015,49.88973720000001,0 14.746445500000014,49.894412400000014,0 14.733745100000016,49.90617270000001,0 14.732096800000017,49.90738440000002,0 14.729895600000017,49.90865150000002,0 14.726827600000016,49.90995260000002,0 14.723409600000016,49.910920900000015,0 14.718411600000016,49.91191890000002,0 14.715932700000016,49.91257120000002,0 14.713666900000016,49.91343410000002,0 14.711204300000016,49.91476550000002,0 14.709583300000016,49.91596910000002,0 14.708498700000018,49.916993300000016,0 14.701406400000018,49.92514830000002,0 14.69732010000002,49.92874420000002,0 14.693781500000018,49.931395500000015,0 14.686187300000018,49.93600350000001,0 14.683517600000016,49.937183900000015,0 14.682181000000016,49.937641800000016,0 14.650470500000017,49.94623700000002,0 14.648000500000018,49.94712190000002,0 14.646335400000018,49.94802170000002,0 14.645336000000016,49.94871130000002,0 14.602568300000016,49.983933800000024,0 14.599081500000015,49.986535600000025,0 14.595766400000013,49.988649200000026,0 14.570419500000014,50.003143200000025,0 14.565717100000015,50.00511050000002,0 14.562025100000016,50.00620860000002,0 14.559005900000017,50.00688340000003,0 14.546259000000015,50.009059900000025,0 14.542741400000015,50.00981190000003,0 14.538456300000012,50.01100960000003,0 14.499761400000015,50.026136800000025,0 14.497294900000014,50.027451300000024,0 14.495712900000015,50.02863930000003,0 14.494339300000014,50.030049600000034,0 14.493393400000016,50.03141680000003,0 14.491348500000017,50.03597260000003,0 14.490182000000015,50.03742710000003,0 14.488167700000016,50.03881780000003,0 14.486870200000016,50.03940640000003,0 14.485068300000016,50.03996200000003,0 14.483809200000016,50.04020470000003,0 14.482107900000017,50.04034000000003,0 14.480400500000014,50.04031770000003,0 14.475276600000015,50.03981260000004,0 14.472412100000016,50.03994310000004,0 14.469730000000016,50.040449900000034,0 14.467831800000017,50.04102920000003,0 14.457961200000016,50.04516090000004,0 14.444633100000015,50.051756100000034,0 14.441127700000015,50.053120600000035,0 14.440458100000017,50.05353120000004,0 14.437162100000018,50.056091300000034,0 14.435540500000018,50.05798510000004,0 14.431493800000018,50.061046700000034,0 14.430875500000017,50.061763000000035,0 14.430633800000017,50.062451300000035,0 14.430453800000018,50.06835890000003,0 14.430872000000019,50.06930520000003,0 14.43019750000002,50.075255000000034,0 14.43054840000002,50.07765590000003,0 14.430751200000019,50.07788320000003,0 14.432886400000019,50.07931730000003,0 14.433571500000019,50.08041620000003,0 14.43401010000002,50.081869700000034,0 14.43732210000002,50.086372300000036,0 14.43764330000002,50.08708280000003,0 14.437856200000022,50.08884470000003,0 14.43767230000002,50.09237740000003,0 14.43780890000002,50.092504000000034,0 14.43791370000002,50.09253120000004,0 14.439853600000022,50.09261200000004,0 </coordinates></LineString><TimeSpan><begin>2019-12-30T10:05:37.631Z</begin><end>2019-12-30T12:13:35.655Z</end></TimeSpan></Placemark><Placemark><name>Hilton Prague</name><address>Pobřežní 311/1, 186 00 Praha 8-Rohanský ostrov, Czechia</address><ExtendedData><Data name="Email"><value>syugen.zhou@gmail.com</value></Data><Data name="Category"><value>Hotel</value></Data><Data name="Distance"><value>0</value></Data></ExtendedData><description> Hotel from 2019-12-30T12:13:35.655Z to 2019-12-30T14:27:46.998Z. Distance 0m </description><Point><coordinates>14.4391713,50.0934009,0</coordinates></Point><TimeSpan><begin>2019-12-30T12:13:35.655Z</begin><end>2019-12-30T14:27:46.998Z</end></TimeSpan></Placemark><Placemark><name>Walking</name><address></address><ExtendedData><Data name="Email"><value>syugen.zhou@gmail.com</value></Data><Data name="Category"><value>Walking</value></Data><Data name="Distance"><value>2066</value></Data></ExtendedData><description> Walking from 2019-12-30T14:27:46.998Z to 2019-12-30T14:53:35.000Z. Distance 2066m </description><LineString><altitudeMode>clampToGround</altitudeMode><extrude>1</extrude><tesselate>1</tesselate><coordinates>14.439014799999999,50.093111799999996,0 14.439026999999998,50.093058899999996,0 14.438995299999997,50.09291689999999,0 14.439004299999999,50.09287719999999,0 14.439018899999999,50.092746799999986,0 14.439038199999997,50.09264809999999,0 14.438911,50.09265709999999,0 14.4387482,50.09265049999999,0 14.4386979,50.09268139999999,0 14.4386675,50.09271239999999,0 14.4386523,50.092862899999986,0 14.43862,50.09296639999999,0 14.438592700000001,50.09311989999999,0 14.4385168,50.09340149999999,0 14.438484599999999,50.09349009999999,0 14.4384442,50.09364299999999,0 14.438419699999999,50.09376379999999,0 14.4384889,50.093834099999995,0 14.438455,50.09404939999999,0 14.438482299999999,50.09406239999999,0 14.438471,50.09411189999999,0 14.438175799999998,50.09408449999999,0 14.437585899999998,50.09404319999999,0 14.437551999999998,50.09407059999999,0 14.4375173,50.09408719999999,0 14.4374961,50.09409239999999,0 14.4374767,50.09409329999999,0 14.436975800000003,50.09404089999999,0 14.4317632,50.09364319999999,0 14.4316678,50.09365839999999,0 14.431531499999998,50.09364029999998,0 14.4302378,50.093552899999985,0 14.429123600000002,50.09349989999999,0 14.428373400000002,50.09347359999999,0 14.4280335,50.093453299999986,0 14.4275565,50.09341109999998,0 14.427516299999999,50.093398599999986,0 14.427488399999998,50.093383399999986,0 14.427458999999997,50.09335759999998,0 14.427435799999996,50.09332849999999,0 14.427026399999997,50.09331749999999,0 14.426944799999998,50.09331959999999,0 14.425168399999997,50.09328579999999,0 14.424862699999995,50.09323229999999,0 14.424706699999996,50.09319549999999,0 14.423970899999995,50.09317959999999,0 14.423828099999994,50.093180299999986,0 14.423486299999995,50.09316789999998,0 14.422021299999995,50.093082899999985,0 14.421773399999996,50.09306249999999,0 14.421809699999994,50.09287959999998,0 14.422018099999994,50.092897599999986,0 14.422190499999994,50.09235179999999,0 14.422218499999994,50.092209099999984,0 14.422228699999994,50.09211719999999,0 14.422201299999994,50.09189829999999,0 14.422215599999996,50.09186059999999,0 14.422193599999995,50.091798199999985,0 14.422116599999995,50.091791499999985,0 14.422110499999995,50.091723999999985,0 14.422093999999998,50.091636499999986,0 14.422079699999996,50.09150979999998,0 14.422079899999995,50.09144289999998,0 14.422092499999994,50.09137159999998,0 14.422097899999994,50.09128849999998,0 14.422155799999992,50.09118969999998,0 14.422184399999992,50.09109109999998,0 14.422218699999993,50.09101669999998,0 14.422277799999991,50.090952499999986,0 14.422387599999992,50.09074919999998,0 14.422394999999991,50.090715199999984,0 14.422282799999993,50.09065869999998,0 14.422331599999993,50.09060689999998,0 14.422404099999993,50.09063739999998,0 14.422511399999994,50.09058949999998,0 14.422532799999995,50.09054859999998,0 14.422565799999994,50.090450199999985,0 14.422615199999996,50.090365599999984,0 14.422629399999996,50.09034779999998,0 14.422380699999996,50.08964119999998,0 14.422261699999996,50.089668299999985,0 14.422239299999998,50.08955729999999,0 14.422361299999997,50.08952989999998,0 14.422351099999997,50.089489599999986,0 14.422278699999998,50.08937009999998,0 14.421859399999997,50.08892009999998,0 14.421848699999998,50.08892689999998,0 14.421736300000001,50.08881109999999,0 14.4217299,50.088815199999985,0 14.4214026,50.08839369999999,0 14.4213002,50.08830589999999,0 14.4212784,50.088279599999986,0 14.421225,50.08824339999999,0 14.4206127,50.08792309999998,0 14.4205975,50.087917799999985,0 14.420576999999998,50.087913399999984,0 14.420558399999997,50.087912799999984,0 14.420507699999995,50.08791449999999,0 14.420525699999997,50.087772399999984,0 14.420808499999998,50.08739959999999,0 </coordinates></LineString><TimeSpan><begin>2019-12-30T14:27:46.998Z</begin><end>2019-12-30T14:53:35.000Z</end></TimeSpan></Placemark><Placemark><name>Old Town Square</name><address>Staroměstské nám., 110 00 Josefov, Czechia</address><ExtendedData><Data name="Email"><value>syugen.zhou@gmail.com</value></Data><Data name="Category"><value>Plaza</value></Data><Data name="Distance"><value>0</value></Data></ExtendedData><description> Plaza from 2019-12-30T14:53:35.000Z to 2019-12-30T15:08:24.000Z. Distance 0m </description><Point><coordinates>14.421187499999998,50.0875692,0</coordinates></Point><TimeSpan><begin>2019-12-30T14:53:35.000Z</begin><end>2019-12-30T15:08:24.000Z</end></TimeSpan></Placemark><Placemark><name>Walking</name><address></address><ExtendedData><Data name="Email"><value>syugen.zhou@gmail.com</value></Data><Data name="Category"><value>Walking</value></Data><Data name="Distance"><value>993</value></Data></ExtendedData><description> Walking from 2019-12-30T15:08:24.140Z to 2019-12-30T15:23:39.000Z. Distance 993m </description><LineString><altitudeMode>clampToGround</altitudeMode><extrude>1</extrude><tesselate>1</tesselate><coordinates>14.4209034,50.0873536,0 14.4216003,50.0876106,0 14.4213389,50.088152799999996,0 14.4214002,50.0881945,0 14.421591200000002,50.088425,0 14.421744200000003,50.08854770000001,0 14.421825000000002,50.088653900000004,0 14.421929400000002,50.088790100000004,0 14.4219715,50.0888611,0 14.422201099999999,50.08911140000001,0 14.422317899999998,50.089234600000005,0 14.422454399999998,50.08929520000001,0 14.422495199999998,50.08930630000001,0 14.422526899999998,50.08931240000001,0 14.4225733,50.08931960000001,0 14.4226248,50.08932530000001,0 14.422665699999998,50.08932900000001,0 14.422721399999997,50.08932930000001,0 14.422799799999998,50.08930740000001,0 14.422849999999997,50.089296900000015,0 14.422882399999997,50.089292700000016,0 14.422923899999995,50.089289000000015,0 14.423049999999996,50.08929400000002,0 14.423375899999996,50.089310900000015,0 14.423638399999996,50.08932930000001,0 14.423692699999997,50.08933120000001,0 14.423706899999997,50.08933000000001,0 14.423713099999997,50.08932890000001,0 14.423715499999997,50.08932810000001,0 14.423730499999996,50.08932070000001,0 14.423733499999996,50.08931810000001,0 14.423748599999994,50.08930000000001,0 14.423793299999994,50.08925370000001,0 14.423820599999994,50.08923080000001,0 14.423835999999993,50.089220800000014,0 14.423855499999993,50.08920880000001,0 14.423878299999993,50.089198800000005,0 14.424125299999995,50.08926100000001,0 14.424426699999996,50.08935160000001,0 14.424918399999994,50.089507700000006,0 14.425255699999994,50.0896133,0 14.425398199999995,50.089618200000004,0 14.425551799999996,50.08964560000001,0 14.425633299999996,50.089641900000004,0 14.425779199999997,50.08965300000001,0 14.425865299999998,50.08966050000001,0 14.425964999999998,50.089506400000005,0 14.425973199999998,50.089449,0 14.426004699999998,50.089139800000005,0 14.425985699999998,50.0890982,0 14.425972299999998,50.0890536,0 14.425969199999997,50.088987599999996,0 14.425980599999997,50.0888821,0 14.426026499999997,50.0886653,0 14.426088799999997,50.088433800000004,0 14.426106699999997,50.0883646,0 14.426177399999998,50.0883531,0 14.426316799999999,50.088364999999996,0 14.426381899999999,50.0883763,0 14.4265244,50.0884108,0 14.426584399999998,50.0884248,0 14.426665,50.0884534,0 14.426842899999999,50.0884725,0 14.4269383,50.08847920000001,0 14.426976900000001,50.08847760000001,0 14.427006800000001,50.08847250000001,0 14.427045000000001,50.08846390000001,0 14.427082799999999,50.08844950000001,0 14.427179899999999,50.08840800000001,0 14.4277933,50.088999600000015,0 14.4278654,50.089052500000015,0 14.427901,50.08907350000001,0 14.427938000000001,50.089087200000016,0 14.4279804,50.08909730000001,0 14.428106399999999,50.08911630000001,0 14.428124299999999,50.08911780000001,0 14.428130699999997,50.08911940000001,0 14.428141499999997,50.08912420000001,0 14.4281481,50.08912880000001,0 14.428159999999998,50.089141000000005,0 14.428347999999996,50.089212700000004,0 14.428545299999996,50.089223100000005,0 14.428551699999996,50.089122100000004,0 14.428563599999995,50.089094300000006,0 14.428855299999995,50.08874790000001,0 14.429146299999994,50.08842220000001,0 14.430027299999995,50.08884010000001,0 14.430222299999995,50.088923500000014,0 14.430526999999996,50.08905710000001,0 14.430624399999996,50.089183700000014,0 14.431205399999998,50.08940280000001,0 14.431270399999997,50.08942210000001,0 14.431476699999997,50.08947900000001,0 14.432307599999996,50.08968440000001,0 14.432450099999997,50.08968430000001,0 14.432419899999998,50.08973870000001,0 14.432388299999996,50.08980600000001,0 14.432530999999994,50.08983510000001,0 14.432569399999993,50.08975330000001,0 14.432648999999994,50.08977310000001,0 </coordinates></LineString><TimeSpan><begin>2019-12-30T15:08:24.140Z</begin><end>2019-12-30T15:23:39.000Z</end></TimeSpan></Placemark><Placemark><name>Café Imperial</name><address>Na Poříčí 1072/15, 110 00 Petrská čtvrť, Czechia</address><ExtendedData><Data name="Email"><value>syugen.zhou@gmail.com</value></Data><Data name="Category"><value>Czech</value></Data><Data name="Distance"><value>0</value></Data></ExtendedData><description> Czech from 2019-12-30T15:23:39.000Z to 2019-12-30T16:04:46.000Z. Distance 0m </description><Point><coordinates>14.4326642,50.089798599999995,0</coordinates></Point><TimeSpan><begin>2019-12-30T15:23:39.000Z</begin><end>2019-12-30T16:04:46.000Z</end></TimeSpan></Placemark><Placemark><name>Walking</name><address></address><ExtendedData><Data name="Email"><value>syugen.zhou@gmail.com</value></Data><Data name="Category"><value>Walking</value></Data><Data name="Distance"><value>1245</value></Data></ExtendedData><description> Walking from 2019-12-30T16:04:46.008Z to 2019-12-30T16:21:56.999Z. Distance 1245m </description><LineString><altitudeMode>clampToGround</altitudeMode><extrude>1</extrude><tesselate>1</tesselate><coordinates>14.4325963,50.0897072,0 14.432562200000001,50.0897687,0 14.432531,50.0898351,0 14.4324433,50.089817200000006,0 14.432388299999998,50.089806,0 14.4324199,50.089738700000005,0 14.4324501,50.0896843,0 14.4323076,50.0896844,0 14.4314767,50.089479000000004,0 14.431270399999999,50.0894221,0 14.4312387,50.089412700000004,0 14.4312054,50.0894028,0 14.4306244,50.08918370000001,0 14.430527,50.089057100000005,0 14.4304003,50.0890016,0 14.430222299999999,50.0889235,0 14.430027299999997,50.0888401,0 14.429146299999998,50.0884222,0 14.429322699999997,50.088249,0 14.429357699999995,50.08821449999999,0 14.428937999999995,50.088185499999994,0 14.428517399999995,50.0881384,0 14.428400099999994,50.0881239,0 14.428316999999995,50.0881143,0 14.428251599999996,50.088106599999996,0 14.428135599999994,50.088097600000005,0 14.427934599999995,50.0880388,0 14.427485599999994,50.0879675,0 14.427131999999995,50.087917499999996,0 14.427077299999993,50.087915499999994,0 14.427452899999993,50.087555599999995,0 14.427478799999994,50.087528799999994,0 14.427502499999994,50.087498399999994,0 14.427514099999993,50.08747779999999,0 14.427522999999992,50.087453899999986,0 14.427515599999992,50.087320199999986,0 14.427553199999991,50.08731729999998,0 14.427610199999991,50.08730689999999,0 14.427763899999993,50.08727729999998,0 14.427831999999992,50.08726369999999,0 14.427948399999991,50.08725259999998,0 14.428042799999991,50.08723399999998,0 14.428016999999992,50.08717089999998,0 14.428011199999993,50.087156599999986,0 14.428177599999993,50.087123699999985,0 14.428235399999993,50.08712139999998,0 14.428280199999994,50.08712649999998,0 14.428325899999995,50.08713599999998,0 14.428226099999996,50.08716559999998,0 14.428146399999994,50.08713299999998,0 14.427873999999992,50.08698229999998,0 14.427812399999993,50.086943199999986,0 14.427736999999995,50.086896299999985,0 14.427572299999994,50.086815399999985,0 14.427481799999995,50.08676019999999,0 14.427273899999996,50.08663409999999,0 14.427186799999994,50.08657859999999,0 14.427004499999994,50.08646959999999,0 14.426915399999993,50.08641639999999,0 14.426889999999991,50.08640119999999,0 14.426799799999994,50.08633609999999,0 14.426767899999993,50.08631739999999,0 14.426582099999994,50.08620549999999,0 14.426488899999992,50.08613749999999,0 14.42634849999999,50.086067799999995,0 14.426141099999994,50.08593799999999,0 14.426003199999991,50.08585529999999,0 14.425895599999992,50.08576569999999,0 14.425826099999991,50.08572549999999,0 14.425652299999992,50.08562079999999,0 14.425629499999992,50.08558329999998,0 14.425594799999994,50.085555499999984,0 14.425490799999993,50.08549429999998,0 14.425081899999991,50.08524999999999,0 14.424775699999993,50.08505739999998,0 14.424232499999993,50.08468999999999,0 14.424080599999995,50.08457639999998,0 14.423961499999994,50.084504199999984,0 14.423855899999992,50.08444009999998,0 14.423762499999992,50.08438349999998,0 14.42345809999999,50.084198899999976,0 14.423798299999993,50.08400159999998,0 14.42399209999999,50.08386429999997,0 14.42413319999999,50.08376979999998,0 14.42419049999999,50.083733799999976,0 14.42438389999999,50.08360399999997,0 14.424410999999989,50.08360879999997,0 14.42443159999999,50.08361029999997,0 14.424440099999988,50.083610099999966,0 14.424452699999987,50.083607699999966,0 14.424492699999986,50.08357819999997,0 14.424636299999985,50.08347369999996,0 14.424808499999987,50.083326099999965,0 14.424944999999985,50.08322679999997,0 14.425071699999986,50.083136499999966,0 14.425485699999985,50.08284979999996,0 14.425677699999984,50.082717499999966,0 14.425877199999983,50.08258579999996,0 14.425952999999984,50.08255539999996,0 14.426096399999983,50.08248189999996,0 </coordinates></LineString><TimeSpan><begin>2019-12-30T16:04:46.008Z</begin><end>2019-12-30T16:21:56.999Z</end></TimeSpan></Placemark><Placemark><name>New Town</name><address>Prague, Czechia</address><ExtendedData><Data name="Email"><value>syugen.zhou@gmail.com</value></Data><Data name="Category"><value></value></Data><Data name="Distance"><value>0</value></Data></ExtendedData><description>  from 2019-12-30T16:21:56.999Z to 2019-12-30T16:40:23.317Z. Distance 0m </description><Point><coordinates>14.419063999999999,50.0758425,0</coordinates></Point><TimeSpan><begin>2019-12-30T16:21:56.999Z</begin><end>2019-12-30T16:40:23.317Z</end></TimeSpan></Placemark><Placemark><name>Walking</name><address></address><ExtendedData><Data name="Email"><value>syugen.zhou@gmail.com</value></Data><Data name="Category"><value>Walking</value></Data><Data name="Distance"><value>2542</value></Data></ExtendedData><description> Walking from 2019-12-30T16:40:23.317Z to 2019-12-30T17:19:31.000Z. Distance 2542m </description><LineString><altitudeMode>clampToGround</altitudeMode><extrude>1</extrude><tesselate>1</tesselate><coordinates>14.4259937,50.0826947,0 14.425772299999998,50.082842299999996,0 14.425632799999997,50.083012599999996,0 14.424640499999997,50.0837295,0 14.424571799999997,50.0837631,0 14.424483999999998,50.0837801,0 14.424407899999999,50.0837818,0 14.424190499999998,50.0837338,0 14.423798299999998,50.0840016,0 14.422187199999998,50.0848991,0 14.422157299999999,50.0848804,0 14.421615499999998,50.085195500000005,0 14.421445299999998,50.085205,0 14.421414899999998,50.085229500000004,0 14.4213689,50.085329200000004,0 14.420678299999999,50.08573230000001,0 14.4206944,50.08591460000001,0 14.4207277,50.085991400000005,0 14.4206919,50.08605850000001,0 14.4207085,50.086440100000004,0 14.420669599999998,50.0865829,0 14.4205414,50.086828800000006,0 14.419876499999999,50.086556300000005,0 14.419498899999999,50.086849,0 14.4194099,50.0870021,0 14.4192825,50.0870491,0 14.419348900000001,50.08710020000001,0 14.4192687,50.0871829,0 14.419235,50.0872703,0 14.419274900000001,50.0875987,0 14.419295700000003,50.0876191,0 14.419303200000003,50.0876982,0 14.419272400000004,50.0877585,0 14.419308400000004,50.087767799999995,0 14.419150600000004,50.0877496,0 14.419112200000006,50.0877992,0 14.417718200000005,50.088136500000005,0 14.417712900000005,50.08811550000001,0 14.417591200000006,50.088146,0 14.417598400000006,50.08815710000001,0 14.416468200000006,50.08845410000001,0 14.416516900000005,50.0883071,0 14.416350700000006,50.088276500000006,0 14.416295000000007,50.0884476,0 14.416300900000007,50.088475300000006,0 14.415720100000009,50.08859950000001,0 14.415444000000006,50.08788790000001,0 14.415467400000006,50.087888700000015,0 14.415439500000005,50.08779950000002,0 14.415394100000004,50.087798000000014,0 14.415186500000003,50.08726710000001,0 14.415214800000003,50.08726530000001,0 14.415177500000002,50.08717900000001,0 14.415148700000001,50.08718240000001,0 14.4151171,50.0871076,0 14.4149124,50.087155,0 14.4146287,50.086678400000004,0 14.4146022,50.086562300000004,0 14.4143703,50.086230500000006,0 14.4143367,50.08623430000001,0 14.4142288,50.08621920000001,0 14.4140459,50.086124600000005,0 14.4094344,50.0867359,0 14.4070415,50.08721130000001,0 14.406259300000002,50.0873119,0 14.4061436,50.087380100000004,0 14.404558100000001,50.08768130000001,0 14.4046534,50.08779690000001,0 14.404682,50.08786200000001,0 14.4047333,50.08837720000001,0 14.404760200000002,50.08845570000001,0 14.404723000000002,50.08855380000001,0 14.404643600000005,50.08854300000001,0 14.403625500000006,50.08861070000001,0 14.403539200000004,50.088642500000006,0 14.403089600000005,50.08865570000001,0 14.402918100000004,50.08862150000001,0 14.402203600000004,50.088632000000004,0 14.402138000000004,50.08864700000001,0 14.402041800000005,50.089122200000006,0 14.401731000000003,50.08910790000001,0 14.401301700000003,50.0891231,0 14.401251900000005,50.08910410000001,0 14.399774600000004,50.08938990000001,0 14.399372000000005,50.08943920000001,0 14.398994500000004,50.08944880000001,0 14.398492900000004,50.08924000000001,0 14.398142100000006,50.089683000000015,0 14.398964800000007,50.08997760000001,0 14.398997000000008,50.09002440000001,0 14.398944200000008,50.09048970000001,0 14.399634500000007,50.09066320000001,0 14.399908700000008,50.09025100000001,0 14.399954700000007,50.09021150000001,0 14.400073400000007,50.090160100000006,0 14.400121400000007,50.09015060000001,0 14.400206200000007,50.090154000000005,0 14.400321200000006,50.090194000000004,0 14.401020500000007,50.0907008,0 14.401455700000009,50.09088810000001,0 </coordinates></LineString><TimeSpan><begin>2019-12-30T16:40:23.317Z</begin><end>2019-12-30T17:19:31.000Z</end></TimeSpan></Placemark><Placemark><name>Prague Castle</name><address>Hradčany, 119 08 Prague 1, Czechia</address><ExtendedData><Data name="Email"><value>syugen.zhou@gmail.com</value></Data><Data name="Category"><value>Castle</value></Data><Data name="Distance"><value>0</value></Data></ExtendedData><description> Castle from 2019-12-30T17:19:31.000Z to 2019-12-30T17:32:51.000Z. Distance 0m </description><Point><coordinates>14.4016165,50.0910966,0</coordinates></Point><TimeSpan><begin>2019-12-30T17:19:31.000Z</begin><end>2019-12-30T17:32:51.000Z</end></TimeSpan></Placemark><Placemark><name>Walking</name><address></address><ExtendedData><Data name="Email"><value>syugen.zhou@gmail.com</value></Data><Data name="Category"><value>Walking</value></Data><Data name="Distance"><value>948</value></Data></ExtendedData><description> Walking from 2019-12-30T17:32:51.191Z to 2019-12-30T17:43:08.000Z. Distance 948m </description><LineString><altitudeMode>clampToGround</altitudeMode><extrude>1</extrude><tesselate>1</tesselate><coordinates>14.4014824,50.090902899999996,0 14.401392200000002,50.090852500000004,0 14.401233400000002,50.0907804,0 14.401095700000003,50.0907365,0 14.401020500000003,50.0907008,0 14.400825100000004,50.090569699999996,0 14.400700700000003,50.0904589,0 14.400321200000004,50.090194,0 14.400290400000003,50.090179,0 14.400256800000005,50.090165299999995,0 14.400206200000003,50.090154,0 14.400158100000004,50.0901496,0 14.400121400000003,50.090150599999994,0 14.400073400000004,50.0901601,0 14.400029300000005,50.090175699999996,0 14.399954700000004,50.090211499999995,0 14.399908700000005,50.090250999999995,0 14.399634500000003,50.090663199999995,0 14.398944200000004,50.0904897,0 14.398997000000005,50.0900842,0 14.398997000000005,50.0900244,0 14.398964800000003,50.0899776,0 14.398926600000003,50.089956099999995,0 14.398854100000003,50.089932999999995,0 14.398641000000003,50.089853,0 14.398142100000003,50.089683,0 14.398492900000003,50.08924,0 14.3987589,50.0893424,0 14.3989945,50.0894488,0 14.399085900000003,50.089449699999996,0 14.399107500000003,50.089450799999995,0 14.399278600000002,50.0894443,0 14.399372000000001,50.0894392,0 14.399605400000002,50.0894133,0 14.399671200000004,50.089405199999995,0 14.399707300000003,50.0893992,0 14.399774600000004,50.0893899,0 14.400109200000005,50.089322,0 14.400175400000004,50.089307600000005,0 14.400275500000003,50.0892813,0 14.400318000000002,50.0892689,0 14.400364500000002,50.089260800000005,0 14.400606300000002,50.089215,0 14.400734600000003,50.0891924,0 14.400832200000002,50.089173800000005,0 14.400928200000003,50.0891578,0 14.400998500000002,50.0891474,0 14.401045600000002,50.08913880000001,0 14.401085400000001,50.0891335,0 14.4011309,50.089124600000005,0 14.401203,50.0891135,0 14.401251899999998,50.0891041,0 14.401301699999998,50.089123099999995,0 14.401520499999995,50.08911139999999,0 14.401663699999997,50.089107899999995,0 14.401730999999998,50.089107899999995,0 14.401795799999999,50.08910919999999,0 14.4018859,50.08911219999999,0 14.402041799999997,50.08912219999999,0 14.402137699999997,50.08864839999999,0 14.4021107,50.08855819999999,0 14.4021398,50.08855159999999,0 14.4022317,50.087841399999995,0 14.4023697,50.0877584,0 14.402396399999997,50.0877486,0 14.402438799999997,50.0877287,0 14.403248299999998,50.0876946,0 14.4036903,50.0876682,0 14.4037425,50.0876664,0 14.403725399999999,50.0876283,0 14.403904199999998,50.0876107,0 14.403883199999997,50.087564,0 14.403852399999998,50.0874662,0 14.403834999999997,50.087405700000005,0 14.403803399999996,50.08728450000001,0 14.403791699999996,50.08723380000001,0 14.403789499999995,50.08719560000001,0 14.403795799999996,50.08714640000001,0 14.403960599999998,50.08679390000001,0 14.403966799999997,50.08679290000001,0 14.403992399999998,50.08674410000001,0 14.4040822,50.08673060000001,0 14.404265500000001,50.08669660000001,0 14.404408100000001,50.08666490000001,0 14.404444800000002,50.08665310000001,0 14.404475000000001,50.08664030000001,0 14.404494100000003,50.08663040000001,0 14.4045538,50.086605700000014,0 14.4047154,50.086523100000015,0 14.404812999999999,50.086481200000016,0 14.4048971,50.086400300000015,0 14.405007099999997,50.08627180000002,0 14.405183899999999,50.08609910000002,0 14.4052176,50.08599850000002,0 14.4053372,50.08557610000002,0 14.4053163,50.08552200000002,0 14.4053102,50.085458400000014,0 14.405325400000002,50.08540580000002,0 14.405380200000002,50.08535980000002,0 14.405553300000003,50.08484700000002,0 </coordinates></LineString><TimeSpan><begin>2019-12-30T17:32:51.191Z</begin><end>2019-12-30T17:43:08.000Z</end></TimeSpan></Placemark><Placemark><name>Spices Restaurant &amp; Bar</name><address>Nebovidská 459/1, 118 00 Malá Strana, Czechia</address><ExtendedData><Data name="Email"><value>syugen.zhou@gmail.com</value></Data><Data name="Category"><value>Asian</value></Data><Data name="Distance"><value>0</value></Data></ExtendedData><description> Asian from 2019-12-30T17:43:08.000Z to 2019-12-30T19:06:24.000Z. Distance 0m </description><Point><coordinates>14.4055235,50.084856699999996,0</coordinates></Point><TimeSpan><begin>2019-12-30T17:43:08.000Z</begin><end>2019-12-30T19:06:24.000Z</end></TimeSpan></Placemark><Placemark><name>Walking</name><address></address><ExtendedData><Data name="Email"><value>syugen.zhou@gmail.com</value></Data><Data name="Category"><value>Walking</value></Data><Data name="Distance"><value>766</value></Data></ExtendedData><description> Walking from 2019-12-30T19:06:24.000Z to 2019-12-30T19:19:31.000Z. Distance 766m </description><LineString><altitudeMode>clampToGround</altitudeMode><extrude>1</extrude><tesselate>1</tesselate><coordinates>14.405287,50.0857533,0 14.4052176,50.0859985,0 14.405183899999999,50.0860991,0 14.4050529,50.086227,0 14.4051777,50.0862797,0 14.405197599999997,50.0863614,0 14.405235899999997,50.0864049,0 14.405235899999997,50.0864049,0 14.405308599999998,50.0864187,0 14.405354999999998,50.0864274,0 14.405354999999998,50.0864274,0 14.405575999999998,50.0864786,0 14.405607699999997,50.086485,0 14.405607699999997,50.086485,0 14.4055998,50.086522200000005,0 14.405585899999998,50.0865773,0 14.405584599999997,50.086617800000006,0 14.405595099999998,50.08664370000001,0 14.405604499999999,50.086671300000006,0 14.4056419,50.0867039,0 14.4056727,50.0867232,0 14.405846100000002,50.0867652,0 14.405869900000003,50.0867881,0 14.405883800000002,50.0868084,0 14.405898500000001,50.0868831,0 14.4059302,50.086965600000006,0 14.4059456,50.087009200000004,0 14.406028300000001,50.0870012,0 14.406028300000001,50.0870012,0 14.4063766,50.0869888,0 14.4070811,50.0869682,0 14.407191399999999,50.086960499999996,0 14.4072017,50.086962099999994,0 14.407298,50.0869618,0 14.407357900000001,50.086960299999994,0 14.407386500000001,50.086960499999996,0 14.4074099,50.0869613,0 14.4074281,50.0869661,0 14.4074426,50.0869723,0 14.4074567,50.0869802,0 14.407470400000001,50.0869908,0 14.407481300000002,50.08700220000001,0 14.407505500000003,50.087031200000006,0 14.407512600000004,50.087043300000005,0 14.407620500000004,50.08720430000001,0 14.407620500000004,50.08720430000001,0 14.407772700000002,50.08722670000001,0 14.407897100000003,50.08725340000001,0 14.407966300000005,50.087268300000005,0 14.408091600000006,50.08731960000001,0 14.408166800000005,50.087350400000005,0 14.408259300000006,50.0874192,0 14.408315000000005,50.0874562,0 14.408501600000005,50.0875849,0 14.408534900000005,50.0876113,0 14.408516100000005,50.087621600000006,0 14.408522600000005,50.087626900000004,0 14.408568600000006,50.087664600000004,0 14.408586600000007,50.0876547,0 14.408712000000007,50.0877465,0 14.408712600000007,50.087746800000005,0 14.408758400000005,50.08778040000001,0 14.408758400000005,50.08778040000001,0 14.408864400000004,50.087909,0 14.409006300000005,50.0880379,0 14.409104600000004,50.0881288,0 14.409161100000004,50.0881791,0 14.409193300000005,50.0882097,0 14.409200100000007,50.088222099999996,0 14.409211000000008,50.0882447,0 14.409306100000009,50.088325899999994,0 14.40932860000001,50.088364999999996,0 14.409423800000008,50.088511399999994,0 14.409612500000009,50.08876839999999,0 14.409626500000009,50.08878599999999,0 14.409674200000008,50.08885109999999,0 14.40981670000001,50.08904539999999,0 14.409933500000008,50.08920759999999,0 14.409950900000009,50.089239699999986,0 14.40996670000001,50.08928979999998,0 14.40997500000001,50.089315599999985,0 14.409977300000012,50.089401999999986,0 14.40997500000001,50.089422099999986,0 14.409976100000009,50.08945149999998,0 14.409980900000008,50.08957799999998,0 14.409983500000008,50.08967359999998,0 14.409951900000006,50.089756399999985,0 14.409972700000008,50.089969799999984,0 14.410109200000008,50.08994579999998,0 14.410109800000008,50.08995199999998,0 14.410109800000008,50.08995199999998,0 14.410197400000008,50.08994539999998,0 </coordinates></LineString><TimeSpan><begin>2019-12-30T19:06:24.000Z</begin><end>2019-12-30T19:19:31.000Z</end></TimeSpan></Placemark><Placemark><name>On the subway</name><address></address><ExtendedData><Data name="Email"><value>syugen.zhou@gmail.com</value></Data><Data name="Category"><value>On the subway</value></Data><Data name="Distance"><value>2090</value></Data></ExtendedData><description> On the subway from 2019-12-30T19:19:31.000Z to 2019-12-30T19:36:15.000Z. Distance 2090m </description><LineString><altitudeMode>clampToGround</altitudeMode><extrude>1</extrude><tesselate>1</tesselate><coordinates>14.4100409,50.0898375,0 14.4392678,50.0912165,0 14.4392678,50.0912165,0 </coordinates></LineString><TimeSpan><begin>2019-12-30T19:19:31.000Z</begin><end>2019-12-30T19:36:15.000Z</end></TimeSpan></Placemark><Placemark><name>Walking</name><address></address><ExtendedData><Data name="Email"><value>syugen.zhou@gmail.com</value></Data><Data name="Category"><value>Walking</value></Data><Data name="Distance"><value>260</value></Data></ExtendedData><description> Walking from 2019-12-30T19:36:15.000Z to 2019-12-30T19:40:55.000Z. Distance 260m </description><LineString><altitudeMode>clampToGround</altitudeMode><extrude>1</extrude><tesselate>1</tesselate><coordinates>14.4385956,50.0905742,0 14.438498000000001,50.0906523,0 14.4383588,50.0907761,0 14.4382647,50.0908504,0 14.438451899999999,50.0909457,0 14.4384961,50.0909682,0 14.4384995,50.091073,0 14.438476800000002,50.0911113,0 14.438494700000001,50.0911155,0 14.438492300000002,50.0911194,0 14.438465700000002,50.0911622,0 14.438447900000003,50.0911909,0 14.438360000000003,50.091170299999995,0 14.438321800000002,50.091219099999996,0 14.438295300000004,50.09127719999999,0 14.438286100000003,50.0913068,0 14.438277000000005,50.09134089999999,0 14.438277000000005,50.09134089999999,0 14.438295700000005,50.0913657,0 14.438303900000003,50.0913854,0 14.438315000000003,50.0914353,0 14.438316700000001,50.0915406,0 14.4383201,50.09162690000001,0 14.438350400000003,50.09179610000001,0 14.438382200000003,50.09190350000001,0 14.438360600000003,50.09197640000001,0 14.438369100000001,50.091998800000006,0 14.4384674,50.092173800000005,0 14.4384674,50.092173800000005,0 14.438486000000001,50.09221590000001,0 14.4385121,50.092270400000004,0 14.438540300000001,50.092316800000006,0 14.4385815,50.09235830000001,0 14.438633700000002,50.09239900000001,0 14.438728100000002,50.09243650000001,0 14.438795300000002,50.09245670000001,0 14.438822100000001,50.09248720000001,0 14.438874000000002,50.09248930000001,0 14.438874000000002,50.09248930000001,0 14.439052300000004,50.09250500000001,0 14.439038200000004,50.092648100000005,0 14.439038200000004,50.092648100000005,0 14.439018900000006,50.0927468,0 14.439004300000004,50.092877200000004,0 14.438995300000004,50.092916900000006,0 14.439027000000003,50.09305890000001,0 14.438994700000004,50.09319980000001,0 </coordinates></LineString><TimeSpan><begin>2019-12-30T19:36:15.000Z</begin><end>2019-12-30T19:40:55.000Z</end></TimeSpan></Placemark><Placemark><name>Hilton Prague</name><address>Pobřežní 311/1, 186 00 Praha 8-Rohanský ostrov, Czechia</address><ExtendedData><Data name="Email"><value>syugen.zhou@gmail.com</value></Data><Data name="Category"><value>Hotel</value></Data><Data name="Distance"><value>0</value></Data></ExtendedData><description> Hotel from 2019-12-30T19:40:55.000Z to 2019-12-31T08:34:24.000Z. Distance 0m </description><Point><coordinates>14.4391713,50.0934009,0</coordinates></Point><TimeSpan><begin>2019-12-30T19:40:55.000Z</begin><end>2019-12-31T08:34:24.000Z</end></TimeSpan></Placemark></Document></kml>
