<?xml version="1.0" encoding="UTF-8"?><kml xmlns="http://www.opengis.net/kml/2.2" xmlns:gx="http://www.google.com/kml/ext/2.2"><Document><name> Location history from 2019-12-25 to 2019-12-25 </name><open>1</open><description></description><StyleMap id="multiTrack"><Pair><key>normal</key><styleUrl>#multiTrack_n</styleUrl></Pair><Pair><key>highlight</key><styleUrl>#multiTrack_h</styleUrl></Pair></StyleMap><Style id="multiTrack_n"><IconStyle><Icon><href>https://earth.google.com/images/kml-icons/track-directional/track-0.png</href></Icon></IconStyle><LineStyle><color>99ffac59</color><width>6</width></LineStyle></Style><Style id="multiTrack_h"><IconStyle><scale>1.2</scale><Icon><href>https://earth.google.com/images/kml-icons/track-directional/track-0.png</href></Icon></IconStyle><LineStyle><color>99ffac59</color><width>8</width></LineStyle></Style><Placemark><name>Hôtel Arok</name><address>7 Pl. de la Gare, 67000 Strasbourg, France</address><ExtendedData><Data name="Email"><value>syugen.zhou@gmail.com</value></Data><Data name="Category"><value>Hotel</value></Data><Data name="Distance"><value>0</value></Data></ExtendedData><description> Hotel from 2019-12-24T21:03:50.706Z to 2019-12-25T08:58:42.000Z. Distance 0m </description><Point><coordinates>7.7360748,48.5838788,0</coordinates></Point><TimeSpan><begin>2019-12-24T21:03:50.706Z</begin><end>2019-12-25T08:58:42.000Z</end></TimeSpan></Placemark><Placemark><name>Strasbourg</name><address>Pl. de la Gare, 67000 Strasbourg, France</address><ExtendedData><Data name="Email"><value>syugen.zhou@gmail.com</value></Data><Data name="Category"><value>Transit station</value></Data><Data name="Distance"><value>0</value></Data></ExtendedData><description> Transit station from 2019-12-25T08:58:42.000Z to 2019-12-25T09:07:07.000Z. Distance 0m </description><Point><coordinates>7.7345492,48.5850678,0</coordinates></Point><TimeSpan><begin>2019-12-25T08:58:42.000Z</begin><end>2019-12-25T09:07:07.000Z</end></TimeSpan></Placemark><Placemark><name>In a taxi</name><address></address><ExtendedData><Data name="Email"><value>syugen.zhou@gmail.com</value></Data><Data name="Category"><value>In a taxi</value></Data><Data name="Distance"><value>15260</value></Data></ExtendedData><description> In a taxi from 2019-12-25T09:07:07.000Z to 2019-12-25T09:28:33.000Z. Distance 15260m </description><LineString><altitudeMode>clampToGround</altitudeMode><extrude>1</extrude><tesselate>1</tesselate><coordinates>7.7347155,48.584140299999994,0 7.7345723,48.58411639999999,0 7.734465500000001,48.5840536,0 7.7345395,48.5839242,0 7.735683000000001,48.5839941,0 7.736317900000001,48.58457309999999,0 7.736416500000001,48.585476699999994,0 7.7386738,48.587516699999995,0 7.737744500000001,48.5879724,0 7.7376848,48.5880377,0 7.7362692,48.588765,0 7.7360142,48.5889843,0 7.7357389,48.5894661,0 7.735803400000001,48.5895142,0 7.734230600000001,48.59129050000001,0 7.734105400000002,48.59158580000001,0 7.734241200000001,48.592112400000005,0 7.735019000000001,48.59256380000001,0 7.735483,48.59263240000001,0 7.7357320000000005,48.592606900000014,0 7.7358619,48.59255430000001,0 7.736032000000001,48.59236250000001,0 7.7359592,48.592110700000006,0 7.7357814,48.591960500000006,0 7.7345374,48.59136910000001,0 7.7344313,48.59127250000001,0 7.733412799999999,48.590819300000014,0 7.733301599999998,48.590687500000016,0 7.731915999999999,48.58999650000002,0 7.725724499999998,48.58597870000001,0 7.724860099999999,48.585014600000015,0 7.7242308999999985,48.58399080000002,0 7.723811799999998,48.58261800000002,0 7.7237845999999974,48.58131340000002,0 7.724131899999997,48.58009230000002,0 7.724610799999997,48.57920920000002,0 7.7264779999999975,48.577196300000026,0 7.7265935999999975,48.577142100000025,0 7.729483599999997,48.57431880000003,0 7.730104199999998,48.573293300000024,0 7.733126999999998,48.564066600000025,0 7.733338499999998,48.56180500000002,0 7.732101599999997,48.55261520000002,0 7.731349599999998,48.55063540000002,0 7.7298988999999985,48.54845020000001,0 7.728543799999999,48.54703130000001,0 7.718268799999998,48.53864930000001,0 7.717147899999999,48.53799530000001,0 7.715214099999998,48.53715710000001,0 7.713361999999997,48.53661550000001,0 7.711889099999998,48.53632900000001,0 7.706077399999998,48.53596410000001,0 7.703052399999998,48.535425800000006,0 7.700758799999998,48.534653000000006,0 7.6992531999999985,48.533928800000005,0 7.6924053999999975,48.5295107,0 7.689835099999998,48.528343400000004,0 7.688154699999998,48.5278421,0 7.685759899999999,48.5274128,0 7.6771508,48.5267413,0 7.667624899999999,48.5254256,0 7.667053899999999,48.5255054,0 7.665325899999998,48.5261772,0 7.664929299999998,48.5264801,0 7.661323699999998,48.5336758,0 7.6597035999999985,48.5361525,0 7.650733499999998,48.5456196,0 7.650396899999997,48.5461913,0 7.650171799999997,48.5471038,0 7.650295599999997,48.5480634,0 7.651089499999996,48.5492634,0 7.651374499999996,48.5495289,0 7.651816199999995,48.5497292,0 7.652909899999996,48.550030299999996,0 7.653290999999996,48.550343,0 7.6534276999999955,48.5506476,0 7.653332499999996,48.5511102,0 7.653174399999996,48.5513025,0 7.652434899999996,48.5517524,0 7.651829699999997,48.551941299999996,0 7.650922499999996,48.5520024,0 7.646649999999996,48.551305299999996,0 7.633615899999996,48.548112599999996,0 7.630829099999996,48.5472622,0 7.630353599999996,48.5472906,0 7.6302191999999955,48.5472106,0 7.630192699999996,48.5470832,0 7.630234999999996,48.547022,0 7.630183099999997,48.5469205,0 7.630098699999996,48.5468687,0 7.629953599999996,48.5468533,0 7.6297114999999955,48.5468995,0 7.6292864999999965,48.5468933,0 7.6261132999999965,48.5460991,0 7.626008899999997,48.545984399999995,0 7.626315699999997,48.5446316,0 7.626376099999996,48.5445704,0 7.626723699999996,48.5444371,0 7.626827599999996,48.5444406,0 7.628153199999996,48.5452061,0 </coordinates></LineString><TimeSpan><begin>2019-12-25T09:07:07.000Z</begin><end>2019-12-25T09:28:33.000Z</end></TimeSpan></Placemark><Placemark><name>Strasbourg Airport</name><address>RM 221 /Route de l'Aéroport, 67960 Entzheim, France</address><ExtendedData><Data name="Email"><value>syugen.zhou@gmail.com</value></Data><Data name="Category"><value>International airport</value></Data><Data name="Distance"><value>0</value></Data></ExtendedData><description> International airport from 2019-12-25T09:28:33.191Z to 2019-12-25T10:04:57.000Z. Distance 0m </description><Point><coordinates>7.6248841,48.538993,0</coordinates></Point><TimeSpan><begin>2019-12-25T09:28:33.191Z</begin><end>2019-12-25T10:04:57.000Z</end></TimeSpan></Placemark><Placemark><name>Driving</name><address></address><ExtendedData><Data name="Email"><value>syugen.zhou@gmail.com</value></Data><Data name="Category"><value>Driving</value></Data><Data name="Distance"><value>25459</value></Data></ExtendedData><description> Driving from 2019-12-25T10:04:57.000Z to 2019-12-25T10:30:24.000Z. Distance 25459m </description><LineString><altitudeMode>clampToGround</altitudeMode><extrude>1</extrude><tesselate>1</tesselate><coordinates>7.628782200000001,48.5465856,0 7.629033100000002,48.546666300000005,0 7.629316000000001,48.546651600000004,0 7.629724600000002,48.5463752,0 7.630037500000001,48.5463507,0 7.631209400000002,48.546959699999995,0 7.631440700000002,48.5473,0 7.631630200000003,48.5474071,0 7.650061300000003,48.5518281,0 7.650920700000003,48.5518591,0 7.651511700000004,48.55168940000001,0 7.651821900000003,48.551401500000004,0 7.651872500000004,48.550950400000005,0 7.650063500000004,48.5479204,0 7.650081800000004,48.5467638,0 7.650435000000003,48.5458494,0 7.659906300000004,48.535678000000004,0 7.664748800000004,48.52619550000001,0 7.664645700000005,48.5260879,0 7.664727500000004,48.5259172,0 7.664865000000004,48.5258774,0 7.666052500000004,48.522723500000005,0 7.666046100000004,48.522424300000004,0 7.6659695000000045,48.5223655,0 7.665374800000004,48.5223086,0 7.664854100000003,48.5224704,0 7.664439900000003,48.522744800000005,0 7.663895300000003,48.5236479,0 7.663929400000003,48.5236997,0 7.663786100000002,48.5241355,0 7.664023000000002,48.5244997,0 7.664490500000002,48.5246902,0 7.667479700000002,48.5250922,0 7.667630000000002,48.5251649,0 7.674913900000002,48.526377800000006,0 7.687686100000002,48.527619800000004,0 7.6916987000000026,48.528801300000005,0 7.693571300000003,48.52865320000001,0 7.694120100000003,48.52801600000001,0 7.699014100000003,48.517949200000004,0 7.699088000000003,48.51728320000001,0 7.6987112000000035,48.5161037,0 7.697561700000003,48.5146354,0 7.696991300000004,48.51339240000001,0 7.696062200000003,48.5076119,0 7.695915000000003,48.507435900000004,0 7.695561000000003,48.507303,0 7.695274800000003,48.5073024,0 7.694916900000002,48.5074315,0 7.694796300000001,48.5075571,0 7.694750000000001,48.507817599999996,0 7.6948875999999995,48.508022000000004,0 7.6953130000000005,48.5081929,0 7.699782300000001,48.507851099999996,0 7.7039695,48.5068408,0 7.708777000000001,48.504757899999994,0 7.710549,48.5042306,0 7.7341924,48.500288700000006,0 7.7421018,48.497861400000005,0 7.756831200000001,48.495345500000006,0 7.760095100000001,48.4941218,0 7.7626412,48.492652400000004,0 7.764388100000001,48.49203500000001,0 7.765719100000001,48.49176020000001,0 7.773457700000002,48.49106760000001,0 7.7743147000000015,48.49118970000001,0 7.775347900000001,48.491541700000006,0 7.778008400000001,48.49343160000001,0 7.781267600000001,48.49470920000001,0 7.783428100000001,48.49497970000001,0 7.784938500000001,48.49479720000001,0 7.7878971,48.49394910000001,0 7.788789200000001,48.493878200000005,0 7.810020300000001,48.495822700000005,0 7.813219700000001,48.49566,0 7.821114800000002,48.4946252,0 7.821201600000002,48.4945473,0 7.8213921000000015,48.4945085,0 7.822176600000001,48.4946113,0 7.828814100000001,48.4943084,0 7.828922200000001,48.4942246,0 7.8291542000000005,48.49421530000001,0 7.829285000000001,48.49430190000001,0 7.838825100000001,48.494430200000004,0 7.842065200000001,48.4940251,0 7.843683300000001,48.4935832,0 7.8500426,48.490794,0 7.8550852,48.4891553,0 7.8640327,48.485275200000004,0 7.892688100000001,48.4764416,0 7.8979414000000006,48.4736494,0 7.9032407000000005,48.4716367,0 7.904592500000001,48.4714962,0 7.907325900000001,48.471664399999995,0 7.918998600000001,48.470347399999994,0 7.922349600000001,48.469632299999994,0 7.924747400000001,48.46878459999999,0 7.928418500000001,48.46702689999999,0 7.929465800000001,48.46603869999999,0 7.930851200000002,48.46033679999999,0 </coordinates></LineString><TimeSpan><begin>2019-12-25T10:04:57.000Z</begin><end>2019-12-25T10:30:24.000Z</end></TimeSpan></Placemark><Placemark><name>Flying</name><address></address><ExtendedData><Data name="Email"><value>syugen.zhou@gmail.com</value></Data><Data name="Category"><value>Flying</value></Data><Data name="Distance"><value>1940</value></Data></ExtendedData><description> Flying from 2019-12-25T10:30:24.000Z to 2019-12-25T10:31:47.000Z. Distance 1940m </description><LineString><altitudeMode>clampToGround</altitudeMode><extrude>1</extrude><tesselate>1</tesselate><coordinates>7.9296294,48.4656136,0 7.933411,48.4483396,0 7.933411,48.4483396,0 </coordinates></LineString><TimeSpan><begin>2019-12-25T10:30:24.000Z</begin><end>2019-12-25T10:31:47.000Z</end></TimeSpan></Placemark><Placemark><name>Driving</name><address></address><ExtendedData><Data name="Email"><value>syugen.zhou@gmail.com</value></Data><Data name="Category"><value>Driving</value></Data><Data name="Distance"><value>43365</value></Data></ExtendedData><description> Driving from 2019-12-25T10:31:47.000Z to 2019-12-25T11:15:06.000Z. Distance 43365m </description><LineString><altitudeMode>clampToGround</altitudeMode><extrude>1</extrude><tesselate>1</tesselate><coordinates>7.9316265999999995,48.4545635,0 7.9321741999999995,48.4520944,0 7.931893199999999,48.4501346,0 7.932283699999999,48.449151799999996,0 7.932988699999999,48.448537099999996,0 7.934170699999999,48.448081599999995,0 7.945522299999999,48.447007799999994,0 7.949213699999998,48.44628829999999,0 7.949199799999998,48.446289699999994,0 7.952030199999998,48.4452697,0 7.954165999999997,48.44401979999999,0 7.956534599999997,48.441511799999994,0 7.958963699999996,48.43641869999999,0 7.960788599999996,48.43403519999999,0 7.9640777999999965,48.4312231,0 7.970780299999996,48.4278486,0 7.985953799999995,48.4165622,0 7.991769699999995,48.412964699999996,0 8.000577599999996,48.406355999999995,0 8.004406499999996,48.4020753,0 8.005829699999996,48.4009368,0 8.020107799999996,48.392337299999994,0 8.024692099999998,48.3882051,0 8.024671299999996,48.388169399999995,0 8.027359699999996,48.38442859999999,0 8.028717599999997,48.38112649999999,0 8.028657599999995,48.3791533,0 8.028031299999995,48.3775001,0 8.025112999999996,48.3736939,0 8.024237899999996,48.3719495,0 8.023847299999996,48.3704112,0 8.023811899999997,48.3650458,0 8.022527699999996,48.3619266,0 8.018606399999996,48.3579521,0 8.017372099999996,48.3559635,0 8.017047699999996,48.3543568,0 8.017227999999998,48.3528613,0 8.020198699999996,48.345322200000005,0 8.020566499999996,48.3421772,0 8.019811999999996,48.339118400000004,0 8.019981899999996,48.337485300000004,0 8.020595999999998,48.336322300000006,0 8.026569899999997,48.33128560000001,0 8.032965399999997,48.323734200000004,0 8.046843099999995,48.31119000000001,0 8.048059999999996,48.310483000000005,0 8.049781299999996,48.309834,0 8.055258599999997,48.3086693,0 8.057088899999997,48.3079687,0 8.058411999999995,48.307199600000004,0 8.060387099999996,48.3053663,0 8.062011899999996,48.3032484,0 8.062632199999998,48.3017427,0 8.062428899999997,48.2987189,0 8.062714499999997,48.296469099999996,0 8.063213099999997,48.2952231,0 8.064323799999997,48.2935543,0 8.068569399999998,48.2897685,0 8.072826999999998,48.2871714,0 8.073383699999999,48.2871119,0 8.0749842,48.287536499999995,0 8.075751299999999,48.2873379,0 8.074060399999999,48.2843385,0 8.074421599999999,48.283601299999994,0 8.074765499999998,48.2833197,0 8.076183699999998,48.282684599999996,0 8.079402699999997,48.282058299999996,0 8.080047299999999,48.281673899999994,0 8.080320099999998,48.28097689999999,0 8.080722299999998,48.28050119999999,0 8.081706599999999,48.28013709999999,0 8.085449799999997,48.280025699999996,0 8.093745299999997,48.27891969999999,0 8.094315599999996,48.27870009999999,0 8.095211799999998,48.278041099999996,0 8.095641499999997,48.277880599999996,0 8.096156099999996,48.27782559999999,0 8.104708899999997,48.27857039999999,0 8.106616499999998,48.279201699999994,0 8.114419499999997,48.280229299999995,0 8.116352099999997,48.280127199999995,0 8.121238499999997,48.27934449999999,0 8.124205599999996,48.279505199999996,0 8.145331699999995,48.2841179,0 8.148744899999995,48.2843425,0 8.152153799999995,48.2838239,0 8.153079999999996,48.2839387,0 8.154283899999996,48.2843886,0 8.156452799999997,48.286397900000004,0 8.157470999999996,48.2870276,0 8.159098199999995,48.2875492,0 8.162848999999996,48.28801489999999,0 8.167385899999996,48.28945149999999,0 8.169526999999995,48.28978909999999,0 8.177179699999996,48.289804499999995,0 8.183980399999996,48.28936529999999,0 8.186682799999996,48.2887578,0 8.188469999999995,48.2878792,0 8.189389599999997,48.2871844,0 8.191242199999996,48.2846743,0 8.192577199999995,48.2837929,0 8.194236099999996,48.2833149,0 8.195402599999996,48.2827433,0 8.196412499999996,48.2819936,0 8.197628799999997,48.2805755,0 8.197774599999995,48.2799663,0 8.197206899999996,48.2780942,0 8.197493499999995,48.276189599999995,0 8.198487599999996,48.27351769999999,0 8.204261299999995,48.26688939999999,0 8.204768099999997,48.2657118,0 8.205578599999997,48.264749699999996,0 8.207245599999997,48.2611242,0 8.208875299999995,48.2586523,0 8.208833699999996,48.2572688,0 8.209013099999996,48.2567442,0 8.209624099999996,48.2559467,0 8.209369199999996,48.25441370000001,0 8.209527999999995,48.25337950000001,0 8.210118499999997,48.2520887,0 8.210254599999995,48.25048220000001,0 8.211111099999995,48.2489994,0 8.212796699999995,48.24389420000001,0 8.214072099999996,48.242052400000006,0 8.214347699999994,48.240709900000006,0 8.213617899999996,48.237051300000005,0 8.213837599999994,48.23583090000001,0 8.214549099999996,48.23456420000001,0 8.215585799999996,48.23336920000001,0 8.215929999999995,48.232296200000015,0 8.216816199999995,48.231385300000014,0 8.217037399999995,48.23082620000002,0 8.221303299999995,48.22678070000001,0 8.222510999999995,48.22478860000002,0 8.222043899999996,48.223892100000015,0 8.222038299999994,48.22335980000002,0 8.222854999999996,48.22136180000002,0 8.223293999999994,48.221420500000015,0 8.223539499999996,48.221296500000015,0 8.223588599999996,48.220572800000014,0 8.224790499999996,48.21863180000002,0 8.225900099999997,48.21763760000002,0 8.226635999999997,48.21496850000002,0 8.227107799999997,48.21427140000002,0 8.228985399999997,48.21264770000002,0 8.229724299999997,48.21229970000002,0 8.230488499999996,48.21332560000001,0 8.230889399999997,48.21362180000002,0 8.236577899999997,48.21536540000002,0 8.238540399999998,48.215474200000024,0 8.240677999999997,48.21586910000002,0 8.240978699999998,48.21604150000002,0 8.241436399999998,48.21683050000002,0 8.243235799999997,48.217400500000025,0 8.244213299999998,48.21789650000002,0 8.245703399999998,48.219092700000026,0 8.247196499999998,48.21981040000003,0 8.247778199999999,48.21986640000002,0 8.248971399999997,48.21968740000002,0 8.252118399999997,48.218341100000025,0 8.256505199999998,48.21824480000003,0 8.256667999999998,48.21840170000003,0 8.259560199999997,48.21876290000002,0 8.261506199999998,48.21824170000002,0 8.263811599999997,48.216421500000024,0 8.264668299999997,48.21615930000002,0 8.266760399999997,48.21584120000002,0 8.269659099999997,48.21584480000002,0 8.272468099999998,48.21512680000002,0 8.272676599999999,48.21519750000002,0 8.273233799999998,48.21513810000002,0 8.273554399999998,48.21495680000002,0 </coordinates></LineString><TimeSpan><begin>2019-12-25T10:31:47.000Z</begin><end>2019-12-25T11:15:06.000Z</end></TimeSpan></Placemark><Placemark><name>Flying</name><address></address><ExtendedData><Data name="Email"><value>syugen.zhou@gmail.com</value></Data><Data name="Category"><value>Flying</value></Data><Data name="Distance"><value>4124</value></Data></ExtendedData><description> Flying from 2019-12-25T11:15:06.000Z to 2019-12-25T11:17:54.000Z. Distance 4124m </description><LineString><altitudeMode>clampToGround</altitudeMode><extrude>1</extrude><tesselate>1</tesselate><coordinates>8.2749381,48.2139385,0 8.2955133,48.2022304,0 8.2991677,48.1833263,0 </coordinates></LineString><TimeSpan><begin>2019-12-25T11:15:06.000Z</begin><end>2019-12-25T11:17:54.000Z</end></TimeSpan></Placemark><Placemark><name>Driving</name><address></address><ExtendedData><Data name="Email"><value>syugen.zhou@gmail.com</value></Data><Data name="Category"><value>Driving</value></Data><Data name="Distance"><value>110881</value></Data></ExtendedData><description> Driving from 2019-12-25T11:17:54.000Z to 2019-12-25T12:46:38.000Z. Distance 110881m </description><LineString><altitudeMode>clampToGround</altitudeMode><extrude>1</extrude><tesselate>1</tesselate><coordinates>8.2970521,48.201414299999996,0 8.299981,48.200138700000004,0 8.3007057,48.1995355,0 8.301315200000001,48.1982826,0 8.3014903,48.1973554,0 8.3009327,48.1925494,0 8.2988084,48.1885854,0 8.2992749,48.1816607,0 8.3006488,48.1766744,0 8.3010244,48.1734889,0 8.3017059,48.1724971,0 8.3091328,48.167631799999995,0 8.309806700000001,48.166454699999996,0 8.3122728,48.1643304,0 8.317165,48.16183109999999,0 8.3206463,48.16092209999999,0 8.3214798,48.16055779999999,0 8.3253928,48.15787999999999,0 8.325880699999999,48.156806199999984,0 8.3262145,48.15647709999999,0 8.327150099999999,48.15615839999998,0 8.3272334,48.155479499999984,0 8.3285401,48.15396319999998,0 8.3288223,48.15407269999998,0 8.328771600000001,48.15463169999998,0 8.3289231,48.15484269999998,0 8.3305704,48.15583479999999,0 8.3314285,48.156034599999984,0 8.3356791,48.155924699999986,0 8.3371698,48.156110699999985,0 8.339199500000001,48.15576939999998,0 8.3435637,48.15302719999999,0 8.3439366,48.15290159999999,0 8.3575071,48.15280459999999,0 8.3609118,48.15204449999999,0 8.364880300000001,48.149593299999985,0 8.365656000000001,48.14880089999999,0 8.367146000000002,48.14575279999999,0 8.367600100000002,48.14356809999999,0 8.368828500000001,48.14150609999999,0 8.3692638,48.13946679999999,0 8.371311500000001,48.13556599999998,0 8.3734125,48.133695199999984,0 8.374332800000001,48.132465899999985,0 8.3766677,48.13169569999999,0 8.376969800000001,48.13126479999998,0 8.3768135,48.130664199999984,0 8.3764652,48.130242899999985,0 8.378095900000002,48.129838599999985,0 8.3800842,48.12895859999998,0 8.3830485,48.12674839999998,0 8.3936229,48.12080009999998,0 8.3953986,48.11938449999999,0 8.3973577,48.11676709999998,0 8.3985571,48.116071199999986,0 8.401864400000001,48.11541049999998,0 8.404505200000001,48.114578499999986,0 8.409935800000001,48.111925699999986,0 8.412874500000001,48.10961279999999,0 8.415201600000003,48.10654349999999,0 8.417320300000002,48.101370799999984,0 8.419185000000002,48.09918779999998,0 8.423240000000002,48.09548679999999,0 8.433480700000002,48.088347699999986,0 8.438185100000004,48.08615849999999,0 8.442088900000003,48.08345869999999,0 8.446745800000004,48.07797929999998,0 8.448602400000004,48.076618299999986,0 8.454920400000002,48.072977499999986,0 8.456098000000004,48.072513499999985,0 8.459716600000004,48.072068499999986,0 8.460913200000002,48.07162379999999,0 8.461575900000001,48.071168599999986,0 8.4630241,48.06939219999999,0 8.4664993,48.06720159999999,0 8.467415500000001,48.06639779999998,0 8.4689928,48.06433289999998,0 8.470145400000002,48.061808699999986,0 8.470874200000003,48.057097699999986,0 8.471996900000002,48.05513119999998,0 8.472202700000002,48.05223489999998,0 8.4725537,48.051331099999985,0 8.4735875,48.04997519999998,0 8.475325000000002,48.048770099999984,0 8.4771579,48.04808049999998,0 8.481548100000001,48.04710079999998,0 8.483893100000001,48.04620749999998,0 8.4852155,48.04548089999998,0 8.4871739,48.04397159999998,0 8.4901772,48.04047499999998,0 8.491593300000002,48.03930859999998,0 8.495077100000001,48.03745559999997,0 8.502868500000002,48.03490129999998,0 8.505325200000001,48.03377409999998,0 8.508902100000002,48.03095169999998,0 8.510379200000001,48.03014609999998,0 8.512894700000002,48.02935339999998,0 8.514921900000003,48.02905859999998,0 8.519836600000001,48.02909769999998,0 8.520550600000002,48.02897719999998,0 8.521282400000002,48.02863269999998,0 8.5215338,48.02836599999998,0 8.5220347,48.028594499999976,0 8.5299221,48.03510179999998,0 8.5329421,48.03826309999997,0 8.534819,48.039742499999974,0 8.538954500000001,48.04599029999998,0 8.540507600000002,48.04738349999998,0 8.5408246,48.04747279999998,0 8.541124900000002,48.04742819999998,0 8.5416257,48.04700949999997,0 8.541642800000002,48.04666529999997,0 8.5407911,48.04554829999997,0 8.5444448,48.04470489999998,0 8.5472847,48.044387899999975,0 8.549788900000001,48.04453529999998,0 8.555592200000001,48.04552819999997,0 8.5590699,48.04550009999997,0 8.5636914,48.04470919999997,0 8.5706068,48.044230499999976,0 8.5777732,48.043199799999975,0 8.5859512,48.04107079999997,0 8.5884039,48.03986949999997,0 8.592347799999999,48.03702669999998,0 8.5945882,48.03584379999998,0 8.5965121,48.035197799999985,0 8.599865099999999,48.03457489999998,0 8.6093427,48.03428289999999,0 8.6129682,48.03390749999999,0 8.6165271,48.03316979999999,0 8.6169018,48.03293029999999,0 8.616965700000002,48.032763599999996,0 8.616374800000003,48.031723799999995,0 8.616456200000002,48.03146019999999,0 8.617109000000003,48.03086959999999,0 8.617181700000001,48.030524699999994,0 8.608909200000001,48.01829059999999,0 8.606779500000002,48.01372229999999,0 8.605467200000001,48.00908819999999,0 8.605053600000002,48.00183049999999,0 8.606160700000002,47.99589269999999,0 8.607545700000001,47.9922074,0 8.609602,47.9883593,0 8.6166185,47.978744799999994,0 8.618829999999999,47.97475,0 8.6209087,47.967718999999995,0 8.621141100000001,47.96347529999999,0 8.618754000000001,47.95009829999999,0 8.619275900000002,47.94570829999999,0 8.621526000000001,47.94050059999999,0 8.624629900000002,47.936696999999995,0 8.628096400000002,47.93374809999999,0 8.630619800000002,47.932096699999995,0 8.6346849,47.93000599999999,0 8.6392793,47.92831859999999,0 8.644176400000001,47.92715009999999,0 8.658731900000001,47.92550899999999,0 8.666716700000002,47.92362179999999,0 8.672031700000002,47.921578899999986,0 8.674837400000001,47.919988299999986,0 8.677511500000001,47.917725199999985,0 8.679929900000001,47.91489439999998,0 8.681638900000001,47.91340049999998,0 8.6837917,47.91210529999998,0 8.691564300000001,47.90899559999998,0 8.6955344,47.90652539999998,0 8.6983516,47.904283699999986,0 8.700466400000002,47.90212219999999,0 8.702996500000001,47.898120699999986,0 8.704695800000001,47.896283199999985,0 8.706280900000001,47.895094399999984,0 8.708397100000003,47.89394199999999,0 8.711207400000001,47.89290669999998,0 8.715451100000001,47.89214709999999,0 8.721421600000001,47.892039699999984,0 8.724460600000002,47.891644099999986,0 8.727775400000002,47.89070009999999,0 8.732042600000002,47.888872699999986,0 8.736375,47.88781089999999,0 8.7394226,47.88757709999999,0 8.7418954,47.887682599999984,0 8.745034500000001,47.88820039999998,0 8.747333900000001,47.88888679999999,0 8.7536283,47.89142409999999,0 8.756299,47.89202169999999,0 8.7583391,47.892257599999986,0 8.7618352,47.89224679999999,0 8.765488300000001,47.89166379999998,0 8.767959900000001,47.89088019999999,0 8.771154600000001,47.88925269999999,0 8.773766499999999,47.88699689999999,0 8.7753137,47.88457829999999,0 8.7758646,47.882658599999985,0 8.7758085,47.876545599999986,0 8.776747,47.87314949999999,0 8.7777953,47.87123709999999,0 8.7797512,47.86870519999999,0 8.784177499999998,47.86422759999999,0 8.789396699999998,47.86012109999999,0 8.804202699999998,47.851245799999994,0 8.808041099999999,47.848346899999996,0 8.8117942,47.844752099999994,0 8.821848099999999,47.83320669999999,0 8.8273104,47.82879579999999,0 8.848817299999999,47.81568849999999,0 8.850109499999999,47.81458999999999,0 8.852229699999999,47.81174319999999,0 8.8539979,47.81025069999999,0 8.8560567,47.80928449999999,0 8.8577184,47.80884499999999,0 8.8596211,47.808619099999994,0 8.862095199999999,47.8087708,0 8.864229299999998,47.8093758,0 8.867999999999999,47.8115987,0 8.889875499999999,47.821670999999995,0 8.8951219,47.82359579999999,0 8.9013019,47.82494319999999,0 8.9135713,47.825636499999995,0 8.922297099999998,47.827630299999996,0 8.9273806,47.82828299999999,0 8.941277699999999,47.82779729999999,0 8.94704,47.828213399999996,0 8.9877174,47.83760019999999,0 8.993637699999999,47.8384958,0 9.0118905,47.839250199999995,0 9.0164995,47.83987809999999,0 9.0264511,47.84192739999999,0 9.030303299999998,47.84227769999999,0 9.0329147,47.84222219999999,0 9.0366451,47.841773299999986,0 9.040050499999998,47.84086509999999,0 9.044368599999999,47.83903089999998,0 9.058391599999998,47.83178429999998,0 9.065843499999998,47.82869309999998,0 9.082254999999998,47.823232099999984,0 9.082360999999997,47.82323849999999,0 9.109059299999997,47.81484909999999,0 9.111920999999997,47.81368889999999,0 9.115834499999997,47.811458399999985,0 9.122362499999998,47.80603219999998,0 9.124429599999997,47.80476849999999,0 9.137063499999996,47.79883069999999,0 9.143491399999997,47.79432319999999,0 9.144655799999997,47.79378169999999,0 9.147333399999996,47.79301119999999,0 9.155615899999997,47.792528299999994,0 9.158711899999997,47.79165669999999,0 9.162718099999996,47.78962589999999,0 9.167517899999996,47.787982199999995,0 9.169334999999997,47.78701629999999,0 9.174326599999997,47.78343519999999,0 9.175530399999998,47.7828052,0 9.178571299999998,47.7816884,0 9.179896,47.780711,0 9.181103199999999,47.7791862,0 9.184125799999999,47.7769343,0 9.185415199999998,47.7754604,0 9.186729499999998,47.7711765,0 9.187561599999999,47.76959960000001,0 9.192977599999999,47.764337100000006,0 9.193656999999998,47.76293870000001,0 9.1938149,47.76099830000001,0 9.1942061,47.76015230000001,0 9.195204599999999,47.75916330000001,0 9.204139099999999,47.75348030000001,0 9.206714100000001,47.7513738,0 9.2087348,47.75065860000001,0 9.2108395,47.750417600000006,0 9.2135912,47.75046720000001,0 9.215027699999998,47.75028740000001,0 9.216221899999999,47.74989330000002,0 9.219869399999999,47.747394200000016,0 9.222256999999999,47.746500400000016,0 9.224679199999999,47.745099300000014,0 9.225418,47.74489860000002,0 9.228970799999999,47.74489640000002,0 9.2304857,47.74461500000002,0 9.2314968,47.74420220000002,0 9.2390983,47.738825700000014,0 9.2397805,47.73784980000001,0 9.2399091,47.73712770000001,0 9.238468,47.72960840000002,0 9.237198099999999,47.72662260000001,0 9.2370437,47.72545860000002,0 9.237256699999998,47.72429290000002,0 9.238241199999997,47.72270370000002,0 9.239231699999998,47.72182530000002,0 9.240851699999997,47.72091140000001,0 9.250034099999997,47.717243400000015,0 9.254387399999997,47.714869700000015,0 9.257231699999998,47.71245080000002,0 9.260918399999998,47.70793640000002,0 9.262320999999998,47.706648100000024,0 9.264274599999997,47.70536590000002,0 9.266982999999996,47.704009500000026,0 9.270465999999997,47.70268790000002,0 9.275405899999997,47.70143480000003,0 9.280961699999997,47.69893230000003,0 9.282827599999997,47.697790200000036,0 9.284018899999998,47.696652000000036,0 9.284423999999996,47.696018900000034,0 9.285181699999995,47.69340900000004,0 9.285792799999996,47.69256460000003,0 9.287576399999995,47.691167600000036,0 9.289189899999995,47.69030780000003,0 9.291462799999994,47.68954300000003,0 9.296027699999994,47.68922790000003,0 9.297420799999994,47.688976600000025,0 9.299030199999995,47.688384300000024,0 9.304172799999995,47.68481570000003,0 9.308331899999995,47.68291210000003,0 9.311310299999995,47.68084230000002,0 9.312733099999996,47.67885890000002,0 9.313701599999995,47.677999900000025,0 9.314929299999996,47.67734170000002,0 9.319971999999995,47.676264600000025,0 9.322608699999995,47.675434000000024,0 9.327019499999995,47.67353410000002,0 9.329980499999994,47.67139740000002,0 9.334250699999995,47.669529400000016,0 9.345790699999995,47.66624080000002,0 9.348071899999994,47.66579730000002,0 9.354276399999993,47.665154300000026,0 9.357655299999992,47.665403500000025,0 9.359907499999991,47.66618030000002,0 9.361459099999992,47.66707880000003,0 9.364192499999993,47.66963740000003,0 9.365664699999993,47.67038100000002,0 9.368061899999992,47.67089870000002,0 9.369873499999992,47.67087120000002,0 9.371629799999992,47.67050980000002,0 9.375727999999993,47.66833760000002,0 9.377329299999992,47.667709700000024,0 9.378767599999993,47.667406900000024,0 9.380110899999993,47.66732160000002,0 9.381694799999993,47.66745810000002,0 9.383691399999991,47.66801940000002,0 9.387079099999992,47.66995070000002,0 9.392591799999993,47.67167050000002,0 9.393199199999993,47.672027800000016,0 9.39381769999999,47.67288590000002,0 9.394092799999992,47.67306240000002,0 9.394625299999992,47.67313930000002,0 9.396631199999993,47.671861200000016,0 9.399029899999991,47.670906600000016,0 9.403183999999992,47.66974320000002,0 9.404471399999991,47.66978320000002,0 9.406262799999991,47.67021140000002,0 9.410568199999991,47.67005630000002,0 9.410560499999992,47.66976070000002,0 9.410069699999992,47.66921840000002,0 9.410050399999992,47.66889750000002,0 </coordinates></LineString><TimeSpan><begin>2019-12-25T11:17:54.000Z</begin><end>2019-12-25T12:46:38.000Z</end></TimeSpan></Placemark><Placemark><name>Fischbach</name><address>88048 Friedrichshafen, Germany</address><ExtendedData><Data name="Email"><value>syugen.zhou@gmail.com</value></Data><Data name="Category"><value></value></Data><Data name="Distance"><value>0</value></Data></ExtendedData><description>  from 2019-12-25T12:46:38.012Z to 2019-12-25T14:02:05.272Z. Distance 0m </description><Point><coordinates>9.4220679,47.6682421,0</coordinates></Point><TimeSpan><begin>2019-12-25T12:46:38.012Z</begin><end>2019-12-25T14:02:05.272Z</end></TimeSpan></Placemark><Placemark><name>Driving</name><address></address><ExtendedData><Data name="Email"><value>syugen.zhou@gmail.com</value></Data><Data name="Category"><value>Driving</value></Data><Data name="Distance"><value>82356</value></Data></ExtendedData><description> Driving from 2019-12-25T14:02:05.272Z to 2019-12-25T15:33:21.000Z. Distance 82356m </description><LineString><altitudeMode>clampToGround</altitudeMode><extrude>1</extrude><tesselate>1</tesselate><coordinates>9.4101041,47.668772499999996,0 9.410033400000001,47.669096599999996,0 9.410069700000001,47.6692184,0 9.4105605,47.6697607,0 9.4105682,47.6700563,0 9.411887400000001,47.6703766,0 9.412252500000001,47.67039979999999,0 9.4128462,47.670311999999996,0 9.4147275,47.66971919999999,0 9.417658800000002,47.66916059999999,0 9.417718500000001,47.66911319999999,0 9.420817200000002,47.66856099999999,0 9.422011500000002,47.66818269999999,0 9.423734200000002,47.66734909999999,0 9.425662900000003,47.66579519999999,0 9.426891200000002,47.66511959999999,0 9.427658400000002,47.664824499999995,0 9.430168100000003,47.66420889999999,0 9.431229900000003,47.66382139999999,0 9.432505500000003,47.66301529999999,0 9.434785400000003,47.660695999999994,0 9.435764000000002,47.660005899999994,0 9.437542200000003,47.65929149999999,0 9.439510600000002,47.65894949999999,0 9.4457131,47.658789199999994,0 9.448277800000001,47.65833109999999,0 9.4517606,47.65738469999999,0 9.4532264,47.657559199999994,0 9.454117700000001,47.65751849999999,0 9.4609064,47.65626239999999,0 9.4617622,47.65625129999999,0 9.4657465,47.656787399999985,0 9.471554900000001,47.65648199999998,0 9.4717462,47.65653609999998,0 9.4731995,47.657542099999986,0 9.473443,47.657796699999984,0 9.47361,47.658110499999985,0 9.4736198,47.659313699999984,0 9.4747335,47.66344689999999,0 9.4755836,47.66494739999998,0 9.4740922,47.66495839999998,0 9.4739064,47.66501169999999,0 9.473847899999999,47.66506299999998,0 9.473728,47.66509649999998,0 9.47307,47.66501659999998,0 9.472273699999999,47.66520989999998,0 9.4721803,47.66535439999998,0 9.472239499999999,47.665452099999975,0 9.4724153,47.66553579999998,0 9.472534399999999,47.66554199999998,0 9.4736088,47.665299399999974,0 9.4768738,47.66494789999997,0 9.478891499999998,47.66492579999997,0 9.4805993,47.66517709999997,0 9.484307199999998,47.666362299999975,0 9.486321199999997,47.66667379999997,0 9.488318299999998,47.666633399999974,0 9.489541399999998,47.66643669999997,0 9.491189399999998,47.66590649999997,0 9.492794199999999,47.665149299999975,0 9.493672599999998,47.664571099999975,0 9.495002899999998,47.66334639999997,0 9.496525999999998,47.661471699999964,0 9.498353199999999,47.658615299999965,0 9.498356499999998,47.658551999999965,0 9.5009181,47.655095999999965,0 9.5029428,47.65323649999997,0 9.5080218,47.64951099999997,0 9.509148099999999,47.64833689999997,0 9.5124526,47.643422499999964,0 9.5137583,47.64208779999996,0 9.5236781,47.634871799999964,0 9.525592600000001,47.63388719999997,0 9.5267374,47.63349609999997,0 9.5305048,47.63259529999997,0 9.530548199999998,47.63260239999997,0 9.539015999999998,47.63060179999997,0 9.541734599999998,47.62967579999997,0 9.560256899999999,47.62084149999997,0 9.564458899999998,47.61814269999997,0 9.573043499999999,47.61114379999997,0 9.575572599999997,47.609644999999965,0 9.577541599999996,47.60884599999997,0 9.579187799999996,47.608413999999975,0 9.581822199999996,47.60805359999997,0 9.583486899999997,47.608043699999975,0 9.589211699999996,47.60858999999997,0 9.589251199999996,47.608610999999975,0 9.591111399999997,47.608643199999975,0 9.593538899999997,47.60842089999998,0 9.595332599999995,47.608049799999975,0 9.596801399999995,47.60759779999997,0 9.602009399999995,47.605464499999975,0 9.603605299999995,47.60499409999998,0 9.605236299999996,47.60467079999998,0 9.606869599999996,47.60450149999998,0 9.608351999999996,47.60447369999998,0 9.613372999999996,47.60481229999998,0 9.615896799999996,47.60481529999998,0 9.619427099999996,47.604478299999975,0 9.622712699999996,47.60376449999997,0 9.625460699999994,47.60278109999997,0 9.627340499999995,47.60172299999997,0 9.628476599999995,47.600814899999975,0 9.631259499999995,47.59752739999997,0 9.632020999999996,47.596878399999966,0 9.633223299999996,47.596126299999966,0 9.634348499999996,47.595620899999965,0 9.639327199999995,47.59403909999997,0 9.652713699999994,47.58744319999997,0 9.660519899999993,47.58445369999996,0 9.663789199999995,47.583437399999966,0 9.671248499999994,47.58209009999997,0 9.679485599999992,47.57965649999996,0 9.683591399999992,47.57882569999996,0 9.684794699999992,47.57844449999996,0 9.688463999999994,47.576569599999964,0 9.689859699999994,47.57600929999996,0 9.691000099999993,47.57568079999996,0 9.693125799999994,47.57532819999996,0 9.695989599999994,47.575324999999964,0 9.704360599999994,47.57642879999996,0 9.706884699999994,47.57640689999996,0 9.718655899999995,47.57436299999996,0 9.721621199999994,47.574114999999956,0 9.723675699999994,47.57425759999996,0 9.724950699999996,47.57448619999996,0 9.726096999999996,47.57481629999996,0 9.727697199999996,47.575554599999954,0 9.730542299999996,47.577545999999955,0 9.731365999999996,47.577978799999954,0 9.733026299999997,47.57862729999996,0 9.733092599999997,47.57856059999996,0 9.733157799999997,47.57854469999996,0 9.733546099999996,47.57862139999996,0 9.733858599999996,47.57859499999996,0 9.734366399999995,47.57837269999996,0 9.734582099999995,47.57813559999996,0 9.734739799999996,47.57489399999996,0 9.735187499999997,47.572154099999956,0 9.737432299999995,47.56520069999996,0 9.737526999999996,47.56374719999996,0 9.737344299999995,47.56197469999996,0 9.736861699999995,47.56034389999996,0 9.734068199999996,47.55494899999996,0 9.733665999999996,47.55366019999996,0 9.733519399999997,47.55233219999995,0 9.733826099999996,47.550434899999956,0 9.734463999999996,47.549008399999956,0 9.735758299999997,47.54733739999996,0 9.737813399999997,47.54554289999996,0 9.739571199999997,47.54459309999995,0 9.739654699999996,47.54446669999995,0 9.739617599999995,47.54426719999996,0 9.739410699999997,47.54412289999995,0 9.739056699999995,47.54410429999995,0 9.738867699999997,47.54419409999995,0 9.738811699999996,47.54427979999995,0 9.738871999999995,47.54484239999995,0 9.738233799999996,47.54517689999995,0 9.737955899999998,47.54509729999995,0 9.737811599999997,47.54516659999995,0 9.737643999999998,47.54503129999995,0 9.737244099999998,47.54522109999995,0 9.737448599999999,47.54539909999995,0 9.737108599999997,47.54563439999995,0 9.736712299999999,47.54563089999995,0 9.736574599999997,47.54559439999995,0 9.736465299999997,47.54543889999995,0 9.738904899999998,47.54407349999995,0 9.739275799999998,47.54401369999995,0 9.740054299999997,47.54421559999995,0 9.740672599999996,47.54425939999995,0 9.744046299999997,47.543202299999955,0 9.744263699999996,47.54318429999995,0 9.755761999999997,47.53957369999995,0 9.759628499999996,47.53810139999995,0 9.761972299999996,47.53673939999995,0 9.764092399999996,47.535234699999954,0 9.766249899999996,47.533075799999956,0 9.767687899999997,47.530796199999955,0 9.768439299999995,47.528587799999954,0 9.768640999999997,47.52623719999996,0 9.767038599999998,47.504503399999955,0 9.766528499999998,47.502527399999956,0 9.765920199999998,47.50115059999996,0 9.764499599999999,47.498892499999954,0 9.760967899999999,47.49585289999995,0 9.759415099999998,47.49494939999996,0 9.750146499999998,47.491012699999956,0 9.747873499999997,47.489721699999954,0 9.745689799999997,47.48804819999995,0 9.744211899999996,47.48664359999996,0 9.741998599999997,47.48367109999996,0 9.741224099999997,47.482163899999954,0 9.740688099999998,47.48044649999996,0 9.739429699999997,47.47285359999996,0 9.738808499999996,47.47084929999996,0 9.738155199999996,47.46951759999996,0 9.737233199999997,47.46815479999996,0 9.735268599999996,47.466151799999956,0 9.734302999999995,47.465430899999966,0 9.732028499999995,47.46422229999996,0 9.726231799999994,47.46194479999996,0 9.725174399999995,47.46129359999997,0 9.723369799999995,47.459714799999965,0 9.722132899999995,47.458073799999966,0 9.721365499999996,47.456109199999965,0 9.721243299999996,47.45417829999997,0 9.722818599999997,47.44750839999997,0 9.723117499999995,47.443952299999964,0 9.722646099999995,47.43979429999997,0 9.720445299999996,47.43223089999997,0 9.718250199999995,47.42825879999997,0 9.712348299999995,47.421112799999975,0 9.710389799999996,47.41812339999998,0 9.707271399999996,47.412315899999975,0 9.704721799999996,47.408552999999976,0 9.702454799999998,47.40594279999998,0 9.699429199999997,47.40307839999998,0 9.694995499999997,47.399742699999976,0 9.684599399999998,47.39345189999998,0 9.682101199999998,47.39145389999998,0 9.679714299999997,47.38893229999998,0 9.678121399999997,47.386455499999975,0 9.676035099999996,47.38161109999998,0 9.674713899999997,47.37945939999998,0 9.672081699999996,47.37652909999998,0 9.666841899999996,47.37249059999998,0 9.657487699999995,47.366467499999985,0 9.648818399999996,47.36165719999998,0 9.643458999999996,47.35792149999998,0 9.640881199999997,47.35546719999998,0 9.638183499999997,47.35197969999998,0 9.635078199999995,47.34500119999998,0 9.631733699999996,47.338895799999975,0 9.628723699999997,47.334349599999975,0 9.628233999999996,47.333323199999974,0 9.627803599999996,47.331619599999975,0 9.627820699999996,47.32859749999998,0 9.627442699999996,47.326950699999976,0 9.626879499999996,47.32575539999998,0 9.625030999999996,47.322956399999974,0 9.621764999999996,47.31514799999998,0 9.620782999999996,47.31129109999998,0 9.620197999999997,47.31143069999998,0 9.620126699999997,47.31148279999998,0 9.620001599999995,47.31149559999998,0 9.619924699999995,47.31146939999998,0 9.619867799999996,47.31140389999998,0 9.619870399999995,47.31134779999997,0 9.619932099999996,47.31128459999997,0 9.620639399999995,47.30190629999997,0 9.620565899999995,47.30187139999997,0 9.620533699999996,47.30182099999997,0 9.620560199999996,47.30174419999997,0 9.620664699999995,47.30169979999997,0 9.621531499999996,47.29883299999997,0 9.621528999999995,47.29841879999998,0 9.620705399999995,47.296745799999975,0 9.620651799999996,47.29622869999998,0 9.621140899999997,47.294331999999976,0 9.621107299999997,47.29243329999997,0 9.619510399999998,47.28548279999997,0 9.618015599999998,47.28077089999997,0 9.617894299999998,47.28072109999997,0 9.617863899999998,47.28064809999997,0 9.617937699999997,47.280559399999966,0 9.617935799999996,47.28024599999996,0 9.615534899999997,47.27250259999997,0 9.615424099999997,47.271577099999966,0 9.615374199999996,47.27154459999996,0 9.615345799999997,47.27145499999996,0 9.615385899999996,47.27139989999996,0 9.614988499999997,47.26276289999996,0 9.615225899999997,47.26035089999996,0 9.614430299999999,47.25801479999997,0 9.614956699999999,47.25412209999997,0 9.614821299999997,47.25337539999997,0 9.611650499999998,47.249006499999965,0 9.608507399999997,47.24587719999997,0 9.598521499999997,47.239198599999966,0 9.597959799999996,47.238960699999964,0 9.597506699999997,47.23901329999997,0 9.596203699999997,47.23837079999996,0 9.594298799999997,47.23802629999996,0 9.594090299999998,47.23790199999996,0 9.593238499999996,47.237033399999966,0 9.590044899999997,47.23462529999996,0 9.589620199999997,47.234091199999966,0 9.588389299999998,47.23318909999996,0 9.587311399999997,47.23215309999996,0 9.586330999999998,47.23036899999997,0 9.582888499999997,47.22620709999996,0 9.581304099999997,47.22483429999996,0 9.574837599999997,47.22115189999996,0 9.572081199999998,47.218966899999955,0 9.567935799999997,47.217113699999956,0 9.566858199999999,47.21642339999996,0 9.5644099,47.214131399999964,0 9.5624184,47.21156459999996,0 9.561608799999998,47.210847999999956,0 9.561261599999998,47.21064099999996,0 9.5580483,47.20948899999996,0 9.5532074,47.20866309999996,0 9.551476,47.20819319999996,0 9.550110599999998,47.20747839999996,0 9.547055799999999,47.204694599999954,0 9.546268399999999,47.20363709999995,0 9.544956299999999,47.200634899999955,0 9.541874099999998,47.197220799999954,0 9.540217799999997,47.19475849999995,0 9.539925499999997,47.19385629999995,0 9.5398141,47.19284749999995,0 9.540065899999998,47.19072999999995,0 9.539984899999999,47.18984269999995,0 9.539759199999999,47.18926339999995,0 9.539129599999999,47.18847239999995,0 9.535976699999999,47.18617469999995,0 9.53429,47.18541519999995,0 9.528030399999999,47.18367879999995,0 9.5260614,47.182762499999946,0 9.5245277,47.18162929999995,0 9.5232731,47.18013599999995,0 9.5224324,47.17875109999995,0 9.522052799999999,47.17858009999995,0 9.5220035,47.178519099999946,0 9.5220077,47.17845019999994,0 9.5220871,47.17838969999995,0 9.5221897,47.178167499999944,0 9.5197544,47.17280879999995,0 9.518250499999999,47.17148999999995,0 9.5173372,47.170869999999944,0 9.5155697,47.170126999999944,0 9.5141977,47.16919059999994,0 9.510659599999999,47.167596999999944,0 9.510491,47.167610399999944,0 9.50958,47.16803149999994,0 9.509172600000001,47.168066499999945,0 9.5090626,47.16802359999994,0 9.509021,47.16797439999994,0 9.5088204,47.166870999999944,0 9.507952199999998,47.16534569999994,0 9.507822899999999,47.163839399999944,0 9.508610299999999,47.163812099999944,0 9.5085329,47.16326589999994,0 9.508944600000001,47.160449199999945,0 9.5095991,47.15810739999994,0 9.509628600000001,47.15697139999994,0 9.509749300000001,47.15651969999994,0 9.510355400000002,47.15534969999994,0 9.511314300000002,47.15100119999994,0 9.512676900000002,47.14785909999994,0 9.513391400000001,47.146728599999946,0 9.514575900000002,47.14548949999995,0 9.518658200000003,47.143029399999946,0 9.520922000000002,47.141214999999946,0 9.520952900000003,47.141140199999946,0 9.520857400000002,47.14112149999995,0 9.520795300000001,47.14104809999994,0 9.520809200000002,47.14099499999995,0 9.520909000000003,47.14093989999995,0 9.520914700000002,47.14083949999995,0 9.521101100000003,47.14054839999995,0 </coordinates></LineString><TimeSpan><begin>2019-12-25T14:02:05.272Z</begin><end>2019-12-25T15:33:21.000Z</end></TimeSpan></Placemark><Placemark><name>Walking</name><address></address><ExtendedData><Data name="Email"><value>syugen.zhou@gmail.com</value></Data><Data name="Category"><value>Walking</value></Data><Data name="Distance"><value>1121</value></Data></ExtendedData><description> Walking from 2019-12-25T15:33:21.000Z to 2019-12-25T16:48:29.000Z. Distance 1121m </description><LineString><altitudeMode>clampToGround</altitudeMode><extrude>1</extrude><tesselate>1</tesselate><coordinates>9.5211011,47.1405484,0 9.5211457,47.140494700000005,0 9.5212278,47.1404013,0 9.5212881,47.1403429,0 9.5213326,47.14029690000001,0 9.521386,47.140228900000004,0 9.5214263,47.140166,0 9.5214625,47.140101200000004,0 9.521489299999999,47.1400419,0 9.5215161,47.1399744,0 9.5215362,47.1399014,0 9.521553699999998,47.1398202,0 9.521565699999998,47.139731700000006,0 9.5215724,47.139649600000006,0 9.5215811,47.1395411,0 9.5215832,47.139374100000005,0 9.5215859,47.1393185,0 9.521587199999999,47.1392556,0 9.5215912,47.1391789,0 9.521598999999998,47.1391116,0 9.521614999999999,47.138978,0 9.521618,47.1389609,0 9.521639500000001,47.138825000000004,0 9.5216764,47.1386589,0 9.521690500000002,47.1385805,0 9.521710100000002,47.138473600000005,0 9.521722000000002,47.138426,0 9.521794000000002,47.1380551,0 9.521816100000002,47.13795230000001,0 9.521840800000003,47.13786,0 9.521840800000003,47.13785670000001,0 9.521894300000003,47.13766460000001,0 9.521966700000002,47.137554200000004,0 9.521997600000002,47.13745290000001,0 9.522035800000003,47.13732640000001,0 9.522068600000003,47.13721570000001,0 9.522091400000003,47.13714640000001,0 9.522114200000003,47.137091700000006,0 9.5222054,47.13692470000001,0 9.522243500000002,47.13692200000001,0 9.5222922,47.13690640000001,0 9.522319400000002,47.13688910000001,0 9.522377,47.13691530000001,0 9.522370400000002,47.13697220000002,0 9.522450000000003,47.13742000000001,0 9.522460000000002,47.137780000000014,0 9.522490000000001,47.13822000000002,0 9.522500400000002,47.13837580000001,0 9.522530000000001,47.13882000000002,0 9.522590000000003,47.13909000000002,0 9.522590000000003,47.139420000000015,0 9.522610000000002,47.139690000000016,0 9.52269,47.139930000000014,0 9.522750000000002,47.14023000000002,0 9.52269,47.14038000000002,0 9.522570000000002,47.14055000000002,0 9.522464300000001,47.14063940000002,0 9.522330200000003,47.140724200000015,0 9.522197400000001,47.14080540000001,0 9.5221303,47.14084370000001,0 9.522067300000002,47.14087290000001,0 9.521946600000001,47.14092680000001,0 9.5218138,47.140968700000016,0 9.521829900000002,47.14092950000002,0 9.521836600000002,47.14090400000002,0 9.521835300000001,47.14087840000002,0 9.5218232,47.14084650000002,0 9.521805800000001,47.14081640000002,0 9.521777600000002,47.14078170000002,0 9.521741400000002,47.14074430000002,0 9.521516100000001,47.14053180000002,0 9.521447700000001,47.14048800000002,0 9.521376600000002,47.14044880000002,0 9.5213471,47.140436900000026,0 9.5213082,47.14042320000003,0 9.5212278,47.14040130000003,0 9.521288100000001,47.14034290000003,0 9.521332600000001,47.14029690000003,0 9.521386000000001,47.14022890000003,0 9.521426300000002,47.14016600000003,0 9.521462500000002,47.140101200000025,0 9.5214893,47.14004190000003,0 9.521516100000001,47.13997440000003,0 9.521536200000002,47.13990140000003,0 9.5215537,47.13982020000003,0 9.5215657,47.13973170000003,0 9.521572400000002,47.139649600000034,0 9.521581100000002,47.13954110000003,0 9.521583200000002,47.139374100000026,0 9.5215859,47.13931850000003,0 9.5215872,47.13925560000003,0 9.521591200000001,47.139178900000026,0 9.521599,47.13911160000003,0 9.521615,47.13897800000003,0 9.521618,47.13896090000003,0 9.521639500000001,47.13882500000003,0 9.522253700000002,47.13884230000003,0 9.522530000000001,47.13882000000003,0 9.522500400000002,47.13837580000003,0 9.522125500000001,47.13835940000003,0 </coordinates></LineString><TimeSpan><begin>2019-12-25T15:33:21.000Z</begin><end>2019-12-25T16:48:29.000Z</end></TimeSpan></Placemark><Placemark><name>Liechtenstein Center</name><address>Städtle 39, 9490 Vaduz, Liechtenstein</address><ExtendedData><Data name="Email"><value>syugen.zhou@gmail.com</value></Data><Data name="Category"><value>Tourist information center</value></Data><Data name="Distance"><value>0</value></Data></ExtendedData><description> Tourist information center from 2019-12-25T16:48:29.000Z to 2019-12-25T16:58:15.000Z. Distance 0m </description><Point><coordinates>9.522587699999999,47.1384708,0</coordinates></Point><TimeSpan><begin>2019-12-25T16:48:29.000Z</begin><end>2019-12-25T16:58:15.000Z</end></TimeSpan></Placemark><Placemark><name>Driving</name><address></address><ExtendedData><Data name="Email"><value>syugen.zhou@gmail.com</value></Data><Data name="Category"><value>Driving</value></Data><Data name="Distance"><value>2058</value></Data></ExtendedData><description> Driving from 2019-12-25T16:58:15.281Z to 2019-12-25T17:03:06.000Z. Distance 2058m </description><LineString><altitudeMode>clampToGround</altitudeMode><extrude>1</extrude><tesselate>1</tesselate><coordinates>9.5217396,47.1383351,0 9.521639500000001,47.138825,0 9.5215912,47.1391789,0 9.521553699999998,47.1398202,0 9.5215161,47.1399744,0 9.5214625,47.140101200000004,0 9.521386,47.1402289,0 9.521319,47.140311,0 9.5212278,47.14040129999999,0 9.521013400000001,47.14065409999999,0 9.520965900000002,47.140730399999995,0 9.5209147,47.1408395,0 9.5209047,47.140906199999996,0 9.520909000000001,47.1409399,0 9.520942500000002,47.1409405,0 9.520993400000002,47.1409519,0 9.521020900000002,47.1409649,0 9.521047200000002,47.1409856,0 9.521066300000001,47.1410148,0 9.521071300000003,47.1410373,0 9.521069900000002,47.1410555,0 9.521061200000002,47.1410778,0 9.521049200000002,47.1410942,0 9.521018700000003,47.141118399999996,0 9.520978600000001,47.1411349,0 9.520952900000003,47.1411402,0 9.520939400000003,47.1411867,0 9.520922000000004,47.141215,0 9.520264900000003,47.1417997,0 9.518658200000004,47.143029399999996,0 9.517488800000004,47.1437117,0 9.517070400000003,47.1439744,0 9.515863400000004,47.1446184,0 9.516077900000004,47.1448765,0 9.516815000000005,47.1455963,0 9.516980100000003,47.145779700000006,0 9.517389500000004,47.146143900000006,0 9.517821400000004,47.14644810000001,0 9.518134300000003,47.14623110000001,0 9.518322900000003,47.14608330000001,0 9.518431600000003,47.146011200000004,0 9.518683700000004,47.14588620000001,0 9.518801700000004,47.14583970000001,0 9.519988600000005,47.1454858,0 9.520329200000004,47.14536450000001,0 9.521545600000005,47.1450088,0 9.521797700000006,47.1449677,0 9.522037800000005,47.1449595,0 9.522174600000007,47.1449659,0 9.522909500000006,47.1450626,0 9.523002100000005,47.14506900000001,0 9.523090600000005,47.1450626,0 9.523163000000006,47.14504530000001,0 9.523234100000005,47.145019700000006,0 9.523278300000005,47.144992300000006,0 9.523348100000003,47.14493030000001,0 9.523381600000004,47.14488560000001,0 9.523407100000005,47.14482730000001,0 9.523416500000005,47.144755200000006,0 9.523409800000005,47.1444259,0 9.523428500000005,47.14429820000001,0 9.523486200000006,47.1441559,0 9.523659200000006,47.143855800000004,0 9.523978400000006,47.14338600000001,0 9.524206400000006,47.14312520000001,0 9.524280100000006,47.14302210000001,0 9.524349900000006,47.14285420000001,0 9.524400800000006,47.14265540000001,0 9.524431700000006,47.14246020000001,0 9.524431700000006,47.141843500000014,0 9.524459800000008,47.14142480000001,0 9.524516200000006,47.14101070000001,0 9.524510800000007,47.14088480000001,0 9.524488000000007,47.14081640000001,0 9.524333800000006,47.14055180000001,0 9.524324400000006,47.14052080000001,0 9.524331100000008,47.14046430000001,0 9.524345800000008,47.140439600000015,0 9.52437130000001,47.14041680000001,0 9.524408900000008,47.140399500000015,0 9.52444780000001,47.140392200000015,0 9.52448530000001,47.140392200000015,0 9.52452020000001,47.14039680000002,0 9.52456040000001,47.14040950000002,0 9.52459130000001,47.140428700000015,0 9.52463150000001,47.140477900000015,0 9.52463820000001,47.140499800000015,0 9.52464630000001,47.14064120000002,0 9.52466100000001,47.140687800000016,0 9.52467580000001,47.14071240000001,0 9.52470120000001,47.14073980000002,0 9.524740100000011,47.14076530000002,0 9.524789800000011,47.140779000000016,0 9.52483940000001,47.14077990000001,0 9.524887700000011,47.14076530000002,0 9.524931900000011,47.14073610000001,0 9.524954700000011,47.14069600000002,0 9.524956000000012,47.14064940000002,0 9.52486620000001,47.14030370000002,0 9.52480840000001,47.13955070000002,0 </coordinates></LineString><TimeSpan><begin>2019-12-25T16:58:15.281Z</begin><end>2019-12-25T17:03:06.000Z</end></TimeSpan></Placemark><Placemark><name>Vaduz Castle</name><address>Bergstrasse 2, 9490 Vaduz, Liechtenstein</address><ExtendedData><Data name="Email"><value>syugen.zhou@gmail.com</value></Data><Data name="Category"><value>Castle</value></Data><Data name="Distance"><value>0</value></Data></ExtendedData><description> Castle from 2019-12-25T17:03:06.000Z to 2019-12-25T17:06:28.000Z. Distance 0m </description><Point><coordinates>9.5243035,47.139587999999996,0</coordinates></Point><TimeSpan><begin>2019-12-25T17:03:06.000Z</begin><end>2019-12-25T17:06:28.000Z</end></TimeSpan></Placemark><Placemark><name>Driving</name><address></address><ExtendedData><Data name="Email"><value>syugen.zhou@gmail.com</value></Data><Data name="Category"><value>Driving</value></Data><Data name="Distance"><value>233425</value></Data></ExtendedData><description> Driving from 2019-12-25T17:06:28.000Z to 2019-12-25T19:42:32.000Z. Distance 233425m </description><LineString><altitudeMode>clampToGround</altitudeMode><extrude>1</extrude><tesselate>1</tesselate><coordinates>9.5248084,47.1395507,0 9.5249319,47.1407361,0 9.5248394,47.1407799,0 9.524740099999999,47.140765300000005,0 9.524661,47.1406878,0 9.524591299999999,47.1404287,0 9.524447799999999,47.14039220000001,0 9.524371299999999,47.140416800000004,0 9.5243244,47.140520800000004,0 9.524510799999998,47.1408848,0 9.524280099999999,47.14302210000001,0 9.523428499999998,47.14429820000001,0 9.523407099999998,47.14482730000001,0 9.523234099999998,47.145019700000006,0 9.5230021,47.145069000000014,0 9.522174599999998,47.14496590000002,0 9.521545599999998,47.145008800000014,0 9.5188017,47.14583970000001,0 9.516543199999997,47.14723030000001,0 9.515945899999997,47.14787240000001,0 9.515070799999997,47.14951910000001,0 9.514483399999996,47.15017220000001,0 9.512270499999998,47.15195340000001,0 9.511633499999997,47.152220600000014,0 9.511042099999997,47.152262600000014,0 9.510355399999998,47.15534970000001,0 9.509628599999997,47.15697140000001,0 9.509599099999996,47.15810740000001,0 9.508532899999997,47.16326590000001,0 9.508992899999996,47.16565760000002,0 9.509741799999995,47.16678120000002,0 9.510405199999996,47.167404900000015,0 9.514197699999995,47.169190600000015,0 9.515569699999995,47.170127000000015,0 9.517337199999995,47.170870000000015,0 9.519754399999995,47.17280880000001,0 9.522362299999994,47.17850040000002,0 9.522323799999995,47.17858450000002,0 9.523273099999994,47.18013600000002,0 9.524527699999993,47.18162930000002,0 9.526061399999994,47.18276250000002,0 9.528030399999993,47.18367880000002,0 9.534289999999993,47.185415200000016,0 9.535976699999992,47.18617470000002,0 9.539129599999992,47.18847240000002,0 9.539759199999992,47.18926340000002,0 9.539984899999991,47.18984270000002,0 9.540065899999993,47.19073000000002,0 9.539814099999992,47.19284750000002,0 9.540217799999992,47.19475850000002,0 9.541874099999992,47.197220800000025,0 9.544956299999992,47.200634900000026,0 9.546268399999992,47.20363710000002,0 9.547055799999992,47.204694600000025,0 9.550110599999991,47.20747840000003,0 9.551475999999992,47.208193200000025,0 9.553207399999993,47.20866310000003,0 9.558048299999992,47.20948900000003,0 9.561261599999993,47.21064100000003,0 9.562418399999993,47.21156460000003,0 9.564409899999992,47.21413140000003,0 9.566858199999992,47.21642340000003,0 9.567935799999992,47.21711370000003,0 9.57208119999999,47.21896690000003,0 9.57483759999999,47.22115190000003,0 9.58130409999999,47.22483430000003,0 9.58288849999999,47.22620710000003,0 9.58633099999999,47.23036900000004,0 9.587311399999992,47.23215310000003,0 9.58838929999999,47.23318910000003,0 9.589620199999992,47.23409120000004,0 9.59004489999999,47.23462530000003,0 9.593238499999991,47.23703340000004,0 9.59409029999999,47.237902000000034,0 9.594298799999992,47.23802630000003,0 9.596321999999992,47.23837410000003,0 9.597530599999992,47.23892060000003,0 9.597996199999992,47.23888800000003,0 9.599231699999992,47.237211400000035,0 9.599374699999991,47.23650730000003,0 9.599127999999991,47.23512290000003,0 9.59951489999999,47.233507300000035,0 9.600645899999991,47.23194320000003,0 9.60137169999999,47.231431000000036,0 9.603267699999991,47.23063770000004,0 9.60381349999999,47.23023520000004,0 9.60402389999999,47.229944200000034,0 9.60415179999999,47.22953650000004,0 9.60414249999999,47.22835400000004,0 9.60439319999999,47.22761900000004,0 9.605015399999989,47.22678550000004,0 9.60646409999999,47.225648700000036,0 9.60766659999999,47.225072200000035,0 9.608548699999988,47.22485920000003,0 9.608683499999989,47.22521970000003,0 9.609025199999989,47.225429200000036,0 9.615378899999989,47.22691950000004,0 9.61960409999999,47.228281300000035,0 9.619818299999991,47.22851210000004,0 9.619828699999992,47.228831100000036,0 9.619541799999991,47.229123700000045,0 9.61673189999999,47.230418900000046,0 9.61570459999999,47.23132130000005,0 9.614214699999991,47.233198000000044,0 9.613222199999992,47.235686200000046,0 9.613013199999992,47.237323400000044,0 9.613379499999992,47.23971140000005,0 9.61393089999999,47.24103160000004,0 9.615214099999992,47.24294990000004,0 9.620023099999992,47.24829260000005,0 9.62222309999999,47.25153500000005,0 9.623898799999992,47.25527860000004,0 9.624572099999993,47.25783730000004,0 9.625140399999992,47.26205160000004,0 9.624971399999993,47.26443870000004,0 9.622308299999993,47.27141080000005,0 9.621975599999992,47.273428600000045,0 9.622226999999992,47.27701740000005,0 9.626081299999992,47.286509500000044,0 9.626618899999993,47.290737100000044,0 9.626200699999993,47.29356500000005,0 9.621746399999992,47.308033200000054,0 9.621308999999993,47.31104920000005,0 9.621683899999992,47.31409160000005,0 9.625200999999992,47.322988000000045,0 9.627432899999992,47.326521300000046,0 9.627862599999993,47.327810800000044,0 9.628124699999994,47.33245420000004,0 9.628751699999993,47.33409690000005,0 9.633443799999991,47.341495700000046,0 9.637857299999991,47.351069000000045,0 9.639141299999991,47.35315450000005,0 9.641783899999991,47.356202500000045,0 9.64464659999999,47.35872810000005,0 9.647328899999993,47.36060060000005,0 9.664623899999992,47.37078920000005,0 9.671086299999992,47.37552240000005,0 9.672965999999992,47.37718550000005,0 9.674855899999992,47.37941000000005,0 9.676349799999992,47.38193360000005,0 9.678082999999992,47.38610490000005,0 9.679319999999992,47.38816750000005,0 9.680499299999992,47.389650500000045,0 9.683693299999993,47.39261560000004,0 9.685580799999993,47.39396790000005,0 9.694807699999993,47.399465800000044,0 9.698696799999993,47.40229540000005,0 9.703493099999992,47.40686520000005,0 9.706116799999993,47.41022050000005,0 9.711484999999993,47.41960010000005,0 9.718377699999992,47.42818150000005,0 9.719679099999993,47.43026870000005,0 9.721175699999993,47.43376080000005,0 9.722458799999993,47.438302300000046,0 9.723257899999993,47.44340640000005,0 9.723066499999993,47.44704700000005,0 9.721689599999992,47.45248710000005,0 9.721386999999993,47.45488550000005,0 9.721896199999993,47.45727320000005,0 9.722746799999992,47.45875670000005,0 9.723724899999993,47.45989560000005,0 9.724736499999993,47.460771400000056,0 9.726610099999993,47.461948400000054,0 9.731981499999993,47.464033900000054,0 9.733868099999993,47.464965600000056,0 9.735347599999992,47.46599200000006,0 9.736847099999993,47.46740950000006,0 9.738703799999993,47.47013620000006,0 9.739395699999992,47.47191850000006,0 9.741135299999993,47.481295200000055,0 9.741772599999992,47.482912000000056,0 9.743407899999992,47.485471700000055,0 9.744642599999992,47.48681630000006,0 9.74617729999999,47.48810360000006,0 9.748044899999991,47.48933180000006,0 9.75102929999999,47.49076620000006,0 9.75799239999999,47.49342850000006,0 9.76197119999999,47.495493100000054,0 9.76513439999999,47.49814500000005,0 9.76697989999999,47.50062460000005,0 9.76795739999999,47.50304880000005,0 9.768324899999989,47.50468020000006,0 9.76994549999999,47.52586420000006,0 9.76947579999999,47.529842300000055,0 9.76885609999999,47.531305700000054,0 9.76731669999999,47.53352080000006,0 9.76554759999999,47.53519510000006,0 9.76362759999999,47.536529400000056,0 9.76079859999999,47.538014200000056,0 9.739902399999991,47.54471730000006,0 9.737976299999989,47.54569070000006,0 9.736340399999989,47.546972200000056,0 9.73505089999999,47.548391300000056,0 9.73440949999999,47.549424300000055,0 9.73385939999999,47.55088520000006,0 9.73371849999999,47.55297440000006,0 9.73411839999999,47.55461880000006,0 9.736867499999988,47.559950300000054,0 9.737654499999987,47.56295740000005,0 9.737427299999988,47.56606000000006,0 9.735247399999988,47.572615000000056,0 9.734915899999988,47.57477780000006,0 9.735055099999988,47.57842960000005,0 9.736260599999989,47.584310800000054,0 9.736179299999987,47.58860720000005,0 9.735258799999988,47.59190720000005,0 9.732665799999989,47.598129400000055,0 9.73228429999999,47.60101590000006,0 9.73236409999999,47.602756000000056,0 9.733690599999989,47.60955520000005,0 9.735448399999989,47.61505900000005,0 9.739834199999988,47.62535630000005,0 9.74023819999999,47.62712270000005,0 9.740734599999989,47.63302050000005,0 9.741855299999989,47.636191100000055,0 9.74357479999999,47.63902890000005,0 9.74600709999999,47.64194950000005,0 9.749562499999989,47.645128300000046,0 9.753666299999988,47.64786060000005,0 9.767282299999989,47.65555770000005,0 9.772943899999989,47.659863700000045,0 9.777564199999988,47.66443020000005,0 9.780316799999989,47.66784530000005,0 9.78216649999999,47.67066400000005,0 9.78315569999999,47.67267400000006,0 9.78401469999999,47.67536650000005,0 9.78516429999999,47.68230260000006,0 9.786048099999988,47.68499800000006,0 9.787300199999988,47.68741910000005,0 9.792938399999988,47.69493130000005,0 9.794927799999988,47.69870910000005,0 9.797330999999987,47.70188700000005,0 9.79978619999999,47.70414990000005,0 9.801518699999988,47.70541760000005,0 9.804991899999989,47.70742320000005,0 9.808456099999988,47.70889950000005,0 9.811703299999989,47.70991320000005,0 9.816033599999988,47.71080950000005,0 9.825893399999988,47.71208430000006,0 9.831031199999988,47.713400400000054,0 9.843334199999987,47.71818710000005,0 9.845352499999988,47.718712100000054,0 9.849313499999989,47.719291000000055,0 9.855807999999987,47.719535400000055,0 9.85964919999999,47.72015820000006,0 9.86306179999999,47.72116030000006,0 9.866173399999989,47.72239540000006,0 9.869628499999989,47.724222200000064,0 9.879028999999989,47.73129620000007,0 9.890240699999989,47.73810270000006,0 9.89308739999999,47.740354300000064,0 9.898314199999989,47.745487300000065,0 9.905254699999988,47.75121210000007,0 9.911959299999989,47.75840020000006,0 9.928931299999988,47.77046430000006,0 9.935107399999989,47.774022300000055,0 9.93860829999999,47.77545490000006,0 9.948017699999989,47.77768340000006,0 9.95146499999999,47.77873500000006,0 9.95624769999999,47.78075470000006,0 9.96006989999999,47.78314580000006,0 9.962131199999991,47.784937000000056,0 9.963798999999991,47.78684110000005,0 9.96694809999999,47.791956000000056,0 9.96797699999999,47.793115400000055,0 9.97005339999999,47.794817800000054,0 9.971947299999991,47.79592180000005,0 9.97810149999999,47.79836030000005,0 9.98227529999999,47.80054920000005,0 9.98471809999999,47.802342900000056,0 9.98632699999999,47.80384850000006,0 9.988052199999991,47.805948500000056,0 9.98920479999999,47.80788290000006,0 9.990243199999991,47.81071810000005,0 9.991498799999992,47.82058580000005,0 9.991645799999993,47.83019860000005,0 9.990625199999993,47.84379680000005,0 9.990842799999994,47.84590270000005,0 9.991622499999995,47.84793330000005,0 9.992982799999995,47.849831400000056,0 9.994417399999996,47.85117470000005,0 9.996189899999996,47.85238870000005,0 10.002491499999996,47.85582890000005,0 10.004832699999996,47.85769850000005,0 10.008718699999996,47.86194380000004,0 10.010617599999996,47.86341350000004,0 10.012383899999996,47.86444520000005,0 10.017648699999997,47.86683340000005,0 10.022229699999997,47.86959930000004,0 10.028298299999996,47.87217430000004,0 10.029726499999997,47.87301760000004,0 10.033780999999996,47.876225100000035,0 10.036132599999997,47.87862710000004,0 10.046249399999997,47.89258090000004,0 10.047781799999997,47.893942900000035,0 10.050619999999997,47.895721300000034,0 10.058987799999995,47.899226600000034,0 10.061780299999995,47.901086000000035,0 10.063333899999996,47.902513000000035,0 10.064506099999996,47.90394490000004,0 10.065696099999997,47.906081500000035,0 10.067421299999996,47.91096250000004,0 10.068503199999995,47.91294930000004,0 10.070034299999996,47.91496390000003,0 10.071536699999996,47.91648010000003,0 10.073992699999996,47.918412900000035,0 10.093547999999995,47.93117260000003,0 10.095185199999996,47.93264070000003,0 10.097021799999995,47.93478180000003,0 10.098627099999995,47.937540700000035,0 10.100077899999995,47.941197300000034,0 10.103944199999995,47.94752180000003,0 10.107587399999996,47.95673340000004,0 10.109334299999997,47.95968090000004,0 10.123111699999997,47.97821430000003,0 10.128098699999997,47.983395400000035,0 10.135114199999997,47.98886980000004,0 10.138561399999997,47.990938600000035,0 10.142286199999997,47.992818000000035,0 10.149962299999997,47.99573430000003,0 10.154171499999999,47.99692020000003,0 10.159178999999998,47.99796510000003,0 10.1674741,47.99895050000003,0 10.172982,47.99910610000003,0 10.2010041,47.99843200000003,0 10.207040399999999,47.998616100000035,0 10.2140121,47.99811240000003,0 10.218135199999999,47.998263200000025,0 10.221407899999999,47.99882670000003,0 10.2236423,47.99945420000003,0 10.233203399999999,48.00318120000003,0 10.247900499999998,48.00981920000003,0 10.2502746,48.011413500000025,0 10.2542955,48.01485760000003,0 10.2564906,48.016335000000026,0 10.258510099999999,48.01730200000003,0 10.259984399999999,48.017828700000024,0 10.262788099999998,48.01852460000003,0 10.282914599999998,48.021934800000025,0 10.289162699999999,48.02390750000003,0 10.292449099999999,48.02440660000003,0 10.303221699999998,48.02441880000003,0 10.305431399999998,48.02463710000003,0 10.335773699999999,48.029516300000026,0 10.3682038,48.03643900000003,0 10.3733531,48.03722460000003,0 10.3791307,48.03753700000003,0 10.3876204,48.03728320000003,0 10.403193499999999,48.03604960000003,0 10.4108539,48.03448960000003,0 10.413633599999999,48.03414000000003,0 10.4531837,48.031930300000035,0 10.4559438,48.031588000000035,0 10.4597343,48.030796400000035,0 10.462038699999999,48.03008640000004,0 10.470879799999999,48.026387600000035,0 10.4745551,48.025448100000034,0 10.4771425,48.025073000000035,0 10.481144599999999,48.02492000000004,0 10.483536999999998,48.02507280000003,0 10.5119818,48.029890500000036,0 10.5194526,48.03078400000003,0 10.5320971,48.031791200000036,0 10.5355897,48.03237500000004,0 10.5404514,48.03366040000004,0 10.5491128,48.03692980000004,0 10.5552511,48.03888720000003,0 10.563663499999999,48.04091370000003,0 10.5728002,48.04235800000003,0 10.5751731,48.042573600000026,0 10.5799424,48.042551700000026,0 10.594998,48.04110980000003,0 10.601681300000001,48.040842000000026,0 10.625069700000001,48.04098990000003,0 10.6349087,48.040001100000026,0 10.640168300000001,48.03879130000003,0 10.666068400000002,48.03034000000003,0 10.694569300000001,48.024184600000034,0 10.698610700000001,48.02355690000003,0 10.701626100000002,48.02343680000003,0 10.706105800000001,48.02381830000003,0 10.713897100000002,48.025712000000034,0 10.717146100000003,48.02608370000004,0 10.724578800000002,48.02617470000003,0 10.727259000000002,48.02654230000003,0 10.7306886,48.02743560000003,0 10.7338973,48.02881450000003,0 10.741472400000001,48.03369210000003,0 10.7446617,48.03505330000003,0 10.7474918,48.03590050000003,0 10.7505776,48.03651710000003,0 10.7581271,48.03713880000003,0 10.7616366,48.03772130000003,0 10.7677373,48.03927980000003,0 10.7706703,48.039763200000024,0 10.773312500000001,48.03991550000003,0 10.780331300000002,48.03978490000003,0 10.781998000000002,48.03988000000003,0 10.785750200000003,48.04042900000003,0 10.792979100000002,48.042079900000026,0 10.801817700000003,48.04285070000003,0 10.804952300000004,48.04359720000003,0 10.809673000000004,48.04522850000003,0 10.811869300000003,48.045771700000024,0 10.814613300000003,48.04607130000002,0 10.817366400000003,48.046016300000026,0 10.824336900000002,48.04544600000002,0 10.827202700000003,48.045503500000024,0 10.8311244,48.04601200000002,0 10.833871700000001,48.04670500000002,0 10.835953400000001,48.04743990000002,0 10.8379802,48.04837070000002,0 10.840753300000001,48.05010720000003,0 10.8422632,48.05137990000003,0 10.8439599,48.05330480000003,0 10.8469984,48.058353100000026,0 10.8487795,48.060645200000025,0 10.8502465,48.061980000000034,0 10.8527003,48.06345720000003,0 10.855488300000001,48.06449320000003,0 10.857702400000003,48.06506660000003,0 10.862215800000001,48.065837300000034,0 10.864554000000002,48.06599550000003,0 10.868219000000002,48.06587430000003,0 10.870897600000001,48.06550390000004,0 10.873821600000001,48.06477140000003,0 10.877066100000002,48.063500100000034,0 10.882002500000002,48.060927600000035,0 10.886297400000002,48.059194700000035,0 10.890327700000002,48.058062500000034,0 10.893906100000002,48.05740760000003,0 10.897524600000002,48.057039300000035,0 10.903760300000002,48.05699030000003,0 10.911587100000002,48.05761610000003,0 10.915196300000002,48.057308400000025,0 10.9198201,48.05625910000003,0 10.921741400000002,48.05604770000003,0 10.930848000000001,48.056088100000025,0 10.937886500000001,48.05535380000003,0 10.940587800000001,48.05533740000003,0 10.9430961,48.05565500000003,0 10.9515902,48.05729550000002,0 10.956441,48.057847100000025,0 10.9751478,48.059122100000025,0 10.9795639,48.05986500000002,0 10.982520800000001,48.06058590000002,0 10.991865400000002,48.06363460000002,0 10.9967983,48.06496570000002,0 11.0000275,48.065585400000025,0 11.0029228,48.06592070000003,0 11.0074749,48.06601160000003,0 11.0151594,48.065537500000026,0 11.017681699999999,48.06566360000003,0 11.0200594,48.06605870000003,0 11.023280799999998,48.06708900000003,0 11.032391299999999,48.07168740000003,0 11.036030799999999,48.07307670000003,0 11.0401905,48.07397680000003,0 11.043456,48.07425870000003,0 11.045710999999999,48.07424910000003,0 11.0491994,48.073913900000036,0 11.0592255,48.07145160000003,0 11.062035199999999,48.07103290000003,0 11.067389299999999,48.07092240000003,0 11.0709752,48.07119760000003,0 11.081781099999999,48.07302510000003,0 11.088818999999999,48.07360380000003,0 11.0972411,48.07507150000003,0 11.106333999999999,48.07556870000003,0 11.1095741,48.076107800000024,0 11.113274,48.07702980000003,0 11.1172243,48.07772290000003,0 11.1338385,48.07888260000003,0 11.136565999999998,48.079324100000036,0 11.139235099999999,48.08014200000003,0 11.147022799999998,48.08357810000003,0 11.148515099999997,48.08404770000004,0 11.151652199999997,48.08465040000004,0 11.154059799999997,48.08486130000004,0 11.157127599999997,48.08476980000004,0 11.159045699999998,48.08445970000004,0 11.163529199999997,48.08323190000004,0 11.167050599999998,48.08270780000004,0 11.169317399999997,48.08267870000004,0 11.181471199999997,48.08429180000004,0 11.186114599999998,48.084539200000044,0 11.197600599999998,48.084477800000045,0 11.201522699999998,48.084671200000045,0 11.213211799999998,48.08635050000004,0 11.224012799999997,48.08680810000004,0 11.2268926,48.08731340000004,0 11.228173999999997,48.08766660000004,0 11.238511299999999,48.09172800000004,0 11.243019299999998,48.092827000000035,0 11.245114299999997,48.09303440000004,0 11.246991299999998,48.09300250000004,0 11.248677199999998,48.09280500000004,0 11.2521499,48.09209350000004,0 11.254795299999998,48.09188720000004,0 11.259576,48.09210860000004,0 11.2641569,48.09178210000004,0 11.2655585,48.09179750000004,0 11.267667900000001,48.09209400000004,0 11.2724604,48.093653400000036,0 11.273888099999999,48.09396410000004,0 11.2759634,48.09413530000004,0 11.277839400000001,48.09402260000004,0 11.284608700000001,48.09301450000004,0 11.289200200000002,48.092940600000034,0 11.2950751,48.09341880000004,0 11.3000196,48.09424530000003,0 11.305968300000002,48.09576840000004,0 11.308391,48.096162100000036,0 11.3214555,48.096524400000035,0 11.3256685,48.09718610000003,0 11.3283953,48.09788210000003,0 11.3339134,48.10007010000003,0 11.3379458,48.10263900000003,0 11.3436079,48.107560700000036,0 11.3463277,48.10921430000004,0 11.3494174,48.110471200000035,0 11.3693617,48.116414000000034,0 11.3717766,48.11686690000003,0 11.3832675,48.117072500000035,0 11.3877825,48.117509200000036,0 11.3934106,48.11857880000004,0 11.3958994,48.11937670000004,0 11.3978103,48.12021720000004,0 11.399215,48.12108160000004,0 11.4005775,48.12221700000004,0 11.4015211,48.12328290000004,0 11.4015531,48.12340520000004,0 11.402984499999997,48.12518740000004,0 11.404299699999997,48.12635530000004,0 11.406032199999997,48.12744790000004,0 11.407638299999997,48.12818890000004,0 11.411367099999998,48.129299300000035,0 11.414961299999998,48.12997800000004,0 11.417445399999997,48.13024260000004,0 11.420967999999997,48.13032710000003,0 11.424255599999997,48.13000190000003,0 11.426319699999997,48.129490700000034,0 11.431919499999998,48.12755230000003,0 11.433932999999998,48.12715320000003,0 11.436519099999998,48.12714460000003,0 11.440406199999998,48.127861200000034,0 11.442528799999998,48.12795330000003,0 11.443905799999998,48.127827200000034,0 11.445641699999998,48.12745220000003,0 11.450601899999997,48.125570200000034,0 11.452601799999998,48.12501710000003,0 11.454226999999996,48.12474100000003,0 11.466697299999996,48.12378140000003,0 11.476065299999997,48.12354630000003,0 11.489085799999996,48.12372750000003,0 11.491064699999995,48.123901000000025,0 11.499766599999996,48.125615100000026,0 11.501833099999995,48.12575040000003,0 11.505754799999995,48.125531100000025,0 11.513702599999995,48.12443950000002,0 11.518986799999995,48.123391600000026,0 11.519374499999996,48.12304580000003,0 11.519413399999996,48.12265880000003,0 11.518971799999996,48.12207210000003,0 11.518775599999996,48.12193050000003,0 11.518318399999997,48.12113750000003,0 11.518308399999997,48.120915800000034,0 11.516881899999998,48.11741140000004,0 11.516822499999996,48.11319370000004,0 11.517042899999996,48.11230360000004,0 11.517366699999997,48.11174500000004,0 11.518106899999998,48.11092910000004,0 11.519100699999997,48.110135800000045,0 11.519624499999997,48.109926600000044,0 11.528641599999997,48.10999070000005,0 11.534717199999996,48.11055630000005,0 11.540567599999996,48.11062120000005,0 11.541515899999995,48.11074300000004,0 11.543569199999997,48.11157850000004,0 11.544489999999996,48.11179370000004,0 11.550865699999996,48.11230230000004,0 11.557266699999996,48.11225190000004,0 11.562691099999995,48.11289700000004,0 11.564859999999996,48.11296510000004,0 11.567052699999996,48.11268300000004,0 11.568478999999996,48.11232450000004,0 11.569258099999995,48.11191100000004,0 11.569814799999996,48.11144570000004,0 11.570991599999996,48.111880200000044,0 11.573465599999997,48.11707060000004,0 11.573915799999996,48.11766030000004,0 11.573975499999996,48.11768280000004,0 11.576175199999996,48.120557200000036,0 11.577228399999997,48.12074240000004,0 11.578220999999997,48.12126960000004,0 11.579416299999998,48.12243810000004,0 11.580086499999998,48.12353620000004,0 11.5834459,48.12653870000005,0 11.583559399999999,48.12649800000004,0 11.5850444,48.12820450000004,0 11.5865406,48.12923230000004,0 11.5874895,48.13047370000004,0 11.587827299999999,48.13142720000003,0 11.5878079,48.131491200000035,0 11.5877141,48.131530700000035,0 11.5876972,48.131634800000036,0 11.5874908,48.131622600000036,0 11.5859028,48.13194080000004,0 11.5849517,48.132375400000036,0 11.5870304,48.13421620000003,0 11.5884551,48.13584370000003,0 11.588867299999999,48.136557900000035,0 11.589323799999999,48.13698730000004,0 11.592819599999999,48.139170500000034,0 11.5939093,48.14051770000003,0 11.5949629,48.143000500000035,0 11.596134,48.147941900000035,0 11.600920200000001,48.153540600000035,0 11.6004221,48.15368190000003,0 11.6000735,48.15369120000003,0 11.5998801,48.15360270000003,0 11.5995983,48.15329560000003,0 11.599353299999999,48.15334760000003,0 11.5991524,48.15328540000003,0 </coordinates></LineString><TimeSpan><begin>2019-12-25T17:06:28.000Z</begin><end>2019-12-25T19:42:32.000Z</end></TimeSpan></Placemark><Placemark><name>Hilton Munich Park</name><address>Am Tucherpark 7, 80538 München, Germany</address><ExtendedData><Data name="Email"><value>syugen.zhou@gmail.com</value></Data><Data name="Category"><value>Hotel</value></Data><Data name="Distance"><value>0</value></Data></ExtendedData><description> Hotel from 2019-12-25T19:42:32.000Z to 2019-12-26T08:28:48.093Z. Distance 0m </description><Point><coordinates>11.5983381,48.1523708,0</coordinates></Point><TimeSpan><begin>2019-12-25T19:42:32.000Z</begin><end>2019-12-26T08:28:48.093Z</end></TimeSpan></Placemark></Document></kml>
