<?xml version="1.0" encoding="UTF-8"?><kml xmlns="http://www.opengis.net/kml/2.2" xmlns:gx="http://www.google.com/kml/ext/2.2"><Document><name> Location history from 2022-02-25 to 2022-02-25 </name><open>1</open><description></description><StyleMap id="multiTrack"><Pair><key>normal</key><styleUrl>#multiTrack_n</styleUrl></Pair><Pair><key>highlight</key><styleUrl>#multiTrack_h</styleUrl></Pair></StyleMap><Style id="multiTrack_n"><IconStyle><Icon><href>https://earth.google.com/images/kml-icons/track-directional/track-0.png</href></Icon></IconStyle><LineStyle><color>99ffac59</color><width>6</width></LineStyle></Style><Style id="multiTrack_h"><IconStyle><scale>1.2</scale><Icon><href>https://earth.google.com/images/kml-icons/track-directional/track-0.png</href></Icon></IconStyle><LineStyle><color>99ffac59</color><width>8</width></LineStyle></Style><Placemark><name>7821 NE 121st Ln</name><address>7821 NE 121st Ln, Kirkland, WA 98034</address><ExtendedData><Data name="Email"><value>syugen.zhou@gmail.com</value></Data><Data name="Category"><value></value></Data><Data name="Distance"><value>0</value></Data></ExtendedData><description>  from 2022-02-25T05:00:48.999Z to 2022-02-25T15:55:27.999Z. Distance 0m </description><Point><coordinates>-122.23606559999999,47.708991499999996,0</coordinates></Point><TimeSpan><begin>2022-02-25T05:00:48.999Z</begin><end>2022-02-25T15:55:27.999Z</end></TimeSpan></Placemark><Placemark><name>Driving</name><address></address><ExtendedData><Data name="Email"><value>syugen.zhou@gmail.com</value></Data><Data name="Category"><value>Driving</value></Data><Data name="Distance"><value>7917</value></Data></ExtendedData><description> Driving from 2022-02-25T15:55:27.999Z to 2022-02-25T16:06:37.000Z. Distance 7917m </description><LineString><altitudeMode>clampToGround</altitudeMode><extrude>1</extrude><tesselate>1</tesselate><coordinates>-122.23617549999999,47.7091139,0 -122.23601359999998,47.7091101,0 -122.23598449999997,47.7093085,0 -122.23597009999997,47.7093315,0 -122.23595539999998,47.7093434,0 -122.23599839999997,47.709354,0 -122.23602719999997,47.7093658,0 -122.23604179999995,47.7093786,0 -122.23621579999995,47.7097533,0 -122.23788699999994,47.7093981,0 -122.23800389999995,47.7093606,0 -122.23781769999995,47.7089912,0 -122.23704739999995,47.70789729999999,0 -122.23698629999994,47.70777369999999,0 -122.23691989999993,47.70749959999999,0 -122.23691229999994,47.70720849999999,0 -122.23694209999995,47.7070193,0 -122.23725419999995,47.705854599999995,0 -122.23729639999996,47.70552049999999,0 -122.23728969999996,47.70541849999999,0 -122.23719739999996,47.704996599999994,0 -122.23703669999995,47.703903499999996,0 -122.23692899999995,47.703463299999996,0 -122.23670749999995,47.70290369999999,0 -122.23653229999995,47.70257019999999,0 -122.23620359999994,47.702058599999994,0 -122.23597239999995,47.70176629999999,0 -122.23566189999995,47.701432199999985,0 -122.23496599999994,47.70082979999999,0 -122.23463459999995,47.70058999999999,0 -122.23169439999995,47.69873149999999,0 -122.23151399999996,47.69863059999999,0 -122.23129419999995,47.69854019999999,0 -122.23116319999994,47.69849889999999,0 -122.23087439999995,47.698436999999984,0 -122.23066999999993,47.69840819999999,0 -122.23046159999993,47.69840499999999,0 -122.23024669999992,47.698417699999986,0 -122.22999809999992,47.698450399999984,0 -122.22975889999992,47.69851989999999,0 -122.2297285999999,47.69853779999998,0 -122.22955279999992,47.69861009999998,0 -122.22939059999992,47.698696199999986,0 -122.22919909999992,47.698841399999985,0 -122.22907279999991,47.69897109999999,0 -122.22897299999991,47.69910369999999,0 -122.22808719999992,47.70089969999999,0 -122.2278544999999,47.70122529999999,0 -122.22761919999989,47.70148799999999,0 -122.22742079999989,47.70166779999999,0 -122.22713049999989,47.70189999999999,0 -122.22668579999988,47.702169699999985,0 -122.22640749999988,47.702307199999986,0 -122.22600829999989,47.70247419999998,0 -122.2255305999999,47.70263229999998,0 -122.22405829999988,47.703017299999985,0 -122.2239134999999,47.70306799999999,0 -122.2235863999999,47.70320739999998,0 -122.22196249999989,47.704087399999985,0 -122.2217112999999,47.70419889999999,0 -122.2209190999999,47.70447739999999,0 -122.2203431999999,47.70470189999998,0 -122.21964659999992,47.70505139999999,0 -122.2193746999999,47.70516639999999,0 -122.2189831999999,47.70529679999999,0 -122.21881789999989,47.7053337,0 -122.21855669999988,47.70537139999999,0 -122.21827649999987,47.70539129999999,0 -122.21800379999988,47.70539129999999,0 -122.21785859999987,47.70540069999999,0 -122.21420159999987,47.70539209999999,0 -122.21400089999985,47.705378499999995,0 -122.21365169999984,47.70532579999999,0 -122.21332419999983,47.70524419999999,0 -122.21293359999983,47.70512199999999,0 -122.21126389999984,47.70451309999999,0 -122.21073449999984,47.704255499999995,0 -122.21039369999984,47.70406899999999,0 -122.21027449999983,47.704037899999996,0 -122.19909759999983,47.70399389999999,0 -122.19906729999983,47.70398879999999,0 -122.1811848999998,47.70401669999999,0 -122.1804145999998,47.70399669999999,0 -122.17949869999978,47.70400619999999,0 -122.17946439999979,47.70399939999999,0 -122.1788104999998,47.703980999999985,0 -122.17580979999981,47.70398589999999,0 -122.17574559999981,47.68965499999999,0 -122.17577699999983,47.68954679999999,0 -122.17611989999983,47.68254549999999,0 -122.17605109999984,47.68041599999999,0 -122.17603499999983,47.680328999999986,0 -122.17600059999982,47.679360299999985,0 -122.17676749999984,47.67935339999999,0 -122.17677759999985,47.67954239999999,0 -122.17642309999985,47.67954359999999,0 -122.17638599999987,47.67955369999999,0 -122.17632969999985,47.67961019999999,0 -122.17631699999984,47.679637899999996,0 -122.17631849999984,47.6797751,0 </coordinates></LineString><TimeSpan><begin>2022-02-25T15:55:27.999Z</begin><end>2022-02-25T16:06:37.000Z</end></TimeSpan></Placemark><Placemark><name>McDonald's</name><address>8515 124th Ave NE, Kirkland, WA 98033</address><ExtendedData><Data name="Email"><value>syugen.zhou@gmail.com</value></Data><Data name="Category"><value>Fast Food</value></Data><Data name="Distance"><value>0</value></Data></ExtendedData><description> Fast Food from 2022-02-25T16:06:37.000Z to 2022-02-25T16:16:08.000Z. Distance 0m </description><Point><coordinates>-122.17660579999999,47.6797453,0</coordinates></Point><TimeSpan><begin>2022-02-25T16:06:37.000Z</begin><end>2022-02-25T16:16:08.000Z</end></TimeSpan></Placemark><Placemark><name>Driving</name><address></address><ExtendedData><Data name="Email"><value>syugen.zhou@gmail.com</value></Data><Data name="Category"><value>Driving</value></Data><Data name="Distance"><value>213159</value></Data></ExtendedData><description> Driving from 2022-02-25T16:16:08.000Z to 2022-02-25T18:10:06.000Z. Distance 213159m </description><LineString><altitudeMode>clampToGround</altitudeMode><extrude>1</extrude><tesselate>1</tesselate><coordinates>-122.1767823,47.679645199999996,0 -122.17676749999998,47.6793534,0 -122.18516909999998,47.679221,0 -122.1858707,47.67935189999999,0 -122.18611849999999,47.67950439999999,0 -122.18629019999999,47.679832,0 -122.1861503,47.6801818,0 -122.18585709999998,47.6803629,0 -122.1855586,47.680403999999996,0 -122.18532429999999,47.680366199999995,0 -122.18507259999997,47.6802241,0 -122.18496369999997,47.680057399999995,0 -122.18496999999996,47.6765638,0 -122.18567379999996,47.674577299999996,0 -122.18559919999996,47.6744365,0 -122.18680669999996,47.67203189999999,0 -122.18720949999995,47.67030629999999,0 -122.18717759999996,47.6463201,0 -122.18670239999996,47.640887899999996,0 -122.18693549999996,47.636089899999995,0 -122.18872509999997,47.629384599999995,0 -122.18885449999996,47.61193469999999,0 -122.18822009999997,47.6085315,0 -122.18765649999996,47.6073847,0 -122.18229239999995,47.6007818,0 -122.18186519999995,47.599833600000004,0 -122.18110109999996,47.5908597,0 -122.17957929999997,47.5869813,0 -122.17890899999998,47.585927500000004,0 -122.17668169999997,47.583356,0 -122.17543249999997,47.5811742,0 -122.17368449999998,47.5799035,0 -122.17315729999999,47.579714,0 -122.17271379999998,47.5796554,0 -122.16930989999997,47.5800122,0 -122.16913699999998,47.5800893,0 -122.13490859999999,47.5784739,0 -122.13166589999999,47.5778199,0 -122.10557409999998,47.568442000000005,0 -122.08712299999999,47.5583771,0 -122.0549655,47.546020500000004,0 -122.0524875,47.5454618,0 -122.0470205,47.54493,0 -122.0450908,47.544520899999995,0 -122.04302729999999,47.5437534,0 -122.037357,47.541008999999995,0 -122.03482650000001,47.5392702,0 -122.02908620000001,47.533101,0 -122.0278207,47.5323779,0 -122.0259646,47.53178389999999,0 -122.02412009999999,47.5315745,0 -122.02283709999999,47.5316172,0 -122.02145379999999,47.5318521,0 -122.0198383,47.5324194,0 -122.0145851,47.535284000000004,0 -122.01221989999999,47.53612820000001,0 -122.01034929999999,47.53645350000001,0 -122.00868519999997,47.536491600000005,0 -122.00665659999999,47.53619760000001,0 -122.00544229999998,47.535816700000005,0 -122.00043529999998,47.533611900000004,0 -121.99572499999998,47.5321228,0 -121.99048549999999,47.531219300000004,0 -121.98290129999998,47.530795100000006,0 -121.98130349999997,47.53088210000001,0 -121.97897669999998,47.53144720000001,0 -121.97754729999998,47.532158800000005,0 -121.97429919999999,47.534719300000006,0 -121.9729528,47.53532630000001,0 -121.97152529999998,47.535673800000005,0 -121.97002769999999,47.5357787,0 -121.96821429999997,47.5355917,0 -121.95993459999998,47.5331198,0 -121.94623539999999,47.531685100000004,0 -121.94463759999998,47.531288100000005,0 -121.94324619999998,47.5307059,0 -121.9422558,47.5300987,0 -121.94109359999999,47.529014200000006,0 -121.93653239999999,47.52313830000001,0 -121.93554759999998,47.522351400000005,0 -121.93381089999998,47.52151360000001,0 -121.92983639999997,47.520334800000015,0 -121.92099019999996,47.51658490000001,0 -121.91023809999997,47.51086890000001,0 -121.90613759999998,47.50774270000001,0 -121.90418539999997,47.50681190000001,0 -121.90152459999999,47.50611990000001,0 -121.89974759999998,47.505957900000006,0 -121.89723009999999,47.50608940000001,0 -121.86665109999998,47.511096900000005,0 -121.85727039999999,47.5109865,0 -121.85544229999999,47.5112311,0 -121.8442085,47.5142521,0 -121.8419075,47.5145993,0 -121.8388383,47.514491,0 -121.83679590000001,47.514046,0 -121.8356563,47.5136435,0 -121.8335049,47.512455700000004,0 -121.81424899999999,47.4958035,0 -121.8125814,47.4947916,0 -121.8012537,47.490948599999996,0 -121.799722,47.4902562,0 -121.7970009,47.4884915,0 -121.78390399999999,47.4755794,0 -121.7822288,47.47452140000001,0 -121.7796167,47.473577500000005,0 -121.7770345,47.4732039,0 -121.7421684,47.47314250000001,0 -121.7398351,47.472703200000005,0 -121.7310521,47.470105200000006,0 -121.7181513,47.46532380000001,0 -121.71392390000001,47.464142,0 -121.7091174,47.4631315,0 -121.70725920000001,47.4624384,0 -121.70511000000002,47.461107999999996,0 -121.70420050000001,47.460211099999995,0 -121.70344970000002,47.459123500000004,0 -121.70298390000004,47.4580612,0 -121.70235440000002,47.454965,0 -121.70032760000002,47.450319,0 -121.69931320000002,47.448955600000005,0 -121.69774520000003,47.447524800000004,0 -121.69651090000004,47.4467013,0 -121.69481130000005,47.4458415,0 -121.68930050000006,47.4437266,0 -121.68702840000006,47.4434013,0 -121.68051750000006,47.4438634,0 -121.67828350000006,47.4437557,0 -121.67263710000006,47.442911599999995,0 -121.67145940000005,47.4428547,0 -121.66554320000004,47.4431174,0 -121.66177940000004,47.442794299999996,0 -121.65949140000005,47.4422742,0 -121.65761880000005,47.4416375,0 -121.64174540000003,47.4339801,0 -121.63621240000005,47.4307467,0 -121.63470080000003,47.430150999999995,0 -121.63167790000004,47.42941809999999,0 -121.62238870000003,47.4284311,0 -121.62139440000003,47.428432699999995,0 -121.61629110000003,47.428964699999995,0 -121.61409970000003,47.42877359999999,0 -121.60429280000002,47.425634399999986,0 -121.59845700000002,47.42472499999999,0 -121.59704200000003,47.42426439999999,0 -121.59531720000003,47.42330009999999,0 -121.59224040000001,47.42069519999999,0 -121.5873756,47.41770619999999,0 -121.5866668,47.41695269999999,0 -121.5847581,47.41399299999999,0 -121.5834204,47.41276159999999,0 -121.57578550000001,47.40906699999999,0 -121.57302890000001,47.40682319999999,0 -121.57136200000001,47.405773599999996,0 -121.5698895,47.405219499999994,0 -121.5616625,47.40362029999999,0 -121.55951279999998,47.40301349999999,0 -121.5580562,47.40239139999999,0 -121.5511841,47.39855579999999,0 -121.54971379999999,47.39802769999999,0 -121.54768909999999,47.39765789999999,0 -121.54390749999999,47.3973879,0 -121.5270127,47.39505379999999,0 -121.5185811,47.39512019999999,0 -121.5125584,47.39592089999999,0 -121.489696,47.39688619999999,0 -121.4875376,47.39683109999999,0 -121.4817725,47.39609759999999,0 -121.47798230000001,47.39511559999999,0 -121.4726663,47.39321129999998,0 -121.4710038,47.39288569999999,0 -121.4688718,47.392827899999986,0 -121.4676094,47.39297779999998,0 -121.45844860000001,47.39567969999998,0 -121.45015710000001,47.39702659999998,0 -121.4483968,47.39752449999998,0 -121.447079,47.398170199999974,0 -121.44629370000001,47.39872429999998,0 -121.4440917,47.40089829999998,0 -121.43903920000001,47.41003329999998,0 -121.43785020000003,47.41328729999998,0 -121.43273010000003,47.42049419999998,0 -121.43140160000003,47.424164999999974,0 -121.43063680000003,47.42502889999998,0 -121.42983530000004,47.42554689999998,0 -121.42609940000004,47.42711489999998,0 -121.42159520000004,47.42839799999998,0 -121.42022050000006,47.428436499999975,0 -121.41856400000005,47.42805969999998,0 -121.41298450000006,47.425739299999975,0 -121.41148510000008,47.424767599999974,0 -121.41078380000008,47.42404809999998,0 -121.40997530000008,47.422483399999976,0 -121.40988940000007,47.421216199999975,0 -121.41131840000007,47.41608849999998,0 -121.41135460000008,47.41473579999998,0 -121.41015850000008,47.41126179999998,0 -121.40963450000007,47.41046369999998,0 -121.40918700000007,47.41003629999998,0 -121.40553950000006,47.40769809999998,0 -121.40491470000006,47.40707359999998,0 -121.40433290000007,47.40592489999998,0 -121.40428790000007,47.402965399999985,0 -121.40409160000006,47.40228759999998,0 -121.40373250000007,47.40172089999998,0 -121.40294420000006,47.40100589999997,0 -121.39965920000006,47.398874399999976,0 -121.39736440000006,47.39632509999997,0 -121.39583280000005,47.395416399999974,0 -121.38485220000005,47.39115619999997,0 -121.38325230000007,47.390226999999975,0 -121.38076870000005,47.38819579999998,0 -121.37972850000004,47.38678089999998,0 -121.37801330000003,47.38324719999998,0 -121.37719130000004,47.37446009999998,0 -121.37686110000004,47.37312299999998,0 -121.37622740000005,47.37183009999998,0 -121.37363520000005,47.36884029999998,0 -121.37292610000004,47.367446299999976,0 -121.37279300000006,47.36670099999998,0 -121.37307930000006,47.36244259999997,0 -121.37265960000008,47.361253999999974,0 -121.37183370000007,47.360244799999975,0 -121.36815030000007,47.35759989999997,0 -121.36700590000005,47.35639549999997,0 -121.36601070000005,47.354846699999975,0 -121.36384020000004,47.34964779999997,0 -121.36375040000004,47.34862619999998,0 -121.36450770000005,47.345124399999975,0 -121.36449150000004,47.34428489999998,0 -121.36389150000004,47.342857799999976,0 -121.36299710000004,47.341909299999976,0 -121.36140440000005,47.34097539999998,0 -121.36009980000006,47.34055659999998,0 -121.35876140000006,47.340345899999974,0 -121.35411250000007,47.34013979999998,0 -121.35236760000006,47.33965969999998,0 -121.35144400000007,47.33922219999998,0 -121.35030670000006,47.338416199999976,0 -121.34677050000005,47.334604999999975,0 -121.34497570000005,47.33178429999998,0 -121.34384930000006,47.330750199999976,0 -121.34296020000005,47.33019989999998,0 -121.33892330000005,47.32864579999998,0 -121.33142030000005,47.32652739999998,0 -121.32991980000006,47.325934199999985,0 -121.32779830000005,47.32461149999998,0 -121.31526450000005,47.31373939999998,0 -121.31221410000006,47.309210499999985,0 -121.30108870000005,47.301621199999985,0 -121.29967680000006,47.301081799999984,0 -121.29385060000006,47.299846299999984,0 -121.29154700000005,47.29903499999998,0 -121.28925790000005,47.29783829999999,0 -121.28696810000005,47.29602049999998,0 -121.28582730000005,47.29466209999999,0 -121.28300890000006,47.28937369999999,0 -121.28238180000005,47.28576319999999,0 -121.28122900000004,47.283120999999994,0 -121.28077780000004,47.27986509999999,0 -121.28018690000005,47.27890419999999,0 -121.27081070000004,47.27166209999999,0 -121.26923190000007,47.27091069999999,0 -121.25524370000007,47.26769009999998,0 -121.25373200000007,47.267480599999985,0 -121.25261690000006,47.267533499999985,0 -121.24829740000007,47.26859239999998,0 -121.24705150000007,47.26868679999998,0 -121.23823640000008,47.26806269999999,0 -121.2348200000001,47.267342099999986,0 -121.22537450000009,47.26452139999999,0 -121.22322750000009,47.26356189999999,0 -121.21563820000009,47.25881539999999,0 -121.2127844000001,47.25770349999999,0 -121.2103215000001,47.257232999999985,0 -121.2006650000001,47.25632189999999,0 -121.19772600000012,47.255640499999984,0 -121.1958640000001,47.25480329999999,0 -121.1946041000001,47.25396239999999,0 -121.16550730000012,47.22934179999999,0 -121.1498567000001,47.220878799999994,0 -121.14837810000009,47.2202522,0 -121.1461530000001,47.2196516,0 -121.13628980000011,47.218035699999994,0 -121.13174290000012,47.217698399999996,0 -121.12866830000011,47.21716659999999,0 -121.12518460000013,47.21622299999999,0 -121.10818500000012,47.21339479999999,0 -121.10494070000013,47.21252699999999,0 -121.05684240000012,47.195902899999986,0 -121.05411970000011,47.19530759999999,0 -121.0513671000001,47.194401099999986,0 -121.0490742000001,47.19321609999999,0 -121.0478196000001,47.19209709999999,0 -121.04165600000009,47.183620899999994,0 -121.0405311000001,47.18286949999999,0 -121.03869270000008,47.18222829999999,0 -121.03667600000009,47.18204049999999,0 -120.9962529000001,47.18485879999999,0 -120.99324620000012,47.18534439999999,0 -120.96284740000011,47.19450949999999,0 -120.96189310000011,47.19466279999999,0 -120.9599851000001,47.19471899999999,0 -120.9586121000001,47.19455629999999,0 -120.95460220000008,47.19335889999999,0 -120.93964530000008,47.191688299999996,0 -120.90872760000008,47.18524149999999,0 -120.9055339000001,47.18422539999999,0 -120.8948585000001,47.17897489999999,0 -120.89334140000011,47.17787679999999,0 -120.8883643000001,47.17225179999999,0 -120.88689710000011,47.17126629999999,0 -120.87518130000011,47.16490499999999,0 -120.87213320000012,47.16370059999999,0 -120.86370210000013,47.16132529999999,0 -120.86130690000012,47.16105299999999,0 -120.85159230000012,47.16178219999999,0 -120.84780200000013,47.16143389999999,0 -120.82690420000013,47.15655419999999,0 -120.82424370000014,47.15542409999999,0 -120.82237560000013,47.15408049999999,0 -120.81696490000013,47.14775389999999,0 -120.81577090000015,47.14595159999999,0 -120.80926870000013,47.13174039999999,0 -120.80830640000013,47.13071909999999,0 -120.80424680000013,47.128260999999995,0 -120.80337610000014,47.1272394,0 -120.79966130000012,47.1187257,0 -120.79846580000012,47.1173861,0 -120.7976916000001,47.116839199999994,0 -120.79639170000011,47.11619919999999,0 -120.76982160000011,47.10792729999999,0 -120.7672160000001,47.1067663,0 -120.7657127000001,47.1056867,0 -120.76448080000011,47.104366299999995,0 -120.7609412000001,47.09711419999999,0 -120.7596991000001,47.095825399999995,0 -120.75547400000009,47.09316739999999,0 -120.7542424000001,47.09262859999999,0 -120.75321860000008,47.092331099999996,0 -120.7485271000001,47.09164659999999,0 -120.7470683000001,47.091218299999994,0 -120.7453587000001,47.09042469999999,0 -120.7439200000001,47.08939019999999,0 -120.74274500000011,47.08800639999999,0 -120.74140660000012,47.08541399999999,0 -120.74006240000013,47.08402939999999,0 -120.73891270000013,47.08333659999999,0 -120.73333500000012,47.08119969999999,0 -120.72457940000012,47.078959899999994,0 -120.72299500000014,47.07828719999999,0 -120.71773730000012,47.07511879999999,0 -120.69304440000012,47.06331869999999,0 -120.65600330000012,47.05064499999999,0 -120.6303338000001,47.040325999999986,0 -120.62872900000012,47.039269199999985,0 -120.62777050000011,47.038392899999984,0 -120.62481360000011,47.033670999999984,0 -120.62353170000011,47.03215409999998,0 -120.6020970000001,47.01343489999998,0 -120.58946490000011,47.00453579999998,0 -120.55598940000012,46.97727149999998,0 -120.55497090000013,46.976709399999976,0 -120.55240160000012,46.97576349999998,0 -120.52350910000011,46.97047429999998,0 -120.51981480000012,46.97014769999998,0 -120.48221090000013,46.97074879999998,0 -120.46858110000012,46.97021779999998,0 -120.45191810000011,46.97047649999998,0 -120.4335561000001,46.97153259999998,0 -120.4114261000001,46.97132809999998,0 -120.3755562000001,46.97285219999998,0 -120.35628400000012,46.97190089999998,0 -120.35308110000011,46.97149119999998,0 -120.35090710000011,46.97102869999998,0 -120.34759290000012,46.969973099999976,0 -120.33364900000012,46.96414959999998,0 -120.32782340000013,46.96091639999998,0 -120.31939100000014,46.95851999999998,0 -120.31295040000013,46.95766759999998,0 -120.30874500000013,46.956258999999974,0 -120.30648680000013,46.95592199999997,0 -120.30068610000014,46.95642849999997,0 -120.29849230000013,46.95605559999997,0 -120.29301890000013,46.95360039999997,0 -120.29048810000012,46.952800999999965,0 -120.28877200000014,46.95246149999997,0 -120.28071290000013,46.951713299999966,0 -120.27715850000013,46.951034599999964,0 -120.25664870000011,46.949958999999964,0 -120.25500050000012,46.94955139999996,0 -120.24091060000012,46.94445799999996,0 -120.23923680000011,46.94408719999996,0 -120.20973950000013,46.94207929999996,0 -120.20596780000012,46.94222549999996,0 -120.20255490000011,46.942830299999954,0 -120.19669840000012,46.94460239999996,0 -120.19464720000013,46.944903099999955,0 -120.19109890000013,46.94488329999996,0 -120.18210490000014,46.942901999999954,0 -120.18082720000014,46.942801099999954,0 -120.17873960000014,46.942908699999954,0 -120.17514940000015,46.943470599999955,0 -120.16938850000014,46.943507799999956,0 -120.16451780000014,46.94420089999996,0 -120.15071300000012,46.94374649999996,0 -120.14901470000014,46.94352649999996,0 -120.14117580000013,46.94125359999996,0 -120.13474530000013,46.93987689999996,0 -120.13066000000015,46.93862839999996,0 -120.12940140000015,46.93844089999996,0 -120.12716460000016,46.93849029999996,0 -120.11876970000016,46.940676899999964,0 -120.10963920000016,46.94362799999996,0 -120.10455120000016,46.944506999999966,0 -120.09252970000017,46.94495469999997,0 -120.09095350000018,46.94483769999997,0 -120.08794070000017,46.94414609999997,0 -120.08066300000017,46.94095889999996,0 -120.07947130000015,46.94059779999996,0 -120.07774710000015,46.94034529999996,0 -120.06381810000018,46.940105999999965,0 -120.05341730000016,46.938696699999966,0 -120.04530220000017,46.93652879999997,0 -120.04407090000016,46.936332599999965,0 -120.04260330000015,46.936332699999966,0 -120.03317900000015,46.93710839999997,0 -120.02888090000015,46.938287399999965,0 -120.02694690000015,46.93856189999997,0 -120.02445920000017,46.938557999999965,0 -120.01687180000017,46.93762549999997,0 -120.01432810000018,46.93771159999997,0 -120.0122722000002,46.93801119999997,0 -120.0091558000002,46.93891519999997,0 -120.00587660000018,46.94039649999996,0 -120.00463510000017,46.94072839999996,0 -120.00276120000017,46.94086759999996,0 -119.98566030000018,46.93991479999996,0 -119.98137530000018,46.94026949999996,0 -119.96356750000017,46.94432709999996,0 -119.96225130000016,46.944365599999955,0 -119.96139570000015,46.944070199999956,0 -119.96098090000017,46.94366679999995,0 -119.96035570000016,46.94209059999996,0 -119.95878840000016,46.93297159999995,0 -119.95817900000014,46.93196169999995,0 -119.95722720000015,46.931195699999954,0 -119.95724200000015,46.930752599999956,0 -119.95744870000017,46.93036779999995,0 -119.95750000000015,46.92993479999995,0 -119.95714960000016,46.92918179999995,0 -119.95416920000017,46.92668199999995,0 </coordinates></LineString><TimeSpan><begin>2022-02-25T16:16:08.000Z</begin><end>2022-02-25T18:10:06.000Z</end></TimeSpan></Placemark><Placemark><name>Vault toilets</name><address>WA-243, Royal City, WA 99357</address><ExtendedData><Data name="Email"><value>syugen.zhou@gmail.com</value></Data><Data name="Category"><value>Public wheelchair-accessible bathroom</value></Data><Data name="Distance"><value>0</value></Data></ExtendedData><description> Public wheelchair-accessible bathroom from 2022-02-25T18:10:34.000Z to 2022-02-25T18:13:52.000Z. Distance 0m </description><Point><coordinates>-119.95447499999999,46.9265135,0</coordinates></Point><TimeSpan><begin>2022-02-25T18:10:34.000Z</begin><end>2022-02-25T18:13:52.000Z</end></TimeSpan></Placemark><Placemark><name>Driving</name><address></address><ExtendedData><Data name="Email"><value>syugen.zhou@gmail.com</value></Data><Data name="Category"><value>Driving</value></Data><Data name="Distance"><value>111351</value></Data></ExtendedData><description> Driving from 2022-02-25T18:13:52.000Z to 2022-02-25T19:30:18.657Z. Distance 111351m </description><LineString><altitudeMode>clampToGround</altitudeMode><extrude>1</extrude><tesselate>1</tesselate><coordinates>-119.95416919999998,46.926682,0 -119.9529374,46.925566499999995,0 -119.95224289999999,46.9246954,0 -119.95183639999999,46.92403329999999,0 -119.95145480000001,46.92316379999999,0 -119.9499455,46.91877939999999,0 -119.94925099999999,46.917490199999996,0 -119.94747109999999,46.91515,0 -119.9470035,46.9142653,0 -119.9465678,46.912881899999995,0 -119.946486,46.911949799999995,0 -119.94658209999999,46.910967899999996,0 -119.94675969999999,46.9102882,0 -119.9547205,46.890311399999995,0 -119.95510789999999,46.888673,0 -119.9552329,46.8867365,0 -119.95495310000001,46.8781743,0 -119.95543370000001,46.8762602,0 -119.9554789,46.876220999999994,0 -119.95611869999999,46.873889399999996,0 -119.95610149999999,46.873863,0 -119.9566151,46.8719307,0 -119.95664029999999,46.871394,0 -119.95653449999999,46.8707426,0 -119.9562988,46.8701583,0 -119.94922119999998,46.859792899999995,0 -119.9492278,46.859757699999996,0 -119.94753519999999,46.8572977,0 -119.94748759999999,46.8572828,0 -119.9376595,46.8429029,0 -119.93749879999999,46.8424433,0 -119.93748209999998,46.8418813,0 -119.9389829,46.8366419,0 -119.93896419999999,46.83587649999999,0 -119.938863,46.83549609999999,0 -119.93846850000001,46.834704499999994,0 -119.93790240000001,46.8340397,0 -119.93789950000003,46.8340001,0 -119.93506770000002,46.831195599999994,0 -119.93502130000002,46.8311813,0 -119.92937510000002,46.82552669999999,0 -119.9198197,46.81472219999999,0 -119.9195702,46.81426049999999,0 -119.9194514,46.813734299999986,0 -119.91949740000001,46.81311139999999,0 -119.9233147,46.801665099999994,0 -119.9235469,46.801244399999995,0 -119.9249625,46.79948769999999,0 -119.92507260000001,46.799178,0 -119.92506640000002,46.7988905,0 -119.92435330000002,46.7970785,0 -119.92419120000002,46.79642499999999,0 -119.92413540000003,46.7934608,0 -119.92424750000004,46.7927855,0 -119.92433660000003,46.7925623,0 -119.92478370000003,46.7918229,0 -119.92485690000004,46.7915962,0 -119.92487120000004,46.7911916,0 -119.92456700000004,46.7899142,0 -119.92455540000003,46.7895927,0 -119.93039140000003,46.7570814,0 -119.93039480000003,46.7567157,0 -119.93023780000003,46.755972400000005,0 -119.92987520000003,46.7552627,0 -119.92938230000004,46.754665700000004,0 -119.91869660000005,46.7459408,0 -119.91828960000004,46.74552570000001,0 -119.91780290000004,46.744795200000006,0 -119.91763090000005,46.744339700000005,0 -119.91755540000004,46.74395750000001,0 -119.91724070000004,46.73924070000001,0 -119.91730700000004,46.73915390000001,0 -119.91722280000003,46.738082500000004,0 -119.91724700000003,46.737928200000006,0 -119.91730380000003,46.73790440000001,0 -119.91737770000002,46.73783780000001,0 -119.91739570000001,46.73779750000001,0 -119.91737810000001,46.73769520000001,0 -119.91732730000001,46.73763950000001,0 -119.91716820000002,46.73656430000001,0 -119.91714210000002,46.736539000000015,0 -119.9165186,46.70835580000002,0 -119.91663639999999,46.69913230000002,0 -119.9166572,46.69909200000002,0 -119.9167202,46.69492370000002,0 -119.91669370000001,46.69490720000002,0 -119.9166821,46.694410900000015,0 -119.91659979999999,46.69395680000002,0 -119.9164397,46.693517000000014,0 -119.91615119999999,46.69301570000001,0 -119.90783279999998,46.681672100000014,0 -119.90783909999998,46.681645300000014,0 -119.90620029999998,46.679424900000015,0 -119.90616589999998,46.67942030000001,0 -119.89565979999999,46.66499240000002,0 -119.89473629999999,46.66411620000002,0 -119.86085229999998,46.638017900000015,0 -119.85849629999997,46.636591400000015,0 -119.85697879999996,46.63585800000001,0 -119.85485709999996,46.63502580000001,0 -119.85320359999996,46.63450970000001,0 -119.85087729999995,46.63395970000001,0 -119.84815019999996,46.63355050000001,0 -119.84587209999997,46.63338730000002,0 -119.80489879999996,46.63299590000002,0 -119.80254189999995,46.63308970000002,0 -119.80069269999996,46.63325180000002,0 -119.79821919999995,46.63359330000002,0 -119.74983239999995,46.64338540000002,0 -119.74822559999994,46.64383870000002,0 -119.74747399999994,46.644109800000024,0 -119.74137619999995,46.64692210000002,0 -119.74064429999996,46.64713060000002,0 -119.73968639999995,46.64728990000002,0 -119.73897279999994,46.64733270000002,0 -119.73837109999995,46.647296500000024,0 -119.73748989999996,46.64712060000002,0 -119.73675319999997,46.64684450000002,0 -119.73570919999996,46.64629910000002,0 -119.73511049999995,46.64585570000002,0 -119.73479529999996,46.645520500000025,0 -119.72840579999995,46.63596220000002,0 -119.72737309999995,46.63386080000002,0 -119.72678169999996,46.63176670000002,0 -119.72660599999998,46.63032080000002,0 -119.72647589999997,46.613691600000024,0 -119.72659799999997,46.61320430000002,0 -119.72675489999997,46.61289840000003,0 -119.72720009999998,46.61235860000002,0 -119.72786399999998,46.61187950000002,0 -119.72862569999998,46.61154510000002,0 -119.72902799999999,46.611434600000024,0 -119.73383989999998,46.61065980000002,0 -119.73440989999996,46.61052900000002,0 -119.73488869999996,46.61036040000002,0 -119.73531249999996,46.610150300000015,0 -119.73571749999995,46.60989230000001,0 -119.73604739999996,46.60959480000001,0 -119.73626459999996,46.609338700000016,0 -119.73653149999994,46.608903800000014,0 -119.73664279999994,46.608555500000016,0 -119.73668839999996,46.60801570000001,0 -119.73661599999996,46.607613000000015,0 -119.73646179999997,46.60723440000002,0 -119.73613719999997,46.606769100000015,0 -119.73575499999997,46.60641900000002,0 -119.73521589999997,46.60606330000001,0 -119.72922519999997,46.603761800000015,0 -119.72881209999997,46.60354520000001,0 -119.72827169999998,46.60315820000002,0 -119.72767619999998,46.602519700000016,0 -119.72737849999999,46.60196780000001,0 -119.7272752,46.601611300000016,0 -119.72722689999999,46.601069400000014,0 -119.7282328,46.57968750000001,0 -119.72827079999999,46.579580800000016,0 -119.72833829999999,46.578327000000016,0 -119.72819820000001,46.57639570000001,0 -119.72795030000002,46.574966400000015,0 -119.7273207,46.57190640000001,0 -119.72684900000002,46.57073440000001,0 -119.72644260000003,46.570043900000016,0 -119.72603100000002,46.569493600000015,0 -119.72508480000002,46.56851520000002,0 -119.72471660000002,46.56820780000002,0 -119.72362220000002,46.567450100000016,0 -119.72310220000003,46.56715340000002,0 -119.70957640000003,46.561099100000014,0 -119.70793290000003,46.560151900000015,0 -119.70669370000002,46.55930930000002,0 -119.69078990000003,46.54691670000002,0 -119.68963830000003,46.545761200000015,0 -119.68877050000002,46.54470540000001,0 -119.68768020000002,46.54302990000001,0 -119.68045880000003,46.528357800000016,0 -119.67951350000003,46.52692620000001,0 -119.67836970000003,46.52555500000001,0 -119.67743410000004,46.52464160000001,0 -119.66384400000004,46.51359710000001,0 -119.66187140000005,46.512369800000016,0 -119.65972460000005,46.51131970000001,0 -119.65766000000005,46.510516200000005,0 -119.65560920000004,46.50990750000001,0 -119.65374900000005,46.50949630000001,0 -119.62632090000005,46.50573160000001,0 -119.62480410000005,46.50543330000001,0 -119.62293050000007,46.50494960000001,0 -119.62090030000006,46.50426930000001,0 -119.61954350000005,46.50371550000001,0 -119.49818010000006,46.446644800000016,0 -119.49607910000003,46.44547210000001,0 -119.49465390000003,46.444492900000014,0 -119.45154470000003,46.409411300000016,0 -119.45043580000002,46.408395200000015,0 -119.44965570000002,46.40754980000001,0 -119.43833150000003,46.39294070000001,0 -119.43751230000002,46.392089500000004,0 -119.43612040000002,46.39086970000001,0 -119.4350151,46.390059400000005,0 -119.43368880000001,46.389221500000005,0 -119.34777460000002,46.3423804,0 -119.34773140000003,46.3423281,0 -119.34466780000002,46.34065450000001,0 -119.34453500000002,46.3406049,0 -119.32373440000003,46.329256300000004,0 -119.29540570000005,46.31498820000001,0 -119.29530350000005,46.314904000000006,0 -119.29186790000004,46.31318780000001,0 -119.29174770000003,46.31314950000001,0 -119.28848130000003,46.31150190000001,0 -119.28800300000003,46.31117990000001,0 -119.28751490000003,46.310712400000014,0 -119.28617840000003,46.308975300000014,0 -119.28620980000004,46.308917000000015,0 -119.28625170000004,46.30860660000001,0 -119.28640190000003,46.30838800000001,0 -119.29814200000004,46.29958510000001,0 -119.30175150000005,46.29667270000001,0 -119.30277880000006,46.295699000000006,0 -119.30415850000006,46.293979300000004,0 -119.30470820000005,46.293128,0 -119.30574220000004,46.291184400000006,0 -119.30619870000005,46.290024300000006,0 -119.30638500000003,46.28929130000001,0 -119.30658830000004,46.28789590000001,0 -119.30661850000006,46.27264890000001,0 -119.30642530000006,46.27169560000001,0 -119.30618220000007,46.271090900000004,0 -119.30567500000008,46.27025280000001,0 -119.30524810000007,46.26974090000001,0 -119.30443380000007,46.26899680000001,0 -119.30372920000006,46.26850620000001,0 -119.28439820000007,46.25766950000001,0 -119.28361540000007,46.25736860000001,0 -119.28312070000007,46.257250000000006,0 -119.28248800000007,46.25716880000001,0 -119.28168920000007,46.25716600000001,0 -119.28075600000007,46.25730410000001,0 -119.28028130000007,46.25744010000001,0 -119.27806760000007,46.258283100000014,0 -119.27747660000007,46.25844090000001,0 -119.27646740000007,46.258605400000015,0 -119.27532500000008,46.258653400000014,0 -119.27522560000007,46.25872370000002,0 -119.27000220000006,46.25868840000002,0 -119.26985240000005,46.258589600000015,0 -119.26684950000006,46.258481300000014,0 -119.26381780000006,46.258164000000015,0 -119.26321670000004,46.258017500000015,0 -119.26264270000004,46.25782080000001,0 -119.26224640000002,46.257644100000014,0 -119.26156780000004,46.257248900000015,0 -119.26085150000003,46.256694300000014,0 -119.26081150000003,46.25668060000001,0 -119.26071050000003,46.25668090000001,0 -119.25981210000003,46.25590920000001,0 -119.25914170000003,46.25523840000002,0 -119.25481700000003,46.25022230000002,0 -119.24367180000003,46.23856030000002,0 -119.24274570000004,46.237764700000014,0 -119.24188420000003,46.23712380000002,0 -119.24072280000003,46.23637870000002,0 -119.23938370000003,46.23565640000002,0 -119.23792630000003,46.23500990000002,0 -119.23658960000003,46.23452280000002,0 -119.23453840000003,46.233943500000024,0 -119.23242410000003,46.233477100000016,0 -119.22972900000003,46.23301540000002,0 -119.22958900000005,46.232937800000016,0 -119.22587360000004,46.23230400000002,0 -119.22539920000004,46.23207160000002,0 -119.22470450000003,46.23160350000002,0 -119.22439630000004,46.231487700000024,0 -119.22389690000003,46.23135490000002,0 -119.22383750000003,46.23132630000002,0 -119.22371780000003,46.231213100000026,0 -119.22365220000005,46.230965500000025,0 -119.22364250000005,46.23046900000003,0 -119.22359010000007,46.23036410000003,0 -119.22380940000005,46.227642900000035,0 -119.22378880000007,46.22749530000003,0 -119.22406530000008,46.22464010000003,0 -119.22402040000007,46.22176010000003,0 -119.22424030000008,46.219136000000034,0 -119.22419340000008,46.21893930000003,0 -119.22435160000008,46.21828420000003,0 -119.22263510000008,46.21806960000003,0 -119.22225000000009,46.21796760000003,0 -119.22206900000008,46.21789150000003,0 -119.22098130000008,46.21721210000003,0 -119.22028710000008,46.216960300000025,0 -119.21992060000007,46.21690190000003,0 -119.21930160000007,46.21688840000003,0 -119.21888990000005,46.21683340000003,0 -119.21885000000005,46.216796700000025,0 -119.21877820000003,46.21676360000002,0 -119.21864810000004,46.21675460000003,0 -119.21858120000002,46.216770100000026,0 -119.21849870000001,46.216828900000024,0 -119.21809380000002,46.21687760000003,0 -119.21750260000002,46.21700460000003,0 -119.21726480000002,46.21708520000003,0 -119.21741370000002,46.21724340000002,0 -119.21775400000001,46.21749620000003,0 </coordinates></LineString><TimeSpan><begin>2022-02-25T18:13:52.000Z</begin><end>2022-02-25T19:30:18.657Z</end></TimeSpan></Placemark><Placemark><name>Visit Tri-Cities</name><address>7130 W Grandridge Blvd suite b, Kennewick, WA 99336</address><ExtendedData><Data name="Email"><value>syugen.zhou@gmail.com</value></Data><Data name="Category"><value>Tourist information center</value></Data><Data name="Distance"><value>0</value></Data></ExtendedData><description> Tourist information center from 2022-02-25T19:30:18.657Z to 2022-02-25T19:41:25.000Z. Distance 0m </description><Point><coordinates>-119.21797719999999,46.217352299999995,0</coordinates></Point><TimeSpan><begin>2022-02-25T19:30:18.657Z</begin><end>2022-02-25T19:41:25.000Z</end></TimeSpan></Placemark><Placemark><name>Driving</name><address></address><ExtendedData><Data name="Email"><value>syugen.zhou@gmail.com</value></Data><Data name="Category"><value>Driving</value></Data><Data name="Distance"><value>3206</value></Data></ExtendedData><description> Driving from 2022-02-25T19:41:25.000Z to 2022-02-25T19:48:24.000Z. Distance 3206m </description><LineString><altitudeMode>clampToGround</altitudeMode><extrude>1</extrude><tesselate>1</tesselate><coordinates>-119.21801219999999,46.217687999999995,0 -119.21841639999998,46.21798819999999,0 -119.21846349999998,46.21797049999999,0 -119.2186737,46.21793159999999,0 -119.2187029,46.2180828,0 -119.2187472,46.2181905,0 -119.21896849999999,46.2184695,0 -119.2191639,46.218607999999996,0 -119.2193044,46.218755699999996,0 -119.21943780000001,46.218978299999996,0 -119.2194928,46.2191648,0 -119.2195215,46.2194865,0 -119.21942990000001,46.2198651,0 -119.21938610000001,46.2198831,0 -119.21931529999999,46.2199331,0 -119.2192879,46.219966299999996,0 -119.21926429999999,46.2200363,0 -119.2192792,46.22012459999999,0 -119.2193481,46.220187499999994,0 -119.2193814,46.220205,0 -119.2194997,46.2202212,0 -119.21958649999999,46.220214799999994,0 -119.2196514,46.2201932,0 -119.21971099999999,46.22016,0 -119.22011169999998,46.2202772,0 -119.22022179999998,46.22038059999999,0 -119.22034319999999,46.220619199999994,0 -119.22037529999999,46.22089809999999,0 -119.2203619,46.22162459999999,0 -119.2203914,46.22179909999999,0 -119.2204528,46.221973399999996,0 -119.22059910000002,46.22220599999999,0 -119.22079800000002,46.22241209999999,0 -119.22109140000002,46.2226304,0 -119.22136630000001,46.2227677,0 -119.22167390000001,46.222889699999996,0 -119.22203690000003,46.222999699999995,0 -119.22244330000002,46.2230637,0 -119.22288050000002,46.2230916,0 -119.22334670000002,46.223176499999994,0 -119.22344350000003,46.2232111,0 -119.22367670000003,46.2233572,0 -119.22344070000004,46.230318,0 -119.22301810000003,46.230342,0 -119.22291230000005,46.230333099999996,0 -119.22282430000006,46.2303035,0 -119.22270480000006,46.23022219999999,0 -119.22268330000006,46.23018139999999,0 -119.22268870000006,46.22951109999999,0 -119.22270750000007,46.22946929999999,0 -119.22276780000007,46.22939499999999,0 -119.22288850000007,46.229344899999994,0 -119.22299310000007,46.229322599999996,0 -119.22467750000007,46.229318899999996,0 -119.22478880000007,46.22934209999999,0 -119.22489880000008,46.229401499999994,0 -119.22496180000007,46.229479399999995,0 -119.22498330000006,46.22955269999999,0 -119.22493640000006,46.23034779999999,0 -119.22403140000007,46.23034749999999,0 -119.22383230000007,46.23030789999999,0 -119.22361210000007,46.23021889999999,0 -119.22380940000008,46.227642899999985,0 -119.2237888000001,46.22749529999999,0 -119.22406220000009,46.224446499999985,0 -119.2270767000001,46.22453359999999,0 -119.22710910000008,46.22396579999999,0 -119.22867010000007,46.22401199999999,0 -119.22873090000006,46.22321889999999,0 -119.22974320000006,46.22320929999999,0 -119.22991300000005,46.223266599999995,0 -119.23011810000004,46.22328029999999,0 -119.23040930000005,46.22333249999999,0 -119.23061580000004,46.22341949999999,0 -119.23078060000003,46.22352039999999,0 -119.23096740000004,46.22369779999999,0 -119.23107070000003,46.22384979999999,0 -119.23111720000003,46.224016299999995,0 -119.23122590000003,46.22418569999999,0 -119.23121150000003,46.225909599999994,0 -119.23112400000004,46.226118299999996,0 -119.23111680000004,46.22673849999999,0 -119.23100990000005,46.22690049999999,0 -119.23092310000004,46.22696329999999,0 -119.23089490000004,46.227006899999985,0 -119.23088010000004,46.22708209999998,0 -119.23088820000004,46.22711919999998,0 -119.23092040000003,46.22717209999998,0 -119.23098470000002,46.22722309999998,0 -119.23106250000004,46.227255599999985,0 -119.23114570000003,46.22727039999999,0 -119.23127840000002,46.22725839999998,0 -119.23140850000003,46.22718969999998,0 -119.23162310000002,46.22713029999998,0 -119.23581270000003,46.22717859999998,0 -119.23594280000003,46.22713219999998,0 -119.23612520000003,46.227131299999975,0 -119.23622310000003,46.22708489999998,0 -119.23625680000002,46.225831299999975,0 -119.23674010000002,46.22583579999998,0 </coordinates></LineString><TimeSpan><begin>2022-02-25T19:41:25.000Z</begin><end>2022-02-25T19:48:24.000Z</end></TimeSpan></Placemark><Placemark><name>Costco Gasoline</name><address>8505A W Gage Blvd, Kennewick, WA 99336</address><ExtendedData><Data name="Email"><value>syugen.zhou@gmail.com</value></Data><Data name="Category"><value>Gas station</value></Data><Data name="Distance"><value>0</value></Data></ExtendedData><description> Gas station from 2022-02-25T19:48:24.000Z to 2022-02-25T20:00:40.000Z. Distance 0m </description><Point><coordinates>-119.23696419999999,46.225578299999995,0</coordinates></Point><TimeSpan><begin>2022-02-25T19:48:24.000Z</begin><end>2022-02-25T20:00:40.000Z</end></TimeSpan></Placemark><Placemark><name>Driving</name><address></address><ExtendedData><Data name="Email"><value>syugen.zhou@gmail.com</value></Data><Data name="Category"><value>Driving</value></Data><Data name="Distance"><value>78568</value></Data></ExtendedData><description> Driving from 2022-02-25T20:00:40.000Z to 2022-02-25T21:09:30.989Z. Distance 78568m </description><LineString><altitudeMode>clampToGround</altitudeMode><extrude>1</extrude><tesselate>1</tesselate><coordinates>-119.2368003,46.225581399999996,0 -119.2367944,46.2254378,0 -119.23650280000001,46.225380799999996,0 -119.23684659999999,46.2249897,0 -119.23595759999999,46.2246021,0 -119.23568669999999,46.224423900000005,0 -119.23552979999998,46.224277300000004,0 -119.23535539999999,46.2239999,0 -119.23532669999999,46.2238618,0 -119.2345068,46.2240148,0 -119.2342131,46.2240282,0 -119.233734,46.22396740000001,0 -119.23338129999999,46.2238496,0 -119.23263970000001,46.223421900000005,0 -119.2322266,46.223279,0 -119.23197009999998,46.22322380000001,0 -119.2314557,46.223188400000005,0 -119.2312521,46.223154,0 -119.22539470000001,46.2231052,0 -119.22374390000002,46.2230396,0 -119.2236767,46.2233572,0 -119.2234117,46.231079799999996,0 -119.2233207,46.2312044,0 -119.2232579,46.231417,0 -119.22309149999998,46.2316849,0 -119.22298619999998,46.2317825,0 -119.22274829999998,46.2319029,0 -119.2224684,46.2319997,0 -119.22200099999999,46.232115400000005,0 -119.22096429999998,46.2322373,0 -119.22054939999998,46.2322494,0 -119.22039539999999,46.23234670000001,0 -119.21333109999998,46.2320967,0 -119.21037049999997,46.231790200000006,0 -119.18876329999998,46.228211400000006,0 -119.16589239999998,46.22340680000001,0 -119.15173809999997,46.2198789,0 -119.15014289999998,46.219380300000005,0 -119.14889319999999,46.21892820000001,0 -119.1455175,46.21752210000001,0 -119.14457859999999,46.21724100000001,0 -119.14366259999998,46.2171067,0 -119.14305979999999,46.21707400000001,0 -119.1425077,46.217086200000004,0 -119.1417413,46.21716570000001,0 -119.14080310000001,46.21738750000001,0 -119.13992,46.2177555,0 -119.13932729999999,46.21811720000001,0 -119.13835850000001,46.218899300000004,0 -119.1382768,46.2189885,0 -119.1380784,46.219303700000005,0 -119.1378295,46.2200782,0 -119.13778249999999,46.22012470000001,0 -119.13414199999998,46.228620400000004,0 -119.1339011,46.229060800000006,0 -119.13363159999999,46.2294101,0 -119.13242499999998,46.230596500000004,0 -119.13214699999999,46.230991100000004,0 -119.1319973,46.23128940000001,0 -119.1318613,46.231755400000004,0 -119.13182520000001,46.232097200000005,0 -119.1318998,46.233624600000006,0 -119.13182940000002,46.2340517,0 -119.13169660000003,46.2344835,0 -119.12701140000003,46.24544770000001,0 -119.12690080000003,46.2455014,0 -119.12570100000005,46.2476904,0 -119.12549660000003,46.2478986,0 -119.12525900000003,46.2480752,0 -119.12492370000002,46.248256600000005,0 -119.12446800000002,46.2484103,0 -119.12412750000001,46.2484764,0 -119.12380270000003,46.2484986,0 -119.12366180000002,46.2485257,0 -119.12075940000004,46.248496900000006,0 -119.12055320000005,46.248513,0 -119.11488590000003,46.24850250000001,0 -119.11474830000003,46.24857300000001,0 -119.10197000000002,46.248453600000005,0 -119.10106020000003,46.2485354,0 -119.08623020000005,46.25136210000001,0 -119.08406270000003,46.251634700000004,0 -119.08245640000003,46.25171340000001,0 -119.08055310000002,46.25166920000001,0 -119.07866960000001,46.251487600000004,0 -119.07699500000003,46.251191000000006,0 -119.07532130000001,46.25077540000001,0 -119.07437990000001,46.25047870000001,0 -119.07297930000001,46.24994480000001,0 -119.07101850000002,46.24897860000001,0 -119.07030830000001,46.24854890000001,0 -118.94873260000001,46.16463980000001,0 -118.94674420000003,46.16306540000001,0 -118.94552900000004,46.16193430000001,0 -118.94364630000004,46.15982500000001,0 -118.94286640000003,46.15875830000001,0 -118.94205120000002,46.15747170000001,0 -118.94140590000002,46.15625690000001,0 -118.94063050000001,46.15438350000001,0 -118.9391829,46.14971790000001,0 -118.93855630000002,46.14726170000001,0 -118.93473570000002,46.135099400000016,0 -118.93306100000002,46.13078070000002,0 -118.93212870000004,46.12790420000002,0 -118.93129140000003,46.12590710000001,0 -118.93007960000006,46.12364830000001,0 -118.92729230000006,46.119606300000015,0 -118.92593620000007,46.11793750000001,0 -118.91959430000007,46.11122180000002,0 -118.91369380000006,46.10432620000002,0 -118.91330530000006,46.10358020000002,0 -118.91321920000006,46.10330390000002,0 -118.91153660000006,46.09384800000002,0 -118.91150410000007,46.09379180000002,0 -118.91095770000008,46.09062420000002,0 -118.9103265000001,46.08820100000002,0 -118.9103406000001,46.08816210000002,0 -118.90966730000008,46.08565790000002,0 -118.90961530000008,46.08559040000002,0 -118.90782120000009,46.07879520000002,0 -118.9077277000001,46.07773700000002,0 -118.90805730000008,46.06536570000003,0 -118.90830230000009,46.06384010000003,0 -118.90944660000007,46.06030880000003,0 -118.90997360000007,46.05901670000003,0 -118.90995050000005,46.05834900000003,0 -118.90980500000005,46.05796100000003,0 -118.90940770000005,46.05734790000003,0 -118.90899410000004,46.05694610000003,0 -118.90854900000005,46.056641100000036,0 -118.90823040000005,46.056485400000035,0 -118.90769930000003,46.056289700000036,0 -118.90759940000005,46.05623400000004,0 -118.90755430000004,46.05619260000004,0 -118.90269940000006,46.055752000000034,0 -118.88080330000007,46.05300590000004,0 -118.87840370000006,46.052790400000035,0 -118.87600640000007,46.05270740000004,0 -118.87299150000007,46.05276880000004,0 -118.86932520000006,46.05312260000003,0 -118.86574180000005,46.053757700000034,0 -118.86311590000004,46.05443410000004,0 -118.86010340000006,46.05544110000003,0 -118.85841460000006,46.056126700000036,0 -118.85697530000006,46.056789400000035,0 -118.84221250000004,46.06433570000003,0 -118.84162200000004,46.06459980000003,0 -118.84083000000004,46.06489140000003,0 -118.83962540000005,46.06523960000003,0 -118.83472570000005,46.06614100000002,0 -118.83394810000004,46.06623100000002,0 -118.83276270000006,46.06626360000002,0 -118.82897290000005,46.065925800000024,0 -118.82811390000003,46.06593390000002,0 -118.82734250000003,46.065984800000024,0 -118.82611660000003,46.06616750000002,0 -118.82521940000004,46.06638110000002,0 -118.82408210000003,46.06676710000002,0 -118.82333730000002,46.06710610000002,0 -118.81887090000004,46.06946600000002,0 -118.81849690000003,46.069625200000026,0 -118.81753430000003,46.069924400000026,0 -118.81665920000003,46.070073300000026,0 -118.81562900000003,46.07012100000002,0 -118.81491100000004,46.070074500000025,0 -118.81442000000004,46.07000620000002,0 -118.81362920000004,46.06983020000002,0 -118.81107160000003,46.06896160000002,0 -118.81042530000003,46.068812300000026,0 -118.80957290000003,46.06870320000002,0 -118.80881830000004,46.068688900000026,0 -118.80711290000005,46.06882170000003,0 -118.80448830000005,46.06924110000003,0 -118.80353790000004,46.06945930000003,0 -118.80283020000003,46.069667800000026,0 -118.80203250000002,46.070000400000026,0 -118.80131690000003,46.070436200000024,0 -118.79972090000004,46.071621800000024,0 -118.79901030000003,46.07199730000002,0 -118.79842020000005,46.07222710000002,0 -118.79786220000005,46.07239060000002,0 -118.79729360000006,46.072508800000016,0 -118.79670570000005,46.07258760000001,0 -118.79575270000005,46.07261730000001,0 -118.78840940000005,46.07246290000001,0 -118.78762900000005,46.07241360000001,0 -118.77980200000005,46.07127690000001,0 -118.77879020000003,46.071212200000005,0 -118.77805050000003,46.07121740000001,0 -118.77560720000002,46.07137430000001,0 -118.77500760000004,46.07137330000001,0 -118.77407250000003,46.07127490000001,0 -118.77332810000001,46.07111200000002,0 -118.71007630000001,46.052821500000015,0 -118.7090594,46.05241750000002,0 -118.6907704,46.04322190000001,0 -118.69072530000001,46.04317610000001,0 -118.6884772,46.042047800000006,0 -118.68800660000001,46.041873900000006,0 -118.68740860000001,46.04170980000001,0 -118.68730690000001,46.04170570000001,0 -118.6866607,46.04158160000001,0 -118.6862749,46.04153800000001,0 -118.685407,46.04150120000001,0 -118.67930790000001,46.04149120000001,0 -118.67080760000002,46.040587500000015,0 -118.67068680000003,46.04055350000001,0 -118.66848530000003,46.04018150000001,0 -118.66164180000003,46.03945990000001,0 -118.66157170000004,46.03943550000001,0 -118.66028370000004,46.03933520000001,0 -118.65874020000003,46.03936630000001,0 -118.65723260000003,46.03953970000001,0 -118.65628640000004,46.03973300000001,0 -118.65487280000004,46.040165300000005,0 -118.65075040000004,46.04169300000001,0 -118.65063810000002,46.041714600000006,0 -118.64646360000002,46.043265100000006,0 -118.64636400000002,46.04332070000001,0 -118.63145410000003,46.048852200000006,0 -118.63000900000002,46.04931300000001,0 -118.618542,46.05238120000001,0 -118.61748700000001,46.05259790000001,0 -118.6166657,46.05271530000002,0 -118.60926180000001,46.053267100000014,0 -118.60915530000001,46.05325960000002,0 -118.60552890000001,46.053521900000014,0 -118.6054701,46.053549300000014,0 -118.60185740000001,46.05381680000002,0 -118.6009321,46.05396370000002,0 -118.6003458,46.054113600000015,0 -118.5942839,46.056458800000016,0 -118.59358610000001,46.05663970000001,0 -118.59234880000001,46.056820400000014,0 -118.5915994,46.05684700000001,0 -118.59109140000001,46.05683010000001,0 -118.5879733,46.05651690000001,0 -118.58450909999999,46.05635570000001,0 -118.58275280000001,46.05617000000001,0 -118.5826662,46.056137000000014,0 -118.5801283,46.05570010000002,0 -118.5793327,46.05560670000001,0 -118.5792439,46.055615500000016,0 -118.55709909999999,46.053230800000016,0 -118.55703179999998,46.05319870000002,0 -118.55267739999996,46.05273170000002,0 -118.55260559999996,46.05273740000002,0 -118.54671229999997,46.05209830000002,0 -118.54662899999998,46.052073700000015,0 -118.54338999999997,46.05171810000002,0 -118.54316819999998,46.05171810000002,0 -118.52460699999997,46.04974430000002,0 -118.52205449999998,46.04971510000002,0 -118.51919349999999,46.04994770000002,0 -118.51912179999998,46.049595700000026,0 -118.51906089999999,46.049460100000026,0 -118.51891539999998,46.04927810000002,0 -118.51877479999997,46.04918050000002,0 -118.5185186,46.04906980000002,0 -118.51830719999998,46.04902760000002,0 -118.49571919999997,46.04658200000002,0 -118.48379339999995,46.04592120000002,0 -118.48218289999997,46.04597370000002,0 -118.48125029999996,46.04608090000002,0 -118.48018609999995,46.04626810000001,0 -118.47200449999995,46.04847010000002,0 -118.47174079999995,46.045073000000016,0 -118.47084449999996,46.041069600000014,0 -118.46533249999996,46.040828200000014,0 -118.46496799999996,46.04097630000001,0 -118.46467289999997,46.04117740000001,0 -118.46446409999997,46.04149710000001,0 </coordinates></LineString><TimeSpan><begin>2022-02-25T20:00:40.000Z</begin><end>2022-02-25T21:09:30.989Z</end></TimeSpan></Placemark><Placemark><name>Whitman Mission National Historic Site</name><address>328 Whitman Mission Rd, Walla Walla, WA 99362</address><ExtendedData><Data name="Email"><value>syugen.zhou@gmail.com</value></Data><Data name="Category"><value>Historical place</value></Data><Data name="Distance"><value>0</value></Data></ExtendedData><description> Historical place from 2022-02-25T21:09:30.989Z to 2022-02-25T21:21:10.657Z. Distance 0m </description><Point><coordinates>-118.4639806,46.0413577,0</coordinates></Point><TimeSpan><begin>2022-02-25T21:09:30.989Z</begin><end>2022-02-25T21:21:10.657Z</end></TimeSpan></Placemark><Placemark><name>Driving</name><address></address><ExtendedData><Data name="Email"><value>syugen.zhou@gmail.com</value></Data><Data name="Category"><value>Driving</value></Data><Data name="Distance"><value>160534</value></Data></ExtendedData><description> Driving from 2022-02-25T21:21:10.657Z to 2022-02-25T23:20:25.054Z. Distance 160534m </description><LineString><altitudeMode>clampToGround</altitudeMode><extrude>1</extrude><tesselate>1</tesselate><coordinates>-118.46432499999999,46.042342999999995,0 -118.46443359999999,46.042441499999995,0 -118.46480689999999,46.042464599999995,0 -118.4649132,46.042123499999995,0 -118.46455429999999,46.041359400000005,0 -118.4646729,46.0411774,0 -118.46533249999999,46.0408282,0 -118.47084449999998,46.0410696,0 -118.47174079999998,46.045073,0 -118.47200449999998,46.0484701,0 -118.45650959999999,46.0525845,0 -118.45737649999998,46.0550665,0 -118.44267729999999,46.056607,0 -118.43916159999999,46.0574089,0 -118.43609209999998,46.0585442,0 -118.43430809999997,46.0594704,0 -118.42163869999996,46.068179799999996,0 -118.41925239999998,46.0693421,0 -118.41506129999996,46.0707059,0 -118.41177309999998,46.0712889,0 -118.38431469999999,46.073110400000004,0 -118.38210519999998,46.0730507,0 -118.37980329999999,46.0727236,0 -118.37731029999998,46.0720253,0 -118.37408169999998,46.070702700000005,0 -118.37189409999998,46.0700872,0 -118.36896519999996,46.069660400000004,0 -118.35620049999997,46.0695806,0 -118.35124509999997,46.0699897,0 -118.34889689999999,46.0704732,0 -118.34193179999998,46.073039599999994,0 -118.34094939999997,46.0735847,0 -118.33749839999996,46.0772284,0 -118.33642599999996,46.0780416,0 -118.33496779999994,46.0787208,0 -118.32201749999994,46.0828331,0 -118.32090619999994,46.0829898,0 -118.31895149999993,46.0829717,0 -118.30368339999994,46.0810956,0 -118.30194829999995,46.081171000000005,0 -118.29753779999996,46.0823034,0 -118.29218999999995,46.08245900000001,0 -118.28500739999997,46.083803700000004,0 -118.27791129999997,46.084228800000005,0 -118.25999749999997,46.088225400000006,0 -118.25896659999997,46.088799300000005,0 -118.25821409999996,46.0895147,0 -118.25394769999997,46.098294100000004,0 -118.25300459999995,46.099287100000005,0 -118.25149549999995,46.100293300000004,0 -118.23884999999996,46.104178600000004,0 -118.23811979999995,46.1045614,0 -118.22229689999995,46.1158487,0 -118.21406459999994,46.1193967,0 -118.20987599999994,46.120591600000004,0 -118.20784009999993,46.121560300000006,0 -118.20519299999992,46.123454300000006,0 -118.19509999999991,46.12710920000001,0 -118.1866088999999,46.129620200000005,0 -118.1685136999999,46.136467,0 -118.1640964999999,46.1369416,0 -118.1483754999999,46.1428448,0 -118.1448709999999,46.1452356,0 -118.14121769999988,46.1490625,0 -118.1397442999999,46.151110599999996,0 -118.13899409999989,46.1518069,0 -118.13586219999989,46.153928099999995,0 -118.1324651999999,46.15768969999999,0 -118.13203489999991,46.15849449999999,0 -118.13175059999992,46.162223999999995,0 -118.1308039999999,46.164649399999995,0 -118.1307204999999,46.1655959,0 -118.13412469999989,46.172956799999994,0 -118.1348619999999,46.17392009999999,0 -118.13843559999988,46.17692649999999,0 -118.13902459999987,46.177831299999994,0 -118.13907409999987,46.178995699999994,0 -118.13874939999988,46.179740699999996,0 -118.13661339999989,46.182636099999996,0 -118.13621169999989,46.183757,0 -118.1362300999999,46.1859307,0 -118.13759839999992,46.1892947,0 -118.1376520999999,46.1936951,0 -118.1387840999999,46.197231699999996,0 -118.13763139999989,46.2046969,0 -118.1375697999999,46.229417600000005,0 -118.1382607999999,46.232628500000004,0 -118.1391298999999,46.234485500000005,0 -118.1435195999999,46.240230600000004,0 -118.14464179999992,46.2423586,0 -118.1477300999999,46.25159240000001,0 -118.1530264999999,46.258977800000004,0 -118.1531851999999,46.259527000000006,0 -118.1532357999999,46.270119900000005,0 -118.1399495999999,46.270201300000004,0 -118.1374973999999,46.2707885,0 -118.1294651999999,46.2718934,0 -118.12349359999989,46.273883700000006,0 -118.10783209999988,46.28576650000001,0 -118.10683119999989,46.28631310000001,0 -118.1031713999999,46.287738100000006,0 -118.10089859999988,46.28821630000001,0 -118.08997029999988,46.28922680000001,0 -118.08360909999988,46.28948400000001,0 -118.06892599999989,46.28678150000001,0 -118.06673649999989,46.28663710000001,0 -118.03746349999989,46.28808110000001,0 -118.03595179999989,46.28834280000001,0 -118.03027669999989,46.2900834,0 -118.02659109999989,46.2916699,0 -117.99234329999989,46.3120379,0 -117.99167279999989,46.3128605,0 -117.9910732999999,46.3147173,0 -117.9905488999999,46.3151512,0 -117.97542169999991,46.3220771,0 -117.9733016999999,46.323281400000006,0 -117.97282889999991,46.32375490000001,0 -117.9725343999999,46.32481640000001,0 -117.97260949999989,46.32510220000001,0 -117.97491529999988,46.32780890000001,0 -117.97934739999987,46.336687800000014,0 -117.97953629999988,46.33787480000001,0 -117.97898589999987,46.34556950000001,0 -117.97872619999988,46.34617010000001,0 -117.97809709999989,46.34693500000001,0 -117.97682319999988,46.34771200000001,0 -117.97118409999989,46.349125600000015,0 -117.95780959999989,46.35367530000001,0 -117.95148269999989,46.35696320000002,0 -117.95086139999988,46.357653200000016,0 -117.95064659999989,46.358338900000014,0 -117.9506118999999,46.362222400000014,0 -117.9500185999999,46.363735900000016,0 -117.9469384999999,46.36816440000001,0 -117.9437734999999,46.37416200000001,0 -117.93967789999992,46.37936480000001,0 -117.93924959999991,46.38078800000001,0 -117.93909569999991,46.38717290000001,0 -117.93805799999993,46.38989680000001,0 -117.93696379999993,46.39134090000001,0 -117.93282669999994,46.395514000000006,0 -117.93232009999993,46.39648060000001,0 -117.93208739999992,46.397422500000005,0 -117.93225389999992,46.39875070000001,0 -117.93276909999992,46.39976080000001,0 -117.93394939999992,46.40100920000001,0 -117.93531239999992,46.401812100000015,0 -117.93877249999991,46.40329590000002,0 -117.93990289999992,46.404134100000014,0 -117.9409640999999,46.40533160000002,0 -117.9418380999999,46.40732400000002,0 -117.94243819999991,46.410737800000014,0 -117.94781559999991,46.422315200000014,0 -117.94800719999992,46.423195000000014,0 -117.94792089999991,46.42442980000001,0 -117.9467680999999,46.42714810000002,0 -117.94664809999992,46.42806940000002,0 -117.94679379999991,46.42907740000002,0 -117.95221539999991,46.44009950000002,0 -117.95416049999992,46.44287230000002,0 -117.95448229999992,46.44367080000002,0 -117.95459189999993,46.445290400000026,0 -117.95494879999993,46.445992700000026,0 -117.95663099999993,46.44749970000002,0 -117.95850029999993,46.450233000000026,0 -117.95877619999993,46.45097580000002,0 -117.95958669999995,46.45636150000002,0 -117.96098959999995,46.45978700000002,0 -117.96167089999993,46.465964400000026,0 -117.96258869999993,46.46812200000002,0 -117.96254559999994,46.46967120000002,0 -117.96214089999994,46.470688700000025,0 -117.96157299999993,46.47472630000003,0 -117.96061079999991,46.47702370000003,0 -117.96108559999992,46.48057600000003,0 -117.9609354999999,46.48711520000003,0 -117.96133089999991,46.48844390000003,0 -117.96256349999992,46.49002620000003,0 -117.9637715999999,46.49088560000003,0 -117.9702440999999,46.49377090000003,0 -117.97102029999992,46.49466630000003,0 -117.97374589999991,46.50056100000003,0 -117.97334329999993,46.50765080000003,0 -117.97309709999992,46.508455800000036,0 -117.97223019999993,46.509408600000036,0 -117.97148609999994,46.50980090000003,0 -117.97001879999995,46.51005950000003,0 -117.96422929999994,46.509449900000035,0 -117.95872349999995,46.50992160000004,0 -117.95363079999996,46.509454200000036,0 -117.95214619999994,46.50949790000004,0 -117.94908609999993,46.51005390000004,0 -117.94830709999994,46.51032340000003,0 -117.94770559999994,46.51067730000004,0 -117.93291369999994,46.52294940000004,0 -117.92383609999995,46.52659030000003,0 -117.91862849999995,46.53008120000003,0 -117.91790649999994,46.530384100000035,0 -117.91210599999995,46.53192430000003,0 -117.90969939999994,46.533006900000025,0 -117.89484809999995,46.54351870000003,0 -117.89259089999996,46.54451720000002,0 -117.88348429999998,46.54693220000003,0 -117.88210009999997,46.54694660000003,0 -117.87455299999998,46.54536780000003,0 -117.87236079999997,46.54443990000003,0 -117.86888909999998,46.54222810000003,0 -117.85368989999998,46.53589250000003,0 -117.83288039999998,46.52612310000003,0 -117.83203519999998,46.52587890000003,0 -117.82423909999997,46.52507750000003,0 -117.82418949999996,46.52503350000003,0 -117.82321279999996,46.52485800000003,0 -117.82008279999995,46.523900000000026,0 -117.81595099999994,46.521985900000026,0 -117.81453569999995,46.521641600000024,0 -117.80529369999995,46.52141090000003,0 -117.80315199999994,46.52111560000002,0 -117.80060569999993,46.52044910000002,0 -117.79387059999995,46.51746230000002,0 -117.79216429999995,46.516919700000024,0 -117.79149669999995,46.51655010000002,0 -117.78739719999996,46.51300470000002,0 -117.78424559999995,46.50762870000002,0 -117.78283249999994,46.506479500000026,0 -117.77788079999995,46.504150600000024,0 -117.77630199999996,46.50289110000003,0 -117.77364699999997,46.49915420000002,0 -117.77308639999998,46.49751540000002,0 -117.77084169999998,46.49510360000002,0 -117.76568709999997,46.491045400000026,0 -117.76506069999996,46.49071320000002,0 -117.75493019999998,46.48715120000002,0 -117.73932679999997,46.48267800000003,0 -117.73781219999998,46.48204260000002,0 -117.73026849999998,46.476903900000025,0 -117.72569159999998,46.474226800000025,0 -117.71362979999999,46.46834400000002,0 -117.7040093,46.46435750000002,0 -117.68940299999998,46.462671800000024,0 -117.6885597,46.46268460000002,0 -117.67837429999999,46.464811500000025,0 -117.67646329999998,46.46567880000002,0 -117.67576409999998,46.46626970000002,0 -117.67194019999997,46.47083810000002,0 -117.67124909999995,46.471269300000024,0 -117.66288599999997,46.47460230000002,0 -117.65001519999997,46.47667680000002,0 -117.64646349999995,46.47747490000002,0 -117.63626699999996,46.478500700000026,0 -117.63383259999996,46.478500700000026,0 -117.61906289999995,46.47723840000002,0 -117.60735439999995,46.474902300000025,0 -117.60434919999996,46.47490150000002,0 -117.59567189999996,46.47403560000002,0 -117.58507109999996,46.47401470000002,0 -117.58123219999997,46.47474440000002,0 -117.56066309999996,46.47480930000002,0 -117.55707989999998,46.475225500000015,0 -117.53227379999998,46.47285240000002,0 -117.52124519999998,46.47119470000002,0 -117.51873449999997,46.47021900000002,0 -117.50725829999996,46.46772590000002,0 -117.50525989999996,46.467595000000024,0 -117.50015619999995,46.46775480000002,0 -117.49523239999994,46.46725910000002,0 -117.49383909999993,46.46732070000002,0 -117.48857419999993,46.46808410000002,0 -117.48256849999993,46.46763230000003,0 -117.48114079999993,46.467347600000025,0 -117.47943139999992,46.46677080000002,0 -117.47764149999992,46.46579250000002,0 -117.47617209999991,46.46458200000002,0 -117.47430589999992,46.46162310000002,0 -117.47248889999992,46.45951580000002,0 -117.47215449999993,46.45882560000002,0 -117.47210439999994,46.45612440000002,0 -117.47088689999994,46.45266040000002,0 -117.46874539999993,46.44845160000002,0 -117.46804729999992,46.44768110000002,0 -117.46707059999993,46.447086200000015,0 -117.46589149999993,46.44667480000002,0 -117.46476779999992,46.44649800000002,0 -117.46013939999993,46.446346800000015,0 -117.45588769999992,46.44569160000002,0 -117.45496299999992,46.445789900000015,0 -117.45328849999993,46.44644370000002,0 -117.45249049999994,46.44658780000002,0 -117.44936919999994,46.446380900000015,0 -117.44554529999994,46.44677230000001,0 -117.44443729999993,46.446631300000014,0 -117.44364059999992,46.44639380000002,0 -117.44249029999992,46.445817300000016,0 -117.44085309999991,46.44423650000002,0 -117.44054619999991,46.44366930000002,0 -117.4403818999999,46.44256100000002,0 -117.4400710999999,46.44197070000002,0 -117.4395686999999,46.441478900000014,0 -117.4385838999999,46.440987200000016,0 -117.43499459999988,46.44012710000002,0 -117.43415769999989,46.439772900000015,0 -117.43346999999987,46.43930510000001,0 -117.43289539999988,46.43868130000002,0 -117.43230429999988,46.43718480000002,0 -117.43188769999989,46.43667030000002,0 -117.43071669999989,46.43604100000002,0 -117.42966549999989,46.43592370000002,0 -117.42133249999989,46.43591240000002,0 -117.42014009999988,46.43604910000003,0 -117.4195157999999,46.43622920000002,0 -117.4155212999999,46.43809790000002,0 -117.4146710999999,46.43827550000002,0 -117.4105195999999,46.438615100000014,0 -117.40977669999991,46.43881510000002,0 -117.4086957999999,46.439319400000024,0 -117.40764879999992,46.44030790000002,0 -117.4068487999999,46.44181590000002,0 -117.40617329999989,46.44253010000003,0 -117.40454239999991,46.44364640000003,0 -117.4031434999999,46.444109500000025,0 -117.4019650999999,46.44418280000003,0 -117.39832259999991,46.443698700000034,0 -117.39717719999993,46.44332350000003,0 -117.39537599999994,46.44172590000003,0 -117.39438409999993,46.44135630000003,0 -117.39309529999991,46.44128770000003,0 -117.39124649999991,46.44160360000003,0 -117.38841619999991,46.44151320000003,0 -117.38412579999991,46.44221840000003,0 -117.3834495999999,46.442207700000026,0 -117.38132319999991,46.44185180000003,0 -117.37833439999991,46.44203490000003,0 -117.37529129999993,46.44188610000003,0 -117.37416319999991,46.44169490000003,0 -117.37252479999991,46.441153500000034,0 -117.36956099999992,46.43953940000003,0 -117.36572209999993,46.43796050000003,0 -117.36140029999993,46.43725790000003,0 -117.35668439999993,46.437343100000035,0 -117.34117849999994,46.43449430000003,0 -117.33854759999994,46.43430510000004,0 -117.33793679999994,46.434159500000035,0 -117.33555559999995,46.433072400000036,0 -117.33480529999994,46.43295030000003,0 -117.33414289999995,46.43296630000003,0 -117.33298279999994,46.43328650000003,0 -117.32801409999993,46.436246600000025,0 -117.32640809999995,46.43667860000002,0 -117.32493289999995,46.43669850000003,0 -117.32355849999995,46.43641060000002,0 -117.32272589999995,46.43601890000002,0 -117.31668489999996,46.43198430000002,0 -117.31526299999994,46.43130510000002,0 -117.30379809999995,46.42800300000002,0 -117.30110929999995,46.42672320000001,0 -117.29935319999996,46.42634870000002,0 -117.29509529999997,46.42639040000002,0 -117.29400809999997,46.426281500000016,0 -117.29240319999997,46.42585660000002,0 -117.28627659999995,46.42293230000002,0 -117.28560489999995,46.422316700000025,0 -117.28402509999997,46.41938690000002,0 -117.28327909999997,46.418771400000026,0 -117.28192169999998,46.41818260000002,0 -117.2779453,46.41736900000002,0 -117.27650949999999,46.41673360000002,0 -117.26502719999998,46.40885540000002,0 -117.26312149999997,46.40789640000002,0 -117.26017969999997,46.406824700000016,0 -117.24990619999997,46.40409480000002,0 -117.24640849999997,46.40340490000001,0 -117.24237429999998,46.403072500000015,0 -117.23892599999999,46.403137500000014,0 -117.23420399999999,46.40378920000002,0 -117.22609619999999,46.40574700000002,0 -117.22185749999998,46.40726580000002,0 -117.2196039,46.40843060000002,0 -117.2110486,46.41392540000002,0 -117.2095662,46.41456760000002,0 -117.20861099999999,46.41482730000001,0 -117.20663039999998,46.41508370000002,0 -117.20436449999998,46.41494190000002,0 -117.19323329999999,46.412375900000015,0 -117.18918629999999,46.412071900000015,0 -117.18646589999999,46.41232010000002,0 -117.18478159999998,46.41266490000002,0 -117.18230459999998,46.41348570000002,0 -117.17997709999997,46.41470550000002,0 -117.17045369999998,46.42087320000002,0 -117.1641212,46.42379310000002,0 -117.15701069999999,46.425994700000025,0 -117.15125419999998,46.42711020000002,0 -117.14346359999998,46.42778450000002,0 -117.1399989,46.42762980000002,0 -117.1373266,46.427222800000024,0 -117.1345655,46.42651920000002,0 -117.11638549999999,46.42000020000002,0 -117.11073799999998,46.41918750000002,0 -117.09520099999997,46.41500240000002,0 -117.09262789999998,46.41466560000002,0 -117.09041009999999,46.414716900000016,0 -117.08769009999999,46.41521290000002,0 -117.08633829999998,46.41566930000002,0 -117.08064309999999,46.418805300000024,0 -117.07922429999999,46.41934150000002,0 -117.07687130000001,46.41981210000002,0 -117.0691307,46.419910100000024,0 -117.0694101,46.42154560000002,0 -117.0697675,46.42229290000002,0 -117.07392040000002,46.42633400000002,0 -117.07090190000002,46.42766930000002,0 -117.06235000000002,46.43067660000002,0 -117.05154880000002,46.43211760000002,0 -117.04477160000002,46.43205950000002,0 -117.04164110000002,46.43165460000002,0 -117.03417170000002,46.43015900000002,0 -117.03277450000002,46.430257900000015,0 -117.02660370000001,46.432285600000014,0 -117.022267,46.433154500000015,0 -117.0200659,46.433346600000014,0 -117.01540310000001,46.43298870000002,0 -117.01439640000002,46.43268790000002,0 -117.01390330000002,46.43239300000002,0 -117.01331040000002,46.43175470000003,0 -117.01273960000003,46.42988590000002,0 -117.01246510000003,46.42945690000003,0 -117.01189970000001,46.42899150000002,0 -117.01127360000001,46.428701700000026,0 -117.0049359,46.42702270000003,0 -117.0020352,46.425676000000024,0 -117.000906,46.426163200000026,0 -116.999762,46.42644360000003,0 -116.9992244,46.426855700000026,0 -116.99451280000001,46.429313200000024,0 -116.9925882,46.429949800000024,0 -116.98372539999998,46.43120280000002,0 -116.98150819999998,46.43179100000002,0 -116.97873309999997,46.43282770000002,0 -116.97730919999997,46.43318220000002,0 -116.96196649999997,46.43544500000002,0 -116.95907169999998,46.43559130000002,0 -116.95492069999997,46.43521450000002,0 -116.95260279999997,46.43468780000002,0 -116.95060389999998,46.43399970000002,0 -116.94161389999998,46.42966630000002,0 -116.93554439999998,46.42759280000002,0 -116.93117189999998,46.42673850000002,0 -116.92450599999998,46.426194700000025,0 -116.92256169999999,46.42632940000002,0 -116.9210162,46.42660900000003,0 -116.91841429999998,46.427475300000026,0 -116.91657599999998,46.42850850000003,0 -116.91209349999997,46.43274870000003,0 -116.91003899999998,46.43419290000003,0 -116.89371829999997,46.44149160000003,0 -116.88519779999999,46.44642280000003,0 -116.88280279999998,46.44727740000003,0 -116.87687539999999,46.44863280000003,0 -116.8713339,46.44909360000003,0 -116.85658969999999,46.44837820000003,0 -116.8544285,46.447967000000034,0 -116.85010760000002,46.446309000000035,0 -116.84246180000001,46.442384900000036,0 -116.8409701,46.441842400000034,0 -116.83910130000001,46.441512200000034,0 -116.83737430000001,46.441506200000035,0 -116.8362188,46.44166270000004,0 -116.8343789,46.44218590000004,0 -116.827829,46.44534760000004,0 -116.825465,46.44614450000004,0 -116.82371629999999,46.44647870000004,0 -116.823804,46.446789900000034,0 -116.824095,46.44690630000004,0 -116.82443989999999,46.446847800000036,0 -116.82448219999999,46.44687480000003,0 -116.82463059999999,46.446853200000035,0 </coordinates></LineString><TimeSpan><begin>2022-02-25T21:21:10.657Z</begin><end>2022-02-25T23:20:25.054Z</end></TimeSpan></Placemark><Placemark><name>Nez Perce National Historical Park Visitor Center</name><address>39063 US-95, Lapwai, ID 83540</address><ExtendedData><Data name="Email"><value>syugen.zhou@gmail.com</value></Data><Data name="Category"><value>Visitor center</value></Data><Data name="Distance"><value>0</value></Data></ExtendedData><description> Visitor center from 2022-02-25T23:20:25.054Z to 2022-02-25T23:39:06.999Z. Distance 0m </description><Point><coordinates>-116.8227368,46.4475305,0</coordinates></Point><TimeSpan><begin>2022-02-25T23:20:25.054Z</begin><end>2022-02-25T23:39:06.999Z</end></TimeSpan></Placemark><Placemark><name>Nez Perce County</name><address>Idaho</address><ExtendedData><Data name="Email"><value>syugen.zhou@gmail.com</value></Data><Data name="Category"><value></value></Data><Data name="Distance"><value>0</value></Data></ExtendedData><description>  from 2022-02-25T23:39:06.999Z to 2022-02-25T23:56:03.999Z. Distance 0m </description><Point><coordinates>-116.62287599999999,46.418181399999995,0</coordinates></Point><TimeSpan><begin>2022-02-25T23:39:06.999Z</begin><end>2022-02-25T23:56:03.999Z</end></TimeSpan></Placemark><Placemark><name>Driving</name><address></address><ExtendedData><Data name="Email"><value>syugen.zhou@gmail.com</value></Data><Data name="Category"><value>Driving</value></Data><Data name="Distance"><value>168649</value></Data></ExtendedData><description> Driving from 2022-02-25T23:56:03.999Z to 2022-02-26T01:53:41.999Z. Distance 168649m </description><LineString><altitudeMode>clampToGround</altitudeMode><extrude>1</extrude><tesselate>1</tesselate><coordinates>-116.8319933,46.443309799999994,0 -116.8343789,46.44218589999999,0 -116.8362188,46.44166269999999,0 -116.83737430000001,46.44150619999999,0 -116.83910130000001,46.44151219999999,0 -116.8409701,46.44184239999999,0 -116.84246180000001,46.44238489999999,0 -116.85331010000002,46.44777439999999,0 -116.85623420000002,46.448492099999996,0 -116.87049480000003,46.449234499999996,0 -116.87497900000002,46.44905729999999,0 -116.87822110000002,46.448538299999996,0 -116.88419220000002,46.447027399999996,0 -116.88629440000003,46.446100099999995,0 -116.89375810000003,46.441661499999995,0 -116.90983600000001,46.4344945,0 -116.91156920000002,46.4334169,0 -116.91641820000001,46.4288293,0 -116.91759870000001,46.428069799999996,0 -116.9202502,46.426975999999996,0 -116.92330419999999,46.426408699999996,0 -116.92527019999997,46.42636339999999,0 -116.93127539999998,46.426910299999996,0 -116.93490199999997,46.42759289999999,0 -116.94301239999997,46.4304273,0 -116.94490349999997,46.4313915,0 -116.94810819999998,46.43360059999999,0 -116.94992429999998,46.43434969999999,0 -116.95518409999997,46.435427399999995,0 -116.95949029999997,46.435758899999996,0 -116.96221299999998,46.43558579999999,0 -116.97856519999998,46.43304949999999,0 -116.98209839999997,46.431768899999994,0 -116.98451519999996,46.431227799999995,0 -116.99013599999995,46.43055029999999,0 -116.99400199999995,46.4305579,0 -116.99504889999994,46.430213099999996,0 -116.99716769999995,46.428354299999995,0 -116.99972499999996,46.42673169999999,0 -117.00203519999995,46.42567599999999,0 -117.00493589999995,46.42702269999999,0 -117.01127359999995,46.42870169999999,0 -117.01189969999996,46.42899149999999,0 -117.01246509999997,46.429456899999984,0 -117.01273959999997,46.42988589999998,0 -117.01331039999998,46.431754699999985,0 -117.01390329999998,46.43239299999998,0 -117.01439639999997,46.43268789999998,0 -117.01540309999996,46.43298869999998,0 -117.02006589999995,46.43334659999998,0 -117.02226699999996,46.43315449999998,0 -117.02660369999997,46.43228559999998,0 -117.03277449999996,46.43025789999998,0 -117.03417169999996,46.43015899999998,0 -117.04164109999996,46.43165459999998,0 -117.04477159999998,46.43205949999998,0 -117.05154879999996,46.43211759999998,0 -117.06234999999998,46.430676599999984,0 -117.07090189999998,46.427669299999984,0 -117.07392039999996,46.42633399999998,0 -117.06976749999995,46.42229289999999,0 -117.06941009999996,46.42154559999998,0 -117.06913069999995,46.41991009999999,0 -117.07687129999995,46.41981209999999,0 -117.07922429999995,46.41934149999999,0 -117.08064309999995,46.41880529999998,0 -117.08633829999994,46.41566929999998,0 -117.08769009999995,46.41521289999998,0 -117.09041009999993,46.41471689999998,0 -117.09262789999993,46.41466559999998,0 -117.09520099999992,46.415002399999985,0 -117.11073799999993,46.41918749999998,0 -117.11638549999994,46.42000019999998,0 -117.13456549999994,46.42651919999999,0 -117.13732659999994,46.42722279999998,0 -117.13999889999994,46.427629799999984,0 -117.14346359999993,46.42778449999999,0 -117.15125419999993,46.42711019999999,0 -117.15701069999993,46.42599469999998,0 -117.16412119999994,46.42379309999998,0 -117.17045369999994,46.42087319999998,0 -117.17997709999992,46.41470549999998,0 -117.18230459999992,46.41348569999998,0 -117.18478159999992,46.41266489999998,0 -117.18646589999993,46.41232009999998,0 -117.18918629999995,46.41207189999998,0 -117.19155579999993,46.41215129999998,0 -117.19323329999995,46.41237589999998,0 -117.20436449999993,46.414941899999974,0 -117.20663039999994,46.415083699999975,0 -117.20861099999993,46.41482729999998,0 -117.20956619999994,46.414567599999984,0 -117.21104859999994,46.413925399999975,0 -117.21960389999995,46.408430599999974,0 -117.22185749999994,46.407265799999976,0 -117.22609619999994,46.40574699999998,0 -117.23420399999995,46.40378919999998,0 -117.23892599999994,46.40313749999998,0 -117.24237429999992,46.40307249999997,0 -117.24640849999992,46.40340489999998,0 -117.24990619999991,46.404094799999974,0 -117.26017969999991,46.40682469999998,0 -117.26312149999993,46.407896399999984,0 -117.26502719999993,46.40885539999998,0 -117.27650949999993,46.416733599999986,0 -117.27794529999994,46.41736899999999,0 -117.28192169999993,46.41818259999999,0 -117.28327909999992,46.41877139999998,0 -117.28402509999992,46.419386899999985,0 -117.28560489999991,46.42231669999998,0 -117.2862765999999,46.422932299999985,0 -117.29240319999991,46.42585659999998,0 -117.29400809999993,46.42628149999998,0 -117.29509529999991,46.42639039999998,0 -117.29935319999991,46.42634869999998,0 -117.30110929999991,46.42672319999998,0 -117.30379809999991,46.428002999999975,0 -117.3152629999999,46.43130509999998,0 -117.3166848999999,46.43198429999998,0 -117.3227258999999,46.436018899999986,0 -117.32355849999989,46.43641059999998,0 -117.3249328999999,46.436698499999984,0 -117.3264080999999,46.436678599999986,0 -117.32801409999989,46.43624659999999,0 -117.3329827999999,46.433286499999994,0 -117.3341428999999,46.43296629999999,0 -117.33480529999989,46.432950299999995,0 -117.33555559999989,46.43307239999999,0 -117.3379367999999,46.4341595,0 -117.3385475999999,46.434305099999996,0 -117.3411784999999,46.4344943,0 -117.35668439999988,46.43734309999999,0 -117.36140029999989,46.43725789999999,0 -117.36572209999987,46.437960499999996,0 -117.36956099999986,46.439539399999994,0 -117.37252479999987,46.44115349999999,0 -117.37416319999987,46.441694899999995,0 -117.37529129999987,46.44188609999999,0 -117.37833439999987,46.442034899999996,0 -117.38132319999985,46.441851799999995,0 -117.38344959999986,46.44220769999999,0 -117.38412579999985,46.44221839999999,0 -117.38841619999987,46.44151319999999,0 -117.39124649999985,46.441603599999986,0 -117.39309529999987,46.44128769999999,0 -117.39438409999988,46.441356299999995,0 -117.39537599999989,46.441725899999994,0 -117.39717719999987,46.44332349999999,0 -117.39832259999987,46.44369869999999,0 -117.40196509999986,46.44418279999999,0 -117.40314349999984,46.44410949999999,0 -117.40454239999985,46.443646399999984,0 -117.40617329999985,46.44253009999999,0 -117.40684879999986,46.44181589999999,0 -117.40764879999986,46.440307899999986,0 -117.40869579999986,46.43931939999998,0 -117.40977669999987,46.43881509999998,0 -117.41051959999984,46.43861509999998,0 -117.41467109999984,46.43827549999998,0 -117.41552129999984,46.43809789999998,0 -117.41951579999984,46.436229199999985,0 -117.42014009999984,46.436049099999984,0 -117.42133249999983,46.435912399999985,0 -117.42966549999983,46.43592369999998,0 -117.43071669999983,46.43604099999998,0 -117.43188769999983,46.43667029999998,0 -117.43230429999984,46.43718479999998,0 -117.43289539999984,46.43868129999998,0 -117.43346999999983,46.43930509999998,0 -117.43415769999983,46.43977289999997,0 -117.43499459999984,46.44012709999998,0 -117.43858389999984,46.44098719999998,0 -117.43956869999985,46.44147889999998,0 -117.44007109999984,46.441970699999985,0 -117.44038189999985,46.442560999999976,0 -117.44054619999986,46.443669299999975,0 -117.44085309999986,46.444236499999974,0 -117.44249029999986,46.44581729999998,0 -117.44364059999987,46.44639379999998,0 -117.44443729999988,46.44663129999998,0 -117.44554529999988,46.44677229999998,0 -117.4493691999999,46.44638089999998,0 -117.45249049999988,46.44658779999998,0 -117.45328849999989,46.446443699999975,0 -117.45496299999988,46.44578989999997,0 -117.45588769999988,46.445691599999975,0 -117.46013939999987,46.44634679999998,0 -117.46476779999988,46.446497999999984,0 -117.46589149999987,46.446674799999975,0 -117.46707059999987,46.44708619999998,0 -117.46804729999988,46.44768109999998,0 -117.46874539999989,46.44845159999998,0 -117.4708868999999,46.45266039999998,0 -117.47210439999988,46.45612439999998,0 -117.47215449999987,46.45882559999998,0 -117.47248889999986,46.459515799999984,0 -117.47430589999988,46.46162309999998,0 -117.47617209999987,46.46458199999998,0 -117.47764149999986,46.465792499999985,0 -117.47943139999987,46.466770799999985,0 -117.48114079999988,46.46734759999998,0 -117.48256849999989,46.467632299999984,0 -117.48857419999987,46.468084099999984,0 -117.49383909999987,46.46732069999998,0 -117.49523239999988,46.467259099999985,0 -117.50015619999989,46.46775479999999,0 -117.5052598999999,46.46759499999999,0 -117.5072582999999,46.467725899999984,0 -117.51873449999991,46.470218999999986,0 -117.52124519999992,46.471194699999984,0 -117.53227379999993,46.47285239999998,0 -117.55707989999992,46.47522549999998,0 -117.56066309999991,46.47480929999998,0 -117.58123219999992,46.474744399999985,0 -117.58507109999991,46.474014699999984,0 -117.5956718999999,46.474035599999986,0 -117.6043491999999,46.47490149999998,0 -117.60735439999989,46.47490229999998,0 -117.6190628999999,46.47723839999998,0 -117.6338325999999,46.478500699999984,0 -117.6362669999999,46.478500699999984,0 -117.64646349999991,46.47747489999998,0 -117.65001519999991,46.476676799999986,0 -117.66288599999992,46.47460229999998,0 -117.67124909999991,46.47126929999998,0 -117.67194019999991,46.47083809999998,0 -117.67576409999992,46.466269699999984,0 -117.67646329999994,46.465678799999985,0 -117.67837429999993,46.46481149999998,0 -117.68855969999994,46.46268459999998,0 -117.68940299999994,46.46267179999998,0 -117.70400929999995,46.464357499999984,0 -117.71362979999994,46.46834399999998,0 -117.72569159999992,46.47422679999998,0 -117.73026849999994,46.47690389999998,0 -117.73781219999992,46.482042599999986,0 -117.73932679999992,46.482677999999986,0 -117.75493019999993,46.487151199999985,0 -117.76506069999992,46.49071319999999,0 -117.76568709999992,46.49104539999998,0 -117.77084169999993,46.495103599999986,0 -117.77308639999993,46.49751539999998,0 -117.77364699999993,46.499154199999985,0 -117.7763019999999,46.502891099999985,0 -117.77788079999989,46.50415059999999,0 -117.7828324999999,46.50647949999998,0 -117.78385009999988,46.50720309999999,0 -117.78424559999988,46.50762869999999,0 -117.78739719999989,46.51300469999999,0 -117.79149669999987,46.51655009999999,0 -117.79216429999987,46.51691969999999,0 -117.79387059999988,46.51746229999999,0 -117.80060569999986,46.52044909999999,0 -117.80315199999987,46.521115599999995,0 -117.80529369999986,46.5214109,0 -117.81453569999988,46.521641599999995,0 -117.81595099999987,46.52198589999999,0 -117.82008279999988,46.5239,0 -117.82183489999989,46.5244451,0 -117.82174449999988,46.524842899999996,0 -117.8320351999999,46.525878899999995,0 -117.83288039999991,46.5261231,0 -117.8536898999999,46.535892499999996,0 -117.8688890999999,46.542228099999996,0 -117.8723607999999,46.54443989999999,0 -117.8745529999999,46.545367799999994,0 -117.8821000999999,46.5469466,0 -117.88348429999989,46.54693219999999,0 -117.89259089999989,46.544517199999994,0 -117.89484809999988,46.54351869999999,0 -117.90969939999987,46.5330069,0 -117.91210599999987,46.5319243,0 -117.91790649999987,46.5303841,0 -117.91862849999987,46.530081200000005,0 -117.92383609999986,46.5265903,0 -117.93291369999987,46.52294940000001,0 -117.94770559999986,46.510677300000005,0 -117.94830709999987,46.510323400000004,0 -117.94908609999986,46.51005390000001,0 -117.95214619999987,46.50949790000001,0 -117.95363079999987,46.50945420000001,0 -117.95872349999986,46.509921600000006,0 -117.96422929999986,46.50944990000001,0 -117.97001879999986,46.510059500000004,0 -117.97167039999987,46.509785,0 -117.97234939999986,46.509420600000006,0 -117.97304849999985,46.508697500000004,0 -117.97325439999985,46.508301700000004,0 -117.97374589999984,46.500561000000005,0 -117.97102029999985,46.494666300000006,0 -117.97024409999983,46.49377090000001,0 -117.96377159999983,46.490885600000006,0 -117.96256349999983,46.4900262,0 -117.96133089999984,46.4884439,0 -117.96093549999983,46.487115200000005,0 -117.96108559999983,46.480576000000006,0 -117.96061079999984,46.477023700000004,0 -117.96157299999985,46.4747263,0 -117.96214089999985,46.4706887,0 -117.96254559999986,46.46967119999999,0 -117.96258869999986,46.468121999999994,0 -117.96167089999986,46.4659644,0 -117.96098959999986,46.459787,0 -117.95958669999986,46.45636149999999,0 -117.95877619999986,46.450975799999995,0 -117.95850029999986,46.450233,0 -117.95663099999985,46.4474997,0 -117.95494879999984,46.4459927,0 -117.95459189999985,46.4452904,0 -117.95448229999984,46.4436708,0 -117.95416049999984,46.4428723,0 -117.95221539999983,46.440099499999995,0 -117.94679379999984,46.42907739999999,0 -117.94664809999983,46.4280694,0 -117.94676809999983,46.42714809999999,0 -117.94792089999984,46.42442979999999,0 -117.94800719999984,46.423194999999986,0 -117.94781559999984,46.42231519999999,0 -117.94243819999983,46.41073779999999,0 -117.94183809999983,46.407323999999996,0 -117.94096409999983,46.4053316,0 -117.93990289999984,46.40413409999999,0 -117.93877249999983,46.40329589999999,0 -117.93742389999983,46.40260529999999,0 -117.93531239999984,46.40181209999999,0 -117.93394939999985,46.40100919999998,0 -117.93276909999985,46.39976079999998,0 -117.93225389999985,46.39875069999998,0 -117.93208739999984,46.39742249999998,0 -117.93232009999986,46.39648059999998,0 -117.93282669999985,46.39551399999998,0 -117.93696379999984,46.39134089999998,0 -117.93805799999984,46.38989679999998,0 -117.93909569999984,46.38717289999998,0 -117.93924959999984,46.38078799999998,0 -117.93967789999984,46.37936479999998,0 -117.94377349999984,46.374161999999984,0 -117.94693849999983,46.36816439999999,0 -117.95001859999982,46.36373589999999,0 -117.95061189999981,46.36222239999999,0 -117.95064659999981,46.35833889999999,0 -117.9508613999998,46.35765319999999,0 -117.9514826999998,46.35696319999999,0 -117.95780959999982,46.353675299999985,0 -117.9711840999998,46.34912559999999,0 -117.97682319999981,46.34771199999999,0 -117.97809709999981,46.34693499999999,0 -117.97872619999981,46.34617009999999,0 -117.9789858999998,46.34556949999999,0 -117.97953629999981,46.33787479999999,0 -117.9793473999998,46.336687799999986,0 -117.9749152999998,46.32780889999999,0 -117.9726094999998,46.32510219999998,0 -117.97253439999983,46.32481639999998,0 -117.97262239999982,46.32418269999998,0 -117.97282889999981,46.32375489999998,0 -117.9733016999998,46.323281399999985,0 -117.97542169999981,46.32207709999998,0 -117.9905488999998,46.315151199999974,0 -117.9910732999998,46.31471729999998,0 -117.9912768999998,46.31437589999998,0 -117.99167279999979,46.31286049999998,0 -117.99234329999977,46.31203789999998,0 -118.02328899999979,46.29393109999998,0 -118.02659109999979,46.29166989999998,0 -118.03027669999979,46.29008339999998,0 -118.03595179999978,46.28834279999998,0 -118.03746349999979,46.288081099999985,0 -118.0476525999998,46.287666999999985,0 -118.05294529999979,46.28717729999998,0 -118.06673649999979,46.286637099999986,0 -118.06892599999978,46.28678149999998,0 -118.08360909999978,46.28948399999999,0 -118.08997029999978,46.28922679999999,0 -118.10089859999978,46.28821629999998,0 -118.1031713999998,46.287738099999984,0 -118.10683119999979,46.28631309999998,0 -118.10783209999978,46.28576649999998,0 -118.12349359999979,46.27388369999998,0 -118.1294651999998,46.27189339999998,0 -118.13749739999979,46.27078849999998,0 -118.1399495999998,46.270201299999975,0 -118.1532357999998,46.270119899999976,0 -118.1531851999998,46.25952699999998,0 -118.1530264999998,46.25897779999998,0 -118.1477300999998,46.25159239999998,0 -118.14464179999982,46.242358599999974,0 -118.1435195999998,46.24023059999998,0 -118.1391298999998,46.234485499999984,0 -118.1382607999998,46.23262849999998,0 -118.1375697999998,46.22941759999998,0 -118.13763139999979,46.20469689999997,0 -118.1387840999998,46.197231699999975,0 -118.1376520999998,46.19369509999997,0 -118.13759839999982,46.18929469999998,0 -118.1362300999998,46.18593069999997,0 -118.13621169999979,46.18375699999997,0 -118.13661339999979,46.182636099999975,0 -118.13874939999978,46.17974069999997,0 -118.13907409999977,46.17899569999997,0 -118.13902459999977,46.17783129999997,0 -118.13843559999978,46.176926499999965,0 -118.13486199999979,46.17392009999997,0 -118.13412469999979,46.17295679999997,0 -118.13072049999978,46.16559589999997,0 -118.1308039999998,46.164649399999966,0 -118.13175059999982,46.162223999999966,0 -118.13203489999981,46.15849449999997,0 -118.1324651999998,46.15768969999996,0 -118.13586219999979,46.153928099999966,0 -118.13899409999979,46.15180689999997,0 -118.1397442999998,46.151110599999974,0 -118.14121769999979,46.14906249999997,0 -118.1448709999998,46.14523559999997,0 -118.1483754999998,46.14284479999998,0 -118.1640964999998,46.13694159999998,0 -118.1685136999998,46.13646699999998,0 -118.1866088999998,46.129620199999984,0 -118.19509999999981,46.127109199999985,0 -118.20519299999982,46.12345429999998,0 -118.20784009999983,46.12156029999998,0 -118.20987599999984,46.120591599999976,0 -118.21406459999984,46.119396699999974,0 -118.22229689999985,46.11584869999997,0 -118.23811979999985,46.10456139999997,0 -118.23884999999986,46.104178599999976,0 -118.25162279999985,46.10025779999997,0 -118.25308109999986,46.09933479999998,0 -118.25416199999987,46.09811679999998,0 -118.25821409999986,46.08951469999998,0 -118.25896659999987,46.08879929999998,0 -118.25999749999987,46.08822539999998,0 -118.26068619999988,46.08798419999998,0 -118.27707619999988,46.08443089999997,0 -118.28430429999989,46.08400949999997,0 -118.29164069999987,46.08263269999998,0 -118.29740259999988,46.08242909999998,0 -118.30238059999988,46.08122829999997,0 -118.30379679999987,46.08121269999997,0 -118.31908089999988,46.08309029999997,0 -118.32052959999989,46.08312439999997,0 -118.3219155999999,46.082963699999965,0 -118.3357439999999,46.07853289999997,0 -118.3375061999999,46.077405199999966,0 -118.34094209999989,46.073746099999966,0 -118.34216649999989,46.073066799999964,0 -118.34881469999989,46.07062529999997,0 -118.35101089999989,46.070131299999964,0 -118.3562170999999,46.06968579999997,0 -118.3666750999999,46.06970909999997,0 -118.3681831999999,46.06990859999997,0 -118.36958479999991,46.07034869999997,0 -118.3697412999999,46.070540599999966,0 -118.36995619999992,46.07055149999997,0 -118.3700724999999,46.07046269999997,0 -118.36985339999991,46.06956439999997,0 -118.3699992999999,46.06940439999997,0 -118.36999529999991,46.069301499999966,0 -118.36990019999992,46.06923349999996,0 -118.36985609999992,46.06861479999996,0 -118.37001099999993,46.06851499999996,0 -118.37000009999994,46.068318799999965,0 -118.36984229999995,46.068225299999966,0 -118.36964839999995,46.06821929999997,0 -118.36902959999993,46.068430699999965,0 -118.36775619999992,46.06844319999996,0 -118.36779079999991,46.06769699999996,0 -118.36820979999992,46.06770759999996,0 </coordinates></LineString><TimeSpan><begin>2022-02-25T23:56:03.999Z</begin><end>2022-02-26T01:53:41.999Z</end></TimeSpan></Placemark><Placemark><name>Holiday Inn Express Walla Walla, an IHG Hotel</name><address>1433 W Pine St, Walla Walla, WA 99362</address><ExtendedData><Data name="Email"><value>syugen.zhou@gmail.com</value></Data><Data name="Category"><value>Hotel</value></Data><Data name="Distance"><value>0</value></Data></ExtendedData><description> Hotel from 2022-02-26T01:53:41.999Z to 2022-02-26T15:55:50.999Z. Distance 0m </description><Point><coordinates>-118.36831699999999,46.067485,0</coordinates></Point><TimeSpan><begin>2022-02-26T01:53:41.999Z</begin><end>2022-02-26T15:55:50.999Z</end></TimeSpan></Placemark></Document></kml>
