<?xml version="1.0" encoding="UTF-8"?><kml xmlns="http://www.opengis.net/kml/2.2" xmlns:gx="http://www.google.com/kml/ext/2.2"><Document><name> Location history from 2022-02-24 to 2022-02-24 </name><open>1</open><description></description><StyleMap id="multiTrack"><Pair><key>normal</key><styleUrl>#multiTrack_n</styleUrl></Pair><Pair><key>highlight</key><styleUrl>#multiTrack_h</styleUrl></Pair></StyleMap><Style id="multiTrack_n"><IconStyle><Icon><href>https://earth.google.com/images/kml-icons/track-directional/track-0.png</href></Icon></IconStyle><LineStyle><color>99ffac59</color><width>6</width></LineStyle></Style><Style id="multiTrack_h"><IconStyle><scale>1.2</scale><Icon><href>https://earth.google.com/images/kml-icons/track-directional/track-0.png</href></Icon></IconStyle><LineStyle><color>99ffac59</color><width>8</width></LineStyle></Style><Placemark><name>4880 Bennett St</name><address>4880 Bennett St, Burnaby, BC V5H 0C1, Canada</address><ExtendedData><Data name="Email"><value>syugen.zhou@gmail.com</value></Data><Data name="Category"><value></value></Data><Data name="Distance"><value>0</value></Data></ExtendedData><description>  from 2022-02-22T06:14:18.010Z to 2022-02-24T16:40:46.913Z. Distance 0m </description><Point><coordinates>-122.9950939,49.224852,0</coordinates></Point><TimeSpan><begin>2022-02-22T06:14:18.010Z</begin><end>2022-02-24T16:40:46.913Z</end></TimeSpan></Placemark><Placemark><name>Driving</name><address></address><ExtendedData><Data name="Email"><value>syugen.zhou@gmail.com</value></Data><Data name="Category"><value>Driving</value></Data><Data name="Distance"><value>463</value></Data></ExtendedData><description> Driving from 2022-02-24T16:40:46.913Z to 2022-02-24T16:48:41.000Z. Distance 463m </description><LineString><altitudeMode>clampToGround</altitudeMode><extrude>1</extrude><tesselate>1</tesselate><coordinates>-122.9952288,49.224410999999996,0 -122.9952408,49.2243449,0 -122.9952523,49.2243131,0 -122.9952724,49.224288,0 -122.99533590000001,49.224225700000005,0 -122.99533590000001,49.224225700000005,0 -122.99523070000001,49.2241804,0 -122.99514620000002,49.2241432,0 -122.99510590000003,49.224126600000005,0 -122.99510590000003,49.224126600000005,0 -122.99529640000003,49.2239622,0 -122.99529640000003,49.2239622,0 -122.99530040000002,49.223966700000005,0 -122.9953042,49.223969100000005,0 -122.99533740000001,49.2239837,0 -122.9954492,49.2240356,0 -122.9956786,49.2241479,0 -122.99593990000001,49.224275199999994,0 -122.99612760000002,49.224565999999996,0 -122.99613280000001,49.22457399999999,0 -122.99613280000001,49.22457399999999,0 -122.99658380000001,49.224780499999994,0 -122.99698450000001,49.2249639,0 -122.99698450000001,49.2249639,0 -122.9973078,49.2246076,0 -122.9975616,49.22437059999999,0 -122.99786409999999,49.22408119999999,0 -122.99792089999998,49.22402829999999,0 -122.99800579999999,49.22394859999999,0 -122.99843459999998,49.22355639999999,0 -122.99849279999998,49.223496899999994,0 -122.99849279999998,49.223496899999994,0 -122.99881979999998,49.223630899999996,0 -122.99939489999998,49.22389979999999,0 -122.99984339999999,49.22413189999999,0 -122.99991729999998,49.22417389999999,0 -123.00021539999999,49.224334199999994,0 -123.00093619999998,49.224720999999995,0 -123.001077,49.2247997,0 -123.00163669999999,49.225061499999995,0 -123.0018934,49.22518159999999,0 -123.0020959,49.22527639999999,0 -123.00229529999999,49.22537929999999,0 -123.00244559999999,49.225450699999996,0 -123.00244559999999,49.225450699999996,0 -123.00224839999998,49.225611699999995,0 </coordinates></LineString><TimeSpan><begin>2022-02-24T16:40:46.913Z</begin><end>2022-02-24T16:48:41.000Z</end></TimeSpan></Placemark><Placemark><name>Metropolis at Metrotown</name><address>4700 Kingsway, Burnaby, BC V5H 4M5, Canada</address><ExtendedData><Data name="Email"><value>syugen.zhou@gmail.com</value></Data><Data name="Category"><value>Shopping mall</value></Data><Data name="Distance"><value>0</value></Data></ExtendedData><description> Shopping mall from 2022-02-24T16:48:41.000Z to 2022-02-24T16:53:09.000Z. Distance 0m </description><Point><coordinates>-122.9999893,49.2272982,0</coordinates></Point><TimeSpan><begin>2022-02-24T16:48:41.000Z</begin><end>2022-02-24T16:53:09.000Z</end></TimeSpan></Placemark><Placemark><name>On the subway</name><address></address><ExtendedData><Data name="Email"><value>syugen.zhou@gmail.com</value></Data><Data name="Category"><value>On the subway</value></Data><Data name="Distance"><value>11254</value></Data></ExtendedData><description> On the subway from 2022-02-24T16:53:09.204Z to 2022-02-24T17:16:49.000Z. Distance 11254m </description><LineString><altitudeMode>clampToGround</altitudeMode><extrude>1</extrude><tesselate>1</tesselate><coordinates>-122.99998930000001,49.2272982,0 -123.0031096,49.2254463,0 -123.0452696,49.2440421,0 -123.0692511,49.263266,0 -123.1001221,49.2732877,0 -123.1146331,49.2819396,0 -123.11941329999999,49.2860102,0 -123.11941329999999,49.2860102,0 </coordinates></LineString><TimeSpan><begin>2022-02-24T16:53:09.204Z</begin><end>2022-02-24T17:16:49.000Z</end></TimeSpan></Placemark><Placemark><name>Canada Post</name><address>595 Burrard St, Vancouver, BC V7X 1A0, Canada</address><ExtendedData><Data name="Email"><value>syugen.zhou@gmail.com</value></Data><Data name="Category"><value>Post office</value></Data><Data name="Distance"><value>0</value></Data></ExtendedData><description> Post office from 2022-02-24T17:16:49.000Z to 2022-02-24T17:28:41.000Z. Distance 0m </description><Point><coordinates>-123.11941329999999,49.2860102,0</coordinates></Point><TimeSpan><begin>2022-02-24T17:16:49.000Z</begin><end>2022-02-24T17:28:41.000Z</end></TimeSpan></Placemark><Placemark><name>On the subway</name><address></address><ExtendedData><Data name="Email"><value>syugen.zhou@gmail.com</value></Data><Data name="Category"><value>On the subway</value></Data><Data name="Distance"><value>10881</value></Data></ExtendedData><description> On the subway from 2022-02-24T17:28:41.713Z to 2022-02-24T17:43:31.359Z. Distance 10881m </description><LineString><altitudeMode>clampToGround</altitudeMode><extrude>1</extrude><tesselate>1</tesselate><coordinates>-123.11941329999999,49.2860102,0 -123.1091031,49.2791228,0 -123.0693823,49.2622912,0 -123.0316433,49.2384266,0 -123.0021655,49.2257872,0 -123.0021655,49.2257872,0 </coordinates></LineString><TimeSpan><begin>2022-02-24T17:28:41.713Z</begin><end>2022-02-24T17:43:31.359Z</end></TimeSpan></Placemark><Placemark><name>Driving</name><address></address><ExtendedData><Data name="Email"><value>syugen.zhou@gmail.com</value></Data><Data name="Category"><value>Driving</value></Data><Data name="Distance"><value>249</value></Data></ExtendedData><description> Driving from 2022-02-24T17:43:31.359Z to 2022-02-24T17:48:12.000Z. Distance 249m </description><LineString><altitudeMode>clampToGround</altitudeMode><extrude>1</extrude><tesselate>1</tesselate><coordinates>-123.0021655,49.2257872,0 -123.0021655,49.2257872,0 -123.0019,49.2258357,0 -122.99973469999999,49.2273362,0 -122.99973469999999,49.2273362,0 </coordinates></LineString><TimeSpan><begin>2022-02-24T17:43:31.359Z</begin><end>2022-02-24T17:48:12.000Z</end></TimeSpan></Placemark><Placemark><name>McDonald's</name><address>4700 Kingsway #1160, Burnaby, BC V5H 4M1, Canada</address><ExtendedData><Data name="Email"><value>syugen.zhou@gmail.com</value></Data><Data name="Category"><value>Fast Food</value></Data><Data name="Distance"><value>0</value></Data></ExtendedData><description> Fast Food from 2022-02-24T17:48:12.000Z to 2022-02-24T17:58:54.000Z. Distance 0m </description><Point><coordinates>-122.99973469999999,49.227336199999996,0</coordinates></Point><TimeSpan><begin>2022-02-24T17:48:12.000Z</begin><end>2022-02-24T17:58:54.000Z</end></TimeSpan></Placemark><Placemark><name>Driving</name><address></address><ExtendedData><Data name="Email"><value>syugen.zhou@gmail.com</value></Data><Data name="Category"><value>Driving</value></Data><Data name="Distance"><value>507</value></Data></ExtendedData><description> Driving from 2022-02-24T17:58:54.913Z to 2022-02-24T18:00:36.369Z. Distance 507m </description><LineString><altitudeMode>clampToGround</altitudeMode><extrude>1</extrude><tesselate>1</tesselate><coordinates>-122.99957669999999,49.2275761,0 -122.9995742,49.227575400000006,0 -122.99949649999999,49.22756050000001,0 -122.9994133,49.22755970000001,0 -122.9993717,49.22755000000001,0 -122.9993288,49.227545600000006,0 -122.99928590000002,49.227545600000006,0 -122.999213,49.2275465,0 -122.999125,49.227550900000004,0 -122.9988742,49.227575400000006,0 -122.9986663,49.227600100000004,0 -122.9986529,49.2276017,0 -122.99860860000001,49.2276034,0 -122.998551,49.227598199999996,0 -122.998504,49.2275877,0 -122.9983969,49.2275435,0 -122.9983284,49.2275152,0 -122.99816419999999,49.2274473,0 -122.99816419999999,49.2274473,0 -122.9977898,49.22781080000001,0 -122.9977898,49.22781080000001,0 -122.9973117,49.22767,0 -122.9968146,49.2275132,0 -122.99645849999999,49.227400700000004,0 -122.99600019999998,49.2272456,0 -122.9951971,49.2269664,0 -122.99501129999999,49.2269031,0 -122.9947645,49.226825700000006,0 -122.99433049999999,49.2266908,0 -122.99433049999999,49.2266908,0 -122.99433169999999,49.2264822,0 -122.9943336,49.2261261,0 -122.99432720000001,49.2260763,0 -122.9943003,49.2259559,0 -122.99427800000001,49.2259145,0 -122.9942651,49.225744,0 -122.9942663,49.2255108,0 -122.9942784,49.225206899999996,0 -122.9942784,49.225206899999996,0 -122.9945881,49.2252203,0 -122.99525320000001,49.225219499999994,0 </coordinates></LineString><TimeSpan><begin>2022-02-24T17:58:54.913Z</begin><end>2022-02-24T18:00:36.369Z</end></TimeSpan></Placemark><Placemark><name>4880 Bennett St</name><address>4880 Bennett St, Burnaby, BC V5H 0C1, Canada</address><ExtendedData><Data name="Email"><value>syugen.zhou@gmail.com</value></Data><Data name="Category"><value></value></Data><Data name="Distance"><value>0</value></Data></ExtendedData><description>  from 2022-02-24T18:00:36.369Z to 2022-02-24T23:09:42.384Z. Distance 0m </description><Point><coordinates>-122.9950939,49.224852,0</coordinates></Point><TimeSpan><begin>2022-02-24T18:00:36.369Z</begin><end>2022-02-24T23:09:42.384Z</end></TimeSpan></Placemark><Placemark><name>Driving</name><address></address><ExtendedData><Data name="Email"><value>syugen.zhou@gmail.com</value></Data><Data name="Category"><value>Driving</value></Data><Data name="Distance"><value>30714</value></Data></ExtendedData><description> Driving from 2022-02-24T23:09:42.384Z to 2022-02-25T00:00:11.000Z. Distance 30714m </description><LineString><altitudeMode>clampToGround</altitudeMode><extrude>1</extrude><tesselate>1</tesselate><coordinates>-122.99513239999999,49.225219599999996,0 -122.9942784,49.225206899999996,0 -122.9942995,49.223458199999996,0 -122.99427499999999,49.22339939999999,0 -122.99421379999998,49.22331919999999,0 -122.99390619999998,49.2157895,0 -122.99394179999997,49.2106491,0 -122.99408999999997,49.2103018,0 -122.99436809999997,49.209852,0 -122.99475779999997,49.2094067,0 -122.99486699999997,49.209316900000005,0 -122.99531199999997,49.2090361,0 -122.99575879999996,49.2088423,0 -122.99701509999996,49.2084817,0 -122.99736179999996,49.2083485,0 -122.99780199999996,49.2081305,0 -122.99835069999996,49.2077633,0 -122.99950549999996,49.2060678,0 -122.99963389999994,49.2056723,0 -122.99957129999993,49.203785,0 -122.98652829999993,49.203811800000004,0 -122.98551989999993,49.20376200000001,0 -122.98510669999993,49.20370390000001,0 -122.98469779999994,49.20361650000001,0 -122.98419009999994,49.20345720000001,0 -122.98357549999993,49.20315750000001,0 -122.97752019999994,49.19845020000001,0 -122.97717059999995,49.19822920000001,0 -122.97671899999996,49.19799740000001,0 -122.97586869999996,49.197680500000004,0 -122.97525009999998,49.197529800000005,0 -122.96391669999998,49.19589330000001,0 -122.95956589999997,49.195375600000006,0 -122.95874219999997,49.19537760000001,0 -122.95810819999998,49.195465100000014,0 -122.95748759999998,49.195631000000006,0 -122.95545369999998,49.196425700000006,0 -122.95502899999997,49.196550900000005,0 -122.95339159999997,49.19679450000001,0 -122.95294439999996,49.19690360000001,0 -122.95246449999998,49.197108000000014,0 -122.95218019999997,49.197298300000014,0 -122.95199029999999,49.19748830000002,0 -122.95134189999997,49.19861080000001,0 -122.95119849999998,49.198740600000015,0 -122.95099569999999,49.19884970000002,0 -122.9508094,49.19890860000002,0 -122.95042749999999,49.19894960000002,0 -122.9502222,49.19893010000002,0 -122.94995660000001,49.19885960000002,0 -122.94961280000001,49.198641100000025,0 -122.94951280000002,49.198551200000026,0 -122.94947920000003,49.19848840000002,0 -122.94329350000004,49.192695900000025,0 -122.94288220000006,49.19219450000003,0 -122.94267880000005,49.19178370000002,0 -122.94259890000006,49.19142060000002,0 -122.94262110000007,49.19111030000003,0 -122.94277800000008,49.19070730000003,0 -122.94319760000008,49.19016580000003,0 -122.94342890000006,49.18997370000003,0 -122.94412310000006,49.189595300000036,0 -122.94773770000006,49.18839190000003,0 -122.94830460000006,49.18812580000003,0 -122.94867490000007,49.18790510000003,0 -122.94913480000005,49.18757000000003,0 -122.95148120000006,49.185512600000024,0 -122.95240610000006,49.18491120000002,0 -122.95368910000006,49.18429480000003,0 -122.95456780000006,49.183988000000035,0 -122.95550760000008,49.18373410000003,0 -122.95905150000006,49.18294050000003,0 -122.95974860000007,49.18269540000003,0 -122.96031530000008,49.182420000000036,0 -122.96099420000007,49.181970600000035,0 -122.96151210000006,49.181470100000034,0 -122.96182980000005,49.18101810000004,0 -122.96210910000005,49.180370300000035,0 -122.96224550000005,49.17967920000003,0 -122.96227120000006,49.17859590000003,0 -122.96210410000006,49.17774430000003,0 -122.96188730000006,49.17721840000003,0 -122.96157430000007,49.17672550000003,0 -122.96130740000008,49.176426500000034,0 -122.96096830000009,49.176118800000026,0 -122.96058100000009,49.17583860000003,0 -122.9599603000001,49.175488200000025,0 -122.95634830000009,49.17371780000003,0 -122.95460780000009,49.17276510000002,0 -122.9530850000001,49.17184460000002,0 -122.95287820000009,49.171787700000024,0 -122.94971850000009,49.169784200000024,0 -122.94920040000007,49.16949350000002,0 -122.94917430000007,49.169458300000024,0 -122.94708030000007,49.16802060000002,0 -122.94615990000007,49.16712490000002,0 -122.94548660000007,49.166057100000025,0 -122.93529310000008,49.141433900000024,0 -122.93486710000006,49.14075320000003,0 -122.93426730000006,49.14005350000002,0 -122.92955700000007,49.135096500000024,0 -122.92908190000007,49.13441290000002,0 -122.92882100000008,49.133800800000024,0 -122.92870340000009,49.13329030000002,0 -122.92777520000008,49.121709700000025,0 -122.92762410000007,49.12094230000002,0 -122.92741680000009,49.12031830000002,0 -122.92695930000009,49.11943850000002,0 -122.92635600000008,49.118607600000026,0 -122.92563320000009,49.11787440000003,0 -122.92465810000009,49.117106900000024,0 -122.9238903000001,49.11661970000002,0 -122.92291740000009,49.116116500000025,0 -122.92219680000008,49.11580540000002,0 -122.92124680000009,49.115468200000024,0 -122.9206106000001,49.11528150000002,0 -122.91945310000008,49.115013600000026,0 -122.91338680000008,49.11384760000003,0 -122.91161990000009,49.11333760000002,0 -122.90997040000009,49.11270270000003,0 -122.90898320000008,49.112236100000025,0 -122.90762780000009,49.11147070000003,0 -122.90689170000007,49.11097480000003,0 -122.90598440000008,49.11027330000003,0 -122.90487730000008,49.10922810000003,0 -122.90428890000008,49.10853050000003,0 -122.90316230000006,49.10684010000003,0 -122.90266580000008,49.10593430000003,0 -122.90222880000007,49.10532950000003,0 -122.89549370000009,49.094496400000025,0 -122.8954458000001,49.094463000000026,0 -122.89409310000012,49.09229550000003,0 -122.8939539000001,49.091987000000024,0 -122.8938999000001,49.091723800000025,0 -122.89391450000008,49.09146680000003,0 -122.89409200000009,49.09107250000003,0 -122.89423070000008,49.09090210000003,0 -122.89451960000008,49.09064920000003,0 -122.89464260000008,49.09056710000003,0 -122.89499000000008,49.090405200000035,0 -122.89530260000008,49.09029800000003,0 -122.89559580000008,49.09022870000003,0 -122.89604610000008,49.090177800000035,0 -122.89638320000009,49.090185700000035,0 -122.8967474000001,49.090244200000036,0 -122.89702980000011,49.09033890000004,0 -122.89729200000009,49.09046900000004,0 -122.89747920000009,49.09059590000005,0 -122.89766110000011,49.09079000000005,0 -122.8977455000001,49.090914400000045,0 -122.8978340000001,49.09115490000005,0 -122.89784410000011,49.09129210000005,0 -122.8978101000001,49.09146850000005,0 -122.8977096000001,49.09163930000005,0 -122.8975832000001,49.09177100000005,0 -122.89734700000011,49.09193030000005,0 -122.8971257000001,49.09202210000005,0 -122.8969401000001,49.092064200000046,0 -122.89591670000011,49.09214530000005,0 -122.89576730000012,49.09219470000005,0 -122.89373170000012,49.092144500000046,0 -122.84600680000011,49.08919450000005,0 -122.84493950000012,49.08904620000005,0 -122.84386150000013,49.08878340000005,0 -122.84287410000013,49.08843140000005,0 -122.84216520000012,49.08809230000004,0 -122.84164710000012,49.08779000000005,0 -122.79317280000011,49.052453800000045,0 -122.76708540000011,49.028922700000045,0 -122.76635670000013,49.02814480000004,0 -122.76575160000013,49.02733290000005,0 -122.75808990000013,49.01379650000004,0 -122.75785250000011,49.013204100000046,0 -122.75772770000013,49.01263540000004,0 -122.75764950000013,49.007494000000044,0 -122.75787100000012,49.00672900000005,0 -122.75785240000012,49.00507900000005,0 -122.75766400000012,49.00448580000005,0 -122.75769370000012,49.003517200000054,0 -122.75763830000011,49.003055100000054,0 -122.75740840000012,49.00254420000005,0 -122.75711100000012,49.002157000000054,0 -122.75607430000012,49.00102160000005,0 -122.75509270000012,49.00018910000005,0 -122.75491250000012,49.00010130000005,0 -122.75471620000012,49.00003190000005,0 -122.75458870000011,49.00002370000005,0 -122.7545535000001,49.00001240000005,0 -122.7545168000001,48.99998850000005,0 -122.7543752000001,48.999835500000046,0 -122.75435430000009,48.999795300000045,0 -122.75424910000008,48.99972700000004,0 -122.75416790000007,48.99970640000004,0 -122.75402350000007,48.999613400000044,0 -122.75393520000006,48.99958940000005,0 -122.75301420000005,48.99960820000005,0 -122.75299140000006,48.99964590000005,0 -122.75300570000006,48.99974140000005,0 -122.75286520000004,48.999928500000046,0 -122.75350190000006,48.999940100000046,0 </coordinates></LineString><TimeSpan><begin>2022-02-24T23:09:42.384Z</begin><end>2022-02-25T00:00:11.000Z</end></TimeSpan></Placemark><Placemark><name>U.S. Customs and Border Protection</name><address>I-5, Blaine, WA 98230</address><ExtendedData><Data name="Email"><value>syugen.zhou@gmail.com</value></Data><Data name="Category"><value>Border crossing station</value></Data><Data name="Distance"><value>0</value></Data></ExtendedData><description> Border crossing station from 2022-02-25T00:00:11.000Z to 2022-02-25T00:18:33.000Z. Distance 0m </description><Point><coordinates>-122.7549535,49.0001436,0</coordinates></Point><TimeSpan><begin>2022-02-25T00:00:11.000Z</begin><end>2022-02-25T00:18:33.000Z</end></TimeSpan></Placemark><Placemark><name>Driving</name><address></address><ExtendedData><Data name="Email"><value>syugen.zhou@gmail.com</value></Data><Data name="Category"><value>Driving</value></Data><Data name="Distance"><value>30302</value></Data></ExtendedData><description> Driving from 2022-02-25T00:18:33.000Z to 2022-02-25T00:35:17.000Z. Distance 30302m </description><LineString><altitudeMode>clampToGround</altitudeMode><extrude>1</extrude><tesselate>1</tesselate><coordinates>-122.7538872,48.9989479,0 -122.75380559999999,48.998795599999994,0 -122.753667,48.99859299999999,0 -122.7534999,48.99840369999999,0 -122.7533057,48.99822789999999,0 -122.75308479999998,48.9980632,0 -122.75243459999999,48.99763939999999,0 -122.75147659999999,48.99710759999999,0 -122.74634099999999,48.994457899999986,0 -122.74569359999998,48.994085199999994,0 -122.74495689999998,48.99358509999999,0 -122.74451629999999,48.99324079999999,0 -122.74219939999999,48.99123419999999,0 -122.74133099999999,48.99053649999999,0 -122.73587470000001,48.98673439999999,0 -122.7349421,48.98598289999999,0 -122.7340423,48.985152099999986,0 -122.73350629999999,48.984596999999994,0 -122.73082129999999,48.98138449999999,0 -122.72987389999999,48.98036059999999,0 -122.72920189999998,48.979704199999986,0 -122.72820189999996,48.97881539999999,0 -122.71806519999998,48.970558899999986,0 -122.71730819999999,48.97000459999998,0 -122.71622629999999,48.969278899999985,0 -122.71514209999998,48.96861759999998,0 -122.70135079999997,48.96075599999998,0 -122.70038059999999,48.96014559999998,0 -122.6668579,48.93787599999998,0 -122.66553730000001,48.93707979999998,0 -122.6643653,48.93644289999998,0 -122.64481040000001,48.92696339999998,0 -122.643183,48.92604899999998,0 -122.64243049999999,48.92558239999998,0 -122.63763449999998,48.922440199999976,0 -122.63694339999996,48.92195779999998,0 -122.63601299999996,48.921252799999976,0 -122.63501399999996,48.92041709999998,0 -122.63420429999995,48.919669399999975,0 -122.63355159999996,48.91901359999998,0 -122.63271519999998,48.918086699999975,0 -122.62809799999997,48.91262949999997,0 -122.62757139999997,48.912064899999976,0 -122.62637279999997,48.91091159999998,0 -122.62524169999998,48.90995249999998,0 -122.61883599999999,48.90521299999998,0 -122.61793279999998,48.90458769999998,0 -122.61667909999997,48.90377039999998,0 -122.59191079999998,48.888730199999976,0 -122.59139499999998,48.888387299999984,0 -122.59096049999998,48.888053599999985,0 -122.59066709999998,48.88779729999998,0 -122.59017629999995,48.88729999999998,0 -122.58990729999996,48.88697749999998,0 -122.58955219999996,48.88646039999998,0 -122.58929929999995,48.88598929999998,0 -122.58914839999997,48.88562949999998,0 -122.58896839999997,48.885021199999976,0 -122.58889079999996,48.884536499999975,0 -122.58887499999996,48.88393479999997,0 -122.58920039999997,48.873090499999975,0 -122.58911699999997,48.871531599999976,0 -122.58800149999998,48.86042369999997,0 -122.58792619999997,48.86008339999997,0 -122.58771699999997,48.85943639999997,0 -122.58755829999997,48.85905199999997,0 -122.58721429999996,48.85841609999997,0 -122.58694139999996,48.858010199999974,0 -122.58664329999996,48.85761969999997,0 -122.58630629999995,48.85723899999997,0 -122.58115359999995,48.85196749999998,0 -122.57986409999995,48.85082319999998,0 -122.57339829999995,48.844198999999975,0 -122.57283339999995,48.84354219999998,0 -122.57226289999996,48.84276379999998,0 -122.57103279999995,48.84080519999998,0 -122.57024379999996,48.839743999999975,0 -122.56949349999995,48.83888079999998,0 -122.52662499999995,48.79474929999998,0 -122.52558399999995,48.79376279999998,0 -122.52476559999997,48.79308259999998,0 -122.52400229999995,48.79250999999998,0 -122.52202749999995,48.791139399999985,0 -122.52200309999994,48.791043299999984,0 -122.52001609999995,48.78961799999998,0 -122.51972199999996,48.789343899999984,0 -122.51953089999996,48.78913619999998,0 -122.51923309999995,48.78873559999998,0 -122.51869889999996,48.78776139999999,0 -122.51857529999997,48.78759799999999,0 -122.51843579999996,48.78745639999999,0 -122.51796779999997,48.78706199999999,0 -122.51786769999995,48.78712049999999,0 -122.51702309999997,48.787760199999994,0 -122.51689269999997,48.787872699999994,0 -122.51510549999999,48.789185999999994,0 -122.51480619999998,48.789353299999995,0 -122.51453169999998,48.7894562,0 -122.51409079999999,48.78959149999999,0 -122.51380879999999,48.789652499999995,0 </coordinates></LineString><TimeSpan><begin>2022-02-25T00:18:33.000Z</begin><end>2022-02-25T00:35:17.000Z</end></TimeSpan></Placemark><Placemark><name>Costco Gas Station</name><address>4125 Arctic Ave, Bellingham, WA 98226</address><ExtendedData><Data name="Email"><value>syugen.zhou@gmail.com</value></Data><Data name="Category"><value>Gas station</value></Data><Data name="Distance"><value>0</value></Data></ExtendedData><description> Gas station from 2022-02-25T00:35:17.000Z to 2022-02-25T00:42:23.000Z. Distance 0m </description><Point><coordinates>-122.513443,48.7900754,0</coordinates></Point><TimeSpan><begin>2022-02-25T00:35:17.000Z</begin><end>2022-02-25T00:42:23.000Z</end></TimeSpan></Placemark><Placemark><name>Driving</name><address></address><ExtendedData><Data name="Email"><value>syugen.zhou@gmail.com</value></Data><Data name="Category"><value>Driving</value></Data><Data name="Distance"><value>144563</value></Data></ExtendedData><description> Driving from 2022-02-25T00:42:23.000Z to 2022-02-25T02:06:17.000Z. Distance 144563m </description><LineString><altitudeMode>clampToGround</altitudeMode><extrude>1</extrude><tesselate>1</tesselate><coordinates>-122.51552819999998,48.788877,0 -122.51670989999998,48.7880028,0 -122.51653669999999,48.7878451,0 -122.5133928,48.787204200000005,0 -122.51010419999999,48.7862029,0 -122.5099145,48.7862026,0 -122.5032719,48.7840344,0 -122.50223090000001,48.7837668,0 -122.50091390000001,48.7835735,0 -122.48841320000002,48.7829664,0 -122.47850390000004,48.7816326,0 -122.47694610000002,48.7813224,0 -122.47572870000003,48.780964000000004,0 -122.47404140000003,48.7802643,0 -122.47276560000002,48.7795275,0 -122.47186640000002,48.7788624,0 -122.46433470000004,48.7722597,0 -122.46377300000005,48.771464,0 -122.46263030000006,48.7688289,0 -122.46216650000005,48.7671721,0 -122.46181440000005,48.764656200000005,0 -122.46180280000004,48.75575490000001,0 -122.46192960000005,48.755099200000004,0 -122.46516780000005,48.74703620000001,0 -122.46733060000005,48.743298900000006,0 -122.46754510000005,48.742571800000015,0 -122.46757350000006,48.73478170000001,0 -122.46769930000005,48.734129500000016,0 -122.46805460000004,48.73328630000001,0 -122.46872250000004,48.73238580000002,0 -122.47272460000003,48.728420600000014,0 -122.47328510000003,48.72755640000001,0 -122.47374200000003,48.72650250000001,0 -122.47399940000001,48.72496380000001,0 -122.47389990000002,48.71714480000001,0 -122.4739916,48.716311100000006,0 -122.4743765,48.71492840000001,0 -122.47712640000002,48.70835650000001,0 -122.47734650000002,48.707369400000005,0 -122.47732970000003,48.7066646,0 -122.47695180000002,48.70544800000001,0 -122.47626730000003,48.704449100000005,0 -122.47517350000003,48.70348920000001,0 -122.47034050000002,48.7005124,0 -122.46871800000004,48.699738700000005,0 -122.46708440000003,48.6991992,0 -122.45995150000005,48.697527199999996,0 -122.45820340000006,48.6968446,0 -122.45494040000005,48.695157,0 -122.45193240000003,48.6938082,0 -122.45074530000004,48.6934022,0 -122.44938760000002,48.6930629,0 -122.44794290000003,48.6928324,0 -122.44349880000004,48.692468500000004,0 -122.43717910000004,48.6915708,0 -122.42910550000003,48.6901022,0 -122.42562440000003,48.6891055,0 -122.42401600000005,48.688842799999996,0 -122.42203560000004,48.6887489,0 -122.41991490000004,48.6889241,0 -122.41894800000003,48.689104199999996,0 -122.41588170000003,48.68989869999999,0 -122.41426080000002,48.69014529999999,0 -122.41310320000002,48.69018299999999,0 -122.40699600000002,48.689934499999985,0 -122.40476400000003,48.68951809999999,0 -122.39808170000002,48.68748459999998,0 -122.39703320000001,48.68706809999999,0 -122.39614380000002,48.68655189999999,0 -122.39521420000003,48.68574549999999,0 -122.39455130000002,48.68475709999999,0 -122.39427440000001,48.68378499999999,0 -122.3943175,48.6827942,0 -122.39501670000001,48.6802201,0 -122.39507680000003,48.6796632,0 -122.39499320000002,48.6788892,0 -122.3948067,48.6783519,0 -122.3943106,48.677537099999995,0 -122.3937804,48.67697389999999,0 -122.3900025,48.67434469999999,0 -122.38896689999999,48.67376519999999,0 -122.38280559999998,48.67136859999999,0 -122.37588459999999,48.66793059999999,0 -122.37476699999999,48.66720499999999,0 -122.373841,48.666360399999995,0 -122.3729455,48.665074399999995,0 -122.3709635,48.6600761,0 -122.36897929999999,48.656092599999994,0 -122.35793059999999,48.628571599999994,0 -122.35756939999999,48.627281499999995,0 -122.3566208,48.6208537,0 -122.35623460000001,48.619552199999994,0 -122.3556005,48.6182923,0 -122.3473447,48.608166700000005,0 -122.34643239999998,48.60654,0 -122.34565579999997,48.6043333,0 -122.34409159999998,48.5959214,0 -122.34397349999998,48.5933383,0 -122.34413709999997,48.5918171,0 -122.34791019999997,48.57365,0 -122.34821289999998,48.5712524,0 -122.34835419999997,48.5635679,0 -122.34884019999996,48.5609395,0 -122.35073729999995,48.5553278,0 -122.35081389999996,48.5544365,0 -122.35070629999996,48.553339400000006,0 -122.34986009999994,48.5500071,0 -122.34980319999995,48.5491503,0 -122.34987969999996,48.5484923,0 -122.35023279999996,48.5474214,0 -122.35221979999994,48.5439278,0 -122.35262479999994,48.54275369999999,0 -122.35380489999996,48.536781399999995,0 -122.35371159999995,48.53536629999999,0 -122.35144159999996,48.52853539999999,0 -122.35018969999997,48.52591529999999,0 -122.33696119999996,48.503248099999986,0 -122.33650579999996,48.502177299999985,0 -122.33577849999996,48.499589399999984,0 -122.33554919999995,48.497221799999984,0 -122.33583659999996,48.487736599999984,0 -122.33608449999994,48.48684699999999,0 -122.33646639999996,48.486067699999985,0 -122.33739819999995,48.48485079999999,0 -122.34079059999995,48.48205449999999,0 -122.34180009999996,48.48073849999999,0 -122.34233229999995,48.47961939999998,0 -122.34253989999995,48.478868099999985,0 -122.34265009999994,48.47787899999999,0 -122.34175739999993,48.46549539999998,0 -122.34119329999994,48.43123469999998,0 -122.34107619999995,48.43043679999998,0 -122.34061529999995,48.42913259999998,0 -122.33553679999996,48.42195999999998,0 -122.33197369999998,48.415293399999975,0 -122.33169559999997,48.41414709999997,0 -122.33065909999998,48.399813199999976,0 -122.33094479999997,48.38644849999998,0 -122.33124889999998,48.38538039999998,0 -122.33205399999997,48.383952899999976,0 -122.33372999999999,48.38195759999998,0 -122.33471039999999,48.380453099999976,0 -122.335155,48.37951499999998,0 -122.3357379,48.377402099999976,0 -122.33630539999999,48.34580979999998,0 -122.33598569999998,48.342780399999974,0 -122.3336576,48.33167229999997,0 -122.33259129999999,48.32915849999997,0 -122.32705029999998,48.319949699999974,0 -122.32128179999998,48.311524399999975,0 -122.32020809999997,48.31047769999997,0 -122.31391959999999,48.30599999999997,0 -122.27333999999998,48.271304499999964,0 -122.26807689999998,48.266152199999965,0 -122.25454919999997,48.25154599999996,0 -122.24312819999997,48.24068959999997,0 -122.23292299999999,48.23022119999996,0 -122.2299664,48.227793299999966,0 -122.22395309999999,48.223795399999965,0 -122.22291949999999,48.22288769999996,0 -122.22193699999998,48.22168109999996,0 -122.21618739999998,48.20955269999996,0 -122.21537339999998,48.20740469999996,0 -122.20955759999997,48.195453899999954,0 -122.20896239999996,48.19450619999996,0 -122.19435979999997,48.17802779999995,0 -122.19370869999997,48.176948799999955,0 -122.19309899999998,48.17534029999996,0 -122.18666819999999,48.13905879999996,0 -122.186078,48.13394729999995,0 -122.1851173,48.115170499999955,0 -122.18468449999999,48.050428099999955,0 -122.18432719999998,48.04935719999995,0 -122.17980679999998,48.04141369999996,0 -122.1789269,48.03907649999996,0 -122.17510179999998,48.01940449999996,0 -122.17415989999998,47.99956039999996,0 -122.17433779999996,47.99854549999995,0 -122.17491999999997,47.997411999999954,0 -122.17530959999998,47.99693369999996,0 -122.18185039999996,47.99168699999995,0 -122.18243619999997,47.99110879999996,0 -122.18273209999997,47.990692699999954,0 -122.18303029999997,47.99001819999995,0 -122.18316689999996,47.98936449999995,0 -122.18331169999996,47.98605259999995,0 -122.18364089999996,47.98498599999996,0 -122.18438609999994,47.983891399999955,0 -122.18499889999995,47.98330399999996,0 -122.18851489999996,47.98052509999996,0 -122.18937049999997,47.97972139999996,0 -122.18985679999999,47.979096799999965,0 -122.19015499999999,47.97855699999996,0 -122.19128489999997,47.97453119999996,0 -122.1915744,47.97386009999996,0 -122.19231929999998,47.97271419999996,0 -122.19300029999998,47.971964099999965,0 -122.19381519999997,47.97127159999996,0 -122.19716379999997,47.96903979999996,0 -122.19814819999996,47.96815619999996,0 -122.19876639999995,47.96729949999997,0 -122.19915439999995,47.96638439999996,0 -122.20017949999996,47.95714369999996,0 -122.19977309999997,47.95128619999996,0 -122.19747139999997,47.943453099999964,0 -122.19735449999996,47.942507699999965,0 -122.19772229999998,47.93930069999996,0 -122.19769519999997,47.93884559999996,0 -122.19646579999998,47.93351979999996,0 -122.19654679999996,47.932311499999955,0 -122.19684999999997,47.931483999999955,0 -122.19728649999998,47.93077639999995,0 -122.19827619999998,47.92976229999995,0 -122.19903219999999,47.92923399999995,0 -122.2017408,47.92769509999995,0 -122.2026511,47.927062999999954,0 -122.20327220000001,47.926486699999955,0 -122.20397490000002,47.92544049999996,0 -122.21642720000003,47.89670539999996,0 -122.21702850000003,47.89570589999995,0 -122.21824660000003,47.89437759999995,0 -122.24268160000003,47.87502089999995,0 -122.24376980000002,47.87361619999995,0 -122.24422700000002,47.872681899999954,0 -122.24605940000004,47.86556059999995,0 -122.24647900000002,47.86456929999995,0 -122.24717850000003,47.86349909999995,0 -122.25657620000003,47.85253169999995,0 -122.25722260000002,47.85152519999995,0 -122.25759490000002,47.85057799999995,0 -122.26079290000001,47.83807459999995,0 -122.26097290000001,47.837956899999945,0 -122.26257220000002,47.83315209999994,0 -122.26259850000001,47.832658699999946,0 -122.26174130000001,47.83082889999994,0 -122.26151300000001,47.83053659999994,0 -122.26107450000002,47.83020739999994,0 -122.25847780000002,47.82911559999994,0 -122.25629460000002,47.82773059999994,0 -122.25323380000002,47.82469679999994,0 -122.25244960000003,47.82415049999994,0 -122.25157310000004,47.82366459999994,0 -122.25048480000004,47.823191899999934,0 -122.24480030000005,47.821231099999935,0 -122.24320930000005,47.820462699999936,0 -122.23943190000006,47.81783629999994,0 -122.23329670000004,47.81401689999994,0 -122.23211670000003,47.81310309999994,0 -122.23139570000004,47.81237269999994,0 -122.23065750000005,47.81138339999994,0 -122.22774480000005,47.80544699999994,0 -122.22492530000005,47.80096189999993,0 -122.22370880000007,47.79977509999994,0 -122.22190190000008,47.798589199999945,0 -122.20116950000006,47.78806329999994,0 -122.19915470000005,47.78676229999994,0 -122.19732220000004,47.78518309999994,0 -122.19632570000005,47.78406489999994,0 -122.19144060000004,47.77632309999994,0 -122.19102180000003,47.77514779999994,0 -122.18959100000005,47.76848659999994,0 -122.18928830000003,47.76776589999994,0 -122.18473490000004,47.76145499999994,0 -122.18425100000002,47.76017749999994,0 -122.18417910000002,47.75953449999994,0 -122.18433190000002,47.75827639999994,0 -122.18590620000002,47.755101999999944,0 -122.18678310000003,47.752491799999945,0 -122.18721980000004,47.749630999999944,0 -122.18738250000003,47.73963919999995,0 -122.18880120000001,47.73075939999995,0 -122.19006600000002,47.72554409999995,0 -122.19010300000001,47.724396399999954,0 -122.1897752,47.722587599999954,0 -122.1893019,47.721411799999956,0 -122.18027559999999,47.70567089999996,0 -122.17983559999998,47.70423369999996,0 -122.17968019999998,47.70311769999996,0 -122.1797069,47.70147879999996,0 -122.18120989999998,47.69230779999996,0 -122.18192759999998,47.68925009999996,0 -122.18441199999997,47.68136039999996,0 -122.18468579999997,47.679560999999964,0 -122.18470059999999,47.67724299999996,0 -122.18489449999998,47.67605799999996,0 -122.18702029999997,47.67139909999996,0 -122.18720949999998,47.670306299999964,0 -122.18717759999998,47.64632009999996,0 -122.18670239999999,47.64088789999997,0 -122.18684149999997,47.63663229999997,0 -122.18698049999996,47.636528199999965,0 -122.18790429999996,47.63401139999996,0 -122.18836989999996,47.63326439999996,0 -122.18855109999996,47.632715699999956,0 -122.18852489999995,47.63192799999996,0 -122.18859429999996,47.63176519999996,0 -122.18871899999995,47.631633899999954,0 -122.18888609999995,47.631539599999954,0 -122.18920409999996,47.63144889999996,0 -122.18954149999996,47.631458899999956,0 -122.18968499999995,47.63149439999996,0 -122.18997849999997,47.63165179999996,0 -122.19010299999995,47.63184379999996,0 -122.19013609999996,47.631984399999965,0 -122.19010799999995,47.63213049999997,0 -122.18993369999995,47.632355299999965,0 -122.18973679999996,47.63246009999996,0 -122.18945129999997,47.63252819999996,0 -122.18910089999997,47.63251519999996,0 -122.18856689999997,47.63234709999996,0 -122.18837359999998,47.632370899999955,0 -122.18735699999996,47.632083299999955,0 -122.18596059999997,47.63190499999996,0 -122.18237299999997,47.63197369999996,0 -122.18040029999997,47.63185699999996,0 -122.17874509999999,47.631569599999956,0 -122.17870329999998,47.63146039999996,0 -122.17572299999999,47.63043349999996,0 -122.17539999999998,47.630221599999956,0 -122.17521309999998,47.62996789999996,0 -122.17516729999997,47.629494999999956,0 -122.17399239999999,47.62937239999996,0 -122.17389639999999,47.62939959999996,0 -122.16980699999998,47.62815479999996,0 -122.16928379999997,47.62810259999996,0 -122.15598309999997,47.62797839999996,0 -122.15591329999998,47.62793399999996,0 -122.14570969999997,47.627838899999965,0 -122.14571499999997,47.627733599999964,0 -122.14515029999995,47.62773399999996,0 -122.14515829999996,47.627316999999955,0 -122.14451589999996,47.62729879999996,0 </coordinates></LineString><TimeSpan><begin>2022-02-25T00:42:23.000Z</begin><end>2022-02-25T02:06:17.000Z</end></TimeSpan></Placemark><Placemark><name>Spicy PoPo Szechuan Fish</name><address>14701 NE 20th St # B, Bellevue, WA 98007</address><ExtendedData><Data name="Email"><value>syugen.zhou@gmail.com</value></Data><Data name="Category"><value>Traditional restaurant</value></Data><Data name="Distance"><value>0</value></Data></ExtendedData><description> Traditional restaurant from 2022-02-25T02:06:17.000Z to 2022-02-25T03:36:45.000Z. Distance 0m </description><Point><coordinates>-122.14445629999999,47.627412299999996,0</coordinates></Point><TimeSpan><begin>2022-02-25T02:06:17.000Z</begin><end>2022-02-25T03:36:45.000Z</end></TimeSpan></Placemark><Placemark><name>Driving</name><address></address><ExtendedData><Data name="Email"><value>syugen.zhou@gmail.com</value></Data><Data name="Category"><value>Driving</value></Data><Data name="Distance"><value>1683</value></Data></ExtendedData><description> Driving from 2022-02-25T03:36:45.999Z to 2022-02-25T03:38:12.999Z. Distance 1683m </description><LineString><altitudeMode>clampToGround</altitudeMode><extrude>1</extrude><tesselate>1</tesselate><coordinates>-122.1446407,47.6274553,0 -122.14464339999999,47.627334100000006,0 -122.144655,47.6273004,0 -122.14466499999999,47.626930400000006,0 -122.14466499999999,47.626930400000006,0 -122.14444499999998,47.626926000000005,0 -122.14436289999999,47.6269245,0 -122.14428959999998,47.62691290000001,0 -122.14428959999998,47.62691290000001,0 -122.14429099999998,47.626645,0 -122.14428769999998,47.6265924,0 -122.14427239999998,47.6265357,0 -122.14422819999999,47.626417200000006,0 -122.14418479999998,47.626301,0 -122.14418479999998,47.626301,0 -122.14449859999998,47.6262349,0 -122.14480399999998,47.6261696,0 -122.14559599999997,47.6260003,0 -122.14611339999998,47.625889699999995,0 -122.14653589999998,47.6258048,0 -122.14679169999998,47.625753399999994,0 -122.14737679999998,47.62563589999999,0 -122.14800279999999,47.6255124,0 -122.14842359999997,47.625429399999994,0 -122.14917939999997,47.6252804,0 -122.15025829999996,47.625060299999994,0 -122.15062449999995,47.624986099999994,0 -122.15129579999994,47.624849999999995,0 -122.15140399999994,47.6248325,0 -122.15217529999993,47.62467169999999,0 -122.15227589999992,47.62465219999999,0 -122.15238249999993,47.624632,0 -122.15258469999993,47.6245906,0 -122.15281429999993,47.624548499999996,0 -122.15284629999994,47.624543599999996,0 -122.15352249999994,47.62442089999999,0 -122.15366049999994,47.624395899999996,0 -122.15389759999994,47.62434779999999,0 -122.15455589999993,47.62421819999999,0 -122.15516499999993,47.62409249999999,0 -122.15544939999992,47.62402699999999,0 -122.15556209999991,47.62400069999999,0 -122.15564509999992,47.62398169999999,0 -122.15588549999991,47.62392899999999,0 -122.15639299999992,47.623817599999995,0 -122.15664979999993,47.62376119999999,0 -122.15705829999992,47.62367159999999,0 -122.15743349999993,47.62358979999999,0 -122.15750269999991,47.62357499999999,0 -122.1578117999999,47.623509199999994,0 -122.15880969999992,47.62329749999999,0 -122.15890639999992,47.623276999999995,0 -122.15907409999993,47.623241099999994,0 -122.15931619999992,47.62318439999999,0 -122.15984739999993,47.62307009999999,0 -122.15990289999993,47.623058199999996,0 -122.16035679999992,47.622962699999995,0 -122.16055519999993,47.6229185,0 -122.16117299999993,47.62278499999999,0 -122.16170169999995,47.6226671,0 -122.16230689999995,47.6225413,0 -122.16259459999995,47.6224814,0 -122.16321449999995,47.6223524,0 -122.16344389999996,47.6223046,0 -122.16353379999997,47.622283800000005,0 -122.16437259999995,47.622112300000005,0 -122.16437259999995,47.622112300000005,0 -122.16438439999996,47.622040500000004,0 -122.16439509999995,47.621957300000005,0 -122.16439839999997,47.621916500000005,0 -122.16439839999997,47.621861900000006,0 -122.16439639999996,47.62183160000001,0 -122.16439479999997,47.6218033,0 -122.16438999999997,47.6217679,0 -122.16438709999997,47.621746300000005,0 -122.16437679999997,47.62170570000001,0 -122.16437269999997,47.621373500000004,0 -122.16436279999999,47.62128070000001,0 -122.16436279999999,47.62128070000001,0 -122.16480429999999,47.621283000000005,0 -122.16480429999999,47.621283000000005,0 -122.1648116,47.62158050000001,0 </coordinates></LineString><TimeSpan><begin>2022-02-25T03:36:45.999Z</begin><end>2022-02-25T03:38:12.999Z</end></TimeSpan></Placemark><Placemark><name>90 Degrees by Pulte Homes</name><address>13133 Bel-Red Rd, Bellevue, WA 98005</address><ExtendedData><Data name="Email"><value>syugen.zhou@gmail.com</value></Data><Data name="Category"><value>Home builder</value></Data><Data name="Distance"><value>0</value></Data></ExtendedData><description> Home builder from 2022-02-25T03:38:12.999Z to 2022-02-25T04:44:49.457Z. Distance 0m </description><Point><coordinates>-122.1648675,47.6215798,0</coordinates></Point><TimeSpan><begin>2022-02-25T03:38:12.999Z</begin><end>2022-02-25T04:44:49.457Z</end></TimeSpan></Placemark><Placemark><name>Driving</name><address></address><ExtendedData><Data name="Email"><value>syugen.zhou@gmail.com</value></Data><Data name="Category"><value>Driving</value></Data><Data name="Distance"><value>15298</value></Data></ExtendedData><description> Driving from 2022-02-25T04:44:49.457Z to 2022-02-25T05:00:48.999Z. Distance 15298m </description><LineString><altitudeMode>clampToGround</altitudeMode><extrude>1</extrude><tesselate>1</tesselate><coordinates>-122.16500839999998,47.6216355,0 -122.16524249999999,47.6215814,0 -122.16525299999999,47.6212857,0 -122.16436279999999,47.6212807,0 -122.16435789999998,47.6172167,0 -122.16822979999999,47.617265499999995,0 -122.16435789999998,47.6172167,0 -122.1644183,47.6270494,0 -122.16438159999998,47.627123499999996,0 -122.16438930000001,47.62805149999999,0 -122.1692838,47.6281026,0 -122.169807,47.6281548,0 -122.17046620000002,47.62831949999999,0 -122.17389640000002,47.62939959999999,0 -122.17396020000001,47.62946319999999,0 -122.1745405,47.62953609999999,0 -122.17471900000001,47.62961349999999,0 -122.17487560000001,47.629724199999984,0 -122.17501920000001,47.62992209999999,0 -122.17554700000001,47.63108649999999,0 -122.17570680000001,47.63129519999999,0 -122.17599180000002,47.63148019999999,0 -122.1763272,47.631592299999994,0 -122.1789987,47.6320116,0 -122.17923990000001,47.631928599999995,0 -122.1805131,47.6320815,0 -122.18134610000001,47.6321321,0 -122.18539020000001,47.6320282,0 -122.18560100000002,47.63212,0 -122.18604110000003,47.6321799,0 -122.18623300000003,47.6322367,0 -122.18645500000004,47.6323369,0 -122.18672520000003,47.632537,0 -122.18692090000002,47.632808100000005,0 -122.18698400000001,47.6330389,0 -122.18697870000003,47.6331557,0 -122.18638240000001,47.635276100000006,0 -122.18640420000001,47.63530720000001,0 -122.1862234,47.63634550000001,0 -122.18623940000002,47.63971200000001,0 -122.18636440000003,47.639912700000004,0 -122.18645260000001,47.642144200000004,0 -122.1867952,47.645361400000006,0 -122.18689749999999,47.66878930000001,0 -122.18682749999999,47.66977700000001,0 -122.18663499999998,47.67089260000001,0 -122.1860815,47.67266860000001,0 -122.1847608,47.675386800000005,0 -122.184432,47.676567500000004,0 -122.1843707,47.67963410000001,0 -122.1842853,47.68040870000001,0 -122.18397309999999,47.681839100000005,0 -122.18156129999998,47.6893327,0 -122.18093289999999,47.6919966,0 -122.1794918,47.7001887,0 -122.1793103,47.700281200000006,0 -122.1788923,47.70194370000001,0 -122.1788012,47.7033963,0 -122.17896400000001,47.703687900000006,0 -122.17929550000001,47.7039985,0 -122.21027450000001,47.704037899999996,0 -122.21039370000001,47.704069,0 -122.21126390000002,47.7045131,0 -122.21293360000001,47.705121999999996,0 -122.21365170000003,47.7053258,0 -122.21420160000001,47.7053921,0 -122.21855670000001,47.7053714,0 -122.2189832,47.7052968,0 -122.2193747,47.705166399999996,0 -122.2203432,47.704701899999996,0 -122.22196250000002,47.7040874,0 -122.22358640000003,47.7032074,0 -122.22405830000004,47.7030173,0 -122.22600830000005,47.7024742,0 -122.22668580000004,47.7021697,0 -122.22713050000004,47.701899999999995,0 -122.22761920000005,47.701488,0 -122.22808720000005,47.700899699999994,0 -122.22897300000004,47.69910369999999,0 -122.22919910000005,47.69884139999999,0 -122.22939060000004,47.698696199999986,0 -122.22975890000005,47.69851989999999,0 -122.22999810000005,47.698450399999984,0 -122.23024670000005,47.698417699999986,0 -122.23067000000006,47.69840819999999,0 -122.23116320000007,47.69849889999999,0 -122.23151400000006,47.69863059999999,0 -122.23496600000007,47.70082979999999,0 -122.23566190000008,47.701432199999985,0 -122.2362036000001,47.70205859999999,0 -122.23670750000011,47.702903699999986,0 -122.2369290000001,47.70346329999999,0 -122.23729640000009,47.705520499999984,0 -122.2369123000001,47.707208499999986,0 -122.23691990000009,47.707499599999984,0 -122.23698630000008,47.70777369999998,0 -122.23781770000008,47.708991199999986,0 -122.23800390000008,47.70936059999998,0 -122.23621580000008,47.70975329999999,0 -122.23610560000009,47.70950959999999,0 </coordinates></LineString><TimeSpan><begin>2022-02-25T04:44:49.457Z</begin><end>2022-02-25T05:00:48.999Z</end></TimeSpan></Placemark><Placemark><name>7821 NE 121st Ln</name><address>7821 NE 121st Ln, Kirkland, WA 98034</address><ExtendedData><Data name="Email"><value>syugen.zhou@gmail.com</value></Data><Data name="Category"><value></value></Data><Data name="Distance"><value>0</value></Data></ExtendedData><description>  from 2022-02-25T05:00:48.999Z to 2022-02-25T15:55:27.999Z. Distance 0m </description><Point><coordinates>-122.23606559999999,47.708991499999996,0</coordinates></Point><TimeSpan><begin>2022-02-25T05:00:48.999Z</begin><end>2022-02-25T15:55:27.999Z</end></TimeSpan></Placemark></Document></kml>
