<?xml version="1.0" encoding="UTF-8"?><kml xmlns="http://www.opengis.net/kml/2.2" xmlns:gx="http://www.google.com/kml/ext/2.2"><Document><name> Location history from 2021-05-29 to 2021-05-29 </name><open>1</open><description></description><StyleMap id="multiTrack"><Pair><key>normal</key><styleUrl>#multiTrack_n</styleUrl></Pair><Pair><key>highlight</key><styleUrl>#multiTrack_h</styleUrl></Pair></StyleMap><Style id="multiTrack_n"><IconStyle><Icon><href>https://earth.google.com/images/kml-icons/track-directional/track-0.png</href></Icon></IconStyle><LineStyle><color>99ffac59</color><width>6</width></LineStyle></Style><Style id="multiTrack_h"><IconStyle><scale>1.2</scale><Icon><href>https://earth.google.com/images/kml-icons/track-directional/track-0.png</href></Icon></IconStyle><LineStyle><color>99ffac59</color><width>8</width></LineStyle></Style><Placemark><name>702 Marlin Ave</name><address>702 Marlin Ave, Foster City, CA 94404</address><ExtendedData><Data name="Email"><value>syugen.zhou@gmail.com</value></Data><Data name="Category"><value></value></Data><Data name="Distance"><value>0</value></Data></ExtendedData><description>  from 2021-05-29T02:33:12.000Z to 2021-05-29T16:05:35.000Z. Distance 0m </description><Point><coordinates>-122.25498479999999,37.5541321,0</coordinates></Point><TimeSpan><begin>2021-05-29T02:33:12.000Z</begin><end>2021-05-29T16:05:35.000Z</end></TimeSpan></Placemark><Placemark><name>In a taxi</name><address></address><ExtendedData><Data name="Email"><value>syugen.zhou@gmail.com</value></Data><Data name="Category"><value>In a taxi</value></Data><Data name="Distance"><value>14356</value></Data></ExtendedData><description> In a taxi from 2021-05-29T16:05:35.406Z to 2021-05-29T16:18:49.184Z. Distance 14356m </description><LineString><altitudeMode>clampToGround</altitudeMode><extrude>1</extrude><tesselate>1</tesselate><coordinates>-122.2552025,37.5542498,0 -122.2555829,37.5538082,0 -122.2696225,37.561786100000006,0 -122.27036039999999,37.56228720000001,0 -122.27481599999999,37.5648166,0 -122.27488559999999,37.564721,0 -122.27569349999999,37.563924,0 -122.27582349999999,37.5638862,0 -122.27576579999999,37.5638275,0 -122.27576669999999,37.563736500000005,0 -122.27575399999998,37.563697100000006,0 -122.27571299999997,37.5636382,0 -122.27565309999996,37.5635849,0 -122.27548809999998,37.563346300000006,0 -122.27543359999997,37.563188800000006,0 -122.27542489999998,37.5630669,0 -122.27546389999998,37.56288300000001,0 -122.27558839999998,37.562651,0 -122.27574309999999,37.562488200000004,0 -122.27665179999997,37.56179040000001,0 -122.27665659999997,37.56170130000001,0 -122.28253099999998,37.55798820000001,0 -122.28436129999999,37.556953600000014,0 -122.28542229999998,37.55642320000001,0 -122.2879674,37.55536300000001,0 -122.2894724,37.55481720000001,0 -122.2912929,37.55425660000001,0 -122.2921063,37.55406230000001,0 -122.2922566,37.55409390000001,0 -122.2945314,37.55385830000001,0 -122.29492379999998,37.55386590000001,0 -122.29547059999999,37.553949400000015,0 -122.29581529999999,37.554042500000016,0 -122.29621459999998,37.554197400000014,0 -122.29654589999998,37.554375600000014,0 -122.29681219999999,37.55456560000002,0 -122.29831699999998,37.55600730000002,0 -122.2985509,37.55609660000002,0 -122.3019882,37.55990270000002,0 -122.303062,37.56097740000002,0 -122.32958339999999,37.58531350000002,0 -122.33033,37.58580690000002,0 -122.33102680000002,37.58615500000002,0 -122.33201090000001,37.586513100000026,0 -122.3326626,37.58667340000002,0 -122.3334584,37.586789100000026,0 -122.3342279,37.586843100000024,0 -122.35326500000001,37.58733600000002,0 -122.35481840000001,37.58751570000002,0 -122.35577470000001,37.58770310000002,0 -122.35717520000001,37.58809610000002,0 -122.35806900000001,37.588423900000016,0 -122.35903670000002,37.58886050000002,0 -122.35997760000002,37.58936130000002,0 -122.38590100000002,37.60628450000002,0 -122.38592510000001,37.60641630000002,0 -122.38695950000002,37.607204000000024,0 -122.39053810000001,37.60959770000002,0 -122.39399380000002,37.611766100000025,0 -122.39512700000002,37.612697000000026,0 -122.39525240000002,37.61295260000003,0 -122.3952896,37.61316530000003,0 -122.3952766,37.613306900000026,0 -122.3952306,37.61344150000003,0 -122.3951654,37.61355460000003,0 -122.3950045,37.61372590000003,0 -122.3947095,37.61389080000003,0 -122.3927716,37.61453280000003,0 -122.39264580000001,37.61460100000003,0 -122.39204990000002,37.614762400000025,0 -122.39159790000001,37.61484660000002,0 -122.3911362,37.61488560000002,0 -122.3901132,37.615083500000026,0 -122.38997739999999,37.61507160000003,0 -122.3885657,37.61535540000003,0 -122.38809570000001,37.61537450000003,0 -122.38785990000001,37.61533700000003,0 -122.3873713,37.61520830000003,0 -122.3869081,37.61513970000003,0 -122.38645880000001,37.61497500000003,0 -122.38620670000002,37.61492090000003,0 -122.38582450000001,37.61491340000003,0 -122.38562200000001,37.61494420000003,0 -122.3853725,37.615019700000026,0 -122.38523040000001,37.61508450000003,0 -122.38496480000002,37.615264000000025,0 -122.3845424,37.61575050000003,0 -122.38427780000002,37.61620400000003,0 -122.38423200000001,37.61632880000003,0 -122.38422550000003,37.616517300000034,0 -122.38446280000001,37.617126100000036,0 -122.38457050000001,37.61724010000003,0 -122.3847214,37.617320000000035,0 -122.3847377,37.61739500000003,0 -122.38477180000001,37.61744040000003,0 -122.38496470000001,37.61754480000003,0 -122.38499020000003,37.61757180000003,0 -122.38521830000003,37.617694400000026,0 -122.38522770000004,37.617705200000024,0 -122.38582840000002,37.61791730000003,0 </coordinates></LineString><TimeSpan><begin>2021-05-29T16:05:35.406Z</begin><end>2021-05-29T16:18:49.184Z</end></TimeSpan></Placemark><Placemark><name>San Francisco International Airport</name><address>San Francisco, CA 94128</address><ExtendedData><Data name="Email"><value>syugen.zhou@gmail.com</value></Data><Data name="Category"><value>Airport</value></Data><Data name="Distance"><value>0</value></Data></ExtendedData><description> Airport from 2021-05-29T16:18:49.184Z to 2021-05-29T17:55:43.298Z. Distance 0m </description><Point><coordinates>-122.3789554,37.6213129,0</coordinates></Point><TimeSpan><begin>2021-05-29T16:18:49.184Z</begin><end>2021-05-29T17:55:43.298Z</end></TimeSpan></Placemark><Placemark><name>Flying</name><address></address><ExtendedData><Data name="Email"><value>syugen.zhou@gmail.com</value></Data><Data name="Category"><value>Flying</value></Data><Data name="Distance"><value>669721</value></Data></ExtendedData><description> Flying from 2021-05-29T17:55:43.298Z to 2021-05-29T19:54:25.747Z. Distance 669721m </description><LineString><altitudeMode>clampToGround</altitudeMode><extrude>1</extrude><tesselate>1</tesselate><coordinates>-122.38567985394917,37.618153724325424,0 -122.38567985394917,37.618153724325424,0 -122.3857684,37.6197515,0 -122.3908287,37.6028419,0 -122.3836325,37.6090095,0 -117.5413078,36.5704246,0 -115.1386214,36.0824287,0 -115.13862139999999,36.08242870000001,0 -115.13862139999999,36.08242870000001,0 </coordinates></LineString><TimeSpan><begin>2021-05-29T17:55:43.298Z</begin><end>2021-05-29T19:54:25.747Z</end></TimeSpan></Placemark><Placemark><name>Harry Reid International Airport</name><address>5757 Wayne Newton Blvd, Las Vegas, NV 89119</address><ExtendedData><Data name="Email"><value>syugen.zhou@gmail.com</value></Data><Data name="Category"><value>International airport</value></Data><Data name="Distance"><value>0</value></Data></ExtendedData><description> International airport from 2021-05-29T19:54:25.747Z to 2021-05-29T20:03:35.603Z. Distance 0m </description><Point><coordinates>-115.1537389,36.0839998,0</coordinates></Point><TimeSpan><begin>2021-05-29T19:54:25.747Z</begin><end>2021-05-29T20:03:35.603Z</end></TimeSpan></Placemark><Placemark><name>On a bus</name><address></address><ExtendedData><Data name="Email"><value>syugen.zhou@gmail.com</value></Data><Data name="Category"><value>On a bus</value></Data><Data name="Distance"><value>4981</value></Data></ExtendedData><description> On a bus from 2021-05-29T20:03:35.603Z to 2021-05-29T20:29:47.541Z. Distance 4981m </description><LineString><altitudeMode>clampToGround</altitudeMode><extrude>1</extrude><tesselate>1</tesselate><coordinates>-115.13862139999999,36.08242870000001,0 -115.13862139999999,36.08242870000001,0 -115.1376222,36.0816937,0 -115.1372984,36.085314,0 -115.1390817,36.0872886,0 -115.1488903,36.0652069,0 -115.1642565,36.0606767,0 -115.16511119999998,36.060024299999995,0 -115.16511119999998,36.060024299999995,0 </coordinates></LineString><TimeSpan><begin>2021-05-29T20:03:35.603Z</begin><end>2021-05-29T20:29:47.541Z</end></TimeSpan></Placemark><Placemark><name>McCarran Rental Car</name><address>7135 Gilespie St, Las Vegas, NV 89119</address><ExtendedData><Data name="Email"><value>syugen.zhou@gmail.com</value></Data><Data name="Category"><value>Car rental agency</value></Data><Data name="Distance"><value>0</value></Data></ExtendedData><description> Car rental agency from 2021-05-29T20:29:47.541Z to 2021-05-29T21:45:09.000Z. Distance 0m </description><Point><coordinates>-115.1651112,36.060024299999995,0</coordinates></Point><TimeSpan><begin>2021-05-29T20:29:47.541Z</begin><end>2021-05-29T21:45:09.000Z</end></TimeSpan></Placemark><Placemark><name>Driving</name><address></address><ExtendedData><Data name="Email"><value>syugen.zhou@gmail.com</value></Data><Data name="Category"><value>Driving</value></Data><Data name="Distance"><value>10400</value></Data></ExtendedData><description> Driving from 2021-05-29T21:45:09.000Z to 2021-05-29T22:04:35.000Z. Distance 10400m </description><LineString><altitudeMode>clampToGround</altitudeMode><extrude>1</extrude><tesselate>1</tesselate><coordinates>-115.16425319999998,36.061552999999996,0 -115.16541099999998,36.0615373,0 -115.16547489999998,36.061594799999995,0 -115.16551799999998,36.0616175,0 -115.16557739999998,36.06163539999999,0 -115.16562419999998,36.0616424,0 -115.16565979999999,36.0616424,0 -115.16588389999997,36.0615796,0 -115.16608579999999,36.0615618,0 -115.16646229999998,36.0615753,0 -115.16672909999997,36.061613400000006,0 -115.16747509999998,36.0615931,0 -115.16753449999997,36.06159830000001,0 -115.16758529999997,36.0616149,0 -115.16762589999996,36.06164940000001,0 -115.16763619999998,36.06166950000001,0 -115.16764209999997,36.06170000000001,0 -115.16764579999997,36.062529500000004,0 -115.16784829999997,36.062519900000005,0 -115.16786089999998,36.06050910000001,0 -115.16997009999997,36.06047650000001,0 -115.17043099999997,36.060444400000016,0 -115.17226859999995,36.060419400000015,0 -115.17223129999995,36.061875600000015,0 -115.17223969999995,36.06447110000002,0 -115.17248919999994,36.06447720000002,0 -115.17372799999994,36.064425300000025,0 -115.17676979999995,36.06417920000003,0 -115.17715049999995,36.06419100000003,0 -115.17731449999997,36.064209400000024,0 -115.17759279999996,36.06426030000003,0 -115.17787539999998,36.06433990000003,0 -115.17831049999995,36.06452460000003,0 -115.17868829999996,36.06473730000003,0 -115.17877729999995,36.06477340000003,0 -115.17922469999995,36.06511050000003,0 -115.17929959999995,36.06514340000003,0 -115.17949969999995,36.065314300000026,0 -115.17974889999994,36.06557200000003,0 -115.17989099999994,36.065750900000026,0 -115.18005609999993,36.065998200000024,0 -115.18029299999992,36.06644610000002,0 -115.18035709999992,36.066675000000025,0 -115.18040819999992,36.06701830000002,0 -115.18042229999992,36.06844600000002,0 -115.18048679999991,36.07002070000002,0 -115.18049729999991,36.07004290000002,0 -115.1806149999999,36.07018370000002,0 -115.18054319999989,36.10332190000002,0 -115.1805088999999,36.10403110000002,0 -115.18048419999988,36.11086730000002,0 -115.18050349999987,36.11133880000002,0 -115.18049689999987,36.11391010000002,0 -115.18038509999988,36.11400380000002,0 -115.18037889999988,36.11401410000002,0 -115.18025929999989,36.11516510000003,0 -115.1802316999999,36.12221210000003,0 -115.18012109999991,36.12295880000003,0 -115.18001249999989,36.12342790000003,0 -115.17992269999989,36.123710300000035,0 -115.17972839999989,36.124131100000035,0 -115.17959519999988,36.12436710000003,0 -115.17939119999988,36.12465540000003,0 -115.17907539999989,36.125021100000026,0 -115.1786651999999,36.125416100000024,0 -115.17834549999989,36.125775500000024,0 -115.1782162999999,36.125970200000026,0 -115.1781908999999,36.12604210000003,0 -115.1781795999999,36.12617670000003,0 -115.17819769999988,36.12626980000003,0 -115.17823789999989,36.12638020000003,0 -115.17867409999988,36.12713620000003,0 -115.17872429999987,36.12725030000003,0 -115.17876669999987,36.127453100000025,0 -115.17880039999986,36.12754260000003,0 -115.17883539999987,36.127583100000024,0 -115.17882529999986,36.12773870000003,0 -115.17868959999986,36.127734700000026,0 -115.17865609999986,36.127738200000024,0 -115.17862169999987,36.127752900000026,0 -115.17858329999987,36.12777800000003,0 -115.17837589999988,36.127778400000025,0 -115.17824559999988,36.12780020000003,0 -115.17794859999988,36.12789610000003,0 -115.17769739999987,36.12803100000003,0 -115.17760269999988,36.12809520000003,0 -115.17752579999987,36.128173200000035,0 -115.17732349999987,36.12844640000004,0 -115.17654669999988,36.12967460000003,0 -115.17545559999986,36.12960110000003,0 -115.17518359999985,36.12956590000003,0 -115.17500029999985,36.129523600000034,0 -115.17468919999985,36.12942300000003,0 -115.17384419999983,36.128987900000034,0 -115.17356079999985,36.12886790000003,0 -115.17335019999985,36.128820700000034,0 -115.17320799999985,36.12880910000004,0 -115.17278379999985,36.12881510000004,0 -115.17271379999985,36.12885910000004,0 -115.17079159999987,36.128837300000036,0 </coordinates></LineString><TimeSpan><begin>2021-05-29T21:45:09.000Z</begin><end>2021-05-29T22:04:35.000Z</end></TimeSpan></Placemark><Placemark><name>Luke's Lobster Las Vegas</name><address>Fashion Show Mall, 3200 S Las Vegas Blvd, Las Vegas, NV 89109</address><ExtendedData><Data name="Email"><value>syugen.zhou@gmail.com</value></Data><Data name="Category"><value>Seafood</value></Data><Data name="Distance"><value>0</value></Data></ExtendedData><description> Seafood from 2021-05-29T22:04:35.000Z to 2021-05-29T22:46:17.000Z. Distance 0m </description><Point><coordinates>-115.16944989999999,36.126348899999996,0</coordinates></Point><TimeSpan><begin>2021-05-29T22:04:35.000Z</begin><end>2021-05-29T22:46:17.000Z</end></TimeSpan></Placemark><Placemark><name>Driving</name><address></address><ExtendedData><Data name="Email"><value>syugen.zhou@gmail.com</value></Data><Data name="Category"><value>Driving</value></Data><Data name="Distance"><value>180065</value></Data></ExtendedData><description> Driving from 2021-05-29T22:46:17.265Z to 2021-05-30T00:42:20.676Z. Distance 180065m </description><LineString><altitudeMode>clampToGround</altitudeMode><extrude>1</extrude><tesselate>1</tesselate><coordinates>-115.17098959999998,36.1262605,0 -115.1710731,36.1262961,0 -115.17120750000001,36.1262974,0 -115.17125370000001,36.1262859,0 -115.17130060000002,36.126258299999996,0 -115.17131500000002,36.1262327,0 -115.17131680000003,36.12612,0 -115.17203430000004,36.1260418,0 -115.17203590000003,36.1256375,0 -115.17318660000002,36.125641099999996,0 -115.17598450000003,36.1259531,0 -115.17605500000003,36.126005,0 -115.17625650000004,36.12608089999999,0 -115.17695630000003,36.12623819999999,0 -115.17765070000002,36.12644409999999,0 -115.17869840000002,36.1268549,0 -115.17898880000001,36.127004899999996,0 -115.17943720000002,36.12732199999999,0 -115.1797324,36.1276367,0 -115.17997250000002,36.127966699999995,0 -115.18016550000002,36.12838969999999,0 -115.1803057,36.12904869999999,0 -115.18032810000001,36.12908909999999,0 -115.18044490000001,36.12919829999999,0 -115.18041060000002,36.12995569999999,0 -115.18015140000001,36.131593299999984,0 -115.17964460000002,36.13320679999999,0 -115.17916040000001,36.134279599999985,0 -115.17869130000003,36.13511109999998,0 -115.17787820000001,36.136289699999985,0 -115.1665964,36.148985299999985,0 -115.1623712,36.15337449999999,0 -115.16154979999999,36.15449349999999,0 -115.1612215,36.15505379999998,0 -115.16082259999999,36.155937399999985,0 -115.16055619999999,36.156822799999986,0 -115.16039749999999,36.15791059999998,0 -115.16049579999999,36.16243139999998,0 -115.1603437,36.163962199999986,0 -115.1599245,36.16581739999999,0 -115.15956320000001,36.166856999999986,0 -115.15880070000001,36.168586799999986,0 -115.1577199,36.170593099999984,0 -115.15747200000001,36.170946499999985,0 -115.1574865,36.171021199999984,0 -115.15696390000002,36.17181489999998,0 -115.15586720000003,36.17319699999998,0 -115.15439430000002,36.17468909999998,0 -115.15339600000003,36.17554069999998,0 -115.15190670000003,36.176644599999975,0 -115.14625340000002,36.179862999999976,0 -115.14583520000002,36.180165199999976,0 -115.14527800000002,36.18065859999997,0 -115.14478630000002,36.18119539999998,0 -115.14437100000002,36.18177679999998,0 -115.14394980000002,36.18249249999998,0 -115.14371380000001,36.183175999999975,0 -115.14359400000002,36.18373679999998,0 -115.14354060000002,36.18431699999998,0 -115.14352520000003,36.18642699999997,0 -115.14346180000001,36.187165299999975,0 -115.1431604,36.18831769999997,0 -115.14275990000002,36.18923449999997,0 -115.14243550000002,36.189793199999976,0 -115.14196160000002,36.190468599999974,0 -115.14030420000002,36.192504999999976,0 -115.14027680000002,36.19258139999997,0 -115.13951420000002,36.193842599999975,0 -115.13666070000002,36.20007079999997,0 -115.13600900000003,36.20112529999998,0 -115.11629850000003,36.227956999999975,0 -115.11514070000003,36.22917399999998,0 -115.07575770000003,36.26132559999998,0 -115.0756612,36.261378899999976,0 -115.07352630000001,36.263105699999976,0 -115.07206120000002,36.264163099999976,0 -115.07038100000003,36.26525759999998,0 -115.06929200000002,36.265884899999975,0 -115.06681120000002,36.267111299999975,0 -115.06538160000004,36.26772019999997,0 -114.94797020000003,36.31177029999997,0 -114.94722480000003,36.31212109999997,0 -114.94601830000002,36.312779699999965,0 -114.94461210000001,36.313715399999964,0 -114.94324220000001,36.31485909999997,0 -114.93899470000002,36.31912139999997,0 -114.93743650000003,36.320448099999965,0 -114.93513360000003,36.322121499999966,0 -114.93361000000003,36.32307139999996,0 -114.92675410000001,36.326765399999964,0 -114.92558860000003,36.32750029999997,0 -114.92431680000003,36.32846709999996,0 -114.92340810000005,36.32929769999996,0 -114.92260490000005,36.33015439999996,0 -114.90534860000004,36.35151889999996,0 -114.90459280000005,36.35267049999997,0 -114.90389250000007,36.354063299999964,0 -114.90342170000005,36.35538419999997,0 -114.90309640000005,36.35688609999996,0 -114.90297530000005,36.35812149999997,0 -114.90291050000005,36.36084869999997,0 -114.90282470000005,36.36153349999997,0 -114.90253520000005,36.362650799999976,0 -114.90229210000005,36.36327349999998,0 -114.90192430000005,36.363998199999976,0 -114.85453340000007,36.44079969999997,0 -114.85321240000005,36.44248939999997,0 -114.85146740000005,36.44436879999997,0 -114.82756810000006,36.467225899999974,0 -114.82569430000005,36.468838399999974,0 -114.82419140000006,36.46996009999997,0 -114.82227580000006,36.47121199999997,0 -114.82054880000004,36.47219459999997,0 -114.75665510000005,36.504578099999975,0 -114.75470980000004,36.50570519999998,0 -114.75275270000004,36.50702229999998,0 -114.75126610000002,36.50816379999998,0 -114.71272930000003,36.54032379999998,0 -114.65677000000005,36.57986489999998,0 -114.65535850000005,36.58102429999998,0 -114.65366460000004,36.58261899999998,0 -114.65176820000003,36.584745699999985,0 -114.64064300000004,36.59917069999999,0 -114.63851070000004,36.601455299999984,0 -114.59354660000004,36.64179389999998,0 -114.58329070000003,36.651914199999986,0 -114.57380570000004,36.660871499999985,0 -114.57282310000004,36.66164639999998,0 -114.57196580000004,36.66223349999998,0 -114.57076530000003,36.66293029999998,0 -114.56923290000003,36.663655499999976,0 -114.56779530000004,36.66419019999998,0 -114.56590470000003,36.66470769999997,0 -114.56455100000002,36.66495519999997,0 -114.53849780000003,36.667161199999974,0 -114.53616270000003,36.66745229999997,0 -114.52467940000004,36.66963759999997,0 -114.52328370000002,36.66999849999997,0 -114.52204890000003,36.67042629999997,0 -114.52079460000003,36.67096219999997,0 -114.51987370000002,36.67143509999997,0 -114.51824710000001,36.67249069999997,0 -114.51691030000002,36.67359719999997,0 -114.51632910000001,36.67417179999996,0 -114.5156166,36.67498349999996,0 -114.51480000000001,36.676194999999964,0 -114.51216080000002,36.68139529999996,0 -114.51106500000002,36.68327949999997,0 -114.50927350000002,36.685736199999965,0 -114.50783190000001,36.687358499999974,0 -114.50618390000001,36.68897919999997,0 -114.49698660000001,36.69682619999997,0 -114.49441790000002,36.69873069999996,0 -114.42445490000001,36.74186909999996,0 -114.42173700000002,36.74337719999996,0 -114.41981900000002,36.74427229999996,0 -114.41735250000002,36.745234299999964,0 -114.41584250000002,36.74572709999996,0 -114.36251330000002,36.760796699999965,0 -114.35805930000001,36.761759199999965,0 -114.26436930000001,36.77845589999996,0 -114.2631386,36.778587499999965,0 -114.2616321,36.77864749999996,0 -114.25984070000001,36.778583199999964,0 -114.2579511,36.77834689999997,0 -114.25609380000002,36.777938899999974,0 -114.2546724,36.777497399999966,0 -114.2535601,36.77706749999997,0 -114.24988280000001,36.77528629999997,0 -114.24839150000001,36.77468549999997,0 -114.23732570000001,36.77111889999997,0 -114.23450520000002,36.77036529999997,0 -114.23269700000002,36.76999869999997,0 -114.23062970000002,36.76967059999997,0 -114.17846470000003,36.76326489999997,0 -114.17610840000003,36.763221499999965,0 -114.17499920000003,36.763293199999964,0 -114.17355170000003,36.763480599999966,0 -114.17170930000003,36.763868999999964,0 -114.16975780000004,36.764474599999964,0 -114.16806660000003,36.76520689999997,0 -114.16703530000004,36.76575359999997,0 -114.16012900000004,36.76986439999997,0 -114.15892420000004,36.77051279999997,0 -114.15804610000005,36.770915999999964,0 -114.15055750000003,36.77383979999997,0 -114.14918400000005,36.77454699999997,0 -114.14810350000005,36.77521969999997,0 -114.11022860000006,36.80144269999997,0 -114.10935520000005,36.80197439999997,0 -114.10832170000005,36.80251889999997,0 -114.10707990000004,36.803067299999974,0 -114.10543980000006,36.80364039999997,0 -114.10398570000005,36.804017699999974,0 -114.09881980000006,36.80514779999997,0 -114.09740150000006,36.805615699999976,0 -114.09634350000006,36.806042999999974,0 -114.09152190000006,36.808290299999975,0 -114.08990370000006,36.80887569999998,0 -114.08846120000005,36.80926889999998,0 -114.08686800000007,36.80957429999997,0 -114.08495540000006,36.80977299999997,0 -114.08302840000006,36.80979869999997,0 -114.08125740000006,36.809666999999976,0 -114.07621240000006,36.80896139999997,0 -114.07500320000005,36.808891599999974,0 -114.07345560000005,36.808964699999976,0 -114.07249180000005,36.80910409999997,0 -114.07104850000005,36.80945759999997,0 -114.06992150000005,36.80986949999998,0 -114.05921040000005,36.81493499999997,0 -114.05806640000006,36.81540819999997,0 -114.05642070000006,36.81594789999997,0 -114.03694570000006,36.82099229999997,0 -114.03324270000006,36.822058899999966,0 -114.01097000000006,36.82918379999997,0 -114.00936050000006,36.82979889999997,0 -114.00744180000007,36.83073879999997,0 -114.00577020000006,36.83177999999997,0 -114.00401530000006,36.83315379999997,0 -114.00265920000005,36.83450499999997,0 -113.98551870000006,36.85442019999997,0 -113.98341990000006,36.85648079999997,0 -113.98123860000005,36.85829219999997,0 -113.97972860000006,36.859391599999974,0 -113.92893830000006,36.891675999999975,0 -113.92778790000006,36.89228539999998,0 -113.92667350000006,36.89272009999998,0 -113.92552110000005,36.89303279999998,0 -113.92470880000006,36.89317879999997,0 -113.91520460000005,36.89423849999997,0 -113.91389040000006,36.89450719999998,0 -113.91198330000006,36.89508319999997,0 -113.91038790000006,36.89575319999998,0 -113.90946510000006,36.896231399999984,0 -113.87571990000005,36.91622879999998,0 -113.87466550000005,36.916748999999975,0 -113.87342650000005,36.91722959999998,0 -113.87178410000006,36.91767999999998,0 -113.87082160000006,36.91785769999998,0 -113.86987960000006,36.91797199999998,0 -113.86878740000006,36.91804229999998,0 -113.86481440000006,36.91799639999998,0 -113.86413040000006,36.91804919999998,0 -113.86359480000006,36.918138999999975,0 -113.86281530000007,36.91836739999998,0 -113.86197630000007,36.91876129999998,0 -113.86156110000007,36.91903389999998,0 -113.86007370000006,36.92033249999998,0 -113.85956670000007,36.920679199999974,0 -113.85887290000007,36.92099879999998,0 -113.85619480000007,36.92197549999998,0 -113.85545610000007,36.92218239999998,0 -113.85502440000006,36.922245099999984,0 -113.85455580000006,36.922253699999985,0 -113.85395690000006,36.92218009999998,0 -113.85335570000005,36.92201079999998,0 -113.85294920000004,36.92182839999998,0 -113.85264510000005,36.92165099999998,0 -113.85218050000005,36.92126849999998,0 -113.85196460000003,36.92101909999998,0 -113.85172110000003,36.92064759999998,0 -113.85120190000004,36.919532799999985,0 -113.85086280000003,36.91901609999998,0 -113.85052700000004,36.91867229999998,0 -113.85002770000004,36.91831839999998,0 -113.84943750000005,36.91804479999998,0 -113.84749870000005,36.917551999999986,0 -113.84677650000005,36.91725339999998,0 -113.84634550000004,36.91697729999998,0 -113.84494070000005,36.91579809999998,0 -113.84461670000005,36.91559959999998,0 -113.84426820000004,36.91543199999998,0 -113.84390180000004,36.915305599999975,0 -113.84310690000004,36.915154699999974,0 -113.83774270000005,36.91495809999998,0 -113.83692410000005,36.91506389999998,0 -113.83653490000005,36.91516589999998,0 -113.83593460000004,36.915398699999976,0 -113.83549090000004,36.915648599999976,0 -113.83518510000003,36.91586229999997,0 -113.83490340000003,36.916107699999976,0 -113.83458150000003,36.916460199999975,0 -113.83438660000003,36.91674199999997,0 -113.83235600000003,36.92036649999997,0 -113.83213460000003,36.92110699999998,0 -113.83206490000003,36.921762299999976,0 -113.83225760000003,36.925861499999975,0 -113.83218190000004,36.926381399999975,0 -113.83205240000004,36.926826399999975,0 -113.83186810000004,36.92719409999997,0 -113.83159650000003,36.927582899999976,0 -113.83127350000002,36.92793229999997,0 -113.82854950000004,36.93024459999997,0 -113.82649920000004,36.93296359999997,0 -113.82616760000003,36.93357649999997,0 -113.82605770000004,36.93389189999998,0 -113.82597990000004,36.934323999999975,0 -113.82594730000004,36.93639949999998,0 -113.82591200000003,36.93661479999998,0 -113.82562980000003,36.93746669999997,0 -113.82541870000003,36.93786979999998,0 -113.82515850000003,36.93825459999998,0 -113.82476470000003,36.93870089999998,0 -113.82419760000002,36.93918359999998,0 -113.82366990000003,36.93952729999998,0 -113.82297310000003,36.93986759999998,0 -113.82208860000003,36.94016109999998,0 -113.81592050000003,36.94145229999998,0 -113.81554910000004,36.94156339999998,0 -113.81493840000003,36.94180669999998,0 -113.81448860000003,36.94204269999998,0 -113.81386710000002,36.942471599999976,0 -113.81089020000002,36.94519279999998,0 -113.81027030000003,36.94558839999998,0 -113.80943190000002,36.94595889999997,0 -113.80666520000003,36.94682029999998,0 -113.80631400000003,36.946972799999976,0 -113.80563530000003,36.94734889999997,0 -113.80524200000004,36.94763629999998,0 -113.79935600000003,36.952832199999975,0 -113.79866590000003,36.95335979999997,0 -113.79750390000002,36.95406989999997,0 -113.79622210000002,36.954662399999975,0 -113.78693370000003,36.95775449999997,0 -113.78586260000003,36.95822949999997,0 -113.78419430000004,36.959136199999975,0 -113.78335280000005,36.959497999999975,0 -113.78284790000004,36.95965509999997,0 -113.78231660000004,36.95977189999998,0 -113.78136920000004,36.95987819999998,0 -113.77568660000004,36.95988549999998,0 -113.77488130000006,36.95983279999998,0 -113.77113360000006,36.95935529999998,0 -113.77005240000005,36.95938249999998,0 -113.76951970000005,36.95945999999998,0 -113.76730480000006,36.95999569999998,0 -113.76464860000006,36.96047059999998,0 -113.76372420000006,36.960710399999975,0 -113.76287720000005,36.96100919999998,0 -113.76217430000005,36.961319699999976,0 -113.76126700000005,36.961811399999974,0 -113.76065990000004,36.96221569999997,0 -113.76004740000003,36.96269409999997,0 -113.75951360000003,36.963188699999975,0 -113.75904080000002,36.96370569999998,0 -113.75493820000003,36.968787499999976,0 -113.75439030000003,36.96936459999998,0 -113.75392150000002,36.96975449999997,0 -113.75315770000002,36.97024209999997,0 -113.75271240000002,36.970465399999966,0 -113.75187030000004,36.97078619999997,0 -113.75077790000003,36.97104149999998,0 -113.75016010000003,36.97111639999997,0 -113.74919160000003,36.97113839999997,0 -113.73779620000003,36.97051719999997,0 -113.73311630000003,36.96999759999997,0 -113.73243070000004,36.96998399999997,0 -113.73147330000005,36.970089699999974,0 -113.72678990000004,36.97119189999997,0 -113.72618080000004,36.97125879999997,0 -113.72561990000005,36.97127669999997,0 -113.72488670000004,36.97121559999997,0 -113.72065660000004,36.970236299999975,0 -113.71966500000003,36.97013199999998,0 -113.71912030000004,36.97014129999997,0 -113.71845510000003,36.970219899999975,0 -113.71802330000004,36.970311199999976,0 -113.71745850000003,36.97048409999997,0 -113.71668820000004,36.970824899999975,0 -113.71634570000003,36.971027799999966,0 -113.71372070000004,36.97295209999997,0 -113.71281580000003,36.97342939999997,0 -113.71220340000004,36.97364159999997,0 -113.71138910000003,36.973813299999975,0 -113.71057490000004,36.97387389999997,0 -113.69814450000004,36.97376559999997,0 -113.69698250000005,36.97363409999998,0 -113.69609360000004,36.97347449999997,0 -113.69222960000003,36.97250139999997,0 -113.69100450000005,36.97231039999998,0 -113.69028250000004,36.97228579999997,0 -113.68960790000003,36.97232339999997,0 -113.68878250000003,36.97245269999998,0 -113.68815700000003,36.97261819999998,0 -113.68752760000004,36.97284859999997,0 -113.68433860000003,36.97445179999997,0 -113.68280380000003,36.97505649999997,0 -113.68165450000004,36.975384299999966,0 -113.67734950000003,36.976151599999966,0 -113.67660170000003,36.97638819999997,0 -113.67596590000004,36.97667839999996,0 -113.67534730000003,36.97707129999996,0 -113.67350810000003,36.97865679999996,0 -113.67274970000003,36.97911169999996,0 -113.67214800000004,36.97936299999996,0 -113.67153550000003,36.97953529999996,0 -113.67110050000002,36.97961429999996,0 -113.67044820000002,36.979677699999954,0 -113.67004090000003,36.979684599999956,0 -113.66240360000003,36.979216999999956,0 -113.65892330000003,36.97919039999995,0 -113.65630210000002,36.97934409999995,0 -113.65334880000002,36.97968989999995,0 -113.64954430000002,36.98036229999995,0 -113.64709410000002,36.98099849999995,0 -113.64433140000001,36.98191049999995,0 -113.63009730000002,36.98745139999995,0 -113.62918150000002,36.987907899999946,0 -113.62820800000001,36.98849059999995,0 -113.62709450000001,36.98931869999995,0 -113.62653750000001,36.989813999999946,0 -113.62538910000002,36.99107389999995,0 -113.62476860000001,36.99198749999995,0 -113.62409780000002,36.993309499999945,0 -113.62374470000002,36.994357599999944,0 -113.62359730000003,36.99499359999995,0 -113.62329700000002,36.99716239999995,0 -113.62281000000003,36.99908749999995,0 -113.62237750000001,37.00020659999995,0 -113.62178390000001,37.00141409999995,0 -113.59879240000002,37.037119499999946,0 -113.59785000000002,37.03828219999994,0 -113.59687890000002,37.03928139999994,0 -113.59274690000002,37.04308399999995,0 -113.59160130000002,37.044252699999944,0 -113.59044920000002,37.04572919999995,0 -113.58935620000003,37.047581699999945,0 -113.58885460000003,37.04872549999995,0 -113.58852690000002,37.049674499999945,0 -113.58731800000002,37.055046299999944,0 -113.58715150000003,37.05552649999994,0 -113.58666100000002,37.056433199999944,0 -113.58651820000003,37.05649389999994,0 -113.58587150000004,37.05722739999994,0 -113.58412820000002,37.05866979999994,0 -113.58384640000003,37.05895429999994,0 -113.58369490000003,37.059151499999935,0 -113.58347790000002,37.05928579999994,0 -113.58341480000001,37.059293399999945,0 -113.5832907,37.05934909999994,0 -113.58324470000001,37.059399299999946,0 -113.58321960000002,37.05948999999994,0 -113.58323620000002,37.05955729999994,0 -113.58331650000002,37.05963109999993,0 -113.58338640000002,37.05965829999994,0 -113.58348300000002,37.05966439999994,0 -113.58359080000001,37.059630099999936,0 -113.5839741,37.05965669999994,0 -113.58451520000001,37.05983909999994,0 -113.5849771,37.06006809999994,0 -113.5850212,37.06020389999994,0 -113.58510249999999,37.06028189999994,0 -113.5851378,37.060721699999945,0 -113.5851105,37.060935799999946,0 -113.5850609,37.06107769999994,0 -113.5847696,37.06159779999994,0 -113.5846329,37.06199629999994,0 -113.58442600000001,37.06319629999994,0 -113.58451170000001,37.06454789999994,0 -113.5865022,37.06455289999994,0 -113.586545,37.064540499999936,0 -113.58656599999999,37.06451749999994,0 -113.58658339999998,37.06412499999993,0 </coordinates></LineString><TimeSpan><begin>2021-05-29T22:46:17.265Z</begin><end>2021-05-30T00:42:20.676Z</end></TimeSpan></Placemark><Placemark><name>Walmart Supercenter</name><address>2610 Pioneer Rd, St. George, UT 84790</address><ExtendedData><Data name="Email"><value>syugen.zhou@gmail.com</value></Data><Data name="Category"><value>Department store</value></Data><Data name="Distance"><value>0</value></Data></ExtendedData><description> Department store from 2021-05-30T00:42:20.676Z to 2021-05-30T00:54:52.706Z. Distance 0m </description><Point><coordinates>-113.5874255,37.0633426,0</coordinates></Point><TimeSpan><begin>2021-05-30T00:42:20.676Z</begin><end>2021-05-30T00:54:52.706Z</end></TimeSpan></Placemark><Placemark><name>Driving</name><address></address><ExtendedData><Data name="Email"><value>syugen.zhou@gmail.com</value></Data><Data name="Category"><value>Driving</value></Data><Data name="Distance"><value>263465</value></Data></ExtendedData><description> Driving from 2021-05-30T00:54:52.706Z to 2021-05-30T03:06:40.000Z. Distance 263465m </description><LineString><altitudeMode>clampToGround</altitudeMode><extrude>1</extrude><tesselate>1</tesselate><coordinates>-113.5865953,37.0633659,0 -113.58659429999999,37.063431900000005,0 -113.5853575,37.0634278,0 -113.5853571,37.0634663,0 -113.5844181,37.0634644,0 -113.5846329,37.061996300000004,0 -113.5847696,37.0615978,0 -113.5850609,37.061077700000006,0 -113.5851378,37.0607217,0 -113.585282,37.06054160000001,0 -113.5854549,37.06039390000001,0 -113.585555,37.060381,0 -113.5857421,37.0602982,0 -113.5858198,37.060190299999995,0 -113.585864,37.060036499999995,0 -113.5857613,37.0598508,0 -113.5856169,37.0597196,0 -113.58548470000001,37.0596826,0 -113.58524080000001,37.0597127,0 -113.58516620000002,37.059749100000005,0 -113.5848651,37.059813000000005,0 -113.58451520000001,37.0598391,0 -113.5839741,37.059656700000005,0 -113.58368970000001,37.0594587,0 -113.58362100000001,37.0593482,0 -113.5834779,37.059285800000005,0 -113.5834148,37.05929340000001,0 -113.5832907,37.059349100000006,0 -113.5832447,37.05939930000001,0 -113.5832196,37.059490000000004,0 -113.5837058,37.06407130000001,0 -113.5838004,37.06418460000001,0 -113.58479890000001,37.07684100000001,0 -113.5847348,37.07801460000001,0 -113.58430740000001,37.080163800000015,0 -113.5835169,37.08224270000001,0 -113.58245700000002,37.08408520000001,0 -113.58109110000002,37.08581900000001,0 -113.57924200000001,37.087560200000006,0 -113.57824790000002,37.088308600000005,0 -113.56662900000002,37.095386,0 -113.56591370000001,37.0958985,0 -113.56459170000002,37.0970084,0 -113.56290210000002,37.098816,0 -113.56185740000002,37.1002814,0 -113.56123030000002,37.10138210000001,0 -113.55762920000002,37.11042210000001,0 -113.55719010000001,37.11130820000001,0 -113.55663200000001,37.11220150000001,0 -113.55614290000001,37.11283520000001,0 -113.55540400000002,37.11361850000001,0 -113.55454850000002,37.11435140000001,0 -113.55345510000002,37.11515020000001,0 -113.55189320000002,37.11604210000001,0 -113.53470430000002,37.123284100000006,0 -113.53244750000002,37.124347300000004,0 -113.52658820000002,37.1276756,0 -113.51126240000002,37.1377821,0 -113.50829560000001,37.139363900000006,0 -113.50627840000001,37.14019790000001,0 -113.49004680000003,37.14576000000001,0 -113.48802940000003,37.14665480000001,0 -113.48641190000002,37.14757560000001,0 -113.48411890000003,37.14925410000001,0 -113.47607400000004,37.15741970000001,0 -113.47526800000004,37.15805830000001,0 -113.47417430000004,37.158691300000015,0 -113.47348700000005,37.15897560000001,0 -113.46427760000005,37.16150990000001,0 -113.45972900000004,37.16306450000001,0 -113.43413030000005,37.17375810000001,0 -113.43056120000004,37.175087700000006,0 -113.41971690000004,37.17855340000001,0 -113.41799150000004,37.179284300000006,0 -113.41686700000004,37.17984600000001,0 -113.41462430000004,37.18115510000001,0 -113.41310180000004,37.182207900000016,0 -113.41152860000004,37.183496900000016,0 -113.41042770000004,37.18454250000001,0 -113.40938320000005,37.18568800000001,0 -113.40330630000004,37.19357850000001,0 -113.39120460000005,37.21262860000001,0 -113.39002580000005,37.21426690000001,0 -113.38747380000005,37.21737380000001,0 -113.38606510000004,37.218911600000006,0 -113.38294510000004,37.22188570000001,0 -113.37446390000005,37.22861720000001,0 -113.37347540000005,37.22954020000001,0 -113.36735500000005,37.23610480000001,0 -113.36308520000004,37.23980380000001,0 -113.36208280000004,37.24050310000001,0 -113.36110630000003,37.241037700000014,0 -113.36008010000005,37.241476700000014,0 -113.35579520000005,37.24266810000001,0 -113.35483800000004,37.24304390000002,0 -113.35405900000005,37.243441400000016,0 -113.33454980000005,37.256149100000016,0 -113.33094850000005,37.25892680000001,0 -113.32913040000005,37.26052230000001,0 -113.30554750000006,37.28450750000002,0 -113.30391030000004,37.28639900000001,0 -113.30288630000004,37.28776810000001,0 -113.30160080000005,37.28976060000001,0 -113.30062750000005,37.291501800000006,0 -113.29938650000005,37.294346100000006,0 -113.29846880000005,37.297364300000005,0 -113.29803660000006,37.299617500000004,0 -113.29780560000006,37.30190880000001,0 -113.29773000000006,37.3050519,0 -113.29763120000005,37.305979300000004,0 -113.29742920000005,37.306897500000005,0 -113.29696200000006,37.308209000000005,0 -113.29631980000006,37.30941430000001,0 -113.27395640000006,37.3428964,0 -113.26929550000007,37.348693700000005,0 -113.26856650000008,37.349850200000006,0 -113.26644260000006,37.35431260000001,0 -113.26099680000007,37.36339460000001,0 -113.25959610000007,37.36528200000001,0 -113.24967900000007,37.3767973,0 -113.24900480000007,37.37780300000001,0 -113.24849160000007,37.37895910000001,0 -113.24692870000007,37.384213100000004,0 -113.24643730000007,37.38547900000001,0 -113.24357570000006,37.390740500000014,0 -113.24301500000007,37.391953100000016,0 -113.24062210000007,37.39891630000002,0 -113.23471710000007,37.41253690000001,0 -113.23441180000006,37.413487300000014,0 -113.23428880000006,37.41415960000001,0 -113.23422200000006,37.415405800000016,0 -113.23434230000005,37.41644380000002,0 -113.23460790000006,37.41747490000001,0 -113.23541800000005,37.41962440000001,0 -113.23577520000005,37.42103890000001,0 -113.23597610000004,37.422590700000015,0 -113.23595810000005,37.42442480000001,0 -113.23571440000005,37.42612120000001,0 -113.20715910000004,37.530983200000016,0 -113.20556760000005,37.534925500000014,0 -113.20418200000005,37.53780780000002,0 -113.20224510000004,37.541224000000014,0 -113.17298780000003,37.586840000000024,0 -113.16897730000002,37.59249380000002,0 -113.15289680000004,37.61331810000002,0 -113.15173250000002,37.61458470000002,0 -113.14996070000002,37.61626130000002,0 -113.14711610000003,37.61853710000002,0 -113.14580360000004,37.61944460000002,0 -113.14336080000004,37.62092850000002,0 -113.14120990000004,37.62204970000002,0 -113.13817860000005,37.623385400000025,0 -113.13452350000004,37.62464860000003,0 -113.11073930000005,37.631249700000026,0 -113.10821460000005,37.63205440000003,0 -113.10455330000005,37.63347640000003,0 -113.10055200000005,37.63541270000003,0 -113.09639970000005,37.63792060000003,0 -113.09321160000005,37.64027670000003,0 -113.09059410000006,37.642589600000036,0 -113.08759830000005,37.645791900000035,0 -113.08614530000006,37.647647700000036,0 -113.08476650000006,37.649647500000036,0 -113.08243370000005,37.65389120000004,0 -113.08177810000005,37.655460100000035,0 -113.08066430000007,37.65887860000004,0 -113.08019250000007,37.66092410000004,0 -113.07973800000006,37.66410960000004,0 -113.07962390000006,37.66622850000004,0 -113.07967760000005,37.68116730000004,0 -113.07940130000006,37.684261500000034,0 -113.07884060000006,37.687990100000036,0 -113.07792890000006,37.69195420000003,0 -113.07670240000006,37.69585680000004,0 -113.07459930000005,37.70092470000004,0 -113.07287400000006,37.704249100000034,0 -113.07147440000006,37.70661390000003,0 -113.06910370000006,37.71012370000003,0 -113.06648170000005,37.71346000000003,0 -113.06466300000005,37.71554980000003,0 -113.03886590000005,37.74230210000003,0 -113.03339380000006,37.747467300000025,0 -113.02881220000006,37.751501000000026,0 -113.02053660000006,37.75810560000002,0 -113.01428540000006,37.76262390000003,0 -113.00617590000006,37.767938900000026,0 -112.99906870000005,37.77216130000002,0 -112.98031120000005,37.78204700000003,0 -112.97406360000005,37.78554380000003,0 -112.93014570000005,37.81231320000003,0 -112.92345650000007,37.81614960000003,0 -112.91436290000007,37.82093930000003,0 -112.90234560000006,37.82656960000003,0 -112.89461820000007,37.82980380000002,0 -112.88781530000007,37.83242000000003,0 -112.84871430000007,37.846468100000024,0 -112.84357900000006,37.84877050000002,0 -112.83970510000006,37.850796800000026,0 -112.83585360000005,37.853077500000026,0 -112.83196070000005,37.85570140000003,0 -112.82941390000006,37.85761350000003,0 -112.82524710000006,37.86114150000003,0 -112.78400050000005,37.90076490000003,0 -112.78089950000005,37.90401140000003,0 -112.77823890000006,37.907208600000025,0 -112.77519040000006,37.91147340000002,0 -112.77310180000005,37.91492250000002,0 -112.68777720000004,38.07267930000002,0 -112.68670380000005,38.07439710000001,0 -112.68510950000005,38.076568600000016,0 -112.68373040000004,38.078137800000015,0 -112.68243740000005,38.07939550000001,0 -112.64138410000005,38.11472140000001,0 -112.63986140000006,38.11626210000001,0 -112.61210980000006,38.147280400000014,0 -112.61150910000005,38.148077500000014,0 -112.61100660000005,38.14897040000002,0 -112.61065630000004,38.14986440000001,0 -112.61046650000004,38.15069050000001,0 -112.61038310000004,38.151829200000016,0 -112.61052470000004,38.15302840000001,0 -112.61070520000004,38.15370360000001,0 -112.61129170000004,38.15499680000001,0 -112.61175850000005,38.15571350000001,0 -112.61255790000004,38.15661090000001,0 -112.61833600000004,38.16207090000001,0 -112.61913470000003,38.16295710000001,0 -112.61993850000005,38.16405120000001,0 -112.62068230000004,38.16537180000001,0 -112.62104340000003,38.16621640000001,0 -112.62263290000004,38.17140780000001,0 -112.62302020000003,38.172306000000006,0 -112.62370940000002,38.17342920000001,0 -112.62421870000003,38.17406760000001,0 -112.63498080000002,38.18499530000001,0 -112.63913590000003,38.188665600000014,0 -112.64129310000003,38.19089620000001,0 -112.64213650000003,38.19198670000001,0 -112.64330100000002,38.19381170000001,0 -112.64413210000004,38.19545770000001,0 -112.64485280000002,38.19736120000002,0 -112.64540210000003,38.19966150000001,0 -112.64938550000002,38.22860650000001,0 -112.64955270000003,38.23082440000001,0 -112.65052210000003,38.289769200000016,0 -112.65092760000003,38.294674600000015,0 -112.66188120000002,38.36371400000001,0 -112.66241210000004,38.369786100000006,0 -112.66236560000003,38.37347870000001,0 -112.66200910000003,38.37750140000001,0 -112.66095930000003,38.383044600000005,0 -112.65106220000004,38.41678730000001,0 -112.65051670000004,38.41827610000001,0 -112.64938310000004,38.42051760000001,0 -112.64835030000003,38.42211460000001,0 -112.64652600000004,38.42425550000001,0 -112.64527660000005,38.42544870000001,0 -112.64358230000003,38.42684660000001,0 -112.63907650000004,38.43018670000001,0 -112.63602860000003,38.43283360000001,0 -112.63441430000003,38.43452190000001,0 -112.63313300000004,38.436065000000006,0 -112.63114370000004,38.4389315,0 -112.63003650000005,38.44092210000001,0 -112.62865550000005,38.4441338,0 -112.62773640000003,38.4470888,0 -112.62723290000004,38.448229,0 -112.62359970000003,38.453905999999996,0 -112.61858970000003,38.4645292,0 -112.61684390000003,38.4673262,0 -112.61361740000004,38.4711652,0 -112.61314530000004,38.471999000000004,0 -112.61286870000005,38.4727089,0 -112.61268170000004,38.473418300000006,0 -112.61262040000004,38.4739224,0 -112.61262760000004,38.474821500000004,0 -112.61284560000003,38.47599830000001,0 -112.61299880000004,38.476454200000006,0 -112.61363930000003,38.4776651,0 -112.61540560000005,38.48012800000001,0 -112.61687580000003,38.48285250000001,0 -112.61744190000003,38.48437320000001,0 -112.61783220000002,38.48635630000001,0 -112.61790410000002,38.48766960000001,0 -112.61776700000001,38.48953530000001,0 -112.60332900000002,38.574025200000015,0 -112.60325250000001,38.57414480000001,0 -112.60297350000002,38.57531320000001,0 -112.60255350000003,38.57626620000001,0 -112.60220270000002,38.57681820000001,0 -112.60146770000001,38.577673800000014,0 -112.60073270000001,38.57829450000002,0 -112.5998993,38.578843100000014,0 -112.59844760000001,38.579657300000015,0 -112.5983144,38.57978590000001,0 -112.55301000000001,38.602639300000014,0 -112.55166780000002,38.60321430000001,0 -112.54948020000002,38.60394440000002,0 -112.54728970000002,38.60444750000002,0 -112.54486960000003,38.60476640000002,0 -112.54334110000002,38.60484320000001,0 -112.54167130000002,38.604825800000015,0 -112.53667910000001,38.60441070000002,0 -112.53544720000002,38.60439990000002,0 -112.53361620000001,38.60449430000002,0 -112.53196860000001,38.60469340000002,0 -112.53033440000003,38.605002300000024,0 -112.52597490000002,38.60616720000003,0 -112.52355780000002,38.60670630000003,0 -112.52042330000002,38.607224200000026,0 -112.51574490000002,38.607616400000026,0 -112.51241780000002,38.60764230000003,0 -112.51144760000003,38.60754310000003,0 -112.51025820000002,38.607250400000034,0 -112.50917710000003,38.60676490000003,0 -112.50873600000003,38.60649520000003,0 -112.50812010000003,38.60602130000003,0 -112.50777800000003,38.60569490000003,0 -112.50733350000003,38.60514740000003,0 -112.50698710000003,38.60455840000003,0 -112.50668530000003,38.60370840000002,0 -112.50659410000003,38.602963800000026,0 -112.50661360000002,38.60241010000002,0 -112.50680580000004,38.601545700000024,0 -112.50812770000003,38.59856920000002,0 -112.50831240000004,38.59794880000002,0 -112.50838060000002,38.59739160000002,0 -112.50828180000003,38.59661510000003,0 -112.50807390000003,38.59609940000003,0 -112.50783450000003,38.59569670000003,0 -112.50745250000004,38.59523620000003,0 -112.50687920000004,38.594748900000035,0 -112.50619910000005,38.59435540000003,0 -112.50564600000004,38.594122100000035,0 -112.50347720000003,38.59352110000004,0 -112.50306560000004,38.59336350000004,0 -112.50230610000004,38.59295710000004,0 -112.50090700000005,38.59190080000004,0 -112.50034030000005,38.59155950000004,0 -112.49986810000004,38.59134160000004,0 -112.49935550000005,38.59116560000004,0 -112.49888400000005,38.591057100000036,0 -112.49798900000005,38.59096060000003,0 -112.49576090000005,38.590970600000034,0 -112.49520850000005,38.590925700000035,0 -112.49453190000004,38.59079830000004,0 -112.49389690000004,38.590591300000035,0 -112.49324970000005,38.590275200000036,0 -112.49278140000004,38.589958300000035,0 -112.48311590000004,38.58104500000003,0 -112.48182540000005,38.580096800000035,0 -112.48047180000005,38.579394500000035,0 -112.46757860000004,38.57462320000003,0 -112.46546720000003,38.57411670000004,0 -112.45980640000003,38.57326120000004,0 -112.45831590000003,38.57296140000004,0 -112.45635010000004,38.572413200000035,0 -112.45496560000002,38.571912300000044,0 -112.43975580000003,38.565297000000044,0 -112.43849810000003,38.56484130000004,0 -112.43639530000003,38.564253500000035,0 -112.43041910000002,38.56319610000004,0 -112.42951960000003,38.56288510000004,0 -112.42883960000003,38.56255010000004,0 -112.42797840000003,38.56195850000003,0 -112.42745090000003,38.56145700000003,0 -112.42685890000003,38.56064710000004,0 -112.42536110000003,38.557224800000036,0 -112.42498120000003,38.55653120000004,0 -112.42447580000002,38.55588150000004,0 -112.42386150000002,38.55531820000004,0 -112.42299080000002,38.554749400000034,0 -112.42245000000001,38.554485600000035,0 -112.42183200000001,38.554253300000035,0 -112.4208186,38.55400300000003,0 -112.4201532,38.55391550000003,0 -112.41533060000002,38.55370150000003,0 -112.41322960000001,38.55343400000003,0 -112.40285640000002,38.55103270000003,0 -112.40200580000001,38.550912000000025,0 -112.40059100000002,38.55083930000002,0 -112.39256650000002,38.55111910000002,0 -112.39095930000002,38.55094640000002,0 -112.38962810000001,38.550640700000024,0 -112.37858740000001,38.54724100000002,0 -112.3778001,38.54705430000002,0 -112.3770173,38.546939500000015,0 -112.37591350000001,38.54689260000002,0 -112.37460390000001,38.54700750000002,0 -112.3735652,38.54723830000002,0 -112.37243420000001,38.54765360000002,0 -112.37141960000001,38.54820120000002,0 -112.3644787,38.55317250000002,0 -112.3639716,38.55367260000002,0 -112.3634474,38.55437270000002,0 -112.3630682,38.55512280000002,0 -112.36287080000001,38.55574570000002,0 -112.3623362,38.558644100000016,0 -112.36185250000001,38.55993080000002,0 -112.3613424,38.56083260000002,0 -112.3607837,38.56159670000002,0 -112.35968519999999,38.56272650000002,0 -112.35898439999998,38.56328960000001,0 -112.35795789999999,38.563959300000015,0 -112.35709159999999,38.56441530000002,0 -112.35476969999999,38.56541170000002,0 -112.3541266,38.56576610000002,0 -112.3533949,38.56630650000002,0 -112.35301100000001,38.566674200000016,0 -112.35245200000001,38.567386100000014,0 -112.34899490000001,38.57340110000002,0 -112.34856070000001,38.57399930000002,0 -112.348037,38.57452770000002,0 -112.34754430000001,38.574912800000014,0 -112.34690130000001,38.575308100000015,0 -112.34630410000001,38.57558550000001,0 -112.34551650000002,38.57585660000001,0 -112.34457250000001,38.57605630000001,0 -112.34359090000001,38.576137400000015,0 -112.33977990000001,38.57614520000001,0 -112.33522730000001,38.57599850000001,0 -112.33424730000002,38.576061300000006,0 -112.33376810000001,38.57613560000001,0 -112.33273750000002,38.57640620000001,0 -112.33215870000002,38.57663170000001,0 -112.32956630000002,38.578010500000005,0 -112.32881740000002,38.57827620000001,0 -112.32812380000001,38.57844240000001,0 -112.32702470000001,38.5785642,0 -112.32644790000002,38.5785649,0 -112.32546580000002,38.5784633,0 -112.32167570000001,38.5775264,0 -112.32109180000002,38.57746000000001,0 -112.32028440000002,38.577440300000006,0 -112.31957190000001,38.57748900000001,0 -112.3041529,38.57989330000001,0 -112.30344570000001,38.5799609,0 -112.30271230000001,38.579963400000004,0 -112.30163830000001,38.5798373,0 -112.2989384,38.5791942,0 -112.29820590000001,38.5791007,0 -112.2975241,38.5790737,0 -112.2966585,38.5791235,0 -112.2940274,38.5795277,0 -112.29311720000001,38.5795315,0 -112.29045710000001,38.579147400000004,0 -112.28932580000001,38.5790517,0 -112.28406110000002,38.578968100000004,0 -112.28293370000002,38.579106200000005,0 -112.28162860000002,38.57948710000001,0 -112.280758,38.579904000000006,0 -112.27990790000001,38.58048360000001,0 -112.263383,38.59610450000001,0 -112.262275,38.59697110000001,0 -112.2613111,38.597546300000005,0 -112.2602473,38.59803060000001,0 -112.2595553,38.5982782,0 -112.23842030000002,38.60366440000001,0 -112.23758420000001,38.60396000000001,0 -112.23661410000001,38.6043973,0 -112.23571530000001,38.6049163,0 -112.23452990000001,38.6058159,0 -112.23366950000002,38.6067152,0 -112.23292390000003,38.607806700000005,0 -112.23251480000003,38.608652600000006,0 -112.21965750000003,38.640744000000005,0 -112.21890820000002,38.6420583,0 -112.21135560000002,38.6519594,0 -112.21072180000002,38.6526635,0 -112.20992280000002,38.653368300000004,0 -112.20921360000001,38.6538701,0 -112.20835720000001,38.6543647,0 -112.2010723,38.6574558,0 -112.2000445,38.657805,0 -112.1991105,38.6580369,0 -112.1977489,38.6582398,0 -112.18646050000001,38.6584559,0 -112.1841634,38.6587955,0 -112.18270650000001,38.659159499999994,0 -112.18169770000002,38.6594833,0 -112.18041420000002,38.6599921,0 -112.1793998,38.66047819999999,0 -112.1775702,38.6615858,0 -112.1761788,38.6626927,0 -112.16994030000001,38.6688574,0 -112.16535760000001,38.672402500000004,0 -112.1613476,38.6760249,0 -112.1597902,38.6778538,0 -112.1503897,38.6909136,0 -112.1482634,38.692973900000005,0 -112.1476332,38.693833700000006,0 -112.1472387,38.694545100000006,0 -112.1463739,38.696594000000005,0 -112.1460862,38.6971082,0 -112.1392068,38.7066839,0 -112.1291848,38.725979200000005,0 -112.1288521,38.7264756,0 -112.1281846,38.727269299999996,0 -112.12716179999998,38.7281862,0 -112.1263482,38.7287449,0 -112.11889049999999,38.733009100000004,0 -112.11783999999999,38.7337504,0 -112.11719049999998,38.734335800000004,0 -112.11203059999998,38.7400282,0 -112.11114119999999,38.741139600000004,0 -112.10726669999998,38.7468127,0 -112.10624429999999,38.748592800000004,0 -112.10568649999999,38.7498801,0 -112.10516,38.7517272,0 -112.1049763,38.7529129,0 -112.1049124,38.7544229,0 -112.1051742,38.7600979,0 -112.1050956,38.760839299999994,0 -112.10483389999999,38.761814799999996,0 -112.1043163,38.762952,0 -112.0999023,38.770116099999996,0 -112.0949081,38.7804132,0 -112.0945423,38.780993099999996,0 -112.090969,38.7853133,0 -112.090281,38.786002999999994,0 -112.08946390000001,38.7866903,0 -112.089369,38.7867015,0 -112.08774850000002,38.787621599999994,0 -112.08641630000002,38.788104999999995,0 </coordinates></LineString><TimeSpan><begin>2021-05-30T00:54:52.706Z</begin><end>2021-05-30T03:06:40.000Z</end></TimeSpan></Placemark><Placemark><name>Flying J Travel Center</name><address>35 E Flying J Dr, Richfield, UT 84701</address><ExtendedData><Data name="Email"><value>syugen.zhou@gmail.com</value></Data><Data name="Category"><value>Truck stop</value></Data><Data name="Distance"><value>0</value></Data></ExtendedData><description> Truck stop from 2021-05-30T03:06:40.000Z to 2021-05-30T03:13:10.000Z. Distance 0m </description><Point><coordinates>-112.08227029999999,38.7886907,0</coordinates></Point><TimeSpan><begin>2021-05-30T03:06:40.000Z</begin><end>2021-05-30T03:13:10.000Z</end></TimeSpan></Placemark><Placemark><name>Holiday Inn Express &amp; Suites Richfield, an IHG Hotel</name><address>20 W 1400 N, Richfield, UT 84701</address><ExtendedData><Data name="Email"><value>syugen.zhou@gmail.com</value></Data><Data name="Category"><value>Hotel</value></Data><Data name="Distance"><value>0</value></Data></ExtendedData><description> Hotel from 2021-05-30T03:13:10.000Z to 2021-05-30T17:16:50.247Z. Distance 0m </description><Point><coordinates>-112.08610589999999,38.787761499999995,0</coordinates></Point><TimeSpan><begin>2021-05-30T03:13:10.000Z</begin><end>2021-05-30T17:16:50.247Z</end></TimeSpan></Placemark></Document></kml>
