<?xml version="1.0" encoding="UTF-8"?><kml xmlns="http://www.opengis.net/kml/2.2" xmlns:gx="http://www.google.com/kml/ext/2.2"><Document><name> Location history from 2021-06-01 to 2021-06-01 </name><open>1</open><description></description><StyleMap id="multiTrack"><Pair><key>normal</key><styleUrl>#multiTrack_n</styleUrl></Pair><Pair><key>highlight</key><styleUrl>#multiTrack_h</styleUrl></Pair></StyleMap><Style id="multiTrack_n"><IconStyle><Icon><href>https://earth.google.com/images/kml-icons/track-directional/track-0.png</href></Icon></IconStyle><LineStyle><color>99ffac59</color><width>6</width></LineStyle></Style><Style id="multiTrack_h"><IconStyle><scale>1.2</scale><Icon><href>https://earth.google.com/images/kml-icons/track-directional/track-0.png</href></Icon></IconStyle><LineStyle><color>99ffac59</color><width>8</width></LineStyle></Style><Placemark><name>Zion Park Motel</name><address>865 Zion Park Blvd, Springdale, UT 84767</address><ExtendedData><Data name="Email"><value>syugen.zhou@gmail.com</value></Data><Data name="Category"><value>Motel</value></Data><Data name="Distance"><value>0</value></Data></ExtendedData><description> Motel from 2021-05-31T23:52:04.999Z to 2021-06-01T14:36:47.214Z. Distance 0m </description><Point><coordinates>-112.9983749,37.1888145,0</coordinates></Point><TimeSpan><begin>2021-05-31T23:52:04.999Z</begin><end>2021-06-01T14:36:47.214Z</end></TimeSpan></Placemark><Placemark><name>Driving</name><address></address><ExtendedData><Data name="Email"><value>syugen.zhou@gmail.com</value></Data><Data name="Category"><value>Driving</value></Data><Data name="Distance"><value>2783</value></Data></ExtendedData><description> Driving from 2021-06-01T14:36:47.214Z to 2021-06-01T15:32:09.839Z. Distance 2783m </description><LineString><altitudeMode>clampToGround</altitudeMode><extrude>1</extrude><tesselate>1</tesselate><coordinates>-112.9984447,37.188701099999996,0 -112.9985872,37.1889293,0 -112.9985872,37.1889293,0 -112.9979822,37.189026,0 -112.9974489,37.189108,0 -112.9971854,37.1891533,0 -112.9969101,37.1892127,0 -112.9967056,37.1892704,0 -112.9965155,37.1893332,0 -112.99637740000001,37.1893862,0 -112.99612260000002,37.189507500000005,0 -112.99609310000001,37.1895215,0 -112.9959436,37.1896016,0 -112.9959348,37.189607200000005,0 -112.99579680000001,37.1896955,0 -112.99576220000002,37.18972290000001,0 -112.995602,37.1898497,0 -112.99558730000001,37.1898613,0 -112.9954957,37.1899396,0 -112.995451,37.1899832,0 -112.9953081,37.1901225,0 -112.99500409999999,37.190476600000004,0 -112.9949969,37.190486,0 -112.99473239999999,37.1907994,0 -112.9946896,37.190850100000006,0 -112.99448009999999,37.1910917,0 -112.9940132,37.1916613,0 -112.99387839999999,37.191844100000004,0 -112.99387829999999,37.1918442,0 -112.9938083,37.1919557,0 -112.99373159999999,37.1920887,0 -112.99369569999999,37.1921701,0 -112.9936037,37.1924009,0 -112.9935125,37.1926771,0 -112.9935048,37.1926997,0 -112.99342809999999,37.19302,0 -112.99338399999999,37.193174199999994,0 -112.9932867,37.1935906,0 -112.9932593,37.193720899999995,0 -112.9932515,37.193751799999994,0 -112.9932173,37.193886299999996,0 -112.9932173,37.193886299999996,0 -112.99383429999999,37.19393729999999,0 -112.99407169999999,37.19395689999999,0 -112.99447509999999,37.19398739999999,0 -112.99580529999999,37.19404739999999,0 </coordinates></LineString><TimeSpan><begin>2021-06-01T14:36:47.214Z</begin><end>2021-06-01T15:32:09.839Z</end></TimeSpan></Placemark><Placemark><name>Zion National Park Visitor Center</name><address>Zion National Park, 1 Zion Park Blvd, Springdale, UT 84767</address><ExtendedData><Data name="Email"><value>syugen.zhou@gmail.com</value></Data><Data name="Category"><value>Visitor center</value></Data><Data name="Distance"><value>0</value></Data></ExtendedData><description> Visitor center from 2021-06-01T15:32:09.839Z to 2021-06-01T15:58:46.388Z. Distance 0m </description><Point><coordinates>-112.9870419,37.200165,0</coordinates></Point><TimeSpan><begin>2021-06-01T15:32:09.839Z</begin><end>2021-06-01T15:58:46.388Z</end></TimeSpan></Placemark><Placemark><name>Driving</name><address></address><ExtendedData><Data name="Email"><value>syugen.zhou@gmail.com</value></Data><Data name="Category"><value>Driving</value></Data><Data name="Distance"><value>6509</value></Data></ExtendedData><description> Driving from 2021-06-01T15:58:46.388Z to 2021-06-01T16:17:48.000Z. Distance 6509m </description><LineString><altitudeMode>clampToGround</altitudeMode><extrude>1</extrude><tesselate>1</tesselate><coordinates>-112.9867713,37.2007483,0 -112.9867777,37.2011197,0 -112.9867636,37.2011458,0 -112.98671430000002,37.2011669,0 -112.98668270000002,37.2011672,0 -112.98662680000002,37.2011381,0 -112.98651100000002,37.200932300000005,0 -112.9864756,37.2006597,0 -112.98641560000002,37.2006029,0 -112.98635230000002,37.200569800000004,0 -112.98612190000001,37.2006524,0 -112.98679370000002,37.2017943,0 -112.98703720000002,37.20206830000001,0 -112.98745470000001,37.202365300000004,0 -112.98749570000001,37.2026573,0 -112.98748330000001,37.2029769,0 -112.9868318,37.203494,0 -112.9865977,37.2036306,0 -112.98516860000001,37.2041732,0 -112.98465560000001,37.204493299999996,0 -112.9843924,37.2047069,0 -112.9840772,37.2050328,0 -112.9834847,37.2060324,0 -112.98304830000001,37.206553299999996,0 -112.9827044,37.2068158,0 -112.9824855,37.2069413,0 -112.9820035,37.2071381,0 -112.9807159,37.2074401,0 -112.9804656,37.2075303,0 -112.9800762,37.2077264,0 -112.9798359,37.207894800000005,0 -112.9794623,37.208284500000005,0 -112.97936109999999,37.208443,0 -112.9791877,37.2088841,0 -112.9790466,37.2101011,0 -112.9788727,37.21064090000001,0 -112.9782417,37.2118034,0 -112.97725220000001,37.2146776,0 -112.9766824,37.215959999999995,0 -112.9759615,37.2172858,0 -112.97578519999999,37.2174805,0 -112.97565789999999,37.2175642,0 -112.9755302,37.2176029,0 -112.97539129999998,37.217611700000006,0 -112.97393469999999,37.2174671,0 -112.9741093,37.2180097,0 -112.9735721,37.2189612,0 -112.97348299999999,37.219219700000004,0 -112.97346249999998,37.2194749,0 -112.97362269999999,37.2202527,0 -112.97359279999998,37.2204149,0 -112.97352079999997,37.2205536,0 -112.97333119999998,37.22074440000001,0 -112.97317239999998,37.22084160000001,0 -112.97276039999998,37.22100880000001,0 -112.97172509999999,37.221305300000004,0 -112.97149179999998,37.22141150000001,0 -112.97136099999999,37.22149620000001,0 -112.97114899999998,37.22168030000001,0 -112.97078369999998,37.22213060000001,0 -112.96947819999998,37.22335460000001,0 -112.96910169999998,37.22379110000001,0 -112.96767929999999,37.22578340000001,0 -112.96716489999999,37.226806700000004,0 -112.96681029999998,37.22767040000001,0 -112.96670609999998,37.22778840000001,0 -112.96659729999998,37.227867200000006,0 -112.96606789999998,37.228128700000006,0 -112.96564369999997,37.22848690000001,0 -112.96520309999998,37.2287942,0 -112.96495239999999,37.22891930000001,0 -112.96418959999998,37.229221200000005,0 -112.96382369999998,37.22939900000001,0 -112.96323219999998,37.22974590000001,0 -112.96309689999998,37.229881000000006,0 -112.96302389999998,37.23004190000001,0 -112.96301219999998,37.23023250000001,0 -112.96313249999997,37.23107230000001,0 -112.96312799999997,37.23123970000001,0 -112.96307879999998,37.231472200000006,0 -112.96258819999997,37.23244980000001,0 -112.96254629999997,37.23265550000001,0 -112.96257269999997,37.233152200000006,0 -112.96255399999997,37.23331140000001,0 -112.96247469999997,37.23353460000001,0 -112.96238909999997,37.233666200000016,0 -112.96149259999997,37.234628700000016,0 -112.96131109999996,37.234940000000016,0 -112.96118429999997,37.23528250000002,0 -112.96114179999996,37.23551490000001,0 -112.96110839999997,37.23612400000002,0 -112.96102799999997,37.23646870000002,0 -112.96087179999996,37.23683090000002,0 -112.95719019999996,37.242155500000024,0 -112.95703079999997,37.24246470000003,0 -112.95691659999997,37.24277060000002,0 -112.95682579999998,37.24320040000002,0 -112.95679979999997,37.24377120000002,0 -112.95798059999997,37.25129380000002,0 -112.95795529999997,37.25146500000002,0 </coordinates></LineString><TimeSpan><begin>2021-06-01T15:58:46.388Z</begin><end>2021-06-01T16:17:48.000Z</end></TimeSpan></Placemark><Placemark><name>Zion National Park Lodge</name><address>1 Zion lodge, Springdale, UT 84767</address><ExtendedData><Data name="Email"><value>syugen.zhou@gmail.com</value></Data><Data name="Category"><value>Lodge</value></Data><Data name="Distance"><value>0</value></Data></ExtendedData><description> Lodge from 2021-06-01T16:17:48.000Z to 2021-06-01T16:36:34.000Z. Distance 0m </description><Point><coordinates>-112.9564297,37.2501554,0</coordinates></Point><TimeSpan><begin>2021-06-01T16:17:48.000Z</begin><end>2021-06-01T16:36:34.000Z</end></TimeSpan></Placemark><Placemark><name>Driving</name><address></address><ExtendedData><Data name="Email"><value>syugen.zhou@gmail.com</value></Data><Data name="Category"><value>Driving</value></Data><Data name="Distance"><value>4526</value></Data></ExtendedData><description> Driving from 2021-06-01T16:36:34.544Z to 2021-06-01T16:57:41.000Z. Distance 4526m </description><LineString><altitudeMode>clampToGround</altitudeMode><extrude>1</extrude><tesselate>1</tesselate><coordinates>-112.9570241,37.250493899999995,0 -112.9570907,37.250437299999994,0 -112.95719869999999,37.2503908,0 -112.9578387,37.250335199999995,0 -112.9579806,37.2512938,0 -112.9579571,37.2514595,0 -112.95783479999999,37.2517423,0 -112.95771099999999,37.251904499999995,0 -112.95544209999998,37.2537417,0 -112.95465709999999,37.2545721,0 -112.95406659999999,37.25548979999999,0 -112.9531453,37.257631399999994,0 -112.95296069999999,37.25792569999999,0 -112.95242869999998,37.25850189999999,0 -112.95171019999998,37.259017199999995,0 -112.95128239999998,37.25921259999999,0 -112.94954939999998,37.25969299999999,0 -112.94939819999999,37.25975489999999,0 -112.94903539999999,37.25997339999999,0 -112.94870119999999,37.26027689999999,0 -112.94852539999998,37.26054649999999,0 -112.94842999999999,37.26078089999999,0 -112.94838279999998,37.26100369999999,0 -112.94838599999997,37.26116389999999,0 -112.94875339999999,37.26279969999999,0 -112.94875909999999,37.26295849999998,0 -112.94870599999999,37.26322729999998,0 -112.94797719999998,37.26435399999998,0 -112.94777879999998,37.26458969999998,0 -112.94755009999999,37.26479119999998,0 -112.94736969999998,37.26490499999998,0 -112.94710459999999,37.26502559999997,0 -112.94688629999997,37.265092599999974,0 -112.94616379999998,37.265212499999976,0 -112.94590479999998,37.26528539999997,0 -112.94557439999998,37.265454999999974,0 -112.94531129999999,37.26573009999997,0 -112.94442369999999,37.26757619999997,0 -112.94420629999999,37.267847399999965,0 -112.94381999999999,37.268103399999966,0 -112.9436114,37.26820279999997,0 -112.943013,37.26837749999997,0 -112.94211739999999,37.26852429999997,0 -112.94168149999999,37.26865629999997,0 -112.94114539999998,37.26891119999997,0 -112.94058319999998,37.269293899999965,0 -112.94012069999998,37.26974169999997,0 -112.93995469999999,37.26999529999997,0 -112.93936999999998,37.27115559999997,0 -112.93928869999999,37.27147639999997,0 -112.93928279999999,37.27184269999997,0 -112.93933429999998,37.27210529999997,0 -112.939514,37.272553799999976,0 -112.93981609999999,37.272939799999975,0 -112.9400479,37.27313409999997,0 -112.9410437,37.27365529999997,0 -112.9416842,37.273879299999976,0 -112.9424915,37.274000899999976,0 -112.94308050000001,37.27398049999997,0 -112.9434613,37.27392449999997,0 -112.9439149,37.273792299999975,0 -112.9445916,37.27340939999997,0 -112.9458914,37.273053499999975,0 -112.9462513,37.27305699999997,0 -112.94635760000001,37.273093099999976,0 -112.946527,37.27321449999997,0 -112.94660850000001,37.273344099999974,0 -112.94666520000001,37.27459939999997,0 -112.94649910000001,37.275321499999976,0 -112.94644840000001,37.27634309999998,0 -112.9463724,37.27652269999997,0 -112.94624310000002,37.27669189999998,0 -112.94490130000001,37.27790119999998,0 -112.94474180000002,37.27815729999998,0 -112.94453060000001,37.27877019999998,0 -112.9445604,37.279964499999984,0 -112.9446641,37.28022539999998,0 -112.944867,37.28047699999998,0 -112.9455444,37.281077699999976,0 -112.9467449,37.28167379999998,0 -112.9469332,37.28181349999998,0 -112.9470439,37.28195079999998,0 -112.9470938,37.28210129999998,0 -112.94709590000001,37.28224549999997,0 -112.94703600000001,37.28241129999998,0 -112.9468856,37.282573399999976,0 -112.94671430000001,37.28266499999997,0 -112.9457507,37.28286289999998,0 -112.9456035,37.28294059999998,0 -112.94486400000001,37.28354079999998,0 -112.94470210000001,37.28373779999998,0 -112.94458080000001,37.28399369999999,0 -112.94455420000001,37.28415479999999,0 -112.94457080000001,37.28431879999999,0 -112.94476770000001,37.284761899999985,0 -112.94485970000001,37.284828799999985,0 -112.94500780000001,37.284871399999986,0 -112.9455899,37.28486799999999,0 -112.9464004,37.284934199999995,0 -112.947598,37.28515189999999,0 </coordinates></LineString><TimeSpan><begin>2021-06-01T16:36:34.544Z</begin><end>2021-06-01T16:57:41.000Z</end></TimeSpan></Placemark><Placemark><name>Riverside Walk Trailhead</name><address>Riverside Walk, Springdale, UT 84767</address><ExtendedData><Data name="Email"><value>syugen.zhou@gmail.com</value></Data><Data name="Category"><value>Hiking area</value></Data><Data name="Distance"><value>0</value></Data></ExtendedData><description> Hiking area from 2021-06-01T16:57:41.000Z to 2021-06-01T17:00:41.000Z. Distance 0m </description><Point><coordinates>-112.947721,37.2852144,0</coordinates></Point><TimeSpan><begin>2021-06-01T16:57:41.000Z</begin><end>2021-06-01T17:00:41.000Z</end></TimeSpan></Placemark><Placemark><name>Walking</name><address></address><ExtendedData><Data name="Email"><value>syugen.zhou@gmail.com</value></Data><Data name="Category"><value>Walking</value></Data><Data name="Distance"><value>1595</value></Data></ExtendedData><description> Walking from 2021-06-01T17:00:41.000Z to 2021-06-01T17:44:26.000Z. Distance 1595m </description><LineString><altitudeMode>clampToGround</altitudeMode><extrude>1</extrude><tesselate>1</tesselate><coordinates>-112.94770199999999,37.285230299999995,0 -112.94806299999999,37.2855081,0 -112.948342,37.2856981,0 -112.94859679999999,37.2858944,0 -112.94879789999999,37.2861323,0 -112.9488234,37.2863009,0 -112.9487604,37.2866488,0 -112.9485619,37.2868355,0 -112.9484157,37.2869091,0 -112.9483151,37.28703180000001,0 -112.9481971,37.28714170000001,0 -112.94767010000001,37.28753650000001,0 -112.9474984,37.287612300000006,0 -112.9473147,37.28766350000001,0 -112.94722480000001,37.28773920000001,0 -112.9471309,37.28785130000001,0 -112.9470478,37.28810630000001,0 -112.94699550000001,37.2881884,0 -112.9469365,37.28827270000001,0 -112.94688420000001,37.288383700000004,0 -112.94684930000001,37.2885672,0 -112.94686000000002,37.288779500000004,0 -112.94687350000001,37.288918200000005,0 -112.9469258,37.2890207,0 -112.94700350000001,37.289135900000005,0 -112.947021,37.289262900000004,0 -112.947084,37.289371700000004,0 -112.94727040000001,37.289740900000005,0 -112.94740990000001,37.29011640000001,0 -112.94742060000002,37.29030960000001,0 -112.94738310000001,37.29047920000001,0 -112.94738840000002,37.290617900000015,0 -112.94732410000002,37.29078220000001,0 -112.9473871,37.29088140000001,0 -112.9473777,37.29095510000001,0 -112.9473643,37.29102650000001,0 -112.94740589999999,37.291099100000004,0 -112.9473697,37.291136400000006,0 -112.947304,37.29117800000001,0 -112.9472704,37.29123570000001,0 -112.94719529999999,37.291265500000016,0 -112.94709209999999,37.29126020000001,0 -112.9470263,37.29133280000001,0 -112.9469754,37.29143410000001,0 -112.9469445,37.29158350000001,0 -112.9468949,37.29169870000001,0 -112.94690969999999,37.29178730000001,0 -112.9468426,37.29186090000001,0 -112.94676480000001,37.292002800000006,0 -112.94667770000001,37.292121200000004,0 -112.94664010000001,37.2922172,0 -112.9465704,37.29226630000001,0 -112.94653149999999,37.292347400000004,0 -112.94651809999999,37.2924541,0 -112.9465087,37.2925747,0 -112.94653419999999,37.2926493,0 -112.94654089999999,37.2927336,0 -112.94663609999999,37.2929278,0 -112.94685739999998,37.293252100000004,0 -112.94698609999999,37.29335030000001,0 -112.94720869999999,37.2934762,0 -112.94727579999999,37.293574400000004,0 -112.94735089999999,37.2936245,0 -112.94761779999999,37.293712000000006,0 -112.94817569999998,37.29391150000001,0 -112.94829499999999,37.293978700000004,0 -112.94841569999998,37.294038500000006,0 -112.9484452,37.2941238,0 -112.94841039999999,37.2942124,0 -112.9484184,37.2942977,0 -112.94839019999999,37.294374499999996,0 -112.94837419999999,37.2945079,0 -112.9483983,37.2945922,0 -112.94835269999999,37.2947992,0 -112.94832989999999,37.2950253,0 -112.94823069999998,37.2951149,0 -112.94816489999998,37.2952024,0 -112.94817429999999,37.29527600000001,0 -112.94810189999998,37.2955428,0 -112.94806169999998,37.2956014,0 -112.94802139999999,37.295642,0 -112.94797179999999,37.29568570000001,0 -112.94796649999998,37.29575080000001,0 -112.94803889999999,37.295812700000006,0 -112.94809249999999,37.295895900000005,0 -112.94804829999998,37.2959567,0 -112.94799459999997,37.2960165,0 -112.94802279999999,37.296105000000004,0 -112.94806839999998,37.296185,0 -112.94809789999998,37.2962864,0 -112.94810589999999,37.296409100000005,0 -112.9481287,37.29646670000001,0 -112.9482508,37.29658190000001,0 -112.9482589,37.29663210000001,0 -112.9481864,37.29703210000001,0 -112.94792890000001,37.297339400000006,0 -112.9474783,37.29764660000001,0 -112.94694190000001,37.2979539,0 -112.9463625,37.29809040000001,0 -112.9457381,37.2982181,0 </coordinates></LineString><TimeSpan><begin>2021-06-01T17:00:41.000Z</begin><end>2021-06-01T17:44:26.000Z</end></TimeSpan></Placemark><Placemark><name>The Narrows</name><address>Dropped pin</address><ExtendedData><Data name="Email"><value>syugen.zhou@gmail.com</value></Data><Data name="Category"><value></value></Data><Data name="Distance"><value>0</value></Data></ExtendedData><description>  from 2021-06-01T17:44:26.000Z to 2021-06-01T17:47:26.000Z. Distance 0m </description><Point><coordinates>-112.9457493,37.2982514,0</coordinates></Point><TimeSpan><begin>2021-06-01T17:44:26.000Z</begin><end>2021-06-01T17:47:26.000Z</end></TimeSpan></Placemark><Placemark><name>Walking</name><address></address><ExtendedData><Data name="Email"><value>syugen.zhou@gmail.com</value></Data><Data name="Category"><value>Walking</value></Data><Data name="Distance"><value>1599</value></Data></ExtendedData><description> Walking from 2021-06-01T17:47:26.000Z to 2021-06-01T18:44:54.000Z. Distance 1599m </description><LineString><altitudeMode>clampToGround</altitudeMode><extrude>1</extrude><tesselate>1</tesselate><coordinates>-112.9457381,37.2982181,0 -112.9463625,37.29809040000001,0 -112.94694190000001,37.2979539,0 -112.9474783,37.29764660000001,0 -112.94792890000001,37.297339400000006,0 -112.9481864,37.29703210000001,0 -112.9482589,37.29663210000001,0 -112.9482508,37.29658190000001,0 -112.9481287,37.29646670000001,0 -112.94810589999999,37.296409100000005,0 -112.94809789999998,37.2962864,0 -112.94806839999998,37.296185,0 -112.94802279999999,37.296105000000004,0 -112.94799459999997,37.2960165,0 -112.94804829999998,37.2959567,0 -112.94809249999999,37.295895900000005,0 -112.94803889999999,37.295812700000006,0 -112.94796649999998,37.29575080000001,0 -112.94797179999999,37.29568570000001,0 -112.94802139999999,37.295642,0 -112.94806169999998,37.2956014,0 -112.94810189999998,37.2955428,0 -112.94817429999999,37.29527600000001,0 -112.94816489999998,37.2952024,0 -112.94823069999998,37.2951149,0 -112.94832989999999,37.2950253,0 -112.94835269999999,37.2947992,0 -112.9483983,37.2945922,0 -112.94837419999999,37.2945079,0 -112.94839019999999,37.294374499999996,0 -112.9484184,37.2942977,0 -112.94841039999999,37.2942124,0 -112.9484452,37.2941238,0 -112.94841569999998,37.294038500000006,0 -112.94829499999999,37.293978700000004,0 -112.94817569999998,37.29391150000001,0 -112.94761779999999,37.293712000000006,0 -112.94735089999999,37.2936245,0 -112.94727579999999,37.293574400000004,0 -112.94720869999999,37.2934762,0 -112.94698609999999,37.29335030000001,0 -112.94685739999998,37.293252100000004,0 -112.94663609999999,37.2929278,0 -112.94654089999999,37.2927336,0 -112.94653419999999,37.2926493,0 -112.9465087,37.2925747,0 -112.94651809999999,37.2924541,0 -112.94653149999999,37.292347400000004,0 -112.9465704,37.29226630000001,0 -112.94664010000001,37.2922172,0 -112.94667770000001,37.292121200000004,0 -112.94676480000001,37.292002800000006,0 -112.9468426,37.29186090000001,0 -112.94690969999999,37.29178730000001,0 -112.9468949,37.29169870000001,0 -112.9469445,37.29158350000001,0 -112.9469754,37.29143410000001,0 -112.9470263,37.29133280000001,0 -112.94709209999999,37.29126020000001,0 -112.94719529999999,37.291265500000016,0 -112.9472704,37.29123570000001,0 -112.947304,37.29117800000001,0 -112.9473697,37.291136400000006,0 -112.94740589999999,37.291099100000004,0 -112.9473643,37.29102650000001,0 -112.9473777,37.29095510000001,0 -112.9473871,37.29088140000001,0 -112.94732410000002,37.29078220000001,0 -112.94738840000002,37.290617900000015,0 -112.94738310000001,37.29047920000001,0 -112.94742060000002,37.29030960000001,0 -112.94740990000001,37.29011640000001,0 -112.94727040000001,37.289740900000005,0 -112.947084,37.289371700000004,0 -112.947021,37.289262900000004,0 -112.94700350000001,37.289135900000005,0 -112.9469258,37.2890207,0 -112.94687350000001,37.288918200000005,0 -112.94686000000002,37.288779500000004,0 -112.94684930000001,37.2885672,0 -112.94688420000001,37.288383700000004,0 -112.9469365,37.28827270000001,0 -112.94699550000001,37.2881884,0 -112.9470478,37.28810630000001,0 -112.9471309,37.28785130000001,0 -112.94722480000001,37.28773920000001,0 -112.9473147,37.28766350000001,0 -112.9474984,37.287612300000006,0 -112.94767010000001,37.28753650000001,0 -112.9481971,37.28714170000001,0 -112.9483151,37.28703180000001,0 -112.9484157,37.2869091,0 -112.9485619,37.2868355,0 -112.9487604,37.2866488,0 -112.9488234,37.2863009,0 -112.94879789999999,37.2861323,0 -112.94859679999999,37.2858944,0 -112.948342,37.2856981,0 -112.94806299999999,37.2855081,0 -112.94770199999999,37.285230299999995,0 </coordinates></LineString><TimeSpan><begin>2021-06-01T17:47:26.000Z</begin><end>2021-06-01T18:44:54.000Z</end></TimeSpan></Placemark><Placemark><name>Riverside Walk Trailhead</name><address>Riverside Walk, Springdale, UT 84767</address><ExtendedData><Data name="Email"><value>syugen.zhou@gmail.com</value></Data><Data name="Category"><value>Hiking area</value></Data><Data name="Distance"><value>0</value></Data></ExtendedData><description> Hiking area from 2021-06-01T18:44:54.000Z to 2021-06-01T18:47:54.000Z. Distance 0m </description><Point><coordinates>-112.947721,37.2852144,0</coordinates></Point><TimeSpan><begin>2021-06-01T18:44:54.000Z</begin><end>2021-06-01T18:47:54.000Z</end></TimeSpan></Placemark><Placemark><name>Driving</name><address></address><ExtendedData><Data name="Email"><value>syugen.zhou@gmail.com</value></Data><Data name="Category"><value>Driving</value></Data><Data name="Distance"><value>18371</value></Data></ExtendedData><description> Driving from 2021-06-01T18:47:54.000Z to 2021-06-01T20:28:36.000Z. Distance 18371m </description><LineString><altitudeMode>clampToGround</altitudeMode><extrude>1</extrude><tesselate>1</tesselate><coordinates>-112.947598,37.285151899999995,0 -112.9478503,37.28515039999999,0 -112.9478943,37.2851257,0 -112.9479355,37.285059000000004,0 -112.947938,37.2849996,0 -112.9479172,37.284940999999996,0 -112.9478544,37.2848862,0 -112.9478035,37.2848682,0 -112.9474472,37.2848347,0 -112.9464004,37.284934199999995,0 -112.9455899,37.284867999999996,0 -112.94500780000001,37.28487139999999,0 -112.94485970000001,37.28482879999999,0 -112.94476770000001,37.28476189999999,0 -112.94457080000001,37.284318799999994,0 -112.94455420000001,37.284154799999996,0 -112.94458080000001,37.283993699999996,0 -112.94470210000001,37.28373779999999,0 -112.94486400000001,37.28354079999999,0 -112.9456035,37.28294059999999,0 -112.9457507,37.282862899999984,0 -112.94671430000001,37.28266499999998,0 -112.9468856,37.28257339999998,0 -112.94703600000001,37.28241129999998,0 -112.94709590000001,37.28224549999998,0 -112.9470938,37.28210129999999,0 -112.9470439,37.28195079999998,0 -112.9469332,37.281813499999984,0 -112.9467449,37.281673799999986,0 -112.9455444,37.28107769999998,0 -112.944867,37.28047699999999,0 -112.9446641,37.280225399999985,0 -112.9445604,37.27996449999999,0 -112.94453060000001,37.27877019999999,0 -112.94474180000002,37.27815729999999,0 -112.94490130000001,37.27790119999999,0 -112.94624310000002,37.27669189999998,0 -112.9463724,37.27652269999998,0 -112.94644840000001,37.276343099999984,0 -112.94649910000001,37.27532149999998,0 -112.94666520000001,37.27459939999998,0 -112.94660850000001,37.27334409999998,0 -112.946527,37.27321449999998,0 -112.94635760000001,37.27309309999998,0 -112.9462513,37.27305699999998,0 -112.9458914,37.273053499999975,0 -112.9445916,37.27340939999998,0 -112.9439149,37.273792299999975,0 -112.9434613,37.27392449999998,0 -112.94308050000001,37.27398049999998,0 -112.9424915,37.27400089999998,0 -112.9416842,37.273879299999976,0 -112.9410437,37.27365529999998,0 -112.9400479,37.27313409999998,0 -112.93981609999999,37.27293979999998,0 -112.939514,37.27255379999998,0 -112.93933429999998,37.27210529999998,0 -112.93928279999999,37.27184269999998,0 -112.93928869999999,37.271476399999976,0 -112.93936999999998,37.27115559999998,0 -112.94012069999998,37.269741699999976,0 -112.94058319999998,37.26929389999997,0 -112.94114539999998,37.26891119999998,0 -112.94168149999999,37.268656299999975,0 -112.94211739999999,37.268524299999974,0 -112.943013,37.26837749999997,0 -112.9436114,37.268202799999976,0 -112.94381999999999,37.26810339999997,0 -112.94420629999999,37.26784739999997,0 -112.94442369999999,37.26757619999997,0 -112.94531129999999,37.26573009999998,0 -112.94557439999998,37.265454999999974,0 -112.94590479999998,37.265285399999975,0 -112.94616379999998,37.265212499999976,0 -112.94688629999997,37.26509259999998,0 -112.94710459999999,37.26502559999998,0 -112.94755009999999,37.26479119999998,0 -112.94777879999998,37.26458969999998,0 -112.94797719999998,37.26435399999998,0 -112.94870599999999,37.26322729999998,0 -112.94875909999999,37.26295849999998,0 -112.94875339999999,37.26279969999999,0 -112.94838599999997,37.26116389999999,0 -112.94838279999998,37.26100369999999,0 -112.94842999999999,37.26078089999999,0 -112.94852539999998,37.26054649999999,0 -112.94870119999999,37.26027689999999,0 -112.94903539999999,37.25997339999999,0 -112.94939819999999,37.25975489999999,0 -112.94954939999998,37.25969299999999,0 -112.95128239999998,37.25921259999999,0 -112.95171019999998,37.259017199999995,0 -112.95242869999998,37.25850189999999,0 -112.95296069999999,37.25792569999999,0 -112.9531453,37.257631399999994,0 -112.95406659999999,37.25548979999999,0 -112.95465709999999,37.2545721,0 -112.95544209999998,37.2537417,0 -112.95771099999999,37.251904499999995,0 -112.95783479999999,37.2517423,0 -112.9579571,37.2514595,0 -112.9579806,37.2512938,0 -112.9567998,37.243771200000005,0 -112.95682579999999,37.243200400000006,0 -112.95691659999999,37.24277060000001,0 -112.95719019999999,37.2421555,0 -112.96087179999999,37.2368309,0 -112.96102799999998,37.2364687,0 -112.96110839999999,37.236124,0 -112.96118429999999,37.2352825,0 -112.96131109999999,37.234939999999995,0 -112.96149259999999,37.234628699999995,0 -112.96238909999998,37.233666199999995,0 -112.96247469999999,37.23353459999999,0 -112.962554,37.23331139999999,0 -112.9625463,37.23265549999999,0 -112.9625882,37.23244979999999,0 -112.9630788,37.23147219999999,0 -112.9631325,37.23107229999999,0 -112.96301220000001,37.23023249999999,0 -112.96302390000001,37.23004189999999,0 -112.96309690000001,37.229880999999985,0 -112.96323220000001,37.22974589999999,0 -112.96418960000001,37.22922119999999,0 -112.96520310000001,37.22879419999998,0 -112.96606790000001,37.228128699999985,0 -112.9665973,37.22786719999999,0 -112.96670610000001,37.227788399999994,0 -112.9668103,37.22767039999999,0 -112.96767930000001,37.22578339999999,0 -112.96910170000001,37.223791099999985,0 -112.96947820000001,37.223354599999986,0 -112.97078370000001,37.222130599999986,0 -112.97114900000001,37.22168029999999,0 -112.97149180000001,37.22141149999999,0 -112.97172510000001,37.22130529999999,0 -112.97276040000001,37.221008799999986,0 -112.97317240000001,37.220841599999986,0 -112.9733312,37.22074439999999,0 -112.9735208,37.22055359999999,0 -112.9735928,37.22041489999998,0 -112.97362270000002,37.22025269999998,0 -112.97346250000001,37.21947489999998,0 -112.97348300000002,37.21921969999998,0 -112.97357210000003,37.21896119999998,0 -112.97442660000002,37.21752199999999,0 -112.97539130000003,37.217611699999985,0 -112.97553020000002,37.21760289999998,0 -112.97565790000003,37.217564199999984,0 -112.97578520000003,37.21748049999998,0 -112.97596150000003,37.21728579999998,0 -112.97668240000003,37.21595999999998,0 -112.97725220000004,37.21467759999998,0 -112.97824170000004,37.21180339999999,0 -112.97887270000004,37.21064089999999,0 -112.97904660000005,37.21010109999998,0 -112.97918770000004,37.208884099999985,0 -112.97936110000003,37.20844299999998,0 -112.97946230000004,37.20828449999998,0 -112.97983590000004,37.207894799999984,0 -112.98007620000004,37.207726399999984,0 -112.98046560000004,37.20753029999998,0 -112.98071590000004,37.20744009999998,0 -112.98200350000005,37.20713809999998,0 -112.98248550000004,37.206941299999976,0 -112.98270440000005,37.20681579999998,0 -112.98304830000005,37.206553299999975,0 -112.98348470000005,37.20603239999998,0 -112.98407720000004,37.20503279999998,0 -112.98439240000003,37.20470689999998,0 -112.98465560000004,37.204493299999974,0 -112.98516860000005,37.20417319999998,0 -112.98659770000005,37.203630599999975,0 -112.98683180000005,37.20349399999998,0 -112.98744350000004,37.203019099999985,0 -112.98784440000004,37.20262429999998,0 -112.98797770000003,37.202577599999984,0 -112.98811970000004,37.20249749999998,0 -112.98858960000004,37.20199569999998,0 -112.98865470000004,37.201759999999986,0 -112.98869170000005,37.20126459999998,0 -112.98886240000004,37.20088069999998,0 -112.98904700000004,37.20063829999998,0 -112.98938200000005,37.20037089999998,0 -112.99003160000004,37.20002909999998,0 -112.99021380000005,37.199870699999984,0 -112.99267810000005,37.19622709999998,0 -112.99350480000004,37.19269969999998,0 -112.99373160000005,37.19208869999998,0 -112.99387830000005,37.19184419999998,0 -112.99530810000005,37.19012249999998,0 -112.99579680000005,37.18969549999998,0 -112.99637740000004,37.18938619999997,0 -112.99670560000004,37.18927039999998,0 -112.99718540000003,37.18915329999997,0 -113.00003760000004,37.188694499999976,0 -113.00035090000003,37.189916699999976,0 -113.00039170000004,37.190750799999975,0 -113.00035860000004,37.19084969999997,0 -113.00013750000004,37.190948299999974,0 -112.99994460000003,37.19098359999997,0 -112.99961370000004,37.19111399999997,0 -112.99948490000003,37.19113449999997,0 -112.99935650000003,37.19007619999997,0 -112.99912020000004,37.18971329999997,0 -112.99899490000003,37.189431999999975,0 -112.99858720000003,37.18892929999998,0 -112.99718540000002,37.18915329999998,0 -112.99637740000003,37.18938619999998,0 -112.99579680000002,37.18969549999998,0 -112.99530810000002,37.19012249999999,0 -112.99387830000002,37.191844199999984,0 -112.99373160000002,37.192088699999985,0 -112.99350480000001,37.192699699999984,0 -112.99267810000002,37.19622709999999,0 -112.99021380000002,37.19987069999999,0 -112.99003160000001,37.20002909999999,0 -112.98938200000002,37.20037089999999,0 -112.98904700000001,37.20063829999999,0 -112.98886240000002,37.200880699999985,0 -112.98820540000001,37.20218529999998,0 -112.98784440000001,37.20262429999998,0 -112.98744350000001,37.203019099999985,0 -112.98683180000002,37.20349399999998,0 -112.98659770000002,37.203630599999975,0 -112.98516860000002,37.20417319999998,0 -112.98465560000001,37.204493299999974,0 -112.98439240000002,37.20470689999998,0 -112.98407720000002,37.20503279999998,0 -112.98348470000002,37.20603239999998,0 -112.98304830000002,37.206553299999975,0 -112.98270440000002,37.20681579999998,0 -112.98248550000001,37.206941299999976,0 -112.98200350000002,37.20713809999998,0 -112.98071590000002,37.20744009999998,0 -112.98046560000002,37.20753029999998,0 -112.98007620000001,37.207726399999984,0 -112.97983590000001,37.207894799999984,0 -112.97946230000001,37.20828449999998,0 -112.9793611,37.20844299999998,0 -112.97918770000001,37.208884099999985,0 -112.97904660000002,37.21010109999998,0 -112.97887270000001,37.21064089999999,0 -112.97824170000001,37.21180339999999,0 -112.97725220000001,37.21467759999998,0 -112.97668240000002,37.21595999999998,0 -112.97596150000001,37.21728579999998,0 -112.9757852,37.21748049999998,0 -112.9756579,37.217564199999984,0 -112.9755302,37.21760289999998,0 -112.9753913,37.217611699999985,0 -112.9733924,37.21743889999998,0 -112.97310789999999,37.21745999999998,0 -112.97110249999997,37.21785149999999,0 -112.97092419999998,37.217848899999986,0 -112.97062209999999,37.21776899999998,0 -112.97017539999997,37.21752379999999,0 -112.96989959999998,37.217422499999984,0 -112.96690269999998,37.21687259999999,0 -112.96612339999999,37.216871799999986,0 -112.96596299999999,37.21682819999999,0 -112.96573209999998,37.216686399999986,0 -112.9656108,37.21654379999998,0 -112.96554099999999,37.216355599999986,0 -112.96555629999999,37.216042999999985,0 -112.9655787,37.21596919999998,0 -112.96568359999999,37.21585189999999,0 -112.96577529999999,37.21580009999999,0 -112.96597259999999,37.21574439999999,0 -112.9662796,37.21572409999999,0 -112.96887139999998,37.21594539999999,0 -112.96978089999999,37.21588289999999,0 -112.97002089999998,37.215911699999985,0 -112.97014969999998,37.215952299999984,0 -112.97128959999999,37.21659419999999,0 -112.97143179999999,37.216626199999986,0 -112.97154309999999,37.21661979999998,0 -112.97163019999999,37.21659419999999,0 -112.97171739999999,37.21651619999999,0 -112.97175499999999,37.21639979999999,0 -112.97173219999998,37.216276999999984,0 -112.97167989999998,37.216206499999984,0 -112.97156319999999,37.21612739999999,0 -112.97108439999998,37.21603669999999,0 -112.97098519999999,37.21599609999999,0 -112.97032539999998,37.215590199999994,0 -112.97007189999998,37.215501599999996,0 -112.96976609999997,37.215463099999994,0 -112.96954619999998,37.2154749,0 -112.96909089999998,37.2156251,0 -112.96844339999997,37.215645099999996,0 -112.96812999999997,37.2155763,0 -112.96770599999998,37.215340600000005,0 -112.96750899999998,37.215280500000006,0 -112.96686659999999,37.2152794,0 -112.96654079999999,37.2152143,0 -112.9657508,37.2149622,0 -112.96562759999999,37.2149729,0 -112.9649556,37.2151342,0 -112.9644238,37.2150956,0 -112.96431079999999,37.2151088,0 -112.9641616,37.215166200000006,0 -112.9638529,37.2153751,0 -112.9636276,37.215456,0 -112.96290690000001,37.2155301,0 -112.96248930000002,37.2156799,0 -112.9623377,37.2157088,0 -112.96195780000001,37.2157179,0 -112.96122460000001,37.21562070000001,0 -112.9606667,37.21546850000001,0 -112.9603939,37.21535910000001,0 -112.9593832,37.214766700000006,0 -112.95906280000001,37.214628000000005,0 -112.9586732,37.2145476,0 -112.9580837,37.2145631,0 -112.95793350000001,37.214536100000004,0 -112.9578059,37.2144711,0 -112.9577412,37.214361,0 -112.9577391,37.214294699999996,0 -112.95776910000001,37.2142285,0 -112.9578348,37.21417029999999,0 -112.95800940000001,37.21411479999999,0 -112.95830640000001,37.21413769999999,0 -112.96132080000001,37.21499259999999,0 -112.96163560000001,37.21501699999998,0 -112.96317460000002,37.214752899999986,0 -112.96328720000001,37.21469419999999,0 -112.96344010000001,37.21453399999999,0 -112.96348230000001,37.21443759999999,0 -112.96349790000001,37.21433109999999,0 -112.9634777,37.21422959999999,0 -112.9633712,37.21409699999999,0 -112.9632399,37.214029899999986,0 -112.9630929,37.21399139999998,0 -112.96283799999999,37.21399779999999,0 -112.962633,37.214095499999985,0 -112.9621781,37.21450189999999,0 -112.962051,37.21457179999999,0 -112.9617517,37.214643999999986,0 -112.961501,37.21462009999998,0 -112.9600056,37.21397429999998,0 -112.9585896,37.212960399999986,0 -112.9581817,37.21271699999999,0 -112.9579336,37.21261049999998,0 -112.9575857,37.212513399999985,0 -112.9564526,37.21238779999999,0 -112.956181,37.21231939999999,0 -112.95605909999999,37.21225129999999,0 -112.95601529999999,37.21214289999999,0 -112.9560272,37.21204259999999,0 -112.95606409999999,37.21197899999999,0 -112.95616489999999,37.21190369999999,0 -112.956285,37.21187049999999,0 -112.95637929999998,37.21186839999999,0 -112.95700259999998,37.21208989999999,0 -112.95998379999999,37.21235279999999,0 -112.96048829999998,37.21244809999999,0 -112.96130779999999,37.21275029999999,0 -112.96152639999998,37.21276419999999,0 -112.96213519999998,37.21263289999999,0 -112.96263949999998,37.21264459999999,0 -112.96302839999997,37.21270659999999,0 -112.96361159999998,37.21289319999998,0 -112.96371749999997,37.21290669999999,0 -112.96381269999998,37.21288469999999,0 -112.96390759999997,37.21283229999999,0 -112.96399529999998,37.21273089999999,0 -112.96402999999998,37.21262719999999,0 -112.96397839999997,37.21243969999999,0 -112.96388889999999,37.2123618,0 -112.96365499999999,37.212353799999995,0 -112.96322689999998,37.21252069999999,0 -112.96307529999999,37.2125378,0 -112.96223599999998,37.21241799999999,0 -112.96164099999999,37.212417599999995,0 -112.96144049999998,37.21236579999999,0 -112.96101139999998,37.2121351,0 -112.95961279999997,37.2116867,0 -112.95852189999997,37.2114712,0 -112.95831759999997,37.2113801,0 -112.95825889999998,37.2111703,0 -112.95806469999997,37.210899999999995,0 -112.95743549999997,37.2102139,0 -112.95701359999997,37.209936899999995,0 -112.95682399999997,37.209865799999996,0 -112.95642299999997,37.2098112,0 -112.95615059999997,37.2098383,0 -112.95255239999997,37.210759700000004,0 -112.95018969999998,37.2112113,0 -112.94963809999997,37.2112508,0 -112.94634159999998,37.211083,0 -112.94534449999999,37.2111118,0 -112.94412369999999,37.2113979,0 -112.94364239999999,37.2114339,0 -112.94322639999999,37.211400600000005,0 -112.94316479999999,37.211381300000006,0 -112.94295229999999,37.21138030000001,0 -112.94275749999998,37.21147860000001,0 -112.94097029999999,37.212968100000005,0 -112.94065239999999,37.21331370000001,0 </coordinates></LineString><TimeSpan><begin>2021-06-01T18:47:54.000Z</begin><end>2021-06-01T20:28:36.000Z</end></TimeSpan></Placemark><Placemark><name>Canyon Overlook Trail</name><address>Canyon Overlook Trail, Hurricane, UT 84737</address><ExtendedData><Data name="Email"><value>syugen.zhou@gmail.com</value></Data><Data name="Category"><value>Hiking area</value></Data><Data name="Distance"><value>0</value></Data></ExtendedData><description> Hiking area from 2021-06-01T20:28:36.000Z to 2021-06-01T20:30:48.000Z. Distance 0m </description><Point><coordinates>-112.9406705,37.2133533,0</coordinates></Point><TimeSpan><begin>2021-06-01T20:28:36.000Z</begin><end>2021-06-01T20:30:48.000Z</end></TimeSpan></Placemark><Placemark><name>Driving</name><address></address><ExtendedData><Data name="Email"><value>syugen.zhou@gmail.com</value></Data><Data name="Category"><value>Driving</value></Data><Data name="Distance"><value>70604</value></Data></ExtendedData><description> Driving from 2021-06-01T20:30:48.000Z to 2021-06-01T22:03:37.256Z. Distance 70604m </description><LineString><altitudeMode>clampToGround</altitudeMode><extrude>1</extrude><tesselate>1</tesselate><coordinates>-112.94065239999999,37.2133137,0 -112.9427575,37.2114786,0 -112.9429523,37.2113803,0 -112.9441237,37.211397899999994,0 -112.9453445,37.21111179999999,0 -112.95018970000001,37.211211299999995,0 -112.956423,37.20981119999999,0 -112.956824,37.20986579999999,0 -112.9574355,37.21021389999999,0 -112.9582589,37.21117029999999,0 -112.9583176,37.21138009999999,0 -112.9585219,37.21147119999999,0 -112.9596128,37.211686699999994,0 -112.9610114,37.21213509999999,0 -112.96144050000001,37.21236579999999,0 -112.96164100000001,37.21241759999999,0 -112.962236,37.212417999999985,0 -112.96307530000001,37.21253779999999,0 -112.96322690000001,37.21252069999999,0 -112.963655,37.21235379999999,0 -112.9638889,37.21236179999999,0 -112.9639784,37.21243969999998,0 -112.96403000000001,37.212627199999986,0 -112.9639076,37.21283229999998,0 -112.9637175,37.212906699999984,0 -112.9626395,37.21264459999998,0 -112.9621352,37.21263289999998,0 -112.96152640000001,37.21276419999998,0 -112.96130780000001,37.21275029999998,0 -112.96048830000001,37.21244809999998,0 -112.95700260000001,37.21208989999999,0 -112.95637930000001,37.211868399999986,0 -112.95616490000002,37.211903699999986,0 -112.95606410000002,37.211978999999985,0 -112.95601530000002,37.21214289999998,0 -112.95605910000002,37.212251299999984,0 -112.95618100000003,37.212319399999984,0 -112.95758570000002,37.21251339999998,0 -112.95818170000003,37.212716999999984,0 -112.96000560000003,37.21397429999998,0 -112.96150100000003,37.21462009999998,0 -112.96175170000002,37.214643999999986,0 -112.96205100000003,37.21457179999999,0 -112.96263300000003,37.214095499999985,0 -112.96283800000002,37.21399779999999,0 -112.96309290000002,37.21399139999998,0 -112.96337120000003,37.21409699999999,0 -112.96347770000003,37.21422959999999,0 -112.96349790000002,37.21433109999999,0 -112.96344010000003,37.214533999999986,0 -112.96317460000003,37.214752899999986,0 -112.96163560000002,37.21501699999998,0 -112.96132080000002,37.21499259999999,0 -112.95830640000003,37.21413769999999,0 -112.95800940000001,37.21411479999999,0 -112.95783480000001,37.21417029999999,0 -112.95776910000002,37.2142285,0 -112.95774120000002,37.214361,0 -112.95780590000001,37.2144711,0 -112.95793350000002,37.214536100000004,0 -112.95867320000002,37.2145476,0 -112.95906280000003,37.214628000000005,0 -112.96039390000003,37.21535910000001,0 -112.96122460000002,37.21562070000001,0 -112.96233770000002,37.21570880000001,0 -112.96290690000002,37.21553010000001,0 -112.96362760000001,37.21545600000001,0 -112.9643108,37.21510880000001,0 -112.96495560000001,37.21513420000001,0 -112.96575080000001,37.21496220000001,0 -112.9668666,37.215279400000014,0 -112.967509,37.21528050000001,0 -112.96813,37.215576300000016,0 -112.9684434,37.21564510000001,0 -112.9690909,37.21562510000001,0 -112.9695462,37.21547490000001,0 -112.97007190000001,37.21550160000001,0 -112.9703254,37.21559020000001,0 -112.9710844,37.216036700000004,0 -112.9715632,37.216127400000005,0 -112.97173219999999,37.216277,0 -112.971755,37.2163998,0 -112.97171739999999,37.2165162,0 -112.97163019999999,37.2165942,0 -112.9714318,37.2166262,0 -112.9712896,37.2165942,0 -112.9701497,37.2159523,0 -112.9697809,37.215882900000004,0 -112.9688714,37.2159454,0 -112.9659726,37.2157444,0 -112.9656836,37.2158519,0 -112.96557870000001,37.215969199999996,0 -112.965541,37.21635559999999,0 -112.9656108,37.2165438,0 -112.9657321,37.2166864,0 -112.965963,37.216828199999995,0 -112.9661234,37.21687179999999,0 -112.96690269999999,37.216872599999995,0 -112.96989959999999,37.2174225,0 -112.97062209999999,37.217769000000004,0 -112.97092419999998,37.2178489,0 -112.97339239999998,37.217438900000005,0 -112.97553019999998,37.2176029,0 -112.97565789999997,37.2175642,0 -112.97596149999998,37.2172858,0 -112.97725219999998,37.214677599999995,0 -112.97824169999997,37.211803399999994,0 -112.97887269999997,37.2106409,0 -112.97904659999998,37.210101099999996,0 -112.97918769999997,37.20888409999999,0 -112.97946229999998,37.20828449999999,0 -112.98007619999997,37.2077264,0 -112.98071589999998,37.2074401,0 -112.98200349999998,37.2071381,0 -112.98248549999998,37.2069413,0 -112.98304829999998,37.206553299999996,0 -112.98348469999998,37.2060324,0 -112.98407719999997,37.2050328,0 -112.98465559999998,37.204493299999996,0 -112.98516859999998,37.2041732,0 -112.98659769999999,37.2036306,0 -112.98784439999999,37.2026243,0 -112.98811969999998,37.2024975,0 -112.98858959999998,37.2019957,0 -112.98869169999998,37.2012646,0 -112.98904699999999,37.2006383,0 -112.98938199999998,37.2003709,0 -112.99003159999998,37.2000291,0 -112.99021379999998,37.1998707,0 -112.99267809999998,37.196227099999994,0 -112.99373159999999,37.1920887,0 -112.99530809999999,37.190122499999994,0 -112.9957968,37.18969549999999,0 -112.9963774,37.189386199999994,0 -112.9971854,37.189153299999994,0 -113.0002925,37.188630499999995,0 -113.0005834,37.1884611,0 -113.003676,37.1831502,0 -113.0041272,37.182674,0 -113.0056788,37.1815195,0 -113.0063029,37.180510600000005,0 -113.0091444,37.1769501,0 -113.0130449,37.1727179,0 -113.0132872,37.1722709,0 -113.0134636,37.170574,0 -113.0131921,37.1687426,0 -113.01367839999999,37.166455400000004,0 -113.0154695,37.16411170000001,0 -113.0171226,37.1630705,0 -113.01752749999999,37.162576800000004,0 -113.0180281,37.1613855,0 -113.01834619999998,37.1610412,0 -113.01871689999999,37.1608748,0 -113.02076579999998,37.1608017,0 -113.02101549999999,37.1608553,0 -113.02142349999998,37.161056699999996,0 -113.02275939999998,37.1624896,0 -113.02371149999999,37.1629132,0 -113.0242897,37.1630368,0 -113.02465609999999,37.1630211,0 -113.02534209999999,37.1628186,0 -113.0274001,37.1617004,0 -113.0288283,37.1604838,0 -113.0291525,37.160313099999996,0 -113.0296245,37.1602118,0 -113.0300441,37.1602295,0 -113.0305463,37.1604102,0 -113.0314272,37.1609025,0 -113.0318966,37.1610313,0 -113.03416479999999,37.160981799999995,0 -113.03541499999999,37.1612676,0 -113.05021209999998,37.1608918,0 -113.05262479999999,37.1610699,0 -113.05559849999999,37.1616883,0 -113.05692109999998,37.162161399999995,0 -113.05848999999999,37.162911099999995,0 -113.0597615,37.1636986,0 -113.06679009999999,37.16959249999999,0 -113.06768309999998,37.17013599999999,0 -113.06843979999998,37.1704588,0 -113.06951859999998,37.170751599999996,0 -113.07103679999999,37.1708699,0 -113.07850369999998,37.170187399999996,0 -113.08070809999998,37.1703073,0 -113.0886726,37.1717253,0 -113.09042129999999,37.1718194,0 -113.09228309999999,37.1714938,0 -113.0995171,37.1683858,0 -113.10015729999999,37.1682311,0 -113.101057,37.168141999999996,0 -113.1025004,37.1682365,0 -113.1035271,37.16851869999999,0 -113.10419809999998,37.16880889999999,0 -113.10975379999998,37.17221499999999,0 -113.11214369999999,37.172898899999986,0 -113.11285449999998,37.17323119999999,0 -113.11355309999999,37.17371069999999,0 -113.11404209999999,37.17419509999999,0 -113.1144906,37.17484749999999,0 -113.1150814,37.17645739999999,0 -113.11572149999999,37.17744849999999,0 -113.11679749999999,37.17825819999999,0 -113.11772479999999,37.178644599999984,0 -113.11827219999999,37.17878589999998,0 -113.1207909,37.17900369999998,0 -113.1236893,37.17976139999998,0 -113.12651869999999,37.180176399999986,0 -113.1275079,37.18046589999998,0 -113.134228,37.18312139999998,0 -113.1349566,37.18354029999998,0 -113.13858350000001,37.18692829999998,0 -113.1415135,37.18925869999998,0 -113.1447358,37.19300729999998,0 -113.1457659,37.19386599999998,0 -113.1475431,37.19480709999998,0 -113.1483625,37.19504809999997,0 -113.14959289999999,37.195206999999975,0 -113.1533512,37.19516719999998,0 -113.1539232,37.19524249999998,0 -113.1575921,37.196240699999976,0 -113.1614565,37.19683749999997,0 -113.16643970000001,37.198288299999966,0 -113.17712560000001,37.20348479999997,0 -113.17810970000001,37.20380999999997,0 -113.17957950000002,37.20408279999997,0 -113.18073900000002,37.20410529999997,0 -113.18628560000002,37.20366349999997,0 -113.19494210000002,37.20365839999997,0 -113.23237530000002,37.20781969999997,0 -113.24174450000001,37.210657399999974,0 -113.2425545,37.21100549999998,0 -113.2434726,37.21158069999997,0 -113.2495004,37.217922099999974,0 -113.2501252,37.21874579999998,0 -113.25049560000001,37.21951239999998,0 -113.25215159999999,37.225093799999975,0 -113.25252449999999,37.225800999999976,0 -113.25283280000001,37.22614349999997,0 -113.2534251,37.22657329999997,0 -113.25403080000001,37.226847399999976,0 -113.25481860000001,37.227025499999975,0 -113.25546240000001,37.227047399999975,0 -113.25618340000001,37.226969499999974,0 -113.25670010000002,37.226827799999974,0 -113.25762850000001,37.22630879999998,0 -113.25813480000001,37.22576349999998,0 -113.2583639,37.22536219999998,0 -113.25854320000002,37.224683899999974,0 -113.25855210000002,37.22397179999997,0 -113.25820560000001,37.22277369999997,0 -113.25828710000002,37.22186379999997,0 -113.25866890000002,37.221121599999975,0 -113.26379450000002,37.21692089999997,0 -113.26407880000002,37.21633839999997,0 -113.26391160000003,37.21328459999997,0 -113.26408490000003,37.21270119999997,0 -113.26431530000002,37.21230909999997,0 -113.26484480000002,37.21175199999997,0 -113.26582080000003,37.21117389999997,0 -113.26683020000002,37.210922499999974,0 -113.27129540000003,37.210861199999975,0 -113.27199980000003,37.21099939999997,0 -113.27205720000003,37.21105559999997,0 -113.27217050000002,37.211346899999974,0 -113.27218440000001,37.21471499999998,0 -113.27247480000003,37.21569699999998,0 -113.27298240000002,37.216552399999976,0 -113.28150580000002,37.22471919999998,0 -113.28171200000001,37.22510099999998,0 -113.28177620000001,37.22570089999998,0 -113.28166820000001,37.22610229999998,0 -113.28101710000001,37.22727029999998,0 -113.28072490000001,37.22938739999998,0 -113.2808737,37.23007029999998,0 -113.28156150000001,37.23124439999998,0 -113.28162010000001,37.23170199999998,0 -113.2811185,37.23303439999998,0 -113.2809156,37.23934029999998,0 -113.2810798,37.24003669999998,0 -113.2835033,37.24486919999998,0 -113.2837816,37.245946699999976,0 -113.2837942,37.249214799999976,0 -113.2863304,37.25901039999998,0 -113.28670659999999,37.25958749999998,0 -113.2875388,37.26038319999998,0 -113.2878952,37.26059789999998,0 -113.2883732,37.260725899999976,0 -113.28884209999998,37.26070979999998,0 -113.28953449999999,37.26050969999998,0 -113.2905437,37.25996629999998,0 -113.2915158,37.25926149999998,0 -113.2921025,37.259141999999976,0 -113.2925812,37.25921519999997,0 -113.2928685,37.25933669999997,0 -113.29312689999999,37.25952639999997,0 -113.29455589999999,37.26147149999997,0 -113.29471509999999,37.261814799999975,0 -113.29684389999998,37.27295969999997,0 -113.29730029999999,37.27379499999997,0 -113.29778009999998,37.27424079999997,0 -113.29847689999998,37.27465279999997,0 -113.29905189999998,37.27485409999997,0 -113.30170179999998,37.27539039999997,0 -113.30230819999997,37.27565309999998,0 -113.30297959999997,37.27613359999997,0 -113.30349239999997,37.276758899999976,0 -113.30367349999997,37.27718559999998,0 -113.30453449999996,37.28239979999998,0 -113.30489259999997,37.28275669999998,0 -113.30696969999997,37.28406719999998,0 -113.30818909999998,37.282745999999975,0 -113.30927099999998,37.28112339999998,0 -113.32894989999998,37.26115429999997,0 -113.33444029999998,37.256541399999975,0 -113.35407279999997,37.24362869999998,0 -113.35559809999998,37.24290819999998,0 -113.36061799999999,37.24149739999998,0 -113.36239249999998,37.24060119999998,0 -113.36345649999997,37.23985049999998,0 -113.36728149999998,37.23646869999998,0 -113.37229449999997,37.23107409999998,0 -113.37238329999997,37.231030199999985,0 -113.37407949999997,37.229188399999984,0 -113.38553799999997,37.22011049999998,0 -113.38776899999998,37.217950399999985,0 -113.41413439999998,37.183842099999985,0 -113.41741519999998,37.18102649999999,0 -113.42083039999999,37.17895979999999,0 -113.42350599999999,37.177771599999986,0 -113.43175149999999,37.17510869999999,0 -113.44494579999999,37.16996609999999,0 -113.4592191,37.16366799999999,0 -113.46601949999999,37.161337799999984,0 -113.47347579999999,37.15915119999999,0 -113.47518799999999,37.15835599999998,0 -113.47594939999998,37.157832599999985,0 -113.48413209999998,37.14986599999999,0 -113.48581999999998,37.14853889999999,0 -113.48913439999998,37.14668389999999,0 -113.49161629999998,37.14574179999999,0 -113.50235739999998,37.1424185,0 -113.50788649999997,37.140042599999994,0 -113.51130909999998,37.13806859999999,0 -113.52540729999997,37.1286564,0 -113.53363169999997,37.12398619999999,0 -113.55260679999998,37.115905999999995,0 -113.55463129999998,37.114590199999995,0 -113.55571819999999,37.113620499999996,0 -113.55695989999998,37.1121195,0 -113.55772749999998,37.11075889999999,0 -113.56135289999997,37.1017592,0 -113.56202679999997,37.100524199999995,0 -113.56321229999998,37.0988639,0 -113.56531509999998,37.096717,0 -113.56746129999998,37.095137799999996,0 -113.57799569999997,37.0887841,0 -113.57942019999997,37.0877452,0 -113.57952859999997,37.0877334,0 -113.58217429999998,37.085705499999996,0 -113.58292979999997,37.0848222,0 -113.58303169999996,37.0847784,0 -113.58321149999998,37.0847645,0 -113.58336029999997,37.084823300000004,0 -113.58363789999997,37.0851507,0 -113.58494399999996,37.0874027,0 -113.58518999999997,37.088128,0 -113.58529029999997,37.0882392,0 -113.58546309999997,37.089198599999996,0 </coordinates></LineString><TimeSpan><begin>2021-06-01T20:30:48.000Z</begin><end>2021-06-01T22:03:37.256Z</end></TimeSpan></Placemark><Placemark><name>Best Western Plus Abbey Inn</name><address>1129 S Bluff St, St. George, UT 84770</address><ExtendedData><Data name="Email"><value>syugen.zhou@gmail.com</value></Data><Data name="Category"><value>Hotel</value></Data><Data name="Distance"><value>0</value></Data></ExtendedData><description> Hotel from 2021-06-01T22:03:37.256Z to 2021-06-02T00:35:39.779Z. Distance 0m </description><Point><coordinates>-113.58426689999999,37.0890245,0</coordinates></Point><TimeSpan><begin>2021-06-01T22:03:37.256Z</begin><end>2021-06-02T00:35:39.779Z</end></TimeSpan></Placemark><Placemark><name>Driving</name><address></address><ExtendedData><Data name="Email"><value>syugen.zhou@gmail.com</value></Data><Data name="Category"><value>Driving</value></Data><Data name="Distance"><value>3590</value></Data></ExtendedData><description> Driving from 2021-06-02T00:35:39.779Z to 2021-06-02T00:40:39.000Z. Distance 3590m </description><LineString><altitudeMode>clampToGround</altitudeMode><extrude>1</extrude><tesselate>1</tesselate><coordinates>-113.5850888,37.0890008,0 -113.5850971,37.089043499999995,0 -113.5851318,37.0892212,0 -113.5851523,37.089221099999996,0 -113.5852258,37.0892158,0 -113.5852385,37.089214899999995,0 -113.5854631,37.089198599999996,0 -113.58557869999999,37.0898124,0 -113.58586649999998,37.091512200000004,0 -113.58605779999999,37.092532500000004,0 -113.58609869999998,37.09275470000001,0 -113.58614799999998,37.093004500000006,0 -113.58623789999999,37.093445900000006,0 -113.58636209999999,37.09425180000001,0 -113.58645619999999,37.094669100000004,0 -113.58651199999998,37.09490530000001,0 -113.58657649999998,37.095127000000005,0 -113.58658989999999,37.09517430000001,0 -113.58664089999999,37.09535300000001,0 -113.58677019999998,37.095751600000014,0 -113.58678539999998,37.095795400000014,0 -113.58696779999998,37.09631620000001,0 -113.58726629999998,37.09712360000001,0 -113.58759349999998,37.09800480000001,0 -113.58780389999998,37.09858210000001,0 -113.58790899999998,37.09883280000001,0 -113.58799169999999,37.09901150000001,0 -113.58811689999999,37.099255100000015,0 -113.58828319999998,37.099543800000006,0 -113.58854669999998,37.099899400000005,0 -113.58872069999998,37.10010400000001,0 -113.58887719999998,37.10027480000001,0 -113.58908129999998,37.1004805,0 -113.58994959999998,37.10126240000001,0 -113.59158239999998,37.10274510000001,0 -113.59176569999998,37.102931700000006,0 -113.59194749999999,37.10313140000001,0 -113.59209809999999,37.1033162,0 -113.59226849999999,37.1035466,0 -113.59232949999998,37.103642400000005,0 -113.59243739999998,37.1038121,0 -113.59257809999998,37.1040543,0 -113.59268679999998,37.1042797,0 -113.59279409999999,37.1045356,0 -113.59288769999998,37.1048245,0 -113.59294329999999,37.1050032,0 -113.59298109999999,37.105163000000005,0 -113.59301109999998,37.10530260000001,0 -113.59304189999999,37.10549190000001,0 -113.59306399999998,37.10566800000001,0 -113.59307499999998,37.105826500000006,0 -113.5930789,37.105947900000004,0 -113.5930781,37.1061788,0 -113.5930658,37.1065412,0 -113.5930616,37.107302700000005,0 -113.5930663,37.10746940000001,0 -113.59308200000001,37.10765,0 -113.5931113,37.107899,0 -113.5931341,37.1080474,0 -113.59317010000001,37.108233899999995,0 -113.59321740000001,37.1083946,0 -113.5932559,37.1085103,0 -113.59334100000001,37.108747900000004,0 -113.59334120000001,37.1087483,0 -113.5934077,37.1089221,0 -113.5935018,37.1091405,0 -113.5937054,37.1095809,0 -113.5936403,37.1097069,0 -113.59359390000002,37.1097674,0 -113.59359210000001,37.1097697,0 -113.5935319,37.1098215,0 -113.59342350000001,37.1098837,0 -113.5924597,37.1098795,0 -113.5922331,37.1098795,0 -113.5918111,37.1098758,0 -113.59091930000001,37.1098711,0 -113.59039340000001,37.1098695,0 -113.58971830000002,37.1098665,0 -113.58825880000002,37.1098585,0 -113.58754800000003,37.109855700000004,0 -113.58618580000002,37.1098611,0 -113.58544890000002,37.10984680000001,0 -113.58544870000001,37.10995530000001,0 -113.58542420000002,37.110857800000005,0 -113.58539740000003,37.11085650000001,0 -113.58535100000003,37.11085650000001,0 -113.58519870000003,37.11085470000001,0 -113.58504240000003,37.11085280000001,0 -113.58480910000004,37.11085230000001,0 -113.58451430000004,37.11085160000001,0 -113.58447420000003,37.11085160000001,0 -113.58445350000004,37.11085380000001,0 -113.58443480000003,37.11085860000001,0 -113.58442740000002,37.11086280000001,0 -113.58442140000002,37.11086980000001,0 -113.58441670000002,37.11088200000001,0 -113.58441670000002,37.110895400000004,0 -113.58440420000002,37.111024,0 -113.58426040000002,37.111029200000004,0 -113.58420560000002,37.111031100000005,0 </coordinates></LineString><TimeSpan><begin>2021-06-02T00:35:39.779Z</begin><end>2021-06-02T00:40:39.000Z</end></TimeSpan></Placemark><Placemark><name>Benja Thai &amp; Sushi</name><address>2 W St George Blvd #12, St. George, UT 84770</address><ExtendedData><Data name="Email"><value>syugen.zhou@gmail.com</value></Data><Data name="Category"><value>Thai</value></Data><Data name="Distance"><value>0</value></Data></ExtendedData><description> Thai from 2021-06-02T00:40:39.000Z to 2021-06-02T00:50:17.000Z. Distance 0m </description><Point><coordinates>-113.5842555,37.1105216,0</coordinates></Point><TimeSpan><begin>2021-06-02T00:40:39.000Z</begin><end>2021-06-02T00:50:17.000Z</end></TimeSpan></Placemark><Placemark><name>Driving</name><address></address><ExtendedData><Data name="Email"><value>syugen.zhou@gmail.com</value></Data><Data name="Category"><value>Driving</value></Data><Data name="Distance"><value>3958</value></Data></ExtendedData><description> Driving from 2021-06-02T00:50:17.999Z to 2021-06-02T00:56:43.000Z. Distance 3958m </description><LineString><altitudeMode>clampToGround</altitudeMode><extrude>1</extrude><tesselate>1</tesselate><coordinates>-113.5833007,37.1102828,0 -113.5832995,37.109946599999994,0 -113.5832963,37.1098785,0 -113.58329210000001,37.1098381,0 -113.58182330000001,37.109839099999995,0 -113.58117700000001,37.1098299,0 -113.5769441,37.1098124,0 -113.57576890000001,37.1098141,0 -113.57558230000001,37.1098092,0 -113.57487170000002,37.109809299999995,0 -113.57334930000002,37.1098012,0 -113.57270260000001,37.1097938,0 -113.57029160000002,37.1097891,0 -113.56977900000001,37.1097938,0 -113.56869490000001,37.109834199999995,0 -113.56849150000001,37.1098311,0 -113.56634060000002,37.1098144,0 -113.56336150000001,37.109813100000004,0 -113.56212070000002,37.109808900000004,0 -113.56111020000002,37.10981,0 -113.56068530000002,37.109730000000006,0 -113.56041810000002,37.109726800000004,0 -113.55977530000001,37.109733600000006,0 -113.55960160000002,37.10975040000001,0 -113.55957720000002,37.10975000000001,0 -113.55954590000002,37.10975230000001,0 -113.55950610000002,37.10975240000001,0 -113.55946570000003,37.10975350000001,0 -113.55943060000003,37.10975570000001,0 -113.55937580000003,37.109761200000015,0 -113.55929370000003,37.10977340000001,0 -113.55922760000001,37.10978980000001,0 -113.55917700000002,37.10980890000001,0 -113.55909920000003,37.10983230000001,0 -113.55900630000004,37.10985500000001,0 -113.55890240000002,37.109859700000015,0 -113.55877640000003,37.109857800000015,0 -113.55865620000002,37.10985440000002,0 -113.55739700000002,37.10983340000002,0 -113.55723000000002,37.10982740000002,0 -113.55670110000003,37.109747400000025,0 -113.55623970000003,37.10970930000002,0 -113.55580690000004,37.10972290000002,0 -113.55563130000003,37.10977990000002,0 -113.55502120000003,37.10976580000002,0 -113.55461430000003,37.109766900000025,0 -113.55462620000003,37.11026140000003,0 -113.55462420000003,37.11034130000002,0 -113.55461710000003,37.110397500000026,0 -113.55457840000004,37.11056570000002,0 -113.55455240000003,37.110633300000025,0 -113.55454280000004,37.11066890000002,0 -113.55445800000004,37.11083710000002,0 -113.55438090000004,37.11096910000002,0 -113.55430750000005,37.11108530000002,0 -113.55424530000005,37.11119350000003,0 -113.55420110000004,37.11130480000003,0 -113.55418000000003,37.11137480000002,0 -113.55415790000004,37.11147950000002,0 -113.55413600000004,37.11157520000002,0 -113.55412280000004,37.11177050000002,0 -113.55412120000004,37.11194460000002,0 -113.55407930000004,37.113284300000025,0 -113.55407150000003,37.11346490000002,0 -113.55406280000004,37.113552900000016,0 -113.55405010000004,37.113621400000014,0 -113.55400840000004,37.113822700000014,0 -113.55397600000005,37.11393670000002,0 -113.55393510000005,37.11405290000002,0 -113.55391340000004,37.11409170000002,0 -113.55385690000004,37.11420000000002,0 -113.55377740000006,37.11432040000002,0 -113.55365940000006,37.114504900000014,0 -113.55350880000006,37.114678200000014,0 -113.55338650000006,37.11479710000002,0 -113.55332820000007,37.11484870000002,0 -113.55303820000006,37.115076500000015,0 -113.55294430000005,37.11514090000002,0 -113.55272540000006,37.115268600000014,0 -113.55213880000005,37.115597100000016,0 -113.55202190000006,37.11566050000002,0 -113.55186940000006,37.11573820000002,0 -113.55156140000005,37.11588020000002,0 -113.55099140000006,37.11610650000002,0 -113.55013480000005,37.116452100000025,0 -113.54989880000005,37.11654430000002,0 -113.54955270000005,37.11666750000002,0 -113.54767220000004,37.11731870000002,0 -113.54766530000003,37.11660310000002,0 -113.54767470000003,37.114655200000016,0 -113.54782110000004,37.11465650000002,0 -113.54783270000003,37.11465790000002,0 -113.54784320000005,37.114660700000016,0 -113.54785390000004,37.114664800000014,0 -113.54786240000003,37.11466960000001,0 -113.54786960000003,37.11467610000002,0 -113.54787460000003,37.114683700000015,0 -113.54787900000002,37.11469180000002,0 -113.54788090000002,37.11470160000001,0 -113.54787230000001,37.115322100000014,0 </coordinates></LineString><TimeSpan><begin>2021-06-02T00:50:17.999Z</begin><end>2021-06-02T00:56:43.000Z</end></TimeSpan></Placemark><Placemark><name>Benja's Thai Garden</name><address>435 N 1680 E suite #14, St. George, UT 84790</address><ExtendedData><Data name="Email"><value>syugen.zhou@gmail.com</value></Data><Data name="Category"><value>Thai</value></Data><Data name="Distance"><value>0</value></Data></ExtendedData><description> Thai from 2021-06-02T00:56:43.000Z to 2021-06-02T01:20:32.000Z. Distance 0m </description><Point><coordinates>-113.54806599999999,37.115577,0</coordinates></Point><TimeSpan><begin>2021-06-02T00:56:43.000Z</begin><end>2021-06-02T01:20:32.000Z</end></TimeSpan></Placemark><Placemark><name>Driving</name><address></address><ExtendedData><Data name="Email"><value>syugen.zhou@gmail.com</value></Data><Data name="Category"><value>Driving</value></Data><Data name="Distance"><value>4829</value></Data></ExtendedData><description> Driving from 2021-06-02T01:20:32.999Z to 2021-06-02T01:27:08.000Z. Distance 4829m </description><LineString><altitudeMode>clampToGround</altitudeMode><extrude>1</extrude><tesselate>1</tesselate><coordinates>-113.547865,37.1158583,0 -113.5476694,37.1158562,0 -113.54767220000001,37.117318700000006,0 -113.54989880000001,37.11654430000001,0 -113.5515614,37.1158802,0 -113.5520219,37.115660500000004,0 -113.55294430000001,37.11514090000001,0 -113.5530382,37.1150765,0 -113.55332820000001,37.1148487,0 -113.5535088,37.1146782,0 -113.5536594,37.11450490000001,0 -113.55385690000001,37.114200000000004,0 -113.5539351,37.114052900000004,0 -113.55400840000001,37.1138227,0 -113.55406280000001,37.11355290000001,0 -113.55413600000001,37.11157520000001,0 -113.55420110000001,37.111304800000006,0 -113.55424530000002,37.111193500000006,0 -113.55445800000001,37.110837100000005,0 -113.55454280000001,37.11066890000001,0 -113.55457840000001,37.11056570000001,0 -113.5546171,37.110397500000005,0 -113.5546242,37.11034130000001,0 -113.5546143,37.109766900000004,0 -113.5556313,37.10977990000001,0 -113.55580470000001,37.109861800000004,0 -113.5559929,37.10986710000001,0 -113.557184,37.10967470000001,0 -113.5585808,37.1096828,0 -113.5587223,37.1096422,0 -113.5588718,37.1095899,0 -113.55894150000002,37.1095558,0 -113.55901190000002,37.10951370000001,0 -113.5590648,37.10945960000001,0 -113.5591148,37.109397400000006,0 -113.5591459,37.10934610000001,0 -113.55917070000001,37.109289200000006,0 -113.5591952,37.10917340000001,0 -113.5591201,37.10877560000001,0 -113.5590955,37.108539000000015,0 -113.559095,37.10825170000001,0 -113.5591702,37.10766100000001,0 -113.55924549999999,37.10738160000001,0 -113.55948729999999,37.10670070000001,0 -113.55948869999997,37.106669100000005,0 -113.55948069999998,37.10663280000001,0 -113.55944029999998,37.106542700000006,0 -113.56100859999998,37.10252660000001,0 -113.56135289999997,37.101759200000004,0 -113.56168889999998,37.10111320000001,0 -113.56202679999998,37.10052420000001,0 -113.56239639999998,37.09995430000001,0 -113.56273929999998,37.09947280000001,0 -113.56321229999998,37.09886390000001,0 -113.56381359999999,37.098175700000006,0 -113.56415049999998,37.09781510000001,0 -113.56476009999999,37.09721490000001,0 -113.56531509999999,37.09671700000001,0 -113.56559359999999,37.09648780000001,0 -113.56640769999998,37.09585940000001,0 -113.56746129999999,37.09513780000001,0 -113.56936839999999,37.09397930000001,0 -113.56993859999999,37.09365660000001,0 -113.57697409999997,37.08942920000001,0 -113.57799569999997,37.08878410000001,0 -113.57858679999997,37.088377600000015,0 -113.57942019999997,37.087745200000015,0 -113.57951419999998,37.08773820000001,0 -113.57952859999997,37.08773340000001,0 -113.58093959999997,37.086689600000014,0 -113.58185909999996,37.08597430000001,0 -113.58217429999996,37.08570550000001,0 -113.58243669999996,37.08539890000001,0 -113.58263479999997,37.08510790000001,0 -113.58276349999996,37.08500630000001,0 -113.58284259999996,37.08489930000002,0 -113.58292979999996,37.08482220000002,0 -113.58297809999996,37.084796600000026,0 -113.58303169999996,37.084778400000026,0 -113.58306529999997,37.08477090000003,0 -113.58313229999997,37.08476230000003,0 -113.58316989999997,37.08476130000003,0 -113.58321149999998,37.084764500000034,0 -113.58327309999997,37.08478050000003,0 -113.58333349999997,37.08480620000003,0 -113.58336029999997,37.08482330000003,0 -113.58340189999997,37.08486290000003,0 -113.58352119999996,37.08505440000003,0 -113.58363789999997,37.085150700000035,0 -113.58430979999997,37.08626760000003,0 -113.58494399999996,37.087402700000034,0 -113.58507809999998,37.08772520000004,0 -113.58518999999997,37.08812800000003,0 -113.58522629999997,37.08817410000004,0 -113.58529029999997,37.08823920000004,0 -113.58533099999997,37.08849760000004,0 -113.58502039999996,37.08849100000004,0 -113.58505029999998,37.08880360000004,0 -113.58463889999997,37.088814100000036,0 -113.58457939999997,37.088809800000035,0 </coordinates></LineString><TimeSpan><begin>2021-06-02T01:20:32.999Z</begin><end>2021-06-02T01:27:08.000Z</end></TimeSpan></Placemark><Placemark><name>Best Western Plus Abbey Inn</name><address>1129 S Bluff St, St. George, UT 84770</address><ExtendedData><Data name="Email"><value>syugen.zhou@gmail.com</value></Data><Data name="Category"><value>Hotel</value></Data><Data name="Distance"><value>0</value></Data></ExtendedData><description> Hotel from 2021-06-02T01:27:08.000Z to 2021-06-02T15:29:33.000Z. Distance 0m </description><Point><coordinates>-113.58426689999999,37.0890245,0</coordinates></Point><TimeSpan><begin>2021-06-02T01:27:08.000Z</begin><end>2021-06-02T15:29:33.000Z</end></TimeSpan></Placemark></Document></kml>
