<?xml version="1.0" encoding="UTF-8"?><kml xmlns="http://www.opengis.net/kml/2.2" xmlns:gx="http://www.google.com/kml/ext/2.2"><Document><name> Location history from 2021-06-04 to 2021-06-04 </name><open>1</open><description></description><StyleMap id="multiTrack"><Pair><key>normal</key><styleUrl>#multiTrack_n</styleUrl></Pair><Pair><key>highlight</key><styleUrl>#multiTrack_h</styleUrl></Pair></StyleMap><Style id="multiTrack_n"><IconStyle><Icon><href>https://earth.google.com/images/kml-icons/track-directional/track-0.png</href></Icon></IconStyle><LineStyle><color>99ffac59</color><width>6</width></LineStyle></Style><Style id="multiTrack_h"><IconStyle><scale>1.2</scale><Icon><href>https://earth.google.com/images/kml-icons/track-directional/track-0.png</href></Icon></IconStyle><LineStyle><color>99ffac59</color><width>8</width></LineStyle></Style><Placemark><name>Vdara Hotel &amp; Spa</name><address>2600 W Harmon Ave, Las Vegas, NV 89158</address><ExtendedData><Data name="Email"><value>syugen.zhou@gmail.com</value></Data><Data name="Category"><value>Hotel</value></Data><Data name="Distance"><value>0</value></Data></ExtendedData><description> Hotel from 2021-06-04T04:01:48.000Z to 2021-06-04T16:26:13.000Z. Distance 0m </description><Point><coordinates>-115.17775759999999,36.1092795,0</coordinates></Point><TimeSpan><begin>2021-06-04T04:01:48.000Z</begin><end>2021-06-04T16:26:13.000Z</end></TimeSpan></Placemark><Placemark><name>Driving</name><address></address><ExtendedData><Data name="Email"><value>syugen.zhou@gmail.com</value></Data><Data name="Category"><value>Driving</value></Data><Data name="Distance"><value>47910</value></Data></ExtendedData><description> Driving from 2021-06-04T16:26:13.407Z to 2021-06-04T17:09:45.000Z. Distance 47910m </description><LineString><altitudeMode>clampToGround</altitudeMode><extrude>1</extrude><tesselate>1</tesselate><coordinates>-115.17733679999999,36.108610500000005,0 -115.17699399999998,36.1088365,0 -115.17643279999999,36.109064200000006,0 -115.17571759999998,36.1091697,0 -115.17419939999999,36.109097,0 -115.17383629999998,36.10915,0 -115.1736395,36.1091269,0 -115.17347279999998,36.109059,0 -115.17315339999998,36.108800099999996,0 -115.17310019999998,36.1013546,0 -115.17329869999999,36.101059899999996,0 -115.17351589999997,36.10093319999999,0 -115.17696359999998,36.1009745,0 -115.18111179999998,36.100820299999995,0 -115.18129209999998,36.1006534,0 -115.18132569999997,36.1005805,0 -115.18107989999996,36.0990181,0 -115.18110279999995,36.0937508,0 -115.18104349999994,36.0936884,0 -115.18107759999995,36.0892252,0 -115.18136229999995,36.0856025,0 -115.18112979999995,36.082752,0 -115.18117049999995,36.070389999999996,0 -115.18182579999993,36.068410199999995,0 -115.18182139999992,36.06834309999999,0 -115.18253799999992,36.066416499999995,0 -115.18253869999992,36.06629269999999,0 -115.18337589999993,36.064889599999994,0 -115.18351849999992,36.0644171,0 -115.1835496999999,36.06382489999999,0 -115.1833961999999,36.063260099999994,0 -115.1831452999999,36.0627542,0 -115.18275289999991,36.06228539999999,0 -115.18237479999992,36.0619728,0 -115.18178109999992,36.061641599999994,0 -115.18135079999993,36.0614852,0 -115.18060509999994,36.0613363,0 -115.17974129999992,36.0613452,0 -115.17875199999992,36.0615866,0 -115.17664989999992,36.0627501,0 -115.17546669999993,36.0631279,0 -115.17447699999992,36.0632669,0 -115.17279489999991,36.06335970000001,0 -115.17263619999993,36.063442200000004,0 -115.15658709999992,36.06358960000001,0 -115.15416359999992,36.0634482,0 -115.15128189999992,36.06302850000001,0 -115.14741129999992,36.06200260000001,0 -115.14506759999993,36.06100980000001,0 -115.14358039999993,36.060133900000004,0 -115.14260289999993,36.05942930000001,0 -115.14135219999993,36.05830950000001,0 -115.14045719999993,36.05725790000001,0 -115.13675289999992,36.05162550000001,0 -115.13557929999993,36.049300200000005,0 -115.13507119999993,36.047953400000004,0 -115.13447619999992,36.04574,0 -115.13430399999993,36.044649400000004,0 -115.13390979999993,36.03800270000001,0 -115.13339629999993,36.035761400000005,0 -115.13179799999992,36.030595100000006,0 -115.13141639999994,36.02972400000001,0 -115.13043079999994,36.02819780000001,0 -115.12900939999993,36.02670510000001,0 -115.12806399999994,36.025972,0 -115.12594679999995,36.02479660000001,0 -115.12413779999994,36.0241562,0 -115.12222109999993,36.0237593,0 -115.12093669999993,36.023639900000006,0 -115.09296819999994,36.02340000000001,0 -115.09085879999994,36.0235004,0 -115.08179679999992,36.02491140000001,0 -115.03421169999994,36.030935500000005,0 -115.02978719999993,36.03178450000001,0 -115.02169189999995,36.03278720000001,0 -115.02146319999994,36.03273780000001,0 -115.01828979999996,36.03287730000001,0 -115.01548969999996,36.033204700000006,0 -115.01499289999994,36.033148100000005,0 -115.01432629999995,36.03293620000001,0 -115.01391719999994,36.032704200000005,0 -115.01075299999995,36.029989400000005,0 -115.01052789999994,36.02990700000001,0 -114.99207839999995,36.01434520000001,0 -114.99130479999997,36.01357000000001,0 -114.99073229999996,36.012839500000005,0 -114.98778019999997,36.00808130000001,0 -114.98604219999997,36.006054400000004,0 -114.98476719999996,36.0048967,0 -114.98233039999997,36.00317450000001,0 -114.98034589999997,36.00212220000001,0 -114.97747139999997,36.00101180000001,0 -114.97511929999996,36.000404900000014,0 -114.97231469999994,35.99998320000001,0 -114.97090519999996,35.999889900000014,0 -114.94870399999996,35.99990070000001,0 -114.94686239999997,35.99972190000001,0 -114.94463639999998,35.99931700000001,0 -114.94256509999998,35.99873450000001,0 -114.93311609999998,35.99491960000001,0 -114.93164569999998,35.99415440000001,0 -114.92960459999998,35.99270970000001,0 -114.92096959999998,35.98497770000001,0 -114.91885429999996,35.9826223,0 -114.91779379999996,35.9811698,0 -114.91627329999997,35.97853510000001,0 -114.91532649999996,35.976345900000005,0 -114.91455979999995,35.97377410000001,0 -114.91461889999995,35.97369410000001,0 -114.91433389999995,35.971378900000005,0 -114.91426809999993,35.97123500000001,0 -114.91420539999993,35.97081420000001,0 -114.91393029999993,35.96999220000001,0 -114.91334299999994,35.9692455,0 -114.91269799999993,35.9687743,0 -114.91196289999993,35.9684515,0 -114.91126819999992,35.968289899999995,0 -114.88197829999993,35.9666743,0 -114.87835449999993,35.9667154,0 -114.8604613999999,35.9683523,0 -114.85909049999991,35.968604899999995,0 -114.8589789999999,35.9687054,0 -114.85571969999991,35.9693519,0 -114.85332289999991,35.9701084,0 -114.85162609999992,35.970825999999995,0 -114.84946069999992,35.971999399999994,0 -114.84814119999993,35.972857499999996,0 -114.84797639999994,35.972904899999996,0 -114.84604119999995,35.9741954,0 -114.84611979999994,35.974261199999994,0 -114.84641709999994,35.9748205,0 -114.84646489999993,35.975128999999995,0 -114.84641099999992,35.975421399999995,0 -114.84518549999991,35.977536799999996,0 -114.84491039999992,35.9782445,0 -114.84425339999991,35.9811791,0 -114.84378199999992,35.982097399999994,0 -114.84336889999992,35.982650099999994,0 -114.84271519999993,35.98330479999999,0 -114.84168899999992,35.98402229999999,0 -114.83125879999993,35.98940189999999,0 -114.83009909999994,35.99010539999999,0 -114.82815899999993,35.99161659999999,0 -114.82735119999994,35.992405899999994,0 -114.82188139999992,35.999039999999994,0 -114.82180139999991,35.999216999999994,0 -114.81742659999992,36.00453619999999,0 -114.81667939999993,36.00518359999999,0 -114.81531119999991,36.00595329999999,0 -114.8144363999999,36.006263999999994,0 -114.80457329999992,36.00810099999999,0 -114.80429029999992,36.00810859999999,0 -114.8004591999999,36.00878799999999,0 -114.8003482999999,36.00886539999999,0 -114.79999069999991,36.00893939999999,0 -114.79984489999991,36.009027899999985,0 -114.79995619999991,36.009533799999986,0 -114.79994759999991,36.009661499999986,0 -114.79985379999992,36.00989159999998,0 -114.79966079999991,36.01010499999998,0 -114.79933079999991,36.01027459999998,0 -114.79742209999992,36.01046169999998,0 -114.79649569999992,36.010712599999984,0 -114.79611329999993,36.01070189999999,0 -114.79588539999993,36.01063199999999,0 -114.79561179999995,36.01018029999999,0 -114.79559609999994,36.010063899999984,0 -114.79563589999995,36.009895499999985,0 -114.79577009999994,36.009735699999986,0 -114.79594519999995,36.009621199999984,0 -114.79631599999995,36.00960409999998,0 -114.79660039999995,36.00965449999998,0 </coordinates></LineString><TimeSpan><begin>2021-06-04T16:26:13.407Z</begin><end>2021-06-04T17:09:45.000Z</end></TimeSpan></Placemark><Placemark><name>Lake Mead National Recreation Area</name><address>10 Lakeshore Rd, Boulder City, NV 89005</address><ExtendedData><Data name="Email"><value>syugen.zhou@gmail.com</value></Data><Data name="Category"><value>Park</value></Data><Data name="Distance"><value>0</value></Data></ExtendedData><description> Park from 2021-06-04T17:09:45.000Z to 2021-06-04T17:36:39.000Z. Distance 0m </description><Point><coordinates>-114.45593029999999,36.1550863,0</coordinates></Point><TimeSpan><begin>2021-06-04T17:09:45.000Z</begin><end>2021-06-04T17:36:39.000Z</end></TimeSpan></Placemark><Placemark><name>Driving</name><address></address><ExtendedData><Data name="Email"><value>syugen.zhou@gmail.com</value></Data><Data name="Category"><value>Driving</value></Data><Data name="Distance"><value>29866</value></Data></ExtendedData><description> Driving from 2021-06-04T17:36:39.999Z to 2021-06-04T17:59:11.000Z. Distance 29866m </description><LineString><altitudeMode>clampToGround</altitudeMode><extrude>1</extrude><tesselate>1</tesselate><coordinates>-114.7965931,36.0094584,0 -114.79610469999999,36.009390399999994,0 -114.79600759999998,36.00943819999999,0 -114.79594519999998,36.00962119999999,0 -114.79577009999997,36.00973569999999,0 -114.79563589999998,36.00989549999999,0 -114.79561179999999,36.010180299999995,0 -114.7961265,36.01097119999999,0 -114.7974616,36.0105466,0 -114.79922499999999,36.0103905,0 -114.7995516,36.010277099999996,0 -114.7999942,36.0098832,0 -114.8000762,36.0095721,0 -114.8000448,36.009363199999996,0 -114.8000967,36.00915199999999,0 -114.8004064,36.008921099999995,0 -114.8144364,36.006263999999994,0 -114.81531120000001,36.00595329999999,0 -114.81667940000003,36.00518359999999,0 -114.81742660000002,36.00453619999999,0 -114.82180140000003,35.999216999999994,0 -114.82195280000002,35.9991263,0 -114.82746430000003,35.9924718,0 -114.82827070000002,35.991674499999995,0 -114.83018280000002,35.99019729999999,0 -114.84236090000003,35.983728199999995,0 -114.84332020000002,35.9828839,0 -114.84421040000002,35.981589899999996,0 -114.84457820000004,35.98055669999999,0 -114.84508670000002,35.97810639999999,0 -114.84648060000002,35.97559,0 -114.84660970000002,35.975128999999995,0 -114.84657960000003,35.974852,0 -114.84647520000003,35.97466269999999,0 -114.84650570000004,35.97456279999999,0 -114.84642620000004,35.974308699999995,0 -114.84648420000005,35.974136599999994,0 -114.84807930000004,35.972975,0 -114.84814120000003,35.972857499999996,0 -114.85162610000002,35.970825999999995,0 -114.85332290000002,35.9701084,0 -114.85571970000001,35.9693519,0 -114.85897900000002,35.9687054,0 -114.85913830000003,35.9687648,0 -114.87765130000003,35.9670306,0 -114.88188310000002,35.966940300000005,0 -114.90975100000001,35.9684659,0 -114.91043740000002,35.968600800000004,0 -114.91133720000002,35.9689411,0 -114.91231300000001,35.969572,0 -114.91282840000001,35.970097900000006,0 -114.91332520000002,35.970914500000006,0 -114.91401870000003,35.973043200000006,0 -114.91411250000002,35.97309020000001,0 -114.91538540000002,35.97721740000001,0 -114.91666970000003,35.9798356,0 -114.91806120000001,35.9819598,0 -114.92089900000002,35.9852787,0 -114.92974550000002,35.993161400000005,0 -114.93134050000002,35.9942419,0 -114.93300880000002,35.995097,0 -114.94134410000002,35.998460200000004,0 -114.94483780000003,35.9994942,0 -114.94701920000001,35.9998721,0 -114.94943370000001,36.0000605,0 -114.9716619,36.0000879,0 -114.97546230000002,36.0006464,0 -114.97858760000003,36.0015682,0 -114.98186150000002,36.0030969,0 -114.98359980000001,36.004215,0 -114.98510060000002,36.005412500000006,0 -114.98688840000003,36.0072439,0 -114.99091940000004,36.0133945,0 -114.99175720000004,36.0142863,0 -115.00841900000006,36.0282256,0 -115.01958040000005,36.0386486,0 -115.02035390000005,36.039759100000005,0 -115.02083480000005,36.0407523,0 -115.02340710000006,36.0485376,0 -115.02745410000006,36.0565936,0 -115.03061510000006,36.0618517,0 -115.03061070000005,36.0619441,0 -115.03305840000004,36.066789299999996,0 -115.03583480000005,36.07099259999999,0 -115.03606450000004,36.07164419999999,0 -115.03848100000005,36.07162679999999,0 -115.04054410000003,36.07143669999999,0 -115.04042900000003,36.071000799999986,0 -115.04028320000005,36.070886499999986,0 -115.04015360000005,36.07085079999999,0 -115.03898040000004,36.07083939999998,0 -115.03887810000006,36.070882199999986,0 -115.03740630000006,36.07088309999999,0 -115.03731430000005,36.07082819999999,0 -115.03706070000005,36.07079089999999,0 -115.03696020000005,36.070720499999986,0 -115.03653560000005,36.07003489999999,0 -115.03670990000003,36.069934299999986,0 -115.03726380000005,36.06992239999999,0 -115.03726710000005,36.06965239999999,0 </coordinates></LineString><TimeSpan><begin>2021-06-04T17:36:39.999Z</begin><end>2021-06-04T17:59:11.000Z</end></TimeSpan></Placemark><Placemark><name>Costco Wholesale</name><address>791 Marks St, Henderson, NV 89014</address><ExtendedData><Data name="Email"><value>syugen.zhou@gmail.com</value></Data><Data name="Category"><value>Warehouse store</value></Data><Data name="Distance"><value>0</value></Data></ExtendedData><description> Warehouse store from 2021-06-04T17:59:11.000Z to 2021-06-04T18:13:42.000Z. Distance 0m </description><Point><coordinates>-115.03788759999999,36.0699207,0</coordinates></Point><TimeSpan><begin>2021-06-04T17:59:11.000Z</begin><end>2021-06-04T18:13:42.000Z</end></TimeSpan></Placemark><Placemark><name>Driving</name><address></address><ExtendedData><Data name="Email"><value>syugen.zhou@gmail.com</value></Data><Data name="Category"><value>Driving</value></Data><Data name="Distance"><value>15573</value></Data></ExtendedData><description> Driving from 2021-06-04T18:13:42.000Z to 2021-06-04T18:44:02.075Z. Distance 15573m </description><LineString><altitudeMode>clampToGround</altitudeMode><extrude>1</extrude><tesselate>1</tesselate><coordinates>-115.0365295,36.0688554,0 -115.03628479999999,36.068854599999995,0 -115.0362808,36.06951479999999,0 -115.036238,36.06963049999999,0 -115.0362311,36.06970339999999,0 -115.0362901,36.06991149999999,0 -115.03679849999999,36.070727699999985,0 -115.0369027,36.07083199999998,0 -115.03703099999998,36.07089249999998,0 -115.0371668,36.070930899999986,0 -115.03728069999998,36.070938199999986,0 -115.03740629999999,36.07088309999999,0 -115.03887809999998,36.070882199999986,0 -115.038975,36.07094129999999,0 -115.039975,36.070945599999995,0 -115.0402271,36.07097099999999,0 -115.0402871,36.070989899999994,0 -115.04023700000002,36.071304999999995,0 -115.03910510000001,36.071387599999994,0 -115.03599580000002,36.0714335,0 -115.03606450000002,36.071644199999994,0 -115.03654860000002,36.0726315,0 -115.03717080000003,36.0735883,0 -115.03948400000004,36.0764582,0 -115.03962200000005,36.0765392,0 -115.04078530000007,36.077874300000005,0 -115.04163740000007,36.078675600000004,0 -115.04308480000006,36.079791400000005,0 -115.04406500000006,36.08041240000001,0 -115.05554450000007,36.086374000000006,0 -115.05666540000009,36.08686440000001,0 -115.0580526000001,36.08733080000001,0 -115.0590467000001,36.087577300000014,0 -115.05991890000011,36.087739700000014,0 -115.0655884000001,36.08841500000001,0 -115.0661716000001,36.08854090000001,0 -115.06719510000009,36.08883540000001,0 -115.0677182000001,36.08902780000001,0 -115.0684605000001,36.089364300000014,0 -115.06917650000011,36.08973720000001,0 -115.07692400000012,36.09450170000001,0 -115.07821840000011,36.09546230000001,0 -115.0785785000001,36.09581120000001,0 -115.07860050000012,36.095883000000015,0 -115.07897490000012,36.09633190000002,0 -115.08000750000011,36.09775900000001,0 -115.08043380000011,36.09843190000001,0 -115.0805725000001,36.09872140000001,0 -115.08064310000012,36.098941300000014,0 -115.08070900000013,36.09935780000001,0 -115.08071840000012,36.10037050000001,0 -115.11814140000014,36.10002150000001,0 -115.11917280000013,36.100045300000005,0 -115.12797530000014,36.10103500000001,0 -115.13908470000014,36.10103080000001,0 -115.13920100000014,36.100954600000016,0 -115.14488440000014,36.10094750000001,0 -115.14504820000012,36.10100270000001,0 -115.14710880000011,36.101206200000014,0 -115.14771540000011,36.10121150000001,0 -115.14977300000011,36.101118600000014,0 -115.15997640000012,36.10093420000001,0 -115.1651317000001,36.101009300000015,0 -115.1722705000001,36.100937000000016,0 -115.1725837000001,36.101074900000015,0 -115.1726560000001,36.10114150000002,0 -115.1728051000001,36.101337100000016,0 -115.17278040000011,36.103847000000016,0 -115.17279810000011,36.10394520000001,0 -115.17277760000012,36.10558180000002,0 -115.17288330000011,36.105708600000014,0 -115.17290760000012,36.105781100000016,0 -115.17292250000013,36.10623850000001,0 -115.17295740000012,36.10642590000001,0 -115.17311250000012,36.10661380000001,0 -115.17314970000011,36.10663450000001,0 -115.1733985000001,36.106710200000016,0 -115.1735290000001,36.10668960000001,0 -115.1737226000001,36.10670130000001,0 -115.17434280000012,36.10686550000002,0 -115.17436210000011,36.10686230000002,0 -115.1743801000001,36.10685040000001,0 -115.17446410000011,36.106699700000014,0 -115.17451560000009,36.106437800000016,0 -115.17450420000009,36.106393900000015,0 -115.17443110000008,36.106255200000014,0 -115.17439010000007,36.10622200000002,0 -115.17434190000006,36.106202400000015,0 -115.17400880000007,36.10616530000002,0 -115.17398160000006,36.10614610000002,0 -115.17397570000007,36.10613100000002,0 -115.17399040000005,36.10588170000002,0 -115.17413270000004,36.10589040000002,0 -115.17415780000005,36.10588610000001,0 -115.17418320000003,36.105871000000015,0 -115.17419530000002,36.105852100000014,0 -115.17421190000003,36.10529160000001,0 -115.17525600000003,36.10530380000001,0 -115.17528060000004,36.10531130000001,0 -115.17534170000005,36.10535190000001,0 -115.17535560000006,36.105380100000005,0 -115.17537630000004,36.10625410000001,0 -115.17538330000005,36.1062711,0 -115.17540520000003,36.1062936,0 -115.17549150000004,36.1063239,0 -115.17585380000003,36.1063278,0 -115.17550670000004,36.1065773,0 -115.17480610000003,36.106693500000006,0 -115.17465120000003,36.106835200000006,0 -115.17317250000002,36.106440500000005,0 -115.17277430000003,36.106423400000004,0 -115.17280740000004,36.10874990000001,0 -115.17314560000004,36.10905840000001,0 -115.17345650000006,36.109228300000005,0 -115.17362980000004,36.10928800000001,0 -115.17377430000005,36.10930840000001,0 -115.17605330000005,36.10930920000001,0 -115.17654580000004,36.109207300000016,0 -115.17685350000005,36.10908720000001,0 -115.17758970000006,36.10863520000001,0 </coordinates></LineString><TimeSpan><begin>2021-06-04T18:13:42.000Z</begin><end>2021-06-04T18:44:02.075Z</end></TimeSpan></Placemark><Placemark><name>Vdara Hotel &amp; Spa</name><address>2600 W Harmon Ave, Las Vegas, NV 89158</address><ExtendedData><Data name="Email"><value>syugen.zhou@gmail.com</value></Data><Data name="Category"><value>Hotel</value></Data><Data name="Distance"><value>0</value></Data></ExtendedData><description> Hotel from 2021-06-04T18:44:02.075Z to 2021-06-04T23:43:33.061Z. Distance 0m </description><Point><coordinates>-115.17775759999999,36.1092795,0</coordinates></Point><TimeSpan><begin>2021-06-04T18:44:02.075Z</begin><end>2021-06-04T23:43:33.061Z</end></TimeSpan></Placemark><Placemark><name>Walking</name><address></address><ExtendedData><Data name="Email"><value>syugen.zhou@gmail.com</value></Data><Data name="Category"><value>Walking</value></Data><Data name="Distance"><value>2239</value></Data></ExtendedData><description> Walking from 2021-06-04T23:43:33.061Z to 2021-06-05T00:43:23.812Z. Distance 2239m </description><LineString><altitudeMode>clampToGround</altitudeMode><extrude>1</extrude><tesselate>1</tesselate><coordinates>-115.17775759999998,36.1092795,0 -115.17775759999998,36.1092795,0 -115.1781959,36.1093451,0 -115.177239,36.1081192,0 -115.1755553,36.1093112,0 -115.174191,36.1093718,0 -115.1732867,36.1105683,0 -115.1752304,36.1118288,0 -115.1753064,36.1126478,0 -115.1773631,36.1120413,0 -115.1778095,36.1125878,0 -115.1748911,36.1139149,0 -115.1737273,36.1148046,0 -115.1739885,36.1156934,0 -115.1766072,36.1159423,0 -115.17449899999998,36.1161685,0 -115.17449899999998,36.1161685,0 </coordinates></LineString><TimeSpan><begin>2021-06-04T23:43:33.061Z</begin><end>2021-06-05T00:43:23.812Z</end></TimeSpan></Placemark><Placemark><name>Caesars Palace</name><address>3570 S Las Vegas Blvd, Las Vegas, NV 89109</address><ExtendedData><Data name="Email"><value>syugen.zhou@gmail.com</value></Data><Data name="Category"><value>Hotel</value></Data><Data name="Distance"><value>0</value></Data></ExtendedData><description> Hotel from 2021-06-05T00:43:23.812Z to 2021-06-05T03:59:29.177Z. Distance 0m </description><Point><coordinates>-115.174499,36.1161685,0</coordinates></Point><TimeSpan><begin>2021-06-05T00:43:23.812Z</begin><end>2021-06-05T03:59:29.177Z</end></TimeSpan></Placemark><Placemark><name>Walking</name><address></address><ExtendedData><Data name="Email"><value>syugen.zhou@gmail.com</value></Data><Data name="Category"><value>Walking</value></Data><Data name="Distance"><value>1511</value></Data></ExtendedData><description> Walking from 2021-06-05T03:59:29.177Z to 2021-06-05T04:34:23.999Z. Distance 1511m </description><LineString><altitudeMode>clampToGround</altitudeMode><extrude>1</extrude><tesselate>1</tesselate><coordinates>-115.17449899999998,36.1161685,0 -115.17449899999998,36.1161685,0 -115.1743592,36.1160213,0 -115.1737966,36.1149674,0 -115.1750966,36.1139027,0 -115.1753459,36.1127856,0 -115.174876,36.1112618,0 -115.1731432,36.1091078,0 -115.173411,36.1089333,0 -115.1750262,36.1078053,0 -115.1767267,36.1079602,0 -115.176868,36.1093427,0 -115.17775759999998,36.1092795,0 -115.17775759999998,36.1092795,0 </coordinates></LineString><TimeSpan><begin>2021-06-05T03:59:29.177Z</begin><end>2021-06-05T04:34:23.999Z</end></TimeSpan></Placemark><Placemark><name>Vdara Hotel &amp; Spa</name><address>2600 W Harmon Ave, Las Vegas, NV 89158</address><ExtendedData><Data name="Email"><value>syugen.zhou@gmail.com</value></Data><Data name="Category"><value>Hotel</value></Data><Data name="Distance"><value>0</value></Data></ExtendedData><description> Hotel from 2021-06-05T04:34:23.999Z to 2021-06-05T17:21:15.836Z. Distance 0m </description><Point><coordinates>-115.17775759999999,36.1092795,0</coordinates></Point><TimeSpan><begin>2021-06-05T04:34:23.999Z</begin><end>2021-06-05T17:21:15.836Z</end></TimeSpan></Placemark></Document></kml>
