<?xml version="1.0" encoding="UTF-8"?><kml xmlns="http://www.opengis.net/kml/2.2" xmlns:gx="http://www.google.com/kml/ext/2.2"><Document><name> Location history from 2021-06-03 to 2021-06-03 </name><open>1</open><description></description><StyleMap id="multiTrack"><Pair><key>normal</key><styleUrl>#multiTrack_n</styleUrl></Pair><Pair><key>highlight</key><styleUrl>#multiTrack_h</styleUrl></Pair></StyleMap><Style id="multiTrack_n"><IconStyle><Icon><href>https://earth.google.com/images/kml-icons/track-directional/track-0.png</href></Icon></IconStyle><LineStyle><color>99ffac59</color><width>6</width></LineStyle></Style><Style id="multiTrack_h"><IconStyle><scale>1.2</scale><Icon><href>https://earth.google.com/images/kml-icons/track-directional/track-0.png</href></Icon></IconStyle><LineStyle><color>99ffac59</color><width>8</width></LineStyle></Style><Placemark><name>Best Western Plus Abbey Inn</name><address>1129 S Bluff St, St. George, UT 84770</address><ExtendedData><Data name="Email"><value>syugen.zhou@gmail.com</value></Data><Data name="Category"><value>Hotel</value></Data><Data name="Distance"><value>0</value></Data></ExtendedData><description> Hotel from 2021-06-03T00:33:47.000Z to 2021-06-03T16:01:28.000Z. Distance 0m </description><Point><coordinates>-113.58426689999999,37.0890245,0</coordinates></Point><TimeSpan><begin>2021-06-03T00:33:47.000Z</begin><end>2021-06-03T16:01:28.000Z</end></TimeSpan></Placemark><Placemark><name>Driving</name><address></address><ExtendedData><Data name="Email"><value>syugen.zhou@gmail.com</value></Data><Data name="Category"><value>Driving</value></Data><Data name="Distance"><value>4706</value></Data></ExtendedData><description> Driving from 2021-06-03T16:01:28.000Z to 2021-06-03T16:09:40.000Z. Distance 4706m </description><LineString><altitudeMode>clampToGround</altitudeMode><extrude>1</extrude><tesselate>1</tesselate><coordinates>-113.5854631,37.089198599999996,0 -113.58533100000001,37.088497600000004,0 -113.5852903,37.0882392,0 -113.58533369999999,37.088113799999995,0 -113.5852669,37.0878661,0 -113.5851883,37.0876345,0 -113.5850935,37.087402000000004,0 -113.5847737,37.086781300000006,0 -113.5844791,37.086270000000006,0 -113.5844097,37.08612130000001,0 -113.5839579,37.085339000000005,0 -113.58378409999999,37.085013700000005,0 -113.583241,37.084101200000006,0 -113.5831819,37.084012400000006,0 -113.582624,37.083078300000004,0 -113.58234110000001,37.083353300000006,0 -113.5821681,37.083544800000006,0 -113.58206550000001,37.08364040000001,0 -113.5819778,37.0837495,0 -113.58187530000001,37.08389420000001,0 -113.5818062,37.084008000000004,0 -113.5817549,37.084104,0 -113.5816763,37.0842755,0 -113.5815392,37.0846338,0 -113.5814748,37.08482099999999,0 -113.5813414,37.0851335,0 -113.5812663,37.08528129999999,0 -113.5810892,37.0855482,0 -113.5809292,37.08575019999999,0 -113.5804006,37.08633129999999,0 -113.5803382,37.0864224,0 -113.579953,37.086808299999994,0 -113.57946899999999,37.08727069999999,0 -113.5790842,37.08760169999999,0 -113.578937,37.08771779999999,0 -113.5788767,37.087776899999994,0 -113.57884329999999,37.08786519999999,0 -113.5782479,37.08830859999999,0 -113.57780409999998,37.088612299999994,0 -113.57717379999998,37.08901439999999,0 -113.56767249999997,37.094717399999986,0 -113.56662899999998,37.09538599999999,0 -113.56591369999998,37.09589849999998,0 -113.56552549999998,37.096202099999985,0 -113.56520799999998,37.09646329999998,0 -113.56459169999998,37.097008399999986,0 -113.56393329999999,37.09766179999998,0 -113.56345959999999,37.09816219999999,0 -113.56290209999999,37.09881599999999,0 -113.56230409999998,37.099622299999986,0 -113.56185739999998,37.10028139999999,0 -113.56166779999998,37.10059059999999,0 -113.56123029999998,37.101382099999995,0 -113.56109309999998,37.10165659999999,0 -113.56085579999997,37.10216799999999,0 -113.56072509999997,37.102470399999994,0 -113.55954179999998,37.1054372,0 -113.55946589999998,37.105609599999994,0 -113.55906459999997,37.10661369999999,0 -113.55904059999996,37.10670199999999,0 -113.55893589999997,37.10680049999999,0 -113.55892959999996,37.106810399999986,0 -113.55883649999997,37.107007999999986,0 -113.55868969999996,37.107293199999994,0 -113.55854409999996,37.1075166,0 -113.55843619999996,37.107649599999995,0 -113.55832649999996,37.10776469999999,0 -113.55823859999998,37.10784579999999,0 -113.55806829999997,37.107982699999994,0 -113.55790209999996,37.10809619999999,0 -113.55776999999998,37.1081739,0 -113.55714289999997,37.108506899999995,0 -113.55694739999998,37.1086302,0 -113.55691279999998,37.1086577,0 -113.55688279999998,37.1086893,0 -113.55680039999999,37.108804000000006,0 -113.55677129999998,37.10883030000001,0 -113.55671519999999,37.108898700000005,0 -113.55666269999998,37.108974700000005,0 -113.55662649999998,37.10904270000001,0 -113.55654279999999,37.10924270000001,0 -113.55644829999999,37.10950610000001,0 -113.55641169999997,37.10957870000001,0 -113.55637499999997,37.10962150000001,0 -113.55623969999998,37.10970930000001,0 -113.55580689999996,37.109722900000015,0 -113.55563129999997,37.109779900000014,0 -113.55502119999996,37.10976580000001,0 -113.55461429999997,37.10976690000002,0 -113.55462619999996,37.11026140000002,0 -113.55440119999997,37.11026420000002,0 -113.55436059999997,37.110270100000015,0 -113.55435099999997,37.11027300000002,0 -113.55434339999996,37.11027710000002,0 -113.55433119999995,37.11028820000002,0 -113.55432689999996,37.110298200000024,0 -113.55431189999996,37.11040510000002,0 -113.55416939999996,37.11075360000002,0 -113.55416939999996,37.11078880000002,0 -113.55416689999996,37.11081070000002,0 </coordinates></LineString><TimeSpan><begin>2021-06-03T16:01:28.000Z</begin><end>2021-06-03T16:09:40.000Z</end></TimeSpan></Placemark><Placemark><name>Starbucks</name><address>158 Red Cliffs Dr, St. George, UT 84790</address><ExtendedData><Data name="Email"><value>syugen.zhou@gmail.com</value></Data><Data name="Category"><value>Coffee shop</value></Data><Data name="Distance"><value>0</value></Data></ExtendedData><description> Coffee shop from 2021-06-03T16:09:40.000Z to 2021-06-03T16:14:43.000Z. Distance 0m </description><Point><coordinates>-113.5539349,37.1108513,0</coordinates></Point><TimeSpan><begin>2021-06-03T16:09:40.000Z</begin><end>2021-06-03T16:14:43.000Z</end></TimeSpan></Placemark><Placemark><name>Driving</name><address></address><ExtendedData><Data name="Email"><value>syugen.zhou@gmail.com</value></Data><Data name="Category"><value>Driving</value></Data><Data name="Distance"><value>187688</value></Data></ExtendedData><description> Driving from 2021-06-03T16:14:43.000Z to 2021-06-03T17:56:54.000Z. Distance 187688m </description><LineString><altitudeMode>clampToGround</altitudeMode><extrude>1</extrude><tesselate>1</tesselate><coordinates>-113.554367,37.1097803,0 -113.5556313,37.1097799,0 -113.55580470000001,37.1098618,0 -113.5559929,37.1098671,0 -113.557184,37.1096747,0 -113.5585808,37.1096828,0 -113.5588718,37.109589899999996,0 -113.55901190000002,37.1095137,0 -113.55911480000002,37.1093974,0 -113.55917070000001,37.1092892,0 -113.5591952,37.109173399999996,0 -113.55909550000001,37.108539,0 -113.55917020000001,37.107661,0 -113.55948730000001,37.106700700000005,0 -113.55948070000001,37.10663280000001,0 -113.55944030000002,37.106542700000006,0 -113.56135290000002,37.101759200000004,0 -113.56202680000001,37.10052420000001,0 -113.56321230000002,37.09886390000001,0 -113.56415050000003,37.09781510000001,0 -113.56531510000002,37.09671700000001,0 -113.56746130000002,37.09513780000001,0 -113.57799570000002,37.08878410000001,0 -113.57943290000001,37.08773820000002,0 -113.58090590000002,37.086396700000016,0 -113.58157610000002,37.08567210000002,0 -113.58320090000002,37.08341030000002,0 -113.58415330000003,37.08148850000002,0 -113.58465500000001,37.079963200000016,0 -113.58497510000002,37.07822500000002,0 -113.58505030000002,37.07740690000002,0 -113.58392890000003,37.06213120000002,0 -113.58398590000002,37.06124960000002,0 -113.58410240000002,37.06069710000001,0 -113.58436210000002,37.059956200000016,0 -113.58467120000003,37.05933760000001,0 -113.58522190000002,37.05856220000001,0 -113.58684410000002,37.05674460000001,0 -113.58737550000002,37.05583890000001,0 -113.58769170000002,37.05498030000001,0 -113.58868350000002,37.05036330000001,0 -113.58927780000002,37.04856780000001,0 -113.58976090000002,37.04752800000001,0 -113.59078020000003,37.04583040000001,0 -113.59149350000003,37.04488560000001,0 -113.59272020000002,37.04354550000001,0 -113.59813130000002,37.03850020000001,0 -113.59923480000002,37.037193400000014,0 -113.61964310000002,37.00561170000001,0 -113.62020330000001,37.00496760000001,0 -113.62236820000001,37.00304270000001,0 -113.62310370000002,37.00224240000001,0 -113.62388010000001,37.00106370000001,0 -113.6241697,37.00043850000001,0 -113.62445939999999,36.999550700000015,0 -113.624645,36.998351100000015,0 -113.62464800000001,36.994542400000014,0 -113.6248398,36.99357300000001,0 -113.6252723,36.992529900000015,0 -113.62584240000001,36.99167240000001,0 -113.62632070000001,36.991132100000016,0 -113.62724370000001,36.99034630000001,0 -113.62799360000001,36.98987180000002,0 -113.62869900000001,36.989520800000015,0 -113.64525700000002,36.98313510000001,0 -113.6476305,36.982395300000015,0 -113.65113780000001,36.981547800000016,0 -113.65497570000002,36.98093940000002,0 -113.65701260000002,36.98074110000002,0 -113.65940580000003,36.98062270000002,0 -113.66278000000003,36.98064980000002,0 -113.66965220000003,36.981059600000016,0 -113.67047100000003,36.98101600000002,0 -113.67092190000004,36.980948900000016,0 -113.67168770000005,36.980740300000015,0 -113.67228830000005,36.980492900000016,0 -113.67268140000004,36.980282400000014,0 -113.67346700000004,36.97970200000001,0 -113.67530500000005,36.97778700000001,0 -113.67611370000004,36.97712200000001,0 -113.67688820000005,36.97670060000001,0 -113.67773180000005,36.97641130000001,0 -113.68144240000005,36.975745100000005,0 -113.68238270000005,36.97550850000001,0 -113.68408180000004,36.97492020000001,0 -113.68800790000004,36.9729984,0 -113.68875660000005,36.97277750000001,0 -113.68989410000003,36.9726009,0 -113.69089650000004,36.972603500000005,0 -113.69197710000003,36.972755600000006,0 -113.69605180000003,36.9737742,0 -113.69761940000004,36.974015900000005,0 -113.69879390000003,36.97409430000001,0 -113.70717250000003,36.97406470000001,0 -113.71130230000003,36.97391870000001,0 -113.71190350000003,36.97381450000001,0 -113.71249610000004,36.97365100000001,0 -113.71315170000003,36.973407000000016,0 -113.71355940000004,36.97320050000001,0 -113.71655670000003,36.97104520000001,0 -113.71725340000003,36.97068150000001,0 -113.71764400000004,36.970533500000016,0 -113.71873170000003,36.970277300000014,0 -113.71960540000003,36.97022550000001,0 -113.72032660000004,36.970277500000016,0 -113.72495270000002,36.97131010000002,0 -113.72573170000003,36.971370100000016,0 -113.72682800000003,36.97129060000002,0 -113.73184290000002,36.970139900000014,0 -113.73237320000003,36.97008850000001,0 -113.73333120000002,36.97011080000001,0 -113.73627010000001,36.97047700000001,0 -113.74948160000002,36.97123640000001,0 -113.75042520000002,36.97118860000001,0 -113.75122620000002,36.97105730000001,0 -113.75183890000002,36.97090320000001,0 -113.75249420000002,36.97066890000001,0 -113.75330990000002,36.970277200000005,0 -113.75431890000002,36.9695752,0 -113.75492220000001,36.9689879,0 -113.75934660000001,36.963526400000006,0 -113.76011450000001,36.96278050000001,0 -113.76092270000001,36.962159500000006,0 -113.76225580000002,36.96139170000001,0 -113.76326750000001,36.960965800000004,0 -113.76418290000001,36.960685600000005,0 -113.77000440000002,36.9594908,0 -113.77054540000002,36.9594458,0 -113.77123010000003,36.9594523,0 -113.77498760000002,36.9599373,0 -113.77594070000002,36.9599886,0 -113.78140340000003,36.959967,0 -113.78261690000002,36.9598102,0 -113.78374850000003,36.959456599999996,0 -113.78637750000003,36.9580997,0 -113.78713560000004,36.9577876,0 -113.79620690000004,36.954776,0 -113.79733870000004,36.9542755,0 -113.79802510000003,36.9538984,0 -113.79891660000004,36.9533094,0 -113.80515090000003,36.947856400000006,0 -113.80593100000004,36.947294500000005,0 -113.80654500000003,36.94697670000001,0 -113.80941630000004,36.9460654,0 -113.81003270000004,36.94581960000001,0 -113.81089520000003,36.94532840000001,0 -113.81387820000003,36.94261260000001,0 -113.81458620000004,36.94211050000001,0 -113.81503980000002,36.94187000000001,0 -113.81577820000003,36.94159150000001,0 -113.82222540000004,36.94022390000001,0 -113.82298010000004,36.939975700000005,0 -113.82390320000003,36.939509900000004,0 -113.82451290000003,36.9390724,0 -113.82488340000003,36.9387352,0 -113.82541420000004,36.938093200000004,0 -113.82582870000003,36.937294800000004,0 -113.82604740000002,36.93654940000001,0 -113.82609060000003,36.93621930000001,0 -113.82609960000002,36.93434170000001,0 -113.82615060000002,36.934013000000014,0 -113.82629390000002,36.933582500000014,0 -113.82661850000002,36.932980100000016,0 -113.82868770000002,36.93025480000002,0 -113.83157850000002,36.92777220000002,0 -113.83193220000001,36.92730790000002,0 -113.83214210000001,36.926885900000016,0 -113.83226560000001,36.92646670000002,0 -113.83236580000002,36.92571090000002,0 -113.83219570000001,36.92153480000002,0 -113.83227580000002,36.92100210000002,0 -113.83257350000001,36.920157900000014,0 -113.83449320000003,36.91679550000001,0 -113.83485320000001,36.916315400000016,0 -113.83520090000002,36.91598290000002,0 -113.83582750000001,36.915568100000016,0 -113.83617770000001,36.91540040000002,0 -113.83668210000002,36.91522300000002,0 -113.83720650000002,36.91510940000001,0 -113.83789080000001,36.91504490000001,0 -113.84314530000002,36.915258600000016,0 -113.84354590000002,36.91532090000001,0 -113.84419570000003,36.915512700000015,0 -113.84454810000003,36.91567910000001,0 -113.84506120000003,36.91601700000001,0 -113.84636800000003,36.91712180000001,0 -113.84680950000002,36.91738420000001,0 -113.84716360000002,36.917545000000004,0 -113.84765700000001,36.91770680000001,0 -113.84922000000002,36.918076000000006,0 -113.8498282,36.91832310000001,0 -113.8503547,36.9186654,0 -113.8506323,36.918919700000004,0 -113.85104000000001,36.91947460000001,0 -113.8516826,36.920801000000004,0 -113.85203220000001,36.9212708,0 -113.8524817,36.92166710000001,0 -113.8529346,36.921937400000004,0 -113.8536638,36.922212300000005,0 -113.8541895,36.922311,0 -113.8547989,36.9223404,0 -113.8553741,36.9222878,0 -113.8558809,36.922170699999995,0 -113.85924820000001,36.920944299999995,0 -113.8598272,36.9206375,0 -113.8601323,36.9204177,0 -113.8614276,36.919269,0 -113.8621561,36.9187788,0 -113.8631033,36.9183732,0 -113.86374500000001,36.9182074,0 -113.8648286,36.9180912,0 -113.8690402,36.9181411,0 -113.8702692,36.9180794,0 -113.87183459999999,36.9178659,0 -113.87281099999998,36.917646600000005,0 -113.87409919999999,36.9172548,0 -113.87496649999999,36.9169172,0 -113.87603399999998,36.9164106,0 -113.90985019999998,36.896370999999995,0 -113.91146809999998,36.895551999999995,0 -113.91321509999997,36.894889799999994,0 -113.91450739999998,36.8945259,0 -113.91579159999998,36.8942622,0 -113.92580839999997,36.8931527,0 -113.92714109999997,36.8928894,0 -113.92790719999996,36.892661,0 -113.92928509999997,36.8920908,0 -113.93014769999996,36.891613899999996,0 -113.97866659999997,36.8608021,0 -113.98033909999997,36.8596328,0 -113.98219409999996,36.8581822,0 -113.98447139999996,36.8560764,0 -114.00299079999995,36.8346353,0 -114.00458599999996,36.8331154,0 -114.00576779999996,36.8322093,0 -114.00795219999996,36.8308544,0 -114.00981729999997,36.8299167,0 -114.01079029999997,36.8295101,0 -114.02443329999997,36.825305799999995,0 -114.03320699999998,36.8223592,0 -114.05700459999997,36.8160979,0 -114.05849459999997,36.815581099999996,0 -114.07016429999999,36.810094400000004,0 -114.07179359999998,36.809539300000004,0 -114.07285379999998,36.8093142,0 -114.07439599999998,36.80915190000001,0 -114.07561769999998,36.80915620000001,0 -114.08149289999999,36.80992880000001,0 -114.08302009999998,36.810033200000014,0 -114.08509959999999,36.80999720000001,0 -114.0865918,36.80985130000001,0 -114.08874809999999,36.80944430000001,0 -114.09109589999998,36.808716300000015,0 -114.09633159999998,36.806310300000014,0 -114.09774579999998,36.805741900000015,0 -114.09916019999999,36.80529700000002,0 -114.10541239999998,36.80391680000002,0 -114.10750469999998,36.80322730000002,0 -114.10916359999997,36.80247580000002,0 -114.11030999999998,36.80184100000002,0 -114.14227389999999,36.77979620000002,0 -114.14388909999998,36.778850900000016,0 -114.16958049999998,36.76593370000001,0 -114.17067369999998,36.76547780000001,0 -114.17261429999998,36.76485800000001,0 -114.17406299999998,36.764532400000014,0 -114.17566229999998,36.76429480000001,0 -114.17722639999998,36.76418570000001,0 -114.17944749999998,36.76423060000001,0 -114.23323209999998,36.77084340000001,0 -114.23647989999998,36.77147320000002,0 -114.23870099999998,36.77207390000001,0 -114.24817579999998,36.77512560000001,0 -114.24953939999997,36.77566640000001,0 -114.25452339999998,36.77806190000001,0 -114.25592819999999,36.77855440000001,0 -114.25754369999999,36.77897620000002,0 -114.25889849999999,36.77922190000001,0 -114.26067399999998,36.77940210000001,0 -114.26191579999998,36.77943650000001,0 -114.2632898,36.779390000000014,0 -114.2647904,36.77923910000001,0 -114.3584585,36.76254790000001,0 -114.364495,36.76117770000001,0 -114.41567669999999,36.74666780000001,0 -114.4185796,36.745701400000016,0 -114.42081329999999,36.74478630000001,0 -114.4235658,36.743420400000005,0 -114.4871548,36.70436730000001,0 -114.4922704,36.70103480000001,0 -114.49354290000001,36.70007830000001,0 -114.50595200000001,36.68953220000001,0 -114.50781250000001,36.68775700000001,0 -114.50871330000003,36.68678000000001,0 -114.51020220000002,36.68493750000001,0 -114.51202400000001,36.68210030000001,0 -114.51462300000001,36.67690190000001,0 -114.51540440000001,36.67563100000001,0 -114.51669030000001,36.67409830000001,0 -114.51770030000002,36.67316860000001,0 -114.51947620000001,36.67189720000001,0 -114.52113840000001,36.67101080000001,0 -114.52256320000002,36.67043660000001,0 -114.52426850000002,36.66992300000001,0 -114.53414510000003,36.66799040000001,0 -114.53739390000003,36.667541600000014,0 -114.56436510000003,36.66527940000001,0 -114.56609860000003,36.664945400000015,0 -114.56787430000003,36.66444020000001,0 -114.56893570000004,36.66404690000001,0 -114.57057880000004,36.663294300000004,0 -114.57217140000003,36.662359200000004,0 -114.57371600000003,36.66120440000001,0 -114.58280450000004,36.65264120000001,0 -114.63623660000003,36.60474460000001,0 -114.63852150000004,36.60241240000001,0 -114.64033790000003,36.600283300000015,0 -114.65277660000004,36.58418410000001,0 -114.65417000000005,36.58269030000001,0 -114.65671170000005,36.580425800000015,0 -114.65880300000005,36.57888140000001,0 -114.70343400000003,36.54889440000001,0 -114.70522110000002,36.54757310000001,0 -114.75189590000004,36.50808180000001,0 -114.75344300000003,36.50692720000001,0 -114.75535000000005,36.5056865,0 -114.75665790000005,36.504937700000006,0 -114.82128430000006,36.4721533,0 -114.82352900000006,36.4707664,0 -114.82595670000006,36.4689842,0 -114.82744330000007,36.4677041,0 -114.85273970000006,36.4433863,0 -114.85404580000005,36.4418443,0 -114.85537330000005,36.4400195,0 -114.90219350000004,36.3640684,0 -114.90255190000005,36.3633209,0 -114.90287700000006,36.3623574,0 -114.90311890000005,36.3609251,0 -114.90324300000005,36.3573553,0 -114.90345960000005,36.3561365,0 -114.90387780000005,36.3547524,0 -114.90418560000005,36.3540036,0 -114.90530190000005,36.352027299999996,0 -114.92277250000006,36.3303672,0 -114.92391760000005,36.329161899999995,0 -114.92488860000006,36.32832549999999,0 -114.92612530000007,36.327438599999994,0 -114.93334740000007,36.3235092,0 -114.93616580000005,36.32171819999999,0 -114.93778710000005,36.32049429999999,0 -114.93982630000005,36.31869689999999,0 -114.94321110000004,36.3152597,0 -114.94414780000004,36.314449599999996,0 -114.94550200000005,36.313476599999994,0 -114.94661390000005,36.3128218,0 -114.94864190000006,36.3118851,0 -115.06576790000005,36.26792689999999,0 -115.06721520000005,36.267288699999995,0 -115.07061580000004,36.265495099999995,0 -115.07332020000004,36.263672299999996,0 -115.07537970000003,36.26203309999999,0 -115.07543950000004,36.261956,0 -115.10837410000005,36.23503159999999,0 -115.10847990000003,36.234969899999996,0 -115.11495130000004,36.2296579,0 -115.11591650000004,36.2287213,0 -115.11701170000003,36.2274555,0 -115.13612500000004,36.2014487,0 -115.13675580000005,36.200438299999995,0 -115.13983610000005,36.193769399999994,0 -115.14037340000006,36.192862999999996,0 -115.14255890000005,36.1900785,0 -115.14311980000006,36.1891016,0 -115.14341950000006,36.1883907,0 -115.14372330000008,36.1872275,0 -115.14382290000007,36.186276799999995,0 -115.14383920000007,36.184061,0 -115.14404180000007,36.1830844,0 -115.14434370000008,36.1823103,0 -115.14467920000006,36.1817335,0 -115.14542700000007,36.180766299999995,0 -115.14556230000007,36.180749999999996,0 -115.14615230000005,36.180336499999996,0 -115.14922450000006,36.1787899,0 -115.15053310000006,36.1780312,0 -115.15370890000005,36.1758935,0 -115.15449320000003,36.1754785,0 -115.15550610000003,36.1750942,0 -115.15599190000002,36.1749655,0 -115.1564529,36.1748959,0 -115.15695000000001,36.1748755,0 -115.15812840000001,36.1749965,0 -115.15896160000001,36.1752739,0 -115.15898290000001,36.1753012,0 -115.15987820000001,36.17561679999999,0 -115.160024,36.1756307,0 -115.16044280000001,36.1757454,0 -115.16089470000001,36.175819600000004,0 -115.16089080000003,36.1740833,0 -115.16084530000003,36.1740002,0 -115.16079270000004,36.1739633,0 -115.16079640000005,36.1734678,0 -115.16086910000004,36.173348,0 -115.16087790000003,36.170221399999996,0 -115.16080750000003,36.17016939999999,0 -115.16082660000004,36.16921099999999,0 -115.16087460000004,36.16910109999999,0 -115.16094990000006,36.16693289999999,0 </coordinates></LineString><TimeSpan><begin>2021-06-03T16:14:43.000Z</begin><end>2021-06-03T17:56:54.000Z</end></TimeSpan></Placemark><Placemark><name>Las Vegas North Premium Outlets</name><address>875 S Grand Central Pkwy, Las Vegas, NV 89106</address><ExtendedData><Data name="Email"><value>syugen.zhou@gmail.com</value></Data><Data name="Category"><value>Outlet mall</value></Data><Data name="Distance"><value>0</value></Data></ExtendedData><description> Outlet mall from 2021-06-03T17:56:54.000Z to 2021-06-03T20:23:13.000Z. Distance 0m </description><Point><coordinates>-115.1575135,36.164048799999996,0</coordinates></Point><TimeSpan><begin>2021-06-03T17:56:54.000Z</begin><end>2021-06-03T20:23:13.000Z</end></TimeSpan></Placemark><Placemark><name>Driving</name><address></address><ExtendedData><Data name="Email"><value>syugen.zhou@gmail.com</value></Data><Data name="Category"><value>Driving</value></Data><Data name="Distance"><value>10237</value></Data></ExtendedData><description> Driving from 2021-06-03T20:23:13.000Z to 2021-06-03T21:03:41.000Z. Distance 10237m </description><LineString><altitudeMode>clampToGround</altitudeMode><extrude>1</extrude><tesselate>1</tesselate><coordinates>-115.15863019999999,36.1663356,0 -115.1588678,36.1663059,0 -115.15904919999998,36.166241799999995,0 -115.1594488,36.1662408,0 -115.15986939999999,36.1662229,0 -115.16061309999999,36.1662295,0 -115.1607559,36.166275999999996,0 -115.16085559999999,36.1662898,0 -115.1610424,36.1662918,0 -115.1610637,36.166198699999995,0 -115.16123150000001,36.1657569,0 -115.16179250000002,36.164525299999994,0 -115.16183850000002,36.1643896,0 -115.16184980000003,36.164326599999995,0 -115.16169930000004,36.164288,0 -115.16155580000003,36.1641001,0 -115.16147660000003,36.1639647,0 -115.16145010000004,36.1638798,0 -115.16143950000004,36.1637905,0 -115.16156620000004,36.1628258,0 -115.16159930000005,36.1620029,0 -115.16155870000006,36.1612244,0 -115.16155570000004,36.161218,0 -115.16148950000003,36.1611413,0 -115.16145060000004,36.1581048,0 -115.16148640000003,36.15754309999999,0 -115.16159930000002,36.15676969999999,0 -115.16163420000001,36.15662649999999,0 -115.16186820000001,36.15589159999999,0 -115.16206140000001,36.155407499999995,0 -115.1623136,36.154890599999995,0 -115.16259730000002,36.154403599999995,0 -115.16294200000002,36.1538938,0 -115.16335160000001,36.1533788,0 -115.16638030000001,36.1498644,0 -115.16638280000001,36.149854,0 -115.16634150000002,36.1497301,0 -115.17157080000003,36.143834999999996,0 -115.17271730000002,36.142589799999996,0 -115.1778859,36.1367092,0 -115.178402,36.136047,0 -115.17879820000002,36.135474599999995,0 -115.17909590000001,36.134996199999996,0 -115.17947810000001,36.134296199999994,0 -115.1798137,36.13358029999999,0 -115.18009939999999,36.132854599999995,0 -115.1803679,36.13200929999999,0 -115.1805028,36.13147679999999,0 -115.1806612,36.13063409999999,0 -115.18072049999999,36.13016379999999,0 -115.18077690000001,36.12942049999999,0 -115.18081800000002,36.12689869999999,0 -115.18082010000002,36.11965759999999,0 -115.18095500000003,36.11951319999999,0 -115.18095880000001,36.11950439999999,0 -115.18124990000003,36.11609319999999,0 -115.18125340000002,36.11591289999999,0 -115.18129670000003,36.11561859999999,0 -115.18135490000003,36.115441399999995,0 -115.18141590000003,36.115305199999995,0 -115.18156950000005,36.11507379999999,0 -115.18178770000004,36.11487189999999,0 -115.18185770000004,36.11481749999999,0 -115.18196760000004,36.11474669999999,0 -115.18211880000005,36.11466869999999,0 -115.18223140000005,36.11462109999999,0 -115.18245390000004,36.11455079999998,0 -115.18263800000004,36.11451559999998,0 -115.18300630000003,36.114480999999984,0 -115.18305770000002,36.114458499999984,0 -115.18309670000002,36.11443329999998,0 -115.18356480000001,36.11446539999998,0 -115.18434040000001,36.11459999999998,0 -115.18485690000001,36.114712699999984,0 -115.187037,36.115250299999985,0 -115.1874846,36.11537829999998,0 -115.18847009999999,36.11560379999998,0 -115.18869649999998,36.11563459999998,0 -115.18894139999999,36.11565309999998,0 -115.19013659999997,36.11565069999998,0 -115.19013909999997,36.11521159999999,0 -115.19016239999998,36.11494569999999,0 -115.19003449999998,36.11076939999999,0 -115.18996499999997,36.11028039999999,0 -115.18988269999996,36.110126699999995,0 -115.18974639999996,36.109814099999994,0 -115.18935059999997,36.10941149999999,0 -115.18870209999996,36.10886039999999,0 -115.18860539999996,36.108806099999995,0 -115.18852469999996,36.108746499999995,0 -115.18845279999995,36.108709899999994,0 -115.18839899999996,36.1086903,0 -115.18817759999996,36.1086445,0 -115.18799289999997,36.108563399999994,0 -115.18735509999996,36.108424199999995,0 -115.18723669999996,36.108374899999994,0 -115.18717279999996,36.1083724,0 -115.18674829999995,36.108308199999996,0 -115.18649779999993,36.108250399999996,0 -115.18553059999994,36.1081297,0 -115.18431399999992,36.108124499999995,0 -115.18338179999992,36.108084399999996,0 -115.17973099999993,36.10806529999999,0 -115.17918309999993,36.10804199999999,0 -115.17877819999994,36.10806109999999,0 -115.17819189999994,36.108188199999994,0 -115.17786909999992,36.1083109,0 -115.17758339999993,36.108447899999994,0 -115.17699399999994,36.108836499999995,0 -115.17643279999993,36.1090642,0 -115.17614839999993,36.1091298,0 -115.17588169999995,36.109165399999995,0 -115.17571759999993,36.1091697,0 -115.17529659999992,36.1091542,0 -115.17449049999992,36.1090917,0 -115.17419939999992,36.109097000000006,0 -115.17391589999993,36.10914400000001,0 -115.17383629999993,36.10915000000001,0 -115.17370779999992,36.10914220000001,0 -115.17363949999991,36.10912690000001,0 -115.17357169999991,36.109103000000005,0 -115.1734727999999,36.109059,0 -115.17338719999991,36.1090059,0 -115.17327009999991,36.1089138,0 -115.1731533999999,36.1088001,0 -115.1731496999999,36.106634500000006,0 -115.17490309999991,36.107186000000006,0 -115.1753649999999,36.107347100000005,0 -115.1754180999999,36.107371400000005,0 -115.1754799999999,36.1074147,0 -115.17553649999991,36.107475199999996,0 -115.1755637999999,36.1074955,0 -115.17565819999992,36.1075373,0 -115.17575949999993,36.10755519999999,0 -115.17586439999994,36.10755149999999,0 -115.17592659999994,36.10753999999999,0 -115.17595629999994,36.1075301,0 -115.17600929999995,36.1075022,0 -115.17605279999995,36.1074658,0 -115.17608349999996,36.107421699999996,0 -115.17610079999997,36.107373599999995,0 -115.17610419999997,36.10734789999999,0 -115.17610059999997,36.10729599999999,0 -115.17608129999998,36.1072468,0 -115.17606639999997,36.107223,0 -115.17602679999997,36.1071806,0 -115.17597609999997,36.107146,0 -115.17584529999999,36.107085500000004,0 -115.17577929999997,36.10706760000001,0 -115.17570969999997,36.107068000000005,0 -115.17564359999997,36.1070798,0 -115.17555709999998,36.10710720000001,0 -115.17550749999997,36.1071073,0 -115.17545979999997,36.10709980000001,0 -115.17465119999997,36.106835200000006,0 -115.17480609999998,36.106693500000006,0 -115.17481269999999,36.1066906,0 -115.17550669999999,36.1065773,0 -115.17551929999999,36.1065714,0 -115.17585380000001,36.1063278,0 </coordinates></LineString><TimeSpan><begin>2021-06-03T20:23:13.000Z</begin><end>2021-06-03T21:03:41.000Z</end></TimeSpan></Placemark><Placemark><name>Vdara Hotel &amp; Spa</name><address>2600 W Harmon Ave, Las Vegas, NV 89158</address><ExtendedData><Data name="Email"><value>syugen.zhou@gmail.com</value></Data><Data name="Category"><value>Hotel</value></Data><Data name="Distance"><value>0</value></Data></ExtendedData><description> Hotel from 2021-06-03T21:03:41.000Z to 2021-06-03T22:45:59.000Z. Distance 0m </description><Point><coordinates>-115.17775759999999,36.1092795,0</coordinates></Point><TimeSpan><begin>2021-06-03T21:03:41.000Z</begin><end>2021-06-03T22:45:59.000Z</end></TimeSpan></Placemark><Placemark><name>Driving</name><address></address><ExtendedData><Data name="Email"><value>syugen.zhou@gmail.com</value></Data><Data name="Category"><value>Driving</value></Data><Data name="Distance"><value>4235</value></Data></ExtendedData><description> Driving from 2021-06-03T22:45:59.235Z to 2021-06-03T23:08:48.000Z. Distance 4235m </description><LineString><altitudeMode>clampToGround</altitudeMode><extrude>1</extrude><tesselate>1</tesselate><coordinates>-115.17724359999998,36.1081273,0 -115.17711569999999,36.108216,0 -115.17702019999997,36.1083532,0 -115.17700039999997,36.1085912,0 -115.17707739999997,36.10879920000001,0 -115.17734039999996,36.10904120000001,0 -115.17749379999998,36.10909180000001,0 -115.17771449999996,36.10909060000001,0 -115.17791579999997,36.10899930000001,0 -115.17805769999997,36.10880180000001,0 -115.17804929999997,36.10869130000001,0 -115.17784239999997,36.10826150000001,0 -115.17754739999997,36.10834190000001,0 -115.17664199999996,36.10893380000002,0 -115.17658549999996,36.10900570000002,0 -115.17614839999996,36.10912980000002,0 -115.17571759999996,36.10916970000002,0 -115.17419939999996,36.10909700000002,0 -115.17383629999996,36.109150000000014,0 -115.17363949999996,36.109126900000014,0 -115.17347279999996,36.109059000000016,0 -115.17315339999995,36.10880010000002,0 -115.17314969999995,36.10663450000002,0 -115.17541809999996,36.10737140000002,0 -115.17556379999995,36.10749550000002,0 -115.17575949999994,36.10755520000002,0 -115.17595629999994,36.10753010000002,0 -115.17605279999995,36.10746580000002,0 -115.17610059999994,36.10729600000002,0 -115.17602679999996,36.10718060000002,0 -115.17577929999996,36.107067600000015,0 -115.17545979999996,36.10709980000002,0 -115.17465119999996,36.10683520000002,0 -115.17480609999996,36.10669350000002,0 -115.17550669999996,36.10657730000001,0 -115.17585379999996,36.10632780000002,0 -115.17672239999996,36.10633710000001,0 -115.17680899999996,36.10629390000001,0 -115.17684899999998,36.106226500000005,0 -115.17686649999997,36.10559640000001,0 -115.17694859999996,36.10550640000001,0 -115.17721369999997,36.1054139,0 -115.17734859999997,36.1054069,0 -115.17746599999997,36.105356300000004,0 -115.17750879999996,36.1052919,0 -115.17751339999997,36.105000999999994,0 -115.17711819999995,36.105014399999995,0 -115.17703059999995,36.1050513,0 -115.17701639999996,36.1051086,0 -115.17713969999996,36.1054384,0 -115.17694859999996,36.1055064,0 -115.17686649999997,36.1055964,0 -115.17684899999998,36.106226500000005,0 -115.17680899999996,36.106293900000004,0 -115.17672239999996,36.106337100000005,0 -115.17549149999996,36.1063239,0 -115.17540519999996,36.1062936,0 -115.17537629999997,36.10625410000001,0 -115.17534169999998,36.10535190000001,0 -115.17525599999998,36.1053038,0 -115.17421189999997,36.10529160000001,0 -115.17419529999998,36.10585210000001,0 -115.17415779999997,36.105886100000006,0 -115.17399039999998,36.105881700000005,0 -115.17398159999999,36.106146100000004,0 -115.1740088,36.10616530000001,0 -115.17434189999999,36.10620240000001,0 -115.17443109999998,36.1062552,0 -115.17451559999996,36.1064378,0 -115.17446409999998,36.10669970000001,0 -115.17438009999998,36.106850400000006,0 -115.17434279999996,36.106865500000005,0 -115.17372259999996,36.106701300000005,0 -115.17363209999996,36.106646,0 -115.17315909999998,36.1065441,0 -115.17317249999998,36.106440500000005,0 -115.17277429999999,36.106423400000004,0 -115.17281039999997,36.1077632,0 -115.17261529999996,36.108012099999996,0 -115.17241199999995,36.108169999999994,0 -115.17232049999997,36.10816559999999,0 -115.17216989999997,36.108068499999995,0 -115.17183039999996,36.1079627,0 -115.16689679999996,36.1079499,0 -115.16677409999996,36.1080126,0 -115.16598069999995,36.1080079,0 -115.16584319999996,36.1079402,0 -115.15342709999994,36.108012499999994,0 -115.15320849999993,36.107956099999996,0 -115.15041339999993,36.107904899999994,0 -115.15044939999993,36.1115843,0 -115.15024899999993,36.112091899999996,0 -115.14999399999994,36.11236399999999,0 -115.14948499999994,36.112654,0 -115.14723779999994,36.113315,0 -115.14677529999993,36.1136349,0 -115.14659709999991,36.1138678,0 -115.14638259999992,36.1146197,0 -115.1377743999999,36.1144841,0 -115.1376965999999,36.1160813,0 </coordinates></LineString><TimeSpan><begin>2021-06-03T22:45:59.235Z</begin><end>2021-06-03T23:08:48.000Z</end></TimeSpan></Placemark><Placemark><name>Sakana Sushi</name><address>3949 S Maryland Pkwy, Las Vegas, NV 89119</address><ExtendedData><Data name="Email"><value>syugen.zhou@gmail.com</value></Data><Data name="Category"><value>Sushi</value></Data><Data name="Distance"><value>0</value></Data></ExtendedData><description> Sushi from 2021-06-03T23:08:48.000Z to 2021-06-04T00:41:24.000Z. Distance 0m </description><Point><coordinates>-115.13843519999999,36.1171656,0</coordinates></Point><TimeSpan><begin>2021-06-03T23:08:48.000Z</begin><end>2021-06-04T00:41:24.000Z</end></TimeSpan></Placemark><Placemark><name>Driving</name><address></address><ExtendedData><Data name="Email"><value>syugen.zhou@gmail.com</value></Data><Data name="Category"><value>Driving</value></Data><Data name="Distance"><value>4727</value></Data></ExtendedData><description> Driving from 2021-06-04T00:41:24.000Z to 2021-06-04T00:58:36.000Z. Distance 4727m </description><LineString><altitudeMode>clampToGround</altitudeMode><extrude>1</extrude><tesselate>1</tesselate><coordinates>-115.13815310000001,36.1161788,0 -115.1378243,36.1161623,0 -115.13790910000002,36.1146571,0 -115.14151660000002,36.1146983,0 -115.14216100000002,36.1147131,0 -115.14230060000001,36.1147122,0 -115.14435360000002,36.114748500000005,0 -115.1445206,36.1147444,0 -115.1463739,36.1147691,0 -115.1463826,36.1146197,0 -115.14640969999999,36.114419999999996,0 -115.14647049999999,36.114161599999996,0 -115.1464961,36.1140866,0 -115.1465186,36.114036899999995,0 -115.1465296,36.1140036,0 -115.1465971,36.113867799999994,0 -115.14668839999999,36.11375139999999,0 -115.14671929999999,36.1137034,0 -115.14677529999997,36.1136349,0 -115.14684809999997,36.1135673,0 -115.14696409999996,36.1134726,0 -115.14709279999997,36.1133933,0 -115.14723779999996,36.113315,0 -115.14743559999997,36.113236699999995,0 -115.14765869999995,36.113165499999994,0 -115.14948499999994,36.11265399999999,0 -115.14963199999993,36.11259099999999,0 -115.14980199999994,36.11249699999999,0 -115.14999399999994,36.11236399999999,0 -115.15013499999993,36.112227999999995,0 -115.15024899999993,36.11209189999999,0 -115.15033809999993,36.11191959999999,0 -115.15040359999992,36.11176779999999,0 -115.1504193999999,36.11171979999999,0 -115.1504420999999,36.11163349999999,0 -115.1504493999999,36.11158429999999,0 -115.15045199999989,36.11111919999999,0 -115.15041359999991,36.10801659999999,0 -115.15135309999991,36.108049699999995,0 -115.15319119999991,36.10806519999999,0 -115.1534270999999,36.108012499999994,0 -115.1542048999999,36.10802259999999,0 -115.1553659999999,36.10802669999999,0 -115.15562959999991,36.108020899999985,0 -115.15832889999992,36.10803279999999,0 -115.16305649999993,36.10800459999999,0 -115.16320039999994,36.108055699999994,0 -115.16321809999994,36.108059899999986,0 -115.16326749999995,36.10806309999999,0 -115.16399679999995,36.10807529999999,0 -115.16514589999996,36.10807959999999,0 -115.16584149999997,36.108070999999995,0 -115.16598069999998,36.1080079,0 -115.16652469999997,36.108007699999995,0 -115.16677409999997,36.108012599999995,0 -115.16684069999997,36.108059,0 -115.16685339999998,36.10806289999999,0 -115.16688639999998,36.108065499999995,0 -115.16725099999998,36.1080693,0 -115.16738899999999,36.1080755,0 -115.1675924,36.10810849999999,0 -115.1681116,36.10812419999999,0 -115.17095,36.1081327,0 -115.17105229999999,36.108125799999996,0 -115.17112389999998,36.108112899999995,0 -115.17124089999999,36.10808399999999,0 -115.17169899999999,36.108088699999996,0 -115.17185799999999,36.10810389999999,0 -115.17198539999998,36.108138399999994,0 -115.17209449999999,36.1081848,0 -115.17219619999999,36.108254599999995,0 -115.1724728,36.1084646,0 -115.17280740000001,36.10874989999999,0 -115.17314560000001,36.109058399999995,0 -115.17315980000002,36.1082061,0 -115.17314970000001,36.10663449999999,0 -115.17317249999999,36.1064405,0 -115.17316699999999,36.106006199999996,0 -115.17315769999999,36.10582599999999,0 -115.17314929999999,36.105288699999996,0 -115.17328829999998,36.105294099999995,0 -115.17421189999997,36.1052916,0 -115.17521629999997,36.105301,0 -115.17525599999998,36.105303799999994,0 -115.17528059999998,36.1053113,0 -115.17529449999999,36.105318,0 -115.17531639999999,36.105331299999996,0 -115.17534169999998,36.1053519,0 -115.17534949999998,36.1053645,0 -115.17535559999997,36.105380100000005,0 -115.17535689999997,36.105387900000004,0 -115.17537779999998,36.106228200000004,0 -115.1753763,36.10625410000001,0 -115.1753833,36.1062711,0 -115.17540519999999,36.1062936,0 -115.17543209999998,36.10630750000001,0 -115.17545899999999,36.10631660000001,0 -115.17549149999998,36.10632390000001,0 -115.17585379999998,36.10632780000001,0 -115.1756425,36.10648210000001,0 </coordinates></LineString><TimeSpan><begin>2021-06-04T00:41:24.000Z</begin><end>2021-06-04T00:58:36.000Z</end></TimeSpan></Placemark><Placemark><name>Vdara Hotel &amp; Spa</name><address>2600 W Harmon Ave, Las Vegas, NV 89158</address><ExtendedData><Data name="Email"><value>syugen.zhou@gmail.com</value></Data><Data name="Category"><value>Hotel</value></Data><Data name="Distance"><value>0</value></Data></ExtendedData><description> Hotel from 2021-06-04T00:58:36.000Z to 2021-06-04T01:23:27.000Z. Distance 0m </description><Point><coordinates>-115.17775759999999,36.1092795,0</coordinates></Point><TimeSpan><begin>2021-06-04T00:58:36.000Z</begin><end>2021-06-04T01:23:27.000Z</end></TimeSpan></Placemark><Placemark><name>Walking</name><address></address><ExtendedData><Data name="Email"><value>syugen.zhou@gmail.com</value></Data><Data name="Category"><value>Walking</value></Data><Data name="Distance"><value>1309</value></Data></ExtendedData><description> Walking from 2021-06-04T01:23:27.568Z to 2021-06-04T01:42:02.000Z. Distance 1309m </description><LineString><altitudeMode>clampToGround</altitudeMode><extrude>1</extrude><tesselate>1</tesselate><coordinates>-115.177697,36.1088089,0 -115.1776562,36.1088184,0 -115.17759969999999,36.1088303,0 -115.17755159999999,36.1088373,0 -115.17751129999998,36.1088444,0 -115.1774531,36.1088618,0 -115.1773925,36.108896,0 -115.17729469999998,36.1089496,0 -115.17715039999997,36.1090237,0 -115.17708129999998,36.1090627,0 -115.17706199999999,36.109072100000006,0 -115.17702960000001,36.1090858,0 -115.17700780000001,36.1090939,0 -115.17698760000002,36.1090995,0 -115.17697110000002,36.1091019,0 -115.17695370000001,36.109102400000005,0 -115.17694150000001,36.109101,0 -115.17692360000002,36.109097600000005,0 -115.17687210000003,36.1090764,0 -115.17685350000002,36.1090872,0 -115.17654580000003,36.1092073,0 -115.17625110000002,36.109279400000005,0 -115.17605330000002,36.109309200000006,0 -115.17597080000002,36.1093123,0 -115.1758597,36.1093181,0 -115.1755737,36.1093137,0 -115.1753353,36.1093089,0 -115.174401,36.1092882,0 -115.1741634,36.1092962,0 -115.1740309,36.10930140000001,0 -115.1739076,36.109308600000006,0 -115.1738307,36.1093089,0 -115.17377429999999,36.1093084,0 -115.173734,36.109305600000006,0 -115.1736818,36.109298800000005,0 -115.17362979999999,36.10928800000001,0 -115.1735855,36.10927520000001,0 -115.17351149999999,36.10925120000001,0 -115.1734565,36.10922830000001,0 -115.17320040000001,36.10908830000001,0 -115.17320430000001,36.10895840000001,0 -115.17309300000001,36.108956200000016,0 -115.17286320000001,36.10874660000002,0 -115.17287110000001,36.10855040000001,0 -115.17286610000002,36.10776260000001,0 -115.17275470000003,36.10776380000001,0 -115.1727529,36.10764900000001,0 -115.172641,36.10764370000001,0 -115.1726401,36.10716670000001,0 -115.17265099999999,36.10696180000001,0 -115.17265409999999,36.10692710000001,0 -115.1726608,36.10680500000001,0 -115.17265450000001,36.106789500000005,0 -115.1726122,36.10668870000001,0 -115.17259860000001,36.106672700000004,0 -115.17253350000001,36.106628300000004,0 -115.17252170000002,36.10661330000001,0 -115.172515,36.1066006,0 -115.1725107,36.10658600000001,0 -115.1725107,36.106567600000005,0 -115.17255379999999,36.106384600000005,0 -115.17257649999998,36.10634990000001,0 -115.1726387,36.106264200000005,0 -115.1726683,36.106215500000005,0 -115.1726683,36.10618350000001,0 -115.172712,36.106183800000004,0 -115.17271129999999,36.106049600000006,0 -115.17272189999998,36.105581300000004,0 -115.1727239,36.105267000000005,0 -115.17272799999998,36.10481970000001,0 -115.17275279999998,36.10420390000001,0 -115.17274349999998,36.10397170000001,0 -115.17273179999998,36.10388780000002,0 -115.17272489999998,36.10381970000002,0 -115.17272919999998,36.102935000000016,0 -115.17272569999999,36.10264860000001,0 -115.1727253,36.10222750000001,0 -115.1727321,36.10178240000001,0 -115.1727496,36.10133280000001,0 -115.17261930000001,36.10116200000001,0 -115.17259190000001,36.101133100000006,0 -115.17255470000002,36.1011024,0 -115.1725174,36.1010811,0 -115.1724547,36.101052900000006,0 -115.17228109999999,36.100981700000006,0 -115.17178729999999,36.1009961,0 -115.17170089999999,36.10099720000001,0 -115.17099830000001,36.101003000000006,0 -115.17099780000002,36.101108300000014,0 -115.17099340000001,36.10113590000001,0 -115.17097690000001,36.10119100000001,0 -115.17097400000002,36.101220700000006,0 -115.17096850000001,36.10123010000001,0 -115.1709606,36.10123780000001,0 -115.170954,36.101243100000005,0 -115.17094339999998,36.101248500000004,0 -115.17093129999999,36.10125340000001,0 -115.1709074,36.10125780000001,0 -115.17087850000001,36.101260400000015,0 -115.1704406,36.10125960000001,0 </coordinates></LineString><TimeSpan><begin>2021-06-04T01:23:27.568Z</begin><end>2021-06-04T01:42:02.000Z</end></TimeSpan></Placemark><Placemark><name>David Copperfield Theater</name><address>3799 S Las Vegas Blvd, Las Vegas, NV 89109</address><ExtendedData><Data name="Email"><value>syugen.zhou@gmail.com</value></Data><Data name="Category"><value>Magician</value></Data><Data name="Distance"><value>0</value></Data></ExtendedData><description> Magician from 2021-06-04T01:42:02.000Z to 2021-06-04T03:40:06.000Z. Distance 0m </description><Point><coordinates>-115.16993459999999,36.1015229,0</coordinates></Point><TimeSpan><begin>2021-06-04T01:42:02.000Z</begin><end>2021-06-04T03:40:06.000Z</end></TimeSpan></Placemark><Placemark><name>Walking</name><address></address><ExtendedData><Data name="Email"><value>syugen.zhou@gmail.com</value></Data><Data name="Category"><value>Walking</value></Data><Data name="Distance"><value>1171</value></Data></ExtendedData><description> Walking from 2021-06-04T03:40:06.980Z to 2021-06-04T04:01:48.000Z. Distance 1171m </description><LineString><altitudeMode>clampToGround</altitudeMode><extrude>1</extrude><tesselate>1</tesselate><coordinates>-115.17272659999999,36.103393499999996,0 -115.17273229999999,36.103891999999995,0 -115.1728424,36.10387899999999,0 -115.1728551,36.10397799999999,0 -115.17274350000001,36.103971699999995,0 -115.17272190000001,36.1055813,0 -115.17283280000002,36.105648099999996,0 -115.17288330000004,36.10570859999999,0 -115.17290760000004,36.105781099999994,0 -115.17292250000006,36.10623849999999,0 -115.17296140000006,36.10647279999999,0 -115.17322270000007,36.1064848,0 -115.17322850000006,36.1064552,0 -115.17443130000007,36.1067702,0 -115.17545980000008,36.1070998,0 -115.17555710000008,36.1071072,0 -115.17570970000008,36.107068000000005,0 -115.17577930000009,36.10706760000001,0 -115.17584530000009,36.107085500000004,0 -115.1759659000001,36.1071399,0 -115.17602680000009,36.10718060000001,0 -115.17606640000007,36.107223000000005,0 -115.17610060000007,36.107296000000005,0 -115.17610080000007,36.10737360000001,0 -115.17608350000006,36.10742170000001,0 -115.17605280000005,36.10746580000001,0 -115.17600930000005,36.107502200000006,0 -115.17595630000004,36.107530100000005,0 -115.17587580000004,36.107551400000006,0 -115.17573690000005,36.10755310000001,0 -115.17565820000006,36.10753730000001,0 -115.17556190000008,36.10749530000001,0 -115.17548760000007,36.10742000000001,0 -115.17541810000006,36.10737140000001,0 -115.17320560000005,36.10665150000002,0 -115.17320880000005,36.10660340000001,0 -115.17309070000005,36.10659550000001,0 -115.17299120000006,36.10647500000001,0 -115.17295210000006,36.106400000000015,0 -115.17292250000006,36.10623850000001,0 -115.17290760000004,36.105781100000016,0 -115.17288330000004,36.105708600000014,0 -115.17283280000002,36.10564810000002,0 -115.17272190000001,36.10558130000001,0 -115.17271200000002,36.10618380000001,0 -115.17266830000003,36.10618350000001,0 -115.17266830000003,36.10621550000001,0 -115.17255380000002,36.106384600000005,0 -115.17251070000002,36.10658600000001,0 -115.17253350000001,36.106628300000004,0 -115.17259860000001,36.106672700000004,0 -115.1726122,36.10668870000001,0 -115.1726608,36.10680500000001,0 -115.172641,36.107643700000004,0 -115.1727529,36.107649,0 -115.17275470000003,36.10776380000001,0 -115.17286610000002,36.10776260000001,0 -115.17287110000001,36.108550400000006,0 -115.17309870000001,36.10871300000001,0 -115.17321000000001,36.10871380000001,0 -115.17320850000002,36.108853800000006,0 -115.17338720000002,36.10900590000001,0 -115.17347280000001,36.10905900000001,0 -115.17363950000001,36.10912690000001,0 -115.17370780000002,36.10914220000001,0 -115.17383630000003,36.10915000000001,0 -115.17419940000003,36.109097000000006,0 -115.17449050000005,36.1090917,0 -115.17571760000004,36.10916970000001,0 -115.17588170000005,36.1091654,0 -115.17614840000005,36.109129800000005,0 -115.17643280000003,36.109064200000006,0 -115.17658550000003,36.1090057,0 -115.17664200000004,36.1089338,0 -115.17670940000005,36.1088849,0 -115.17707220000003,36.1087,0 -115.17742140000003,36.1084084,0 -115.17754740000002,36.1083419,0 -115.17784240000002,36.1082615,0 -115.17777010000002,36.1081375,0 -115.17765330000002,36.10809019999999,0 -115.17750360000002,36.108065999999994,0 -115.17743850000002,36.10806819999999,0 -115.17734770000001,36.10808609999999,0 -115.1772617,36.10811719999999,0 -115.1771836,36.108160799999986,0 -115.17711570000002,36.10821599999998,0 -115.1770606,36.10828089999998,0 -115.1770202,36.108353199999975,0 -115.17699630000001,36.10843079999998,0 -115.1769897,36.108511299999975,0 -115.1770004,36.10859119999998,0 -115.1770774,36.10879919999998,0 -115.177166,36.10891119999997,0 -115.17734039999999,36.10904119999998,0 -115.17738899999999,36.10906289999998,0 -115.17749380000001,36.10909179999997,0 -115.177604,36.109100399999974,0 -115.1777145,36.10909059999997,0 -115.1777557,36.10925179999998,0 </coordinates></LineString><TimeSpan><begin>2021-06-04T03:40:06.980Z</begin><end>2021-06-04T04:01:48.000Z</end></TimeSpan></Placemark><Placemark><name>Vdara Hotel &amp; Spa</name><address>2600 W Harmon Ave, Las Vegas, NV 89158</address><ExtendedData><Data name="Email"><value>syugen.zhou@gmail.com</value></Data><Data name="Category"><value>Hotel</value></Data><Data name="Distance"><value>0</value></Data></ExtendedData><description> Hotel from 2021-06-04T04:01:48.000Z to 2021-06-04T16:26:13.000Z. Distance 0m </description><Point><coordinates>-115.17775759999999,36.1092795,0</coordinates></Point><TimeSpan><begin>2021-06-04T04:01:48.000Z</begin><end>2021-06-04T16:26:13.000Z</end></TimeSpan></Placemark></Document></kml>
