<?xml version="1.0" encoding="UTF-8"?><kml xmlns="http://www.opengis.net/kml/2.2" xmlns:gx="http://www.google.com/kml/ext/2.2"><Document><name> Location history from 2018-11-12 to 2018-11-12 </name><open>1</open><description></description><StyleMap id="multiTrack"><Pair><key>normal</key><styleUrl>#multiTrack_n</styleUrl></Pair><Pair><key>highlight</key><styleUrl>#multiTrack_h</styleUrl></Pair></StyleMap><Style id="multiTrack_n"><IconStyle><Icon><href>https://earth.google.com/images/kml-icons/track-directional/track-0.png</href></Icon></IconStyle><LineStyle><color>99ffac59</color><width>6</width></LineStyle></Style><Style id="multiTrack_h"><IconStyle><scale>1.2</scale><Icon><href>https://earth.google.com/images/kml-icons/track-directional/track-0.png</href></Icon></IconStyle><LineStyle><color>99ffac59</color><width>8</width></LineStyle></Style><Placemark><name>La Quinta Inn by Wyndham Farmington</name><address>675 Scott Ave, Farmington, NM 87401, United States</address><ExtendedData><Data name="Email"><value>syugen.zhou@gmail.com</value></Data><Data name="Category"><value>Hotel</value></Data><Data name="Distance"><value>0</value></Data></ExtendedData><description> Hotel from 2018-11-12T00:00:00.000Z to 2018-11-12T14:15:24.000Z. Distance 0m </description><Point><coordinates>-108.1918029,36.7299003,0</coordinates></Point><TimeSpan><begin>2018-11-12T00:00:00.000Z</begin><end>2018-11-12T14:15:24.000Z</end></TimeSpan></Placemark><Placemark><name>Driving</name><address></address><ExtendedData><Data name="Email"><value>syugen.zhou@gmail.com</value></Data><Data name="Category"><value>Driving</value></Data><Data name="Distance"><value>165501</value></Data></ExtendedData><description> Driving from 2018-11-12T14:15:24.999Z to 2018-11-12T17:05:44.004Z. Distance 165501m </description><LineString><altitudeMode>clampToGround</altitudeMode><extrude>1</extrude><tesselate>1</tesselate><coordinates>-108.19147629999999,36.7293367,0 -108.1920213,36.7286096,0 -108.1921533,36.728591200000004,0 -108.1924078,36.728470800000004,0 -108.1931863,36.7284205,0 -108.19326219999999,36.7283788,0 -108.19592819999998,36.728404,0 -108.19627279999999,36.728470800000004,0 -108.1976004,36.7284519,0 -108.1999424,36.728273,0 -108.20013429999999,36.7282037,0 -108.20431459999999,36.7281482,0 -108.20444959999999,36.7281974,0 -108.20931789999999,36.728139999999996,0 -108.2094604,36.7280917,0 -108.21724209999999,36.7280313,0 -108.217383,36.7280788,0 -108.2203383,36.728155199999996,0 -108.22101789999999,36.728325999999996,0 -108.22142219999999,36.728495699999996,0 -108.2226095,36.72925209999999,0 -108.2246849,36.73016629999999,0 -108.2249314,36.730181099999996,0 -108.2267098,36.730905199999995,0 -108.2276739,36.73120309999999,0 -108.2291905,36.73149809999999,0 -108.2335185,36.73166479999999,0 -108.2373145,36.732130199999986,0 -108.2409721,36.732302199999985,0 -108.2426052,36.73262909999998,0 -108.24343490000001,36.73290439999998,0 -108.2447167,36.73344749999998,0 -108.2448581,36.73359679999999,0 -108.24950030000001,36.736769899999985,0 -108.25059510000001,36.73737689999999,0 -108.2515004,36.737741599999985,0 -108.25178790000001,36.737966599999986,0 -108.2518641,36.738106899999984,0 -108.25190440000002,36.73831389999998,0 -108.25149300000001,36.73939919999999,0 -108.2512267,36.73987729999998,0 -108.25068120000002,36.740573199999986,0 -108.2500224,36.74118089999998,0 -108.24838150000001,36.74244159999998,0 -108.2479239,36.742888999999984,0 -108.24746780000001,36.74346339999999,0 -108.2454658,36.74652909999998,0 -108.24535320000001,36.74687799999999,0 -108.24486990000003,36.74947619999999,0 -108.24109040000002,36.76151979999999,0 -108.24072660000002,36.76241289999999,0 -108.24040990000002,36.762969699999985,0 -108.22515500000002,36.78417679999998,0 -108.22451410000001,36.78520669999998,0 -108.22271490000001,36.788852099999986,0 -108.22095370000001,36.79433629999998,0 -108.21976720000002,36.803872699999985,0 -108.21973480000001,36.805456599999985,0 -108.2202228,36.80976579999998,0 -108.2204723,36.810769499999985,0 -108.22222380000001,36.81478779999998,0 -108.22367990000001,36.81755009999998,0 -108.22587510000001,36.82071189999998,0 -108.2278241,36.82461099999998,0 -108.22808690000001,36.82538439999998,0 -108.2282505,36.82636909999999,0 -108.2282503,36.83219769999998,0 -108.2276674,36.84499539999998,0 -108.2273989,36.846088499999986,0 -108.2271481,36.84665229999998,0 -108.22671969999999,36.84732759999998,0 -108.22478529999998,36.84955069999999,0 -108.22262969999998,36.85273809999998,0 -108.22209939999998,36.85326479999998,0 -108.22146219999999,36.85371549999998,0 -108.21841339999999,36.85545339999998,0 -108.2178081,36.85586179999998,0 -108.2173107,36.85632689999998,0 -108.2161804,36.85764399999998,0 -108.2131618,36.86051869999998,0 -108.2087818,36.863576499999986,0 -108.2053292,36.86640449999999,0 -108.20281349999999,36.867746799999985,0 -108.20161499999999,36.86861369999999,0 -108.20054359999999,36.86962409999999,0 -108.19800559999999,36.87239699999999,0 -108.19763049999999,36.873078699999986,0 -108.19623219999998,36.877799899999985,0 -108.19610109999999,36.878562999999986,0 -108.1959996,36.882360099999985,0 -108.1958604,36.883059299999985,0 -108.195594,36.88369849999998,0 -108.19514139999998,36.884359199999984,0 -108.1948513,36.88467749999998,0 -108.19254449999998,36.88656269999998,0 -108.19216119999999,36.88696549999998,0 -108.19182929999998,36.887435799999984,0 -108.19146989999999,36.888172699999984,0 -108.19130679999998,36.88888979999999,0 -108.19122329999998,36.892234899999984,0 -108.19057809999998,36.90091259999999,0 -108.19043759999998,36.90142579999999,0 -108.18806559999999,36.90688639999999,0 -108.18765459999999,36.90949759999999,0 -108.18764819999998,36.910047699999986,0 -108.18925199999998,36.919481099999985,0 -108.19095159999998,36.92563819999999,0 -108.19101019999998,36.92636499999998,0 -108.1908448,36.92888769999998,0 -108.1909269,36.94062319999998,0 -108.19103799999999,36.94132569999998,0 -108.1914089,36.94247999999998,0 -108.1929135,36.945412099999984,0 -108.19320590000001,36.94629649999999,0 -108.19345750000001,36.947575999999984,0 -108.1937685,36.951981299999986,0 -108.1936255,36.953667299999985,0 -108.1938025,36.955651799999984,0 -108.1935421,36.95762229999998,0 -108.1935833,36.958189799999985,0 -108.1938385,36.95920289999999,0 -108.19388479999999,36.959645399999985,0 -108.1938239,36.96027199999998,0 -108.1933544,36.96144909999999,0 -108.1927041,36.96473849999999,0 -108.1924458,36.96536099999999,0 -108.19027790000001,36.96941299999998,0 -108.18977050000001,36.970683399999984,0 -108.1895137,36.97167169999999,0 -108.18936610000002,36.972763599999986,0 -108.1893342,36.974399599999984,0 -108.18916890000001,36.97497169999999,0 -108.1888476,36.97549629999999,0 -108.18702200000001,36.97755549999999,0 -108.18680270000002,36.97792119999998,0 -108.18625030000001,36.97950779999998,0 -108.1861777,36.97990509999998,0 -108.18656080000001,36.98406839999998,0 -108.18601650000001,36.98806559999998,0 -108.18591780000001,36.990401399999975,0 -108.18610910000001,36.99153869999997,0 -108.18624080000001,36.99636169999997,0 -108.1863052,36.996814899999976,0 -108.186834,36.998486199999974,0 -108.18687849999999,36.99899139999997,0 -108.1867409,36.99965939999997,0 -108.18655840000001,37.00005839999997,0 -108.18261740000001,37.00601649999997,0 -108.18224850000001,37.006820599999976,0 -108.18205550000002,37.00754789999998,0 -108.18201640000001,37.01576409999998,0 -108.18211570000001,37.01633339999998,0 -108.18286670000002,37.01842929999998,0 -108.18293180000002,37.018966299999974,0 -108.18289160000002,37.01945669999998,0 -108.18226590000002,37.02163629999998,0 -108.18215070000001,37.022415799999976,0 -108.18212510000002,37.04006159999998,0 -108.18269940000002,37.04342929999998,0 -108.18270130000002,37.044064499999976,0 -108.18251570000001,37.04502349999998,0 -108.18128120000002,37.048009299999975,0 -108.18112570000001,37.048662199999974,0 -108.18110670000002,37.04910079999998,0 -108.18136040000002,37.05239229999998,0 -108.18127230000002,37.05334309999998,0 -108.1809872,37.054276799999975,0 -108.1803845,37.05525419999997,0 -108.17810990000001,37.05789039999997,0 -108.17519950000002,37.06189649999997,0 -108.17377660000001,37.065641999999976,0 -108.17365070000001,37.066433499999974,0 -108.17374050000001,37.08216519999997,0 -108.17358290000001,37.08300409999997,0 -108.1703425,37.090721799999976,0 -108.17016140000001,37.09156889999998,0 -108.16997880000001,37.09730089999997,0 -108.16986270000001,37.09790389999997,0 -108.1696883,37.098385799999974,0 -108.1691823,37.09919479999997,0 -108.1686971,37.099691999999976,0 -108.1319348,37.13159279999997,0 -108.1307489,37.13280409999997,0 -108.12977910000001,37.13401719999997,0 -108.11434530000001,37.156609899999964,0 -108.1126701,37.15867329999997,0 -108.0929387,37.17898679999996,0 -108.0923037,37.17951749999997,0 -108.09129399999999,37.18021869999996,0 -108.09007749999999,37.180899299999965,0 -108.08600159999999,37.18284159999996,0 -108.0854672,37.18317179999997,0 -108.08440089999999,37.18399269999996,0 -108.08345899999999,37.18498239999997,0 -108.08285289999999,37.18585499999997,0 -108.08199629999999,37.18734909999997,0 -108.07919799999999,37.19101469999997,0 -108.07875469999999,37.19183079999997,0 -108.07849959999999,37.19260039999997,0 -108.07782139999998,37.19570359999997,0 -108.07771029999998,37.19673689999997,0 -108.07699939999998,37.19668339999997,0 -108.01755629999997,37.19686299999997,0 -108.01705459999998,37.196908199999974,0 -108.01640079999999,37.19706399999997,0 -108.01595969999998,37.197380599999974,0 -108.01532129999998,37.19801519999997,0 -108.00886499999999,37.20761109999997,0 -108.008512,37.20831359999997,0 -108.0083424,37.208844299999974,0 -108.0083076,37.20948979999997,0 -108.0082182,37.20987469999997,0 -108.0080366,37.21025209999997,0 -108.00780599999999,37.210557199999975,0 -108.00563719999998,37.21248249999997,0 -108.00439209999999,37.213459099999966,0 -108.00344079999998,37.213951599999966,0 -108.00265679999998,37.21423819999997,0 -108.00220569999999,37.21432829999996,0 -107.99989749999999,37.21452999999996,0 -107.9987448,37.21470259999996,0 -107.9977838,37.21496059999996,0 -107.9955264,37.21583799999996,0 -107.995126,37.216081499999966,0 -107.98797800000001,37.221821099999964,0 -107.9828068,37.22625929999997,0 -107.98255370000001,37.22665479999996,0 -107.98183480000002,37.228288199999966,0 -107.9813881,37.22875599999996,0 -107.98099210000001,37.22903179999996,0 -107.9792563,37.229829999999964,0 -107.97898490000001,37.230068499999966,0 -107.97857830000001,37.23067369999997,0 -107.97843560000001,37.231019399999965,0 -107.97838010000001,37.23288829999997,0 -107.9782855,37.233306099999965,0 -107.9780914,37.23375339999996,0 -107.9778014,37.234222499999966,0 -107.9749747,37.236888599999965,0 -107.9746266,37.23708239999996,0 -107.9656483,37.23887429999997,0 -107.96219380000001,37.23908859999997,0 -107.9579573,37.23824489999997,0 -107.9576294,37.23821439999997,0 -107.95726690000001,37.23823139999997,0 -107.95582480000002,37.238617299999966,0 -107.9547268,37.23869299999997,0 -107.9544257,37.23865829999997,0 -107.9534792,37.23831529999997,0 -107.9529325,37.23823279999997,0 -107.9489272,37.238345999999964,0 -107.9478708,37.23858829999997,0 -107.94637670000002,37.23882669999997,0 -107.9426145,37.23916909999997,0 -107.94245230000001,37.23924449999997,0 -107.94184550000001,37.23999679999997,0 -107.94113440000001,37.240619199999976,0 -107.94105640000001,37.24072759999997,0 -107.94102840000001,37.24093699999997,0 -107.94132000000002,37.242264999999975,0 -107.94132690000002,37.24335919999997,0 -107.94124730000003,37.24353249999997,0 -107.94097170000002,37.24385939999997,0 -107.93383540000002,37.24871969999997,0 -107.93339170000002,37.24907929999997,0 -107.93327200000002,37.24930269999997,0 -107.93319020000001,37.250271299999966,0 -107.93232810000002,37.25252819999997,0 -107.93213500000002,37.252877399999974,0 -107.93148560000002,37.25373319999997,0 -107.93130120000004,37.25405719999998,0 -107.93092770000003,37.25447349999997,0 -107.93014410000002,37.25500929999997,0 -107.92858530000002,37.25580199999997,0 -107.92827300000002,37.25602549999997,0 -107.92769030000002,37.256607599999974,0 -107.92726240000002,37.25728649999997,0 -107.92705510000002,37.257507599999975,0 -107.92579380000002,37.258352599999974,0 -107.92551750000001,37.258628699999974,0 -107.92461650000001,37.26011179999998,0 -107.92392840000002,37.26094619999998,0 -107.92385330000002,37.26109679999998,0 -107.92370680000002,37.262412099999985,0 -107.92359520000002,37.26268469999999,0 -107.92244870000002,37.264212999999984,0 -107.9222175,37.26442019999998,0 -107.92174870000001,37.26467899999998,0 -107.92057840000001,37.26568109999999,0 -107.920133,37.26593399999998,0 -107.91955410000001,37.26615459999998,0 -107.91931180000002,37.26629359999998,0 -107.91361810000001,37.26869159999998,0 -107.9097454,37.26976209999998,0 -107.9088892,37.26991289999998,0 -107.90371660000001,37.270240299999976,0 -107.90263320000001,37.270197699999976,0 -107.9001319,37.26990039999998,0 -107.89840010000002,37.269879299999985,0 -107.89686040000001,37.270045799999984,0 -107.89249430000001,37.27087599999999,0 -107.89189350000001,37.27092399999999,0 -107.89113520000001,37.270831499999986,0 -107.89077170000002,37.27071669999998,0 -107.89035870000001,37.270525699999986,0 -107.88996540000001,37.270265299999984,0 -107.88858040000001,37.26902639999998,0 -107.88824290000001,37.26883469999998,0 -107.88820390000001,37.26877199999998,0 -107.88772660000001,37.26859109999998,0 -107.88695020000002,37.268444699999975,0 -107.88660840000001,37.268426499999975,0 -107.88566780000002,37.268487799999974,0 -107.88540840000002,37.268383999999976,0 -107.88532360000002,37.26830959999998,0 -107.88484170000002,37.267623299999975,0 -107.88454000000002,37.267368999999974,0 -107.88419810000002,37.26718319999998,0 -107.88385010000002,37.267064999999974,0 -107.88246960000001,37.26679469999998,0 -107.88241280000001,37.26681739999998,0 -107.88194370000002,37.26667809999998,0 -107.88147400000003,37.26644839999997,0 -107.88116530000002,37.26621129999997,0 -107.88093960000003,37.26595209999997,0 -107.88018400000003,37.26443669999997,0 -107.87978860000004,37.26385199999997,0 -107.87760750000004,37.26167359999997,0 -107.87713110000003,37.26105149999997,0 -107.87685490000003,37.26048169999997,0 -107.87668920000003,37.25994419999997,0 -107.87637050000004,37.25621329999996,0 -107.87659050000003,37.253249899999965,0 -107.87652430000003,37.25255339999996,0 -107.87630470000003,37.251745799999966,0 -107.87030830000003,37.23739989999997,0 -107.86965960000003,37.23645609999996,0 -107.86308690000003,37.23045409999997,0 -107.86290390000003,37.23037869999997,0 -107.86101890000003,37.22845179999997,0 -107.85862750000003,37.22560949999997,0 -107.85860990000002,37.225491899999966,0 -107.85462310000001,37.22072869999997,0 -107.85403690000003,37.22023349999997,0 -107.85363010000002,37.219975799999965,0 -107.85304580000002,37.21970699999997,0 -107.85240540000002,37.21951749999997,0 -107.85186530000003,37.21943239999997,0 -107.85112580000002,37.219415199999965,0 -107.85070560000003,37.219450399999964,0 -107.85016980000002,37.21955669999996,0 -107.84922900000002,37.219906499999965,0 -107.84697300000002,37.22135939999996,0 -107.84603390000002,37.22187239999997,0 -107.84528060000004,37.22247159999996,0 -107.84494100000003,37.22287589999996,0 -107.84395080000003,37.22496279999996,0 -107.84338660000003,37.22563659999996,0 -107.84302400000001,37.22597009999996,0 -107.84242790000002,37.22640159999996,0 -107.84179180000001,37.22675369999996,0 -107.84079520000002,37.22712479999996,0 -107.83556450000002,37.22830479999997,0 -107.83535720000002,37.22840829999997,0 -107.83313710000002,37.22885029999997,0 -107.83142890000002,37.229039899999975,0 -107.83030610000002,37.22906939999997,0 -107.82805570000002,37.22890389999998,0 -107.82620710000002,37.228522399999974,0 -107.82399230000003,37.22785319999997,0 -107.82381200000002,37.22773359999997,0 -107.82051370000002,37.22713999999998,0 -107.81908250000001,37.227008399999974,0 -107.81884920000002,37.22704899999997,0 -107.8136001,37.22705289999997,0 -107.81198380000001,37.22718249999997,0 -107.80030830000001,37.22920539999997,0 -107.80001330000002,37.22919629999997,0 -107.79620400000002,37.229610499999964,0 -107.76810560000001,37.22979099999997,0 -107.74510180000001,37.22889219999997,0 -107.74463570000002,37.22891599999996,0 -107.72521710000002,37.22816989999996,0 -107.72456910000001,37.22809689999996,0 -107.72092310000001,37.22735839999996,0 -107.70760820000001,37.22653659999996,0 -107.70691770000002,37.22640749999996,0 -107.70423130000002,37.22555989999996,0 -107.70353140000002,37.22539339999995,0 -107.70230790000001,37.22524449999995,0 -107.70154290000002,37.22524989999995,0 -107.7000821,37.22546859999996,0 -107.6965972,37.22652039999995,0 -107.6957975,37.22665909999996,0 -107.69433860000001,37.22669699999995,0 -107.69076580000001,37.22637099999996,0 -107.68988840000002,37.22641559999996,0 -107.68724590000001,37.226871299999964,0 -107.68620170000001,37.22685899999996,0 -107.68510800000001,37.22665199999996,0 -107.68441840000001,37.22640309999996,0 -107.6787965,37.223805099999964,0 -107.6780588,37.223593899999955,0 -107.6772928,37.22348109999996,0 -107.67670410000001,37.22346659999996,0 -107.67599260000001,37.223528799999954,0 -107.66565440000001,37.22562699999996,0 -107.66432850000001,37.22578479999996,0 -107.66086570000002,37.225808899999954,0 -107.66020870000001,37.22575289999996,0 -107.65939880000002,37.22559749999996,0 -107.65838610000002,37.22521039999996,0 -107.6574812,37.22465179999996,0 -107.6507375,37.219298199999955,0 -107.6496585,37.21865589999995,0 -107.648677,37.21823699999996,0 -107.64754310000001,37.21788779999996,0 -107.64659390000001,37.21770049999996,0 -107.64549880000001,37.21758589999995,0 -107.64462080000001,37.21758029999995,0 -107.64362840000003,37.21765029999995,0 -107.64206790000001,37.21790699999995,0 -107.62406800000001,37.22206289999995,0 -107.62321630000001,37.22241029999995,0 -107.6222295,37.222982599999945,0 -107.6174044,37.22734339999995,0 -107.6167898,37.227775099999945,0 -107.61607320000002,37.228162999999945,0 -107.6149864,37.22856209999994,0 -107.6138078,37.228806199999944,0 -107.6055669,37.22988569999994,0 -107.60541510000002,37.22987959999994,0 -107.60252950000002,37.23024549999994,0 -107.60092000000002,37.23053669999994,0 -107.59454300000002,37.232295699999945,0 -107.5944491,37.23236339999995,0 -107.58518720000001,37.235018499999946,0 -107.58393090000001,37.23550769999995,0 -107.57758450000001,37.23857929999995,0 -107.57679070000002,37.239108099999946,0 -107.57605990000002,37.239792299999955,0 -107.57532700000002,37.24080249999995,0 -107.57278350000003,37.24637309999996,0 -107.57248850000003,37.24757909999995,0 -107.57210580000003,37.25076929999995,0 -107.57195990000004,37.251372099999955,0 -107.57159000000004,37.252243499999956,0 -107.57122690000004,37.25281649999996,0 -107.56505510000005,37.259855299999955,0 -107.56444790000005,37.26069409999996,0 -107.56347690000005,37.26234429999996,0 -107.56105050000005,37.26801909999996,0 -107.56061690000006,37.26879719999996,0 -107.55959810000004,37.27006009999997,0 -107.55582070000006,37.27336289999997,0 -107.55415940000005,37.27453119999996,0 -107.54699840000006,37.27885039999996,0 -107.54604910000005,37.27958249999996,0 -107.54333160000006,37.28233939999996,0 -107.54243130000006,37.28305319999996,0 -107.54068300000006,37.284100399999964,0 -107.53932760000005,37.28466639999996,0 -107.53756500000006,37.28515869999996,0 -107.53622250000005,37.285375599999966,0 -107.53423970000006,37.28545889999996,0 -107.53009440000007,37.28519049999996,0 -107.52893570000006,37.28528819999996,0 -107.52811760000006,37.28549309999996,0 -107.52760410000008,37.285689099999956,0 -107.52422410000007,37.287423699999955,0 -107.52340980000005,37.28771949999995,0 -107.52261530000006,37.28789279999995,0 -107.52195040000007,37.28795519999995,0 -107.51557670000007,37.28805249999996,0 -107.51440950000006,37.28816759999996,0 -107.51377710000007,37.28832009999996,0 -107.51096880000006,37.289383399999956,0 -107.51024960000007,37.28954919999995,0 -107.50906550000006,37.28964459999995,0 -107.50849780000006,37.28961529999995,0 -107.50761000000006,37.28946389999995,0 -107.50678450000007,37.289204599999955,0 -107.50597550000006,37.28881519999995,0 -107.50547730000005,37.28848359999995,0 -107.50497150000005,37.28804709999995,0 -107.50290250000006,37.28591649999995,0 -107.50226820000006,37.28550559999995,0 -107.50174360000007,37.28524349999996,0 -107.50114950000005,37.28502299999995,0 -107.50034340000005,37.28484909999995,0 -107.49952220000006,37.28476949999995,0 -107.48800670000006,37.28481439999995,0 -107.48733800000005,37.28490649999995,0 -107.48255030000006,37.286072599999954,0 -107.48164000000006,37.28620359999996,0 -107.48082270000005,37.286237399999955,0 -107.48010750000005,37.286198499999955,0 -107.47929440000006,37.286083499999954,0 -107.47794760000005,37.285682899999955,0 -107.47732740000005,37.28540419999995,0 -107.47142870000005,37.28214569999995,0 -107.47026000000005,37.28135609999995,0 -107.46677060000006,37.27837869999995,0 -107.46578050000006,37.27768819999995,0 -107.46462620000007,37.277084699999946,0 -107.46135730000006,37.27569789999995,0 -107.46056710000006,37.27520779999995,0 -107.46011840000006,37.27485569999994,0 -107.45954310000006,37.27426049999994,0 -107.45302950000006,37.26495409999994,0 -107.45269450000005,37.26457609999994,0 -107.45177830000004,37.26378259999994,0 -107.45096210000004,37.263302899999935,0 -107.44937190000005,37.26253969999994,0 -107.44812960000006,37.26180859999994,0 -107.44731430000006,37.26109299999994,0 -107.44689090000006,37.260561899999935,0 -107.44648180000006,37.25991029999994,0 -107.44093070000005,37.24871119999994,0 -107.43600340000006,37.242671499999936,0 -107.43495110000005,37.241641499999936,0 -107.43387410000005,37.240865499999934,0 -107.43290860000006,37.24033429999993,0 -107.42696200000006,37.23758779999993,0 -107.41260470000006,37.22845899999993,0 -107.41187160000007,37.22809249999993,0 -107.41126420000006,37.227889099999935,0 -107.41071360000007,37.22778189999993,0 -107.40990610000007,37.227744499999936,0 -107.40956010000008,37.227766399999936,0 -107.40897440000008,37.227878699999934,0 -107.40834620000008,37.22808259999994,0 -107.40453080000009,37.22983329999994,0 -107.40300770000007,37.23035669999994,0 -107.39678160000008,37.23197659999994,0 -107.39580940000009,37.23207769999994,0 -107.39466720000009,37.23199329999994,0 -107.3938922000001,37.231807999999944,0 -107.38751000000009,37.22965359999994,0 -107.3859760000001,37.22924269999994,0 -107.3845834000001,37.229058499999944,0 -107.3791821000001,37.22874989999995,0 -107.3629967000001,37.229185699999945,0 -107.3607796000001,37.22914659999994,0 -107.3564683000001,37.228691999999945,0 -107.3489567000001,37.22851889999994,0 -107.34801980000009,37.228414499999936,0 -107.34721240000009,37.22811119999994,0 -107.3464035000001,37.22762259999993,0 -107.34108630000009,37.22354559999993,0 -107.34043300000009,37.22283129999993,0 -107.3400231000001,37.22220799999993,0 -107.3396417000001,37.221306099999936,0 -107.33925240000009,37.21955329999993,0 -107.3391322000001,37.218360699999934,0 -107.33916120000009,37.21772709999993,0 -107.3396121000001,37.21501409999993,0 -107.3396085000001,37.21410359999993,0 -107.33950040000009,37.21361149999992,0 -107.33932720000008,37.21315519999992,0 -107.33509990000009,37.20570959999992,0 -107.33472700000009,37.20522829999992,0 -107.33439740000007,37.20490459999992,0 -107.33364190000007,37.20445769999992,0 -107.33325330000008,37.20431439999992,0 -107.3327298000001,37.204191599999916,0 -107.33195820000009,37.20416229999992,0 -107.33086860000009,37.20433509999992,0 -107.3244316000001,37.20585189999992,0 -107.31934660000009,37.20669179999992,0 -107.31819570000009,37.206775199999925,0 -107.31095110000008,37.206514299999924,0 -107.3097871000001,37.20660389999993,0 -107.30850740000008,37.20684489999993,0 -107.29944710000008,37.20960099999992,0 -107.29891580000009,37.20985439999993,0 -107.29828230000008,37.210261699999926,0 -107.29554800000008,37.212378899999926,0 -107.29520490000009,37.21258709999992,0 -107.29441020000009,37.212896899999926,0 -107.29364020000008,37.21309229999992,0 -107.29273370000008,37.21320369999992,0 -107.29043020000009,37.21311559999992,0 -107.28331680000008,37.212449099999915,0 -107.28231420000009,37.21242919999992,0 -107.27984100000008,37.212535299999914,0 -107.27534520000007,37.213140299999914,0 -107.27459470000008,37.213176799999914,0 -107.27389880000007,37.21314249999991,0 -107.27274470000006,37.212972499999914,0 -107.27186420000007,37.21271689999991,0 -107.26916920000008,37.21158149999991,0 -107.26668180000007,37.210902799999914,0 -107.25982930000008,37.20974919999991,0 -107.25970480000008,37.209760999999915,0 -107.24715340000007,37.20767389999992,0 -107.24645110000009,37.20764459999992,0 -107.24556220000008,37.20768809999991,0 -107.24475920000008,37.20780779999991,0 -107.24418750000008,37.20794999999991,0 -107.24307000000007,37.208365399999906,0 -107.24163870000007,37.209175899999906,0 -107.24020990000007,37.209845799999904,0 -107.23324190000007,37.2118319999999,0 -107.23230070000007,37.212217699999904,0 -107.23129060000007,37.2127622999999,0 -107.22237750000008,37.2186771999999,0 -107.22060310000008,37.22004699999991,0 -107.21518610000008,37.22548079999991,0 -107.21434710000008,37.22612449999991,0 -107.21338720000008,37.22669489999991,0 -107.21241310000009,37.22715309999991,0 -107.2099209000001,37.22788589999991,0 -107.20221870000009,37.229643999999915,0 -107.20129130000008,37.22974169999991,0 -107.19992530000009,37.229766099999914,0 -107.19913320000009,37.22971579999991,0 -107.1947421000001,37.22890509999991,0 -107.1942050000001,37.22889599999991,0 -107.1932020000001,37.22900899999991,0 -107.19225820000011,37.22930889999991,0 -107.1845825000001,37.23247959999991,0 -107.18322540000011,37.23296189999991,0 -107.1811423000001,37.23345669999991,0 -107.1792963000001,37.23413799999991,0 -107.1783841000001,37.234614399999906,0 -107.17588140000011,37.23619519999991,0 -107.17506890000011,37.236505599999916,0 -107.17459380000011,37.23657019999991,0 -107.1703550000001,37.23673749999991,0 -107.16923310000011,37.23688559999991,0 -107.1655841000001,37.23786319999991,0 -107.1615234000001,37.23816149999991,0 -107.16097060000011,37.23827779999991,0 -107.1595771000001,37.238787399999914,0 -107.1589069000001,37.23895619999991,0 -107.1579114000001,37.239040299999914,0 -107.1564608000001,37.23894979999991,0 -107.1553332000001,37.239004999999906,0 -107.1542050000001,37.23920869999991,0 -107.1528871000001,37.23954799999991,0 -107.1503329000001,37.240515299999906,0 -107.1489757000001,37.24088999999991,0 -107.14716830000009,37.2411046999999,0 -107.14222950000008,37.24097199999991,0 -107.1414490000001,37.240838599999904,0 -107.1411239000001,37.2407279999999,0 -107.1404952000001,37.2404178999999,0 -107.1393595000001,37.2396174999999,0 -107.1386391000001,37.239250299999895,0 -107.13783380000011,37.2389648999999,0 -107.13699070000011,37.238811399999896,0 -107.1309490000001,37.238189899999895,0 -107.13027410000011,37.238062099999894,0 -107.12966420000011,37.237860999999896,0 -107.1289497000001,37.23743149999989,0 -107.1285744000001,37.2370737999999,0 -107.1283921000001,37.236835299999896,0 -107.12567160000012,37.231299199999896,0 -107.12525980000011,37.2308148999999,0 -107.12436600000011,37.23012179999989,0 -107.12003650000011,37.2279467999999,0 -107.1192522000001,37.2276408999999,0 -107.11798370000011,37.2273738999999,0 -107.1173414000001,37.227351199999895,0 -107.1165287000001,37.2274218999999,0 -107.1160680000001,37.2275073999999,0 -107.11253090000011,37.2284879999999,0 -107.1114969000001,37.2286772999999,0 -107.11008480000011,37.228811799999896,0 -107.1095292000001,37.2289166999999,0 -107.1091024000001,37.2290489999999,0 -107.1083376000001,37.2294503999999,0 -107.1078048000001,37.22993389999989,0 -107.1007798000001,37.240122199999895,0 -107.09953550000009,37.241491899999886,0 -107.09579990000009,37.24420879999989,0 -107.07355110000009,37.25658129999989,0 -107.07391180000009,37.25716139999989,0 -107.07451770000007,37.25687989999989,0 </coordinates></LineString><TimeSpan><begin>2018-11-12T14:15:24.999Z</begin><end>2018-11-12T17:05:44.004Z</end></TimeSpan></Placemark><Placemark><name>Pagosa Springs</name><address>Colorado 81147, USA</address><ExtendedData><Data name="Email"><value>syugen.zhou@gmail.com</value></Data><Data name="Category"><value></value></Data><Data name="Distance"><value>0</value></Data></ExtendedData><description>  from 2018-11-12T17:05:44.004Z to 2018-11-12T17:23:44.000Z. Distance 0m </description><Point><coordinates>-107.0097617,37.26945,0</coordinates></Point><TimeSpan><begin>2018-11-12T17:05:44.004Z</begin><end>2018-11-12T17:23:44.000Z</end></TimeSpan></Placemark><Placemark><name>Driving</name><address></address><ExtendedData><Data name="Email"><value>syugen.zhou@gmail.com</value></Data><Data name="Category"><value>Driving</value></Data><Data name="Distance"><value>95608</value></Data></ExtendedData><description> Driving from 2018-11-12T17:23:44.000Z to 2018-11-12T19:00:10.000Z. Distance 95608m </description><LineString><altitudeMode>clampToGround</altitudeMode><extrude>1</extrude><tesselate>1</tesselate><coordinates>-107.0743782,37.2569455,0 -107.0758269,37.2562048,0 -107.07639549999999,37.256074600000005,0 -107.07746429999999,37.2555398,0 -107.07805999999998,37.2553606,0 -107.07856939999998,37.255005100000005,0 -107.07789509999998,37.254213500000006,0 -107.05734399999997,37.2655642,0 -107.05726629999998,37.2655717,0 -107.05462479999998,37.266948600000006,0 -107.05311499999998,37.2675397,0 -107.04670729999998,37.2693639,0 -107.04662389999999,37.2694157,0 -107.0423216,37.270566800000005,0 -107.04116199999999,37.2710051,0 -107.03705469999998,37.273014,0 -107.03614429999999,37.273273100000004,0 -107.03564979999999,37.273323700000006,0 -107.03496899999999,37.27328630000001,0 -107.0341194,37.27307430000001,0 -107.03345759999999,37.27274190000001,0 -107.03280779999999,37.27221540000001,0 -107.0284375,37.267757800000005,0 -107.02795479999999,37.26741940000001,0 -107.02733309999999,37.267119400000006,0 -107.0265231,37.2668851,0 -107.0257332,37.2668082,0 -107.0219178,37.2671554,0 -107.0171265,37.2666571,0 -107.01545410000001,37.2663439,0 -107.01149940000002,37.2663526,0 -107.01142700000001,37.266382899999996,0 -107.00892140000002,37.268606199999994,0 -107.00840920000003,37.2687252,0 -107.00250450000003,37.269060599999996,0 -106.99841160000003,37.2694974,0 -106.99455340000003,37.2694036,0 -106.99377340000002,37.269547599999996,0 -106.99309980000002,37.269785899999995,0 -106.99234410000001,37.27018559999999,0 -106.99168040000002,37.270677799999994,0 -106.98346820000002,37.27824749999999,0 -106.98278950000002,37.279002799999994,0 -106.97475450000002,37.2910539,0 -106.96759910000002,37.3076338,0 -106.96586970000003,37.3101453,0 -106.96560640000003,37.3109218,0 -106.96515930000002,37.3135757,0 -106.96209050000002,37.3227656,0 -106.96171580000002,37.3235447,0 -106.96093460000002,37.3245403,0 -106.95109080000002,37.333637599999996,0 -106.94904250000002,37.3351403,0 -106.94607200000002,37.3367468,0 -106.92710690000001,37.3442033,0 -106.92343250000002,37.34613329999999,0 -106.92236460000001,37.3468659,0 -106.9203293,37.348714699999995,0 -106.91864970000002,37.351116999999995,0 -106.91680660000002,37.3530977,0 -106.90952860000002,37.3587887,0 -106.90633690000003,37.361957000000004,0 -106.90282340000003,37.3660984,0 -106.90125590000002,37.368795299999995,0 -106.90012540000002,37.372253099999995,0 -106.89970010000002,37.37424609999999,0 -106.89737560000002,37.40948169999999,0 -106.89685450000002,37.4127112,0 -106.89574530000002,37.4166236,0 -106.89465380000001,37.419368999999996,0 -106.8904533,37.427543299999996,0 -106.88905740000001,37.43154319999999,0 -106.8884355,37.43287229999999,0 -106.8877214,37.43391129999999,0 -106.8867756,37.43492139999999,0 -106.8854862,37.4359335,0 -106.88050129999999,37.43887019999999,0 -106.88017939999999,37.4391469,0 -106.87872839999999,37.4411321,0 -106.87797169999999,37.44171469999999,0 -106.87767029999999,37.44216339999999,0 -106.8776077,37.44248259999999,0 -106.8776551,37.44280909999999,0 -106.87781809999998,37.443116499999995,0 -106.87851789999999,37.4438609,0 -106.87875079999998,37.4443616,0 -106.87859999999998,37.4472597,0 -106.87878179999998,37.4476909,0 -106.87908479999997,37.448036,0 -106.88229489999999,37.4503776,0 -106.88270939999998,37.4508784,0 -106.88283749999998,37.4512512,0 -106.88279449999997,37.4520274,0 -106.88310069999997,37.4535352,0 -106.88321299999997,37.455717199999995,0 -106.88296509999998,37.45666,0 -106.88297069999997,37.4569899,0 -106.88317769999998,37.4572977,0 -106.88356779999997,37.4575283,0 -106.88379339999997,37.457580199999995,0 -106.88424949999997,37.457561899999995,0 -106.88468019999996,37.45735749999999,0 -106.88486459999996,37.45717609999999,0 -106.88617119999996,37.45520009999999,0 -106.88659569999996,37.45416219999999,0 -106.88717779999996,37.45340169999999,0 -106.88730449999996,37.453061399999996,0 -106.88740159999996,37.45180259999999,0 -106.88732989999995,37.45078239999999,0 -106.88745239999996,37.45055989999999,0 -106.88756349999997,37.450461099999984,0 -106.88779319999996,37.45036289999999,0 -106.88800319999997,37.45034479999999,0 -106.88826859999996,37.450403399999985,0 -106.88855909999997,37.45059039999999,0 -106.88863189999996,37.45075289999999,0 -106.88861989999997,37.451039499999986,0 -106.88838419999998,37.45170789999999,0 -106.88835049999997,37.452033599999986,0 -106.88856769999997,37.45301409999999,0 -106.88852029999997,37.45349969999999,0 -106.88798519999997,37.45435719999999,0 -106.88788749999998,37.45475559999999,0 -106.88804849999997,37.45578539999999,0 -106.88788609999997,37.45621159999999,0 -106.88752119999998,37.456681499999995,0 -106.88706119999998,37.45769919999999,0 -106.8859184,37.459129399999995,0 -106.88562319999998,37.460195199999994,0 -106.88516659999999,37.4610121,0 -106.88451799999999,37.4616468,0 -106.88076599999998,37.464323099999994,0 -106.87663169999998,37.4666867,0 -106.87633589999997,37.4670012,0 -106.87576749999998,37.4679015,0 -106.87542579999997,37.468224400000004,0 -106.87406279999998,37.4689641,0 -106.87325969999998,37.4695185,0 -106.87278399999997,37.469966,0 -106.87248409999997,37.470606200000006,0 -106.87234409999998,37.471559500000005,0 -106.87205629999997,37.47230030000001,0 -106.87162719999998,37.472786400000004,0 -106.86983799999997,37.47380840000001,0 -106.86868849999998,37.474772400000006,0 -106.86805169999997,37.47510750000001,0 -106.86670429999997,37.47554560000001,0 -106.86626999999997,37.47559080000001,0 -106.86580949999997,37.475559200000006,0 -106.86496659999996,37.475365700000005,0 -106.86451959999997,37.47533250000001,0 -106.86086039999996,37.47570180000001,0 -106.86021279999996,37.47584090000001,0 -106.85965109999997,37.47611300000001,0 -106.85934059999997,37.47636670000001,0 -106.85845539999997,37.47765290000001,0 -106.85792509999997,37.4781994,0 -106.85765499999997,37.4783905,0 -106.85508049999997,37.47958740000001,0 -106.85411869999996,37.47987510000001,0 -106.85032599999997,37.48062600000001,0 -106.84693879999996,37.48177950000001,0 -106.84592909999995,37.482324700000014,0 -106.84445569999995,37.48355520000001,0 -106.84207989999996,37.484792000000006,0 -106.84142269999995,37.484975500000004,0 -106.83904069999996,37.485210300000006,0 -106.83783459999995,37.48553450000001,0 -106.83566219999994,37.486495500000004,0 -106.83473189999995,37.48671720000001,0 -106.83379789999995,37.48678290000001,0 -106.83292949999995,37.48670940000001,0 -106.83141969999996,37.48642530000001,0 -106.83054699999995,37.48639290000001,0 -106.82997969999997,37.48646380000002,0 -106.82581149999996,37.48748410000001,0 -106.82383659999996,37.48830930000001,0 -106.82344179999996,37.48841130000002,0 -106.82265299999996,37.48844430000001,0 -106.82084059999995,37.488084500000014,0 -106.82033669999996,37.48809830000001,0 -106.81847889999996,37.488422000000014,0 -106.81796329999996,37.48845110000001,0 -106.81753149999997,37.48838910000002,0 -106.81705989999996,37.48823150000002,0 -106.81488819999997,37.48695970000002,0 -106.81377089999998,37.48592360000002,0 -106.81286849999998,37.48544150000002,0 -106.81153009999997,37.485066500000016,0 -106.80846749999998,37.48361360000002,0 -106.80725209999999,37.48328160000002,0 -106.80579299999998,37.48312310000002,0 -106.80173609999997,37.483166000000026,0 -106.80064799999998,37.48306070000002,0 -106.79670279999998,37.48217720000002,0 -106.79570939999998,37.481707000000014,0 -106.79514889999997,37.481332500000015,0 -106.79207779999997,37.47872130000002,0 -106.79185009999998,37.47845070000002,0 -106.79170689999997,37.47813570000002,0 -106.79168479999997,37.47784350000002,0 -106.79175709999997,37.47753660000002,0 -106.79197989999997,37.47720410000002,0 -106.79316579999997,37.47634110000002,0 -106.79342669999997,37.476003200000015,0 -106.79351139999997,37.47579110000001,0 -106.79353639999997,37.47542230000001,0 -106.79344009999996,37.47512990000001,0 -106.79328209999996,37.47490820000001,0 -106.79289799999995,37.47459160000001,0 -106.79266219999997,37.47448240000001,0 -106.79215679999996,37.47437460000001,0 -106.79156599999996,37.474421500000005,0 -106.78219399999996,37.47730470000001,0 -106.78147749999997,37.47768860000001,0 -106.78108629999996,37.47798720000001,0 -106.78020909999996,37.47914640000001,0 -106.77997029999996,37.479300300000006,0 -106.77958999999997,37.479411600000006,0 -106.77845669999998,37.47946660000001,0 -106.77615429999997,37.47904460000001,0 -106.77517609999998,37.47911710000001,0 -106.77248909999997,37.47989020000001,0 -106.77208279999998,37.48009170000001,0 -106.77121869999998,37.48077030000001,0 -106.76943969999998,37.48271490000002,0 -106.76915669999998,37.48313510000002,0 -106.76876599999999,37.484001200000016,0 -106.76828289999997,37.48592290000001,0 -106.76578139999998,37.491155200000016,0 -106.76570559999998,37.49205700000002,0 -106.76588959999998,37.49273760000002,0 -106.76731789999998,37.49478950000002,0 -106.76762389999999,37.49546620000002,0 -106.76807539999999,37.49734930000002,0 -106.76827789999999,37.497738900000016,0 -106.76887219999999,37.49850510000002,0 -106.770005,37.49961440000002,0 -106.77108129999999,37.50170840000002,0 -106.77174989999999,37.50263200000001,0 -106.77354989999999,37.50454530000002,0 -106.77381039999999,37.50492790000002,0 -106.7739943,37.50538500000002,0 -106.774045,37.50634740000002,0 -106.7738131,37.50714330000002,0 -106.773463,37.50783910000002,0 -106.773306,37.508385300000015,0 -106.7733003,37.50892690000001,0 -106.77373300000001,37.511201200000016,0 -106.7736876,37.511953500000025,0 -106.773187,37.51334790000002,0 -106.7727262,37.51529730000002,0 -106.7719949,37.51680850000002,0 -106.7717671,37.51762400000002,0 -106.7718162,37.519995600000016,0 -106.77140990000001,37.52092740000002,0 -106.7700993,37.52255210000002,0 -106.7697318,37.523354900000015,0 -106.769575,37.52446870000002,0 -106.769634,37.52505240000002,0 -106.7707993,37.52946360000002,0 -106.7710638,37.53512880000002,0 -106.77121,37.53558940000002,0 -106.7722351,37.53750870000002,0 -106.7725011,37.538374400000016,0 -106.7725124,37.53920710000002,0 -106.7721418,37.54179950000002,0 -106.77221549999999,37.54358490000002,0 -106.7727458,37.545674300000016,0 -106.773318,37.546577700000014,0 -106.7739193,37.547043400000014,0 -106.7746222,37.54777100000001,0 -106.7752977,37.548828100000016,0 -106.77661350000001,37.55277690000001,0 -106.77665470000001,37.55344630000002,0 -106.77654680000002,37.55396800000002,0 -106.77619980000001,37.55470260000002,0 -106.77535310000002,37.55581040000003,0 -106.77475050000002,37.55631340000002,0 -106.77414050000003,37.55666000000002,0 -106.77270420000002,37.55718900000002,0 -106.77171850000002,37.557852000000025,0 -106.77124710000002,37.55840630000002,0 -106.77095030000004,37.559023100000026,0 -106.77063830000003,37.56022560000003,0 -106.77029670000003,37.56090500000003,0 -106.76781170000004,37.56418350000003,0 -106.76649500000003,37.56533690000003,0 -106.76618520000004,37.565478500000026,0 -106.76496670000004,37.56572750000002,0 -106.76449880000004,37.56589230000002,0 -106.76291800000006,37.56691610000003,0 -106.76095470000006,37.56870980000003,0 -106.75835000000005,37.57035210000003,0 -106.75557770000006,37.57333890000003,0 -106.74965790000005,37.577437600000025,0 -106.74731470000005,37.57842190000002,0 -106.74178760000005,37.58259590000002,0 -106.74088010000006,37.58304640000002,0 -106.73941070000006,37.58415710000002,0 -106.73779010000005,37.58500600000002,0 -106.73487900000006,37.587006600000024,0 -106.73369080000006,37.588014000000015,0 -106.73194180000006,37.58896270000002,0 -106.73136060000006,37.58945160000002,0 -106.73006640000007,37.59146590000002,0 -106.73001910000006,37.59197920000002,0 -106.73022650000006,37.59276320000002,0 -106.73019160000005,37.59318500000002,0 -106.72998520000006,37.59360520000002,0 -106.72865420000005,37.59512910000002,0 -106.72777170000005,37.596585000000026,0 -106.72754180000005,37.59835130000002,0 -106.72686140000006,37.60014940000002,0 -106.72669240000008,37.60181970000002,0 -106.72574420000007,37.60404260000002,0 -106.72549150000006,37.60434740000002,0 -106.72398940000006,37.605381300000026,0 -106.72010620000006,37.608493800000026,0 -106.71885550000006,37.609106600000025,0 -106.71729560000006,37.60946940000002,0 -106.71241230000005,37.60965410000002,0 -106.71057020000005,37.60988700000003,0 -106.70581320000005,37.61094080000002,0 -106.70465850000004,37.61130310000002,0 -106.70092110000004,37.613092100000024,0 -106.69875800000004,37.61449990000003,0 -106.69797550000004,37.61479990000003,0 -106.69710030000005,37.61500730000003,0 -106.69476970000004,37.61525180000003,0 -106.69364910000004,37.61552090000003,0 -106.69305490000004,37.615762700000026,0 -106.69222140000004,37.61625450000003,0 -106.69165600000004,37.616722400000036,0 -106.69125940000004,37.61717030000003,0 -106.69013530000004,37.618967800000036,0 -106.68934150000004,37.61985440000003,0 -106.68586880000004,37.622777500000026,0 -106.68378600000004,37.624163100000025,0 -106.68295470000004,37.62495020000003,0 -106.68164520000005,37.62695590000003,0 -106.68114330000004,37.62820050000003,0 -106.68083040000003,37.628716500000024,0 -106.68019330000004,37.62937670000002,0 -106.67654620000003,37.631455800000026,0 -106.67527220000004,37.632423000000024,0 -106.67411900000003,37.63357610000003,0 -106.67281180000003,37.63525680000003,0 -106.67235380000002,37.635707700000026,0 -106.66880830000004,37.63813750000003,0 -106.66577660000003,37.64107970000003,0 -106.66324650000003,37.64287660000003,0 -106.66260010000003,37.64362420000003,0 -106.66167640000003,37.64564270000003,0 -106.66110610000004,37.64640720000003,0 -106.65938210000004,37.64814090000003,0 -106.65619410000005,37.65069680000003,0 -106.65219680000004,37.65602090000003,0 -106.64931870000004,37.66080190000003,0 -106.64755850000005,37.663052400000026,0 -106.64233820000005,37.66830510000003,0 -106.64133210000004,37.668887200000036,0 -106.64024950000004,37.66928520000003,0 -106.62656470000005,37.671273000000035,0 -106.62012950000005,37.67276000000004,0 -106.62002330000006,37.672750000000036,0 -106.60093780000005,37.67726390000004,0 -106.59904350000006,37.67748880000004,0 -106.59751830000006,37.67745960000004,0 -106.58941580000005,37.67633530000004,0 -106.57210050000006,37.67611720000004,0 -106.56976270000006,37.67631700000004,0 -106.54805650000006,37.67932670000004,0 -106.52254100000006,37.68064750000004,0 -106.51906140000006,37.68060110000004,0 -106.51561750000006,37.680334500000036,0 -106.49669390000007,37.67738380000003,0 -106.43220340000006,37.67657970000003,0 -106.41316580000006,37.673105500000034,0 -106.41111260000007,37.67293360000003,0 -106.40740150000006,37.67306570000003,0 -106.36735060000007,37.67951960000003,0 -106.36410470000007,37.67963360000003,0 -106.35139520000007,37.678599500000026,0 </coordinates></LineString><TimeSpan><begin>2018-11-12T17:23:44.000Z</begin><end>2018-11-12T19:00:10.000Z</end></TimeSpan></Placemark><Placemark><name>Conoco</name><address>805 Grand Ave, Del Norte, CO 81132, United States</address><ExtendedData><Data name="Email"><value>syugen.zhou@gmail.com</value></Data><Data name="Category"><value>Gas station</value></Data><Data name="Distance"><value>0</value></Data></ExtendedData><description> Gas station from 2018-11-12T19:00:10.000Z to 2018-11-12T19:19:59.000Z. Distance 0m </description><Point><coordinates>-106.35158299999999,37.678439399999995,0</coordinates></Point><TimeSpan><begin>2018-11-12T19:00:10.000Z</begin><end>2018-11-12T19:19:59.000Z</end></TimeSpan></Placemark><Placemark><name>Driving</name><address></address><ExtendedData><Data name="Email"><value>syugen.zhou@gmail.com</value></Data><Data name="Category"><value>Driving</value></Data><Data name="Distance"><value>162947</value></Data></ExtendedData><description> Driving from 2018-11-12T19:19:59.000Z to 2018-11-12T21:19:16.000Z. Distance 162947m </description><LineString><altitudeMode>clampToGround</altitudeMode><extrude>1</extrude><tesselate>1</tesselate><coordinates>-106.3513229,37.678592900000005,0 -106.3465386,37.6781948,0 -106.3414421,37.6778719,0 -106.3408994,37.677807900000005,0 -106.34031689999999,37.6777023,0 -106.33038859999999,37.6754906,0 -106.32953459999999,37.6752388,0 -106.32903869999998,37.6750496,0 -106.28846879999999,37.656747100000004,0 -106.27492229999999,37.649543400000006,0 -106.27383229999998,37.6488556,0 -106.26444779999999,37.641384,0 -106.24906619999999,37.627249400000004,0 -106.2483496,37.626639700000005,0 -106.24257449999999,37.6221134,0 -106.2420983,37.6216931,0 -106.2381099,37.6186226,0 -106.2379786,37.6185481,0 -106.227388,37.610281400000005,0 -106.227173,37.610133100000006,0 -106.2098404,37.596619000000004,0 -106.2096934,37.5964729,0 -106.20714770000001,37.594446500000004,0 -106.20588530000002,37.59350370000001,0 -106.20568700000001,37.593377600000004,0 -106.19956550000002,37.5885734,0 -106.19877760000001,37.5878389,0 -106.19819660000003,37.587234200000005,0 -106.19573330000003,37.5843192,0 -106.19505150000002,37.5836484,0 -106.19467730000002,37.5833632,0 -106.19404570000002,37.5829624,0 -106.19352980000002,37.5827054,0 -106.19275890000003,37.582402300000005,0 -106.19186980000003,37.5821735,0 -106.19126780000003,37.582073400000006,0 -106.19071170000004,37.58202560000001,0 -106.16864930000003,37.58194400000001,0 -106.16781790000003,37.581881800000005,0 -106.16688550000003,37.581742000000006,0 -106.16619780000003,37.58159320000001,0 -106.16308970000003,37.58080670000001,0 -106.16240030000003,37.580680300000004,0 -106.16176770000003,37.58059670000001,0 -106.16165850000003,37.58056710000001,0 -106.16010280000003,37.58049120000001,0 -106.15830710000003,37.58050690000001,0 -106.15817960000004,37.58052690000002,0 -106.14547030000003,37.58051730000002,0 -106.14528960000004,37.58048020000002,0 -106.14302410000003,37.579515200000024,0 -106.14280370000004,37.57943710000002,0 -106.14270590000004,37.57936280000002,0 -106.14219270000004,37.57932660000002,0 -106.14186720000004,37.57934650000002,0 -106.14149990000004,37.57940640000002,0 -106.14105080000004,37.579423900000016,0 -106.14075350000005,37.579400200000016,0 -106.14052350000003,37.57935190000002,0 -106.14030940000004,37.57928260000002,0 -106.13964750000004,37.57899100000002,0 -106.13958310000002,37.57901480000002,0 -106.13254450000002,37.57603260000002,0 -106.13125930000002,37.575338100000025,0 -106.09882850000002,37.56163370000002,0 -106.09879750000003,37.56160360000002,0 -106.08821800000003,37.557126500000024,0 -106.08805990000003,37.55708320000002,0 -106.06537760000003,37.547491800000024,0 -106.06534970000004,37.54746520000002,0 -106.06530620000004,37.54743850000002,0 -106.03405500000004,37.534253300000024,0 -106.03390160000004,37.53424770000002,0 -106.02398720000005,37.530060500000026,0 -106.02396540000004,37.53001030000002,0 -106.02393190000004,37.52998080000002,0 -106.02383700000004,37.529928200000015,0 -106.01505140000003,37.52620190000002,0 -106.01499580000004,37.526196800000015,0 -105.98982180000003,37.51553160000002,0 -105.98969210000004,37.51545660000002,0 -105.97858000000004,37.51074610000002,0 -105.97849030000003,37.51072380000002,0 -105.97077740000002,37.507455800000024,0 -105.97068880000002,37.507399900000024,0 -105.95997510000001,37.50285770000002,0 -105.95990730000001,37.502844700000026,0 -105.93563830000001,37.492558600000024,0 -105.93559130000001,37.49251830000002,0 -105.92538990000001,37.488192400000024,0 -105.92534190000002,37.48818950000002,0 -105.91602540000002,37.48424320000002,0 -105.91597440000002,37.484200200000025,0 -105.90261370000003,37.478506700000025,0 -105.90258210000003,37.47850100000002,0 -105.90248980000003,37.47850870000002,0 -105.90046120000002,37.47764420000002,0 -105.90035500000003,37.47753730000002,0 -105.89217850000003,37.47405650000002,0 -105.89193740000003,37.47401500000002,0 -105.87963290000003,37.46878400000002,0 -105.87958650000003,37.46870880000002,0 -105.87956430000003,37.468692500000024,0 -105.87613920000003,37.467248600000026,0 -105.87565300000003,37.46712600000003,0 -105.87535850000003,37.467106900000026,0 -105.86245450000004,37.46710340000002,0 -105.86233540000005,37.46714310000002,0 -105.86228030000005,37.46717330000002,0 -105.86220620000005,37.467233900000025,0 -105.86214210000006,37.46730830000002,0 -105.86216260000006,37.46926400000002,0 -105.86200670000007,37.46947000000002,0 -105.86192190000007,37.46953810000002,0 -105.86179560000006,37.469616000000016,0 -105.86051060000007,37.47024970000002,0 -105.86013960000005,37.47048090000002,0 -105.85972750000006,37.47080870000001,0 -105.85794500000006,37.472547200000015,0 -105.85761400000005,37.47280340000002,0 -105.85745520000006,37.47287410000002,0 -105.85717130000006,37.47296580000002,0 -105.85677550000005,37.47306220000002,0 -105.85651810000005,37.47308710000002,0 -105.83892360000004,37.47345360000002,0 -105.82015220000004,37.47355710000002,0 -105.81272190000004,37.47335280000002,0 -105.79621030000006,37.47344190000002,0 -105.71209420000005,37.474586700000025,0 -105.67291650000006,37.47471040000003,0 -105.63902660000007,37.47501280000003,0 -105.59053980000006,37.47502240000002,0 -105.58911460000007,37.47498650000003,0 -105.58730870000007,37.47481510000003,0 -105.58552200000007,37.47451670000003,0 -105.58378570000006,37.474085800000026,0 -105.58257170000006,37.473700800000024,0 -105.58147300000006,37.473285600000025,0 -105.58018150000005,37.47270690000002,0 -105.57936010000005,37.47228190000002,0 -105.57812830000005,37.47155540000002,0 -105.57804460000006,37.47152180000002,0 -105.52030540000005,37.43670470000002,0 -105.51973230000006,37.436429000000025,0 -105.51937370000005,37.436283100000026,0 -105.51845420000005,37.43597780000003,0 -105.51743160000007,37.43577290000003,0 -105.45415760000006,37.42963430000003,0 -105.44835250000006,37.42898120000003,0 -105.43091770000005,37.42723620000003,0 -105.43058470000005,37.427174400000034,0 -105.43025680000005,37.42708960000004,0 -105.42992100000005,37.42697100000003,0 -105.42832360000006,37.42631370000003,0 -105.42798110000005,37.426219100000026,0 -105.42764030000005,37.42615030000003,0 -105.42731320000004,37.42610850000003,0 -105.42685380000005,37.426090300000034,0 -105.42642740000004,37.426108700000036,0 -105.41416600000004,37.427628000000034,0 -105.41292280000005,37.42782910000003,0 -105.39993720000005,37.430620700000034,0 -105.39876170000004,37.43095800000003,0 -105.39808780000004,37.43122370000004,0 -105.39765380000004,37.43142280000004,0 -105.38969750000005,37.43569510000004,0 -105.38887330000006,37.43617570000004,0 -105.38840960000006,37.436484300000046,0 -105.38777550000006,37.436965100000045,0 -105.35691170000005,37.462084500000046,0 -105.35600000000007,37.46297410000005,0 -105.35527160000007,37.46379120000004,0 -105.35452240000006,37.46476560000004,0 -105.35389270000006,37.46573800000004,0 -105.34008380000006,37.491386200000036,0 -105.33960080000006,37.49216490000004,0 -105.33922690000004,37.49263370000004,0 -105.33891830000006,37.49295970000004,0 -105.33853760000005,37.493295800000034,0 -105.33802610000005,37.49365740000004,0 -105.33727850000005,37.49408330000004,0 -105.33666560000006,37.49437110000004,0 -105.33364330000006,37.495604000000036,0 -105.33299610000006,37.495914700000036,0 -105.33250710000006,37.496197400000035,0 -105.33190430000006,37.49664210000004,0 -105.33154930000006,37.49696490000004,0 -105.33121460000007,37.49732330000004,0 -105.33083830000007,37.49778170000004,0 -105.32941930000007,37.49984610000004,0 -105.32869100000006,37.50058880000004,0 -105.31989220000007,37.50701150000004,0 -105.31771410000007,37.50882060000004,0 -105.31326210000007,37.51292350000004,0 -105.31277760000008,37.51332830000004,0 -105.31210290000007,37.51380490000004,0 -105.31145820000008,37.51414980000004,0 -105.31097400000007,37.514362900000044,0 -105.31038360000008,37.51455780000004,0 -105.30987970000008,37.514691200000044,0 -105.30872250000007,37.51490900000004,0 -105.30530820000008,37.51541750000004,0 -105.30429480000008,37.51562620000004,0 -105.30329650000009,37.515941400000045,0 -105.30262840000007,37.51631090000004,0 -105.30226220000007,37.51655220000004,0 -105.30184890000008,37.51688160000004,0 -105.30153210000007,37.517183500000044,0 -105.30125850000007,37.51750410000004,0 -105.30093760000008,37.51796170000004,0 -105.30052780000008,37.51880430000004,0 -105.2968916000001,37.528917800000045,0 -105.2965131000001,37.529710100000045,0 -105.2961886000001,37.530227600000046,0 -105.2959310000001,37.530569900000046,0 -105.2942638000001,37.53232530000004,0 -105.2938144000001,37.53296460000004,0 -105.29257320000009,37.53542680000004,0 -105.29217060000009,37.53607930000003,0 -105.2897371000001,37.539579900000035,0 -105.28535710000008,37.545073500000036,0 -105.28492620000009,37.54571880000003,0 -105.28466280000009,37.54621190000004,0 -105.28445980000009,37.54668610000004,0 -105.28423990000009,37.547458000000034,0 -105.28415660000009,37.54792050000004,0 -105.28411320000009,37.54872600000004,0 -105.2841397000001,37.549237800000036,0 -105.28420540000009,37.54965530000003,0 -105.2843206000001,37.550141800000034,0 -105.2848225000001,37.55143380000004,0 -105.2849817000001,37.55173240000004,0 -105.2878080000001,37.55818880000004,0 -105.2879534000001,37.55871880000004,0 -105.2880157000001,37.559095200000044,0 -105.28802800000011,37.55943170000004,0 -105.2880146000001,37.55963360000004,0 -105.28790170000009,37.56020750000004,0 -105.2877275000001,37.56066970000005,0 -105.2874334000001,37.561199000000045,0 -105.2871940000001,37.56153790000005,0 -105.28669070000011,37.562099500000045,0 -105.2781519000001,37.570228700000044,0 -105.2778222000001,37.57059710000005,0 -105.27743910000011,37.57109730000005,0 -105.27632390000011,37.57292750000005,0 -105.27561510000011,37.57379350000005,0 -105.27506500000011,37.574339100000046,0 -105.2732105000001,37.57590940000004,0 -105.2728896000001,37.576230500000044,0 -105.27087360000012,37.57854820000005,0 -105.27066500000011,37.578731500000046,0 -105.27025460000011,37.579039100000045,0 -105.26996320000012,37.57922010000004,0 -105.26922280000012,37.57957440000004,0 -105.26671560000013,37.58038370000004,0 -105.26606690000011,37.580628400000045,0 -105.26574930000012,37.580785200000044,0 -105.26514300000012,37.581172500000044,0 -105.26468760000013,37.58153940000005,0 -105.26424240000013,37.58202320000004,0 -105.26288260000013,37.58388470000004,0 -105.26245930000013,37.58441160000004,0 -105.26199430000014,37.58490140000004,0 -105.26175820000013,37.58510880000004,0 -105.26132010000013,37.585437800000044,0 -105.26085950000014,37.58573030000004,0 -105.26022920000013,37.58608380000004,0 -105.25600170000013,37.58816380000004,0 -105.25467270000013,37.588694800000034,0 -105.25393520000013,37.58894420000004,0 -105.25200130000013,37.58949540000004,0 -105.25101940000012,37.58968950000004,0 -105.24888950000012,37.59001080000004,0 -105.24834080000012,37.59012600000003,0 -105.24756220000012,37.59035380000004,0 -105.24685250000012,37.59064130000004,0 -105.24622350000011,37.59099900000003,0 -105.2457595000001,37.59133080000004,0 -105.24524790000011,37.59179250000003,0 -105.24458400000012,37.59259870000004,0 -105.24398450000011,37.59349980000004,0 -105.24348350000011,37.59412670000004,0 -105.24324980000011,37.59437420000003,0 -105.2427686000001,37.59482030000004,0 -105.24167650000011,37.59570810000003,0 -105.24094180000012,37.59642860000003,0 -105.2397722000001,37.59788530000003,0 -105.2394611000001,37.59821140000003,0 -105.2390360000001,37.59856090000003,0 -105.23876800000009,37.59874330000003,0 -105.23823710000009,37.59903220000003,0 -105.23778540000009,37.59923720000003,0 -105.23278860000009,37.60084340000003,0 -105.2324118000001,37.600998700000034,0 -105.2320105000001,37.60119600000004,0 -105.2315838000001,37.601465800000035,0 -105.23116000000009,37.60179150000003,0 -105.23084940000008,37.60209500000003,0 -105.23021570000009,37.60292900000003,0 -105.22972420000009,37.60364760000003,0 -105.22940400000009,37.604047400000034,0 -105.2288165000001,37.604622600000035,0 -105.2286110000001,37.604780100000035,0 -105.2283099000001,37.60497130000003,0 -105.2279947000001,37.60514230000003,0 -105.2273304000001,37.60545350000003,0 -105.2173726000001,37.609695300000034,0 -105.2155078000001,37.61039990000003,0 -105.2143860000001,37.61068800000003,0 -105.2132282000001,37.61090190000003,0 -105.20906940000009,37.611409500000036,0 -105.2083555000001,37.61152710000003,0 -105.20730200000008,37.61178860000003,0 -105.20682490000009,37.61197360000003,0 -105.2061564000001,37.612286100000034,0 -105.2054790000001,37.61264970000003,0 -105.1985127000001,37.61701200000003,0 -105.19789170000008,37.61730870000003,0 -105.19757250000009,37.61742840000002,0 -105.1970959000001,37.61756750000003,0 -105.19650210000009,37.61768740000002,0 -105.1957424000001,37.61774430000003,0 -105.1950543000001,37.617724800000026,0 -105.19442240000011,37.61764360000002,0 -105.19395390000011,37.61753120000002,0 -105.1935468000001,37.617395700000024,0 -105.19288940000011,37.617107600000026,0 -105.19245180000011,37.616843000000024,0 -105.19189860000012,37.61642250000002,0 -105.19161250000012,37.61613870000002,0 -105.19102090000013,37.61541870000002,0 -105.19022360000012,37.61431940000002,0 -105.18963810000012,37.61367250000003,0 -105.18897020000013,37.61311150000003,0 -105.18858760000013,37.61284030000003,0 -105.18798090000013,37.61247430000003,0 -105.18485710000013,37.61077970000003,0 -105.18399280000013,37.61017570000003,0 -105.18372190000012,37.609935500000034,0 -105.18339830000012,37.60960550000003,0 -105.18320690000013,37.609357400000036,0 -105.18301320000012,37.609019300000035,0 -105.18275690000013,37.608352200000034,0 -105.18257170000012,37.60766130000003,0 -105.18252500000013,37.60728240000003,0 -105.18255600000012,37.60644880000004,0 -105.18286480000012,37.60556400000004,0 -105.18294210000013,37.60540020000004,0 -105.18338440000012,37.60478950000004,0 -105.18445280000013,37.603526500000044,0 -105.18486690000012,37.60296220000004,0 -105.18513160000012,37.60247310000005,0 -105.18529450000011,37.60204870000005,0 -105.18535940000012,37.601820500000045,0 -105.18541980000012,37.60140970000004,0 -105.18541160000012,37.60083440000004,0 -105.18534260000011,37.60042170000004,0 -105.18496340000011,37.59890490000004,0 -105.1849145000001,37.59854290000005,0 -105.1851472000001,37.59530340000005,0 -105.1851312000001,37.59492830000005,0 -105.1850580000001,37.594561400000046,0 -105.1848910000001,37.59401560000005,0 -105.1847349000001,37.59364640000005,0 -105.18450780000009,37.59323290000005,0 -105.18431500000008,37.59296690000004,0 -105.18244320000008,37.590794600000045,0 -105.18195080000008,37.59005440000004,0 -105.18089140000008,37.588000600000036,0 -105.17992910000007,37.58646010000004,0 -105.17898970000007,37.585118800000046,0 -105.17747470000008,37.58323900000004,0 -105.17094350000006,37.57564970000004,0 -105.17045090000006,37.575138500000044,0 -105.16943130000007,37.57428660000004,0 -105.16865790000007,37.57377070000004,0 -105.16726230000008,37.573109100000046,0 -105.12384080000008,37.55454710000004,0 -105.12308640000008,37.55429050000004,0 -105.12157120000009,37.55390900000004,0 -105.1210547000001,37.55383740000004,0 -105.1199713000001,37.55375160000004,0 -105.1124514000001,37.55350430000004,0 -105.11125980000008,37.55335530000005,0 -105.11046530000009,37.553185200000044,0 -105.09098230000009,37.54717450000004,0 -105.06949420000008,37.54142560000004,0 -105.06870110000008,37.54126970000004,0 -105.06770240000009,37.54113690000004,0 -105.06696740000008,37.54109610000004,0 -105.06640210000008,37.54110500000004,0 -105.00689930000009,37.54434130000004,0 -105.00579060000008,37.54443640000004,0 -105.00445720000009,37.544616700000034,0 -105.00362410000008,37.544774900000036,0 -104.98700610000009,37.548621700000034,0 -104.98589150000008,37.548848700000036,0 -104.98505020000009,37.54897540000003,0 -104.9586174000001,37.55185080000003,0 -104.9566385000001,37.55213640000003,0 -104.95556990000009,37.55236260000003,0 -104.9549388000001,37.55254820000003,0 -104.9376449000001,37.55964970000003,0 -104.93706890000009,37.55994790000003,0 -104.9365229000001,37.56027380000003,0 -104.93592160000009,37.56068320000003,0 -104.93190900000009,37.56366360000003,0 -104.93077900000009,37.56456640000003,0 -104.92053780000009,37.57418860000003,0 -104.9198504000001,37.57472320000003,0 -104.9193186000001,37.57506440000003,0 -104.9188434000001,37.57533300000003,0 -104.9130933000001,37.57799700000003,0 -104.9129839000001,37.57802500000003,0 -104.9090765000001,37.57979010000003,0 -104.9088819000001,37.579917900000034,0 -104.8985119000001,37.584680100000035,0 -104.89796200000009,37.58488780000003,0 -104.8971094000001,37.58513320000004,0 -104.89627390000011,37.58528590000004,0 -104.8955998000001,37.58535880000004,0 -104.8883918000001,37.58585450000004,0 -104.8870378000001,37.58587990000004,0 -104.8787741000001,37.58580730000004,0 -104.87822580000011,37.58583920000004,0 -104.8779475000001,37.58587430000004,0 -104.87724570000012,37.586022100000044,0 -104.8766118000001,37.58622810000004,0 -104.8738402000001,37.58742750000004,0 -104.87258630000011,37.58811460000004,0 -104.8714826000001,37.58888440000004,0 -104.86341720000011,37.59594960000004,0 -104.8626289000001,37.59655930000004,0 -104.86186680000012,37.59701000000004,0 -104.86124840000011,37.59729630000004,0 -104.86065190000011,37.59750760000004,0 -104.8603374000001,37.59759810000004,0 -104.8597137000001,37.59773990000004,0 -104.85905650000011,37.597839800000045,0 -104.8556491000001,37.598090800000044,0 -104.8555717000001,37.598078100000045,0 -104.85307830000009,37.59826760000004,0 -104.8529764000001,37.59829660000005,0 -104.8430242000001,37.59897040000004,0 -104.8406137000001,37.599212600000044,0 -104.8390959000001,37.59942970000004,0 -104.8376685000001,37.59971300000004,0 -104.83645280000009,37.60003060000004,0 -104.8353820000001,37.60038820000004,0 -104.8332021000001,37.60119150000004,0 -104.83157010000009,37.601938700000034,0 -104.8297857000001,37.60287690000004,0 -104.8275721000001,37.60417040000004,0 -104.8248945000001,37.60559270000004,0 -104.8237248000001,37.606133700000036,0 -104.8211681000001,37.60719090000004,0 -104.81800590000009,37.60836170000004,0 -104.81786740000008,37.60838920000004,0 -104.81368880000008,37.609945400000036,0 -104.81289370000009,37.610182400000035,0 -104.81248150000009,37.61026950000004,0 -104.81207950000008,37.61032240000004,0 -104.81012680000008,37.610395900000036,0 -104.81004000000007,37.61041330000004,0 -104.80979460000007,37.61042410000003,0 -104.80934370000007,37.610475600000036,0 -104.80859370000006,37.61061580000003,0 -104.80785650000007,37.610839000000034,0 -104.80763410000006,37.61092520000003,0 -104.80090020000006,37.61434100000004,0 -104.80032950000006,37.61467060000004,0 -104.79632910000007,37.61735880000004,0 -104.79593050000007,37.61756190000004,0 -104.78357750000008,37.62167010000004,0 -104.78346820000007,37.62146050000004,0 </coordinates></LineString><TimeSpan><begin>2018-11-12T19:19:59.000Z</begin><end>2018-11-12T21:19:16.000Z</end></TimeSpan></Placemark><Placemark><name>7-Eleven</name><address>235 W 7th St, Walsenburg, CO 81089, United States</address><ExtendedData><Data name="Email"><value>syugen.zhou@gmail.com</value></Data><Data name="Category"><value>Convenience store</value></Data><Data name="Distance"><value>0</value></Data></ExtendedData><description> Convenience store from 2018-11-12T21:19:16.000Z to 2018-11-12T21:28:22.000Z. Distance 0m </description><Point><coordinates>-104.7829749,37.6214733,0</coordinates></Point><TimeSpan><begin>2018-11-12T21:19:16.000Z</begin><end>2018-11-12T21:28:22.000Z</end></TimeSpan></Placemark><Placemark><name>Driving</name><address></address><ExtendedData><Data name="Email"><value>syugen.zhou@gmail.com</value></Data><Data name="Category"><value>Driving</value></Data><Data name="Distance"><value>131963</value></Data></ExtendedData><description> Driving from 2018-11-12T21:28:22.000Z to 2018-11-12T22:38:34.004Z. Distance 131963m </description><LineString><altitudeMode>clampToGround</altitudeMode><extrude>1</extrude><tesselate>1</tesselate><coordinates>-104.7834745,37.6214726,0 -104.78438,37.6233349,0 -104.7850702,37.6245575,0 -104.7819114,37.625665600000005,0 -104.78299940000001,37.62768570000001,0 -104.78313399999999,37.6277755,0 -104.783532,37.6279575,0 -104.7836253,37.62802990000001,0 -104.7890811,37.634592000000005,0 -104.7893342,37.6350524,0 -104.7894443,37.6354021,0 -104.7895307,37.6359537,0 -104.7901257,37.647026600000004,0 -104.7903703,37.648003100000004,0 -104.7908223,37.649078700000004,0 -104.79377910000001,37.6551544,0 -104.7938692,37.655511000000004,0 -104.7938675,37.6560329,0 -104.79380540000001,37.656313700000005,0 -104.793132,37.65792330000001,0 -104.79307850000001,37.658128100000006,0 -104.79306650000001,37.6584925,0 -104.7931265,37.65874110000001,0 -104.7933933,37.659152500000005,0 -104.79374830000002,37.659459700000006,0 -104.79524350000001,37.6602534,0 -104.7958085,37.660636100000005,0 -104.79618800000001,37.6609713,0 -104.7966439,37.6614919,0 -104.7967198,37.6615236,0 -104.7973434,37.66265,0 -104.83517950000001,37.7514122,0 -104.8354544,37.7522259,0 -104.8356029,37.752969799999995,0 -104.8356544,37.753760199999995,0 -104.8349102,37.76835259999999,0 -104.8285384,37.8023211,0 -104.8284912,37.8029974,0 -104.82886450000001,37.9082092,0 -104.82864830000001,37.91003,0 -104.8283514,37.9112359,0 -104.8278616,37.912596,0 -104.8171121,37.9356633,0 -104.816805,37.93615,0 -104.8163401,37.936688000000004,0 -104.81597940000002,37.9370156,0 -104.81553810000003,37.937342300000005,0 -104.81479490000002,37.937756300000004,0 -104.81443250000002,37.93791350000001,0 -104.81361750000002,37.938172800000004,0 -104.80949490000002,37.93889720000001,0 -104.80869780000003,37.93910100000001,0 -104.80832080000003,37.93923820000001,0 -104.80777490000003,37.93949080000001,0 -104.80706520000003,37.93993850000001,0 -104.80676790000003,37.94017970000001,0 -104.80634100000003,37.94061160000001,0 -104.80604610000003,37.940992400000006,0 -104.80580890000003,37.94139090000001,0 -104.80021900000004,37.9561435,0 -104.79968940000003,37.95722440000001,0 -104.79878310000002,37.95860520000001,0 -104.79680800000003,37.960873600000006,0 -104.78094980000003,37.974869600000005,0 -104.78010750000003,37.975742200000006,0 -104.77900510000003,37.97711240000001,0 -104.77533620000003,37.98233510000001,0 -104.77446400000002,37.98333010000001,0 -104.76883410000003,37.98878470000001,0 -104.75722550000003,37.99884110000001,0 -104.75654020000003,37.99953050000001,0 -104.73275900000003,38.02745530000001,0 -104.73196410000003,38.02859690000001,0 -104.73129210000003,38.02979010000001,0 -104.73066410000003,38.03122580000001,0 -104.73011970000002,38.033136500000005,0 -104.72994450000002,38.03428460000001,0 -104.72966120000001,38.037359900000006,0 -104.72940730000002,38.0387533,0 -104.72916010000002,38.03964750000001,0 -104.72871160000001,38.0408399,0 -104.72833390000001,38.0416553,0 -104.72771920000001,38.04275200000001,0 -104.7254331,38.0459831,0 -104.7247451,38.047167800000004,0 -104.7223414,38.0530519,0 -104.7214696,38.054698,0 -104.72050130000001,38.0560842,0 -104.71549870000001,38.0617136,0 -104.7148021,38.0626658,0 -104.7061584,38.0780893,0 -104.70558199999999,38.0789021,0 -104.704765,38.079885600000004,0 -104.6742535,38.1128488,0 -104.67313390000001,38.1144225,0 -104.6726177,38.115327199999996,0 -104.6721407,38.1163359,0 -104.6717777,38.1172799,0 -104.6713314,38.118992899999995,0 -104.66987540000001,38.1279455,0 -104.6695042,38.1290247,0 -104.6691552,38.129689299999995,0 -104.66880379999999,38.1302261,0 -104.6552203,38.1479275,0 -104.64266429999999,38.1615802,0 -104.6413362,38.1632914,0 -104.6360846,38.171020299999995,0 -104.6356294,38.1717923,0 -104.63498100000001,38.1731218,0 -104.63460040000001,38.1741546,0 -104.6342649,38.1754384,0 -104.6340528,38.176764199999994,0 -104.6323545,38.1963064,0 -104.63206670000001,38.1978735,0 -104.62821730000002,38.2090987,0 -104.6277632,38.2100724,0 -104.6273838,38.2106826,0 -104.62701720000001,38.211168,0 -104.62247100000002,38.2157779,0 -104.61618780000002,38.22092370000001,0 -104.6157505,38.221336300000004,0 -104.61536010000002,38.2217776,0 -104.61475190000002,38.2226494,0 -104.61448540000002,38.223161100000006,0 -104.61420710000003,38.2238966,0 -104.61410530000002,38.22431660000001,0 -104.61397070000002,38.22544820000001,0 -104.61384730000003,38.23156470000001,0 -104.61373390000003,38.2323566,0 -104.61357220000004,38.2328555,0 -104.61215210000003,38.235887000000005,0 -104.61199840000002,38.2363746,0 -104.61183190000003,38.2372402,0 -104.61178080000003,38.2379734,0 -104.61181330000004,38.2397906,0 -104.61196410000004,38.240534499999995,0 -104.61232800000003,38.24180179999999,0 -104.61233690000005,38.2421021,0 -104.61230040000004,38.2423922,0 -104.61200210000003,38.2433231,0 -104.61188270000002,38.2438608,0 -104.61185600000003,38.2470327,0 -104.61180800000002,38.2474128,0 -104.61170490000003,38.247768799999996,0 -104.61154980000003,38.2480919,0 -104.60991190000003,38.250261699999996,0 -104.60973920000002,38.2506518,0 -104.60962910000002,38.251089099999994,0 -104.60956240000002,38.25240049999999,0 -104.60952480000002,38.25258859999999,0 -104.60933530000001,38.25311439999999,0 -104.60903570000002,38.25361119999999,0 -104.60570040000002,38.257399699999986,0 -104.60552060000002,38.25770379999998,0 -104.6052793,38.25842439999998,0 -104.60524380000001,38.26171079999998,0 -104.60502350000002,38.26220249999998,0 -104.60463390000001,38.26572859999998,0 -104.6046572,38.266273599999984,0 -104.60515010000002,38.26892119999999,0 -104.60519060000001,38.26947169999998,0 -104.60510470000001,38.27038669999998,0 -104.6047946,38.271427899999985,0 -104.60407350000001,38.272962599999985,0 -104.60388910000002,38.27358719999999,0 -104.60385910000001,38.27393019999999,0 -104.60394490000002,38.276182699999985,0 -104.60401280000002,38.27650029999999,0 -104.60426640000001,38.27719019999999,0 -104.6048284,38.27832949999999,0 -104.6050663,38.27904939999999,0 -104.60517630000001,38.27959249999999,0 -104.60522320000001,38.28035899999999,0 -104.60515570000001,38.28211439999999,0 -104.60524250000002,38.28487759999999,0 -104.6053272,38.28529719999999,0 -104.60717760000001,38.29044249999999,0 -104.60931330000003,38.29447389999999,0 -104.61126260000002,38.297456999999994,0 -104.61169710000003,38.298388499999994,0 -104.61188690000003,38.299022599999994,0 -104.61230700000003,38.30146119999999,0 -104.61497220000003,38.31404929999999,0 -104.61530870000003,38.31759269999999,0 -104.61552500000002,38.324208199999994,0 -104.61589720000002,38.3261111,0 -104.61922100000002,38.336407799999996,0 -104.61953780000003,38.337679699999995,0 -104.61970230000003,38.3386636,0 -104.61977130000004,38.33962449999999,0 -104.61978540000004,38.34458549999999,0 -104.62069750000005,38.36199059999999,0 -104.62069690000004,38.3646349,0 -104.62035120000004,38.3691056,0 -104.61869230000005,38.3822063,0 -104.61881380000004,38.3845874,0 -104.61971300000005,38.3895438,0 -104.61983120000005,38.3913031,0 -104.61975850000005,38.392631,0 -104.61945000000004,38.3943575,0 -104.61916030000005,38.395322,0 -104.60826000000004,38.4241167,0 -104.60782020000005,38.42588859999999,0 -104.60631040000005,38.437425299999994,0 -104.60566070000006,38.4469596,0 -104.60567740000006,38.448165599999996,0 -104.60619730000005,38.45331099999999,0 -104.60632920000005,38.45404669999999,0 -104.60680880000005,38.45570619999999,0 -104.61485230000005,38.47524249999999,0 -104.62558500000006,38.49814169999999,0 -104.62622830000007,38.499925299999994,0 -104.62923520000005,38.515445199999995,0 -104.62946080000006,38.5162639,0 -104.63010770000005,38.5179176,0 -104.64663710000006,38.5504025,0 -104.65291240000006,38.56457939999999,0 -104.65601280000006,38.57089739999999,0 -104.65646790000007,38.57164399999999,0 -104.65688160000006,38.57218559999999,0 -104.66687530000006,38.582834399999996,0 -104.66728650000006,38.583415099999996,0 -104.67760860000006,38.602330699999996,0 -104.68032090000007,38.6065992,0 -104.68638560000007,38.614771399999995,0 -104.68723320000008,38.6161066,0 -104.68771350000007,38.6170486,0 -104.68821980000007,38.6183074,0 -104.68845310000006,38.6190568,0 -104.69372540000006,38.6434511,0 -104.69413750000007,38.6448978,0 -104.70098060000007,38.662187200000005,0 -104.70159460000006,38.663406200000004,0 -104.70233730000007,38.6645805,0 -104.71209500000006,38.6771791,0 -104.71283770000007,38.6782405,0 -104.71333730000008,38.679075700000006,0 -104.72010790000007,38.6937512,0 -104.72048590000009,38.69495680000001,0 -104.72331900000009,38.70669000000001,0 -104.72876640000008,38.7197237,0 -104.72954450000009,38.72112870000001,0 -104.73014190000008,38.72200480000001,0 -104.73014460000009,38.72209920000001,0 -104.73166910000008,38.72447690000001,0 -104.73231140000009,38.72511810000001,0 -104.73024350000009,38.725866800000006,0 -104.72975580000008,38.72600080000001,0 -104.72913350000009,38.7260708,0 -104.72868140000008,38.72605800000001,0 -104.72840800000007,38.72601860000001,0 -104.72789430000007,38.72588740000001,0 -104.72763810000008,38.72578260000001,0 -104.72723090000007,38.72556540000001,0 -104.72499630000007,38.72409030000001,0 -104.72434700000007,38.72371610000001,0 -104.72333770000006,38.72329490000001,0 -104.72254630000006,38.72307110000001,0 -104.72206170000005,38.72297300000002,0 -104.72091170000004,38.72286420000001,0 -104.71617020000005,38.722825600000014,0 -104.71534750000005,38.72274200000002,0 -104.71440090000006,38.72251650000002,0 -104.71389450000005,38.72233090000002,0 -104.71337820000007,38.722087600000016,0 -104.71283110000006,38.721757900000014,0 -104.71162480000005,38.72091330000002,0 -104.71093470000005,38.72053460000002,0 -104.71030840000006,38.720284400000025,0 -104.70952280000006,38.72006880000003,0 -104.70911150000005,38.71999540000002,0 -104.70814620000004,38.719914100000025,0 -104.70454360000004,38.71994070000002,0 -104.70395530000003,38.71989300000003,0 -104.70329180000003,38.71977810000003,0 -104.69773240000004,38.718142200000024,0 -104.69741280000004,38.71877740000002,0 -104.69856770000003,38.71912000000002,0 -104.69871560000003,38.71883480000002,0 -104.69817520000004,38.71866490000002,0 </coordinates></LineString><TimeSpan><begin>2018-11-12T21:28:22.000Z</begin><end>2018-11-12T22:38:34.004Z</end></TimeSpan></Placemark><Placemark><name>McDonald's</name><address>6950 Mesa Ridge Pkwy, Fountain, CO 80817, United States</address><ExtendedData><Data name="Email"><value>syugen.zhou@gmail.com</value></Data><Data name="Category"><value>Fast Food</value></Data><Data name="Distance"><value>0</value></Data></ExtendedData><description> Fast Food from 2018-11-12T22:38:34.004Z to 2018-11-12T23:17:48.000Z. Distance 0m </description><Point><coordinates>-104.6981237,38.7188255,0</coordinates></Point><TimeSpan><begin>2018-11-12T22:38:34.004Z</begin><end>2018-11-12T23:17:48.000Z</end></TimeSpan></Placemark><Placemark><name>Driving</name><address></address><ExtendedData><Data name="Email"><value>syugen.zhou@gmail.com</value></Data><Data name="Category"><value>Driving</value></Data><Data name="Distance"><value>144097</value></Data></ExtendedData><description> Driving from 2018-11-12T23:17:48.000Z to 2018-11-13T00:37:30.000Z. Distance 144097m </description><LineString><altitudeMode>clampToGround</altitudeMode><extrude>1</extrude><tesselate>1</tesselate><coordinates>-104.69820229999999,38.7186735,0 -104.6978057,38.7185475,0 -104.6976518,38.7188483,0 -104.6974128,38.71877739999999,0 -104.6976648,38.71825709999999,0 -104.7033418,38.71992629999999,0 -104.7040278,38.72003569999999,0 -104.708583,38.72006839999999,0 -104.710086,38.720356399999986,0 -104.71131380000001,38.72089299999999,0 -104.7132892,38.72220439999999,0 -104.71415630000001,38.722575099999986,0 -104.71534060000002,38.722873499999984,0 -104.71582780000003,38.72293089999999,0 -104.72138880000003,38.723010999999985,0 -104.72275720000003,38.72324469999999,0 -104.72389530000002,38.72364279999999,0 -104.72458800000003,38.72399329999999,0 -104.72735820000003,38.725804999999994,0 -104.72801640000002,38.72608189999999,0 -104.72902630000002,38.72623839999999,0 -104.72996460000002,38.72613369999999,0 -104.73247890000002,38.72526699999999,0 -104.73308600000003,38.72585869999999,0 -104.73563170000003,38.72780929999999,0 -104.73573220000003,38.727826599999986,0 -104.76497690000002,38.75653939999999,0 -104.77286880000003,38.76237999999999,0 -104.77582960000002,38.76511979999999,0 -104.77752280000001,38.76702229999999,0 -104.77967580000002,38.769986399999986,0 -104.78073350000003,38.771792199999986,0 -104.78286380000003,38.77656359999999,0 -104.78379900000003,38.77815039999999,0 -104.79486560000004,38.791484899999986,0 -104.79574070000002,38.79287199999999,0 -104.80091270000004,38.80304529999999,0 -104.80175340000004,38.804209599999986,0 -104.80399910000003,38.806554599999984,0 -104.81281270000002,38.812930899999984,0 -104.81459430000002,38.81377949999999,0 -104.81675300000002,38.81447709999999,0 -104.81927510000001,38.81491979999999,0 -104.82639160000001,38.81535009999999,0 -104.82740430000001,38.81553929999999,0 -104.82918480000002,38.816084899999986,0 -104.83104790000002,38.81703729999999,0 -104.83465540000002,38.819833399999986,0 -104.83526780000001,38.82044369999999,0 -104.83595020000001,38.82153909999999,0 -104.83622470000002,38.82262279999999,0 -104.83622590000002,38.82335319999999,0 -104.83468670000002,38.830051299999994,0 -104.83435370000001,38.830833199999994,0 -104.83352380000001,38.8319869,0 -104.8314904,38.833835300000004,0 -104.83079120000001,38.8347649,0 -104.83038540000001,38.8356087,0 -104.83008250000002,38.837006800000005,0 -104.82983670000002,38.8413557,0 -104.82993600000002,38.8425235,0 -104.83081750000002,38.8470984,0 -104.83175000000001,38.8500492,0 -104.83236680000002,38.854009399999995,0 -104.83273540000002,38.855190900000004,0 -104.83364980000003,38.8570908,0 -104.83404190000002,38.858903100000006,0 -104.83401300000003,38.86094450000001,0 -104.83325340000002,38.864595300000005,0 -104.83337420000002,38.869362900000006,0 -104.83580150000002,38.880643000000006,0 -104.83586720000002,38.88238880000001,0 -104.83558690000002,38.884502600000005,0 -104.83505530000002,38.88631480000001,0 -104.83126950000002,38.8939584,0 -104.82573180000003,38.907324800000005,0 -104.82481650000003,38.9089076,0 -104.82368770000002,38.9102335,0 -104.81685780000004,38.915611299999995,0 -104.81590530000003,38.916763399999994,0 -104.81539670000004,38.917597699999995,0 -104.81493750000003,38.918650799999995,0 -104.81464680000003,38.919659599999996,0 -104.81234090000002,38.9339893,0 -104.81245920000003,38.937049800000004,0 -104.81385670000003,38.9444275,0 -104.81376140000003,38.9456619,0 -104.81329270000003,38.947161300000005,0 -104.81247620000003,38.948547,0 -104.81109170000003,38.9500021,0 -104.80454960000003,38.9540621,0 -104.80340280000003,38.954936,0 -104.80247200000004,38.9559418,0 -104.80152290000004,38.95747579999999,0 -104.80112540000005,38.958636899999995,0 -104.80095510000004,38.959751499999996,0 -104.80099850000003,38.960952899999995,0 -104.80123900000004,38.9620374,0 -104.81233850000002,38.9847365,0 -104.81867800000003,39.0019118,0 -104.85534080000004,39.0635673,0 -104.85616920000002,39.0655626,0 -104.86357690000003,39.0969426,0 -104.86556840000003,39.1150443,0 -104.86556970000002,39.1172449,0 -104.86511170000001,39.1214347,0 -104.86150120000002,39.142333300000004,0 -104.85845680000001,39.1507579,0 -104.858393,39.150837700000004,0 -104.851066,39.17060940000001,0 -104.85040540000001,39.173295100000004,0 -104.85006000000001,39.17591290000001,0 -104.85025480000002,39.1884372,0 -104.85041530000001,39.189931900000005,0 -104.85117840000001,39.19275030000001,0 -104.85200490000001,39.19441930000001,0 -104.85863200000001,39.204699200000015,0 -104.85959640000002,39.205733000000016,0 -104.86118810000002,39.20687570000002,0 -104.87085560000001,39.21251530000002,0 -104.87355210000001,39.214332200000015,0 -104.87689370000001,39.217230600000015,0 -104.87763660000002,39.21817570000002,0 -104.87816260000002,39.21911760000002,0 -104.87847310000002,39.219938800000016,0 -104.87879790000002,39.22185060000002,0 -104.87823830000002,39.22589350000002,0 -104.87819590000002,39.22593570000002,0 -104.87730390000002,39.233693100000025,0 -104.87726110000003,39.24001130000002,0 -104.87741270000002,39.241343100000016,0 -104.87822900000002,39.24320140000002,0 -104.87891570000002,39.24410670000001,0 -104.87969300000002,39.24491180000001,0 -104.88230030000003,39.24713280000001,0 -104.88412810000003,39.24903460000001,0 -104.89167540000003,39.25927140000001,0 -104.89374600000004,39.26258730000001,0 -104.89516370000004,39.26545720000001,0 -104.89611810000004,39.26798600000001,0 -104.89701610000003,39.27184480000001,0 -104.89752000000003,39.27648270000001,0 -104.89747670000003,39.277341000000014,0 -104.89562420000003,39.28859960000001,0 -104.89511160000004,39.29006500000001,0 -104.89033740000004,39.29864640000001,0 -104.87150020000003,39.35100540000001,0 -104.86796160000003,39.35810080000001,0 -104.86266880000002,39.37516660000001,0 -104.86108370000002,39.37849510000001,0 -104.86063850000002,39.37988200000001,0 -104.86041160000002,39.38164660000001,0 -104.86038330000002,39.38651830000001,0 -104.85968920000003,39.39085780000002,0 -104.85976460000002,39.394162600000016,0 -104.86015110000002,39.396282200000016,0 -104.86090940000003,39.39864260000002,0 -104.86487790000004,39.407708200000016,0 -104.86584460000003,39.409480400000014,0 -104.87828640000004,39.42795270000001,0 -104.87869610000004,39.42875350000001,0 -104.87910050000004,39.430021100000005,0 -104.87921850000004,39.43174780000001,0 -104.87856990000003,39.43575620000001,0 -104.87817900000003,39.43679390000001,0 -104.87623800000003,39.44016640000002,0 -104.87579990000003,39.44121240000001,0 -104.87550940000003,39.442602000000015,0 -104.87554840000003,39.44959780000002,0 -104.87513870000002,39.45581070000002,0 -104.87265020000002,39.470799900000024,0 -104.87238120000002,39.47438510000002,0 -104.87244020000003,39.486958100000024,0 -104.87438240000003,39.501199900000024,0 -104.87431240000004,39.502507700000024,0 -104.87385140000004,39.50432420000003,0 -104.86738850000003,39.51741180000002,0 -104.86714200000004,39.518592400000024,0 -104.86741290000005,39.52607270000003,0 -104.86941060000005,39.54957760000003,0 -104.86929920000006,39.54971690000003,0 -104.86932200000005,39.55139110000003,0 -104.86898250000006,39.55260450000003,0 -104.86872970000006,39.553050500000026,0 -104.86815750000005,39.55360030000003,0 -104.86749550000006,39.55394890000003,0 -104.86666270000006,39.554157700000026,0 -104.86485540000005,39.55422900000003,0 -104.86474540000006,39.55427050000002,0 -104.86326410000005,39.55423530000002,0 -104.86193380000006,39.55394560000002,0 -104.85627980000005,39.55167370000002,0 -104.85487820000006,39.551274900000024,0 -104.85125520000005,39.55064110000003,0 -104.84902390000005,39.550502100000024,0 -104.84621690000004,39.55058650000002,0 -104.84376830000005,39.55091090000003,0 -104.82584670000006,39.555688600000025,0 -104.82198010000006,39.556184700000024,0 -104.82009210000007,39.556201900000026,0 -104.81769660000008,39.55603020000002,0 -104.81438650000007,39.555401700000026,0 -104.81182680000008,39.55458400000002,0 -104.80294300000007,39.550293700000026,0 -104.80069520000006,39.54965300000002,0 -104.79957140000008,39.54945030000002,0 -104.78718190000008,39.548297400000024,0 -104.78478410000008,39.548410500000024,0 -104.7828273000001,39.54876130000002,0 -104.78105490000009,39.54928680000002,0 -104.77962670000008,39.54987960000002,0 -104.77847530000008,39.55048280000002,0 -104.77330170000008,39.55371600000002,0 -104.77233050000008,39.55463270000002,0 -104.77168020000008,39.55548770000002,0 -104.77103230000009,39.55689640000002,0 -104.76969330000009,39.561492800000025,0 -104.76882410000009,39.563010400000024,0 -104.76799440000008,39.56404870000002,0 -104.76683410000008,39.565157500000026,0 -104.76534630000009,39.56622620000003,0 -104.76396920000009,39.56697010000003,0 -104.76178250000008,39.567778600000025,0 -104.75576330000008,39.56917020000002,0 -104.75444280000008,39.569640400000026,0 -104.75306250000007,39.57040990000003,0 -104.74621910000008,39.57556040000002,0 -104.74490160000006,39.576257500000025,0 -104.74299170000006,39.576838700000025,0 -104.74192930000007,39.57699230000003,0 -104.72771030000006,39.57683470000003,0 -104.72647860000005,39.576974000000035,0 -104.72528020000006,39.57723070000003,0 -104.72385320000006,39.57770370000003,0 -104.72290180000007,39.57813990000003,0 -104.72181350000007,39.57878590000003,0 -104.72081950000008,39.579567200000035,0 -104.71957920000007,39.580939000000036,0 -104.71879440000006,39.58231040000003,0 -104.71836020000008,39.58381450000003,0 -104.71812960000007,39.59202600000003,0 -104.71797540000007,39.59299740000004,0 -104.71719700000007,39.595593600000036,0 -104.71319170000007,39.60263830000004,0 -104.71284440000007,39.60373940000004,0 -104.71271540000006,39.60557080000003,0 -104.71291370000007,39.60671390000004,0 -104.71323090000007,39.60761930000004,0 -104.71830920000006,39.61674070000004,0 -104.71890450000006,39.61867500000004,0 -104.71902200000007,39.61990750000004,0 -104.71866850000006,39.63068210000004,0 -104.71911540000006,39.64970630000004,0 -104.71955310000006,39.65323150000005,0 -104.72593560000006,39.680657600000046,0 -104.72621780000006,39.68254340000005,0 -104.72595940000006,39.69904940000005,0 -104.72559840000007,39.701965800000046,0 -104.72467150000006,39.70645680000005,0 -104.71713380000006,39.73220610000005,0 -104.71721760000007,39.73361880000005,0 -104.71841700000006,39.73701050000005,0 -104.71860400000007,39.737968800000054,0 -104.71867450000006,39.739288400000056,0 -104.71850690000007,39.74069010000006,0 -104.71825310000006,39.74167220000006,0 -104.71718090000006,39.74414100000006,0 -104.71675220000007,39.74571570000006,0 -104.71604660000007,39.80230880000006,0 -104.71626300000007,39.80436790000006,0 -104.71651520000007,39.805279600000055,0 -104.71720840000008,39.80694240000006,0 -104.72126610000007,39.813776800000056,0 -104.72179510000008,39.814464400000055,0 -104.72305030000007,39.81553520000006,0 -104.72427010000007,39.816198700000065,0 -104.72519440000006,39.81653830000006,0 -104.72613860000006,39.81676980000006,0 -104.73647760000006,39.817807500000065,0 -104.73794340000006,39.818137100000065,0 -104.74012830000007,39.818905600000065,0 -104.74147940000006,39.81958980000007,0 -104.74316590000006,39.820736300000064,0 -104.74465270000007,39.822165800000064,0 -104.74599490000007,39.82414580000006,0 -104.74666930000006,39.82594920000006,0 -104.74662170000008,39.82604910000006,0 -104.74677490000008,39.82701270000006,0 -104.74679220000007,39.82813130000006,0 -104.74659260000007,39.82946160000006,0 -104.74623310000007,39.830194000000056,0 -104.74586990000007,39.830578800000055,0 -104.74256470000007,39.83314210000006,0 -104.74189800000008,39.83341320000006,0 -104.74141110000008,39.83352370000006,0 -104.74006730000008,39.83359520000006,0 -104.73987280000007,39.833661000000056,0 -104.73602310000007,39.83370270000006,0 -104.73589190000007,39.83377340000006,0 -104.73268720000007,39.83374900000006,0 -104.72946130000008,39.83340490000006,0 -104.72930030000008,39.83331960000006,0 -104.72224160000007,39.83222290000006,0 -104.72082810000006,39.83209930000006,0 -104.71551230000007,39.83200220000006,0 -104.71550370000007,39.83646730000006,0 -104.71862960000006,39.836501800000065,0 -104.71878490000006,39.83654210000006,0 -104.71904310000005,39.83667910000006,0 -104.71927790000007,39.83700630000006,0 -104.71967610000007,39.83686270000006,0 -104.71982790000006,39.83676370000006,0 -104.71992610000007,39.83658540000007,0 -104.72007430000006,39.83664370000007,0 -104.72031070000006,39.83664830000007,0 -104.72030580000006,39.83622350000007,0 </coordinates></LineString><TimeSpan><begin>2018-11-12T23:17:48.000Z</begin><end>2018-11-13T00:37:30.000Z</end></TimeSpan></Placemark><Placemark><name>Phillips 66</name><address>7680 Peña Blvd, Denver, CO 80249, United States</address><ExtendedData><Data name="Email"><value>syugen.zhou@gmail.com</value></Data><Data name="Category"><value>Gas station</value></Data><Data name="Distance"><value>0</value></Data></ExtendedData><description> Gas station from 2018-11-13T00:37:30.000Z to 2018-11-13T00:46:26.000Z. Distance 0m </description><Point><coordinates>-104.7201442,39.8362237,0</coordinates></Point><TimeSpan><begin>2018-11-13T00:37:30.000Z</begin><end>2018-11-13T00:46:26.000Z</end></TimeSpan></Placemark><Placemark><name>Driving</name><address></address><ExtendedData><Data name="Email"><value>syugen.zhou@gmail.com</value></Data><Data name="Category"><value>Driving</value></Data><Data name="Distance"><value>2390</value></Data></ExtendedData><description> Driving from 2018-11-13T00:46:26.000Z to 2018-11-13T01:04:35.000Z. Distance 2390m </description><LineString><altitudeMode>clampToGround</altitudeMode><extrude>1</extrude><tesselate>1</tesselate><coordinates>-104.7199491,39.836204800000004,0 -104.7199414,39.836375800000006,0 -104.7199261,39.836585400000004,0 -104.7198925,39.83668,0 -104.7198664,39.83672000000001,0 -104.7198279,39.836763700000006,0 -104.7197661,39.836812800000004,0 -104.7196761,39.83686270000001,0 -104.71953839999999,39.83691600000001,0 -104.719443,39.836950400000006,0 -104.7192779,39.837006300000006,0 -104.7192779,39.837006300000006,0 -104.7193323,39.83709420000001,0 -104.7193906,39.8371994,0 -104.7194241,39.83725970000001,0 -104.7196033,39.83758260000001,0 -104.7196033,39.83758260000001,0 -104.71915990000001,39.83772370000001,0 -104.7187112,39.83785750000001,0 -104.7185401,39.837903300000015,0 -104.7183672,39.83794900000001,0 -104.71821059999999,39.83798300000001,0 -104.7180193,39.83802010000001,0 -104.7180193,39.83802010000001,0 -104.7177701,39.83806280000001,0 -104.7175906,39.838090300000005,0 -104.7174359,39.83810500000001,0 -104.7172401,39.838121500000014,0 -104.717106,39.838129900000006,0 -104.7167408,39.83814300000001,0 -104.7166348,39.838101900000005,0 -104.7166111,39.838092700000004,0 -104.7164186,39.83809140000001,0 -104.7162128,39.83809080000001,0 -104.7159349,39.838092700000004,0 -104.7154826,39.838089700000005,0 -104.7148814,39.83807450000001,0 -104.7146989,39.83807260000001,0 -104.7140553,39.83806720000001,0 -104.7135113,39.838063300000016,0 -104.7128844,39.838054700000015,0 -104.7127837,39.838115500000015,0 -104.7125357,39.83811560000001,0 -104.71239379999999,39.83811560000001,0 -104.711869,39.83810610000001,0 -104.7117165,39.83806490000001,0 -104.71155999999999,39.83804220000001,0 -104.7113875,39.83804460000001,0 -104.71072960000001,39.838037100000015,0 -104.70975980000001,39.838034700000016,0 -104.709007,39.838039000000016,0 -104.7087728,39.83804030000001,0 -104.7082409,39.83803660000001,0 -104.7075105,39.83803460000001,0 -104.7068402,39.83801960000001,0 -104.70596330000001,39.8380238,0 -104.70580510000002,39.83807,0 -104.70545680000002,39.838073800000004,0 -104.70536640000002,39.838018700000006,0 -104.70458440000002,39.83801020000001,0 -104.70349860000002,39.837998600000006,0 -104.70276140000001,39.83798810000001,0 -104.70200860000001,39.83798500000001,0 -104.70193670000002,39.837984700000014,0 -104.70098160000002,39.837979300000015,0 -104.70026250000002,39.83797240000001,0 -104.69955020000002,39.83796820000002,0 -104.69955020000002,39.83796820000002,0 -104.69955060000002,39.83768690000002,0 -104.69955090000003,39.83742810000002,0 -104.69955850000004,39.837058300000024,0 -104.69958090000004,39.83676080000002,0 </coordinates></LineString><TimeSpan><begin>2018-11-13T00:46:26.000Z</begin><end>2018-11-13T01:04:35.000Z</end></TimeSpan></Placemark><Placemark><name>On a bus</name><address></address><ExtendedData><Data name="Email"><value>syugen.zhou@gmail.com</value></Data><Data name="Category"><value>On a bus</value></Data><Data name="Distance"><value>2494</value></Data></ExtendedData><description> On a bus from 2018-11-13T01:04:35.000Z to 2018-11-13T01:16:55.000Z. Distance 2494m </description><LineString><altitudeMode>clampToGround</altitudeMode><extrude>1</extrude><tesselate>1</tesselate><coordinates>-104.6930143,39.8353962,0 -104.6753674,39.8487859,0 -104.6742548,39.8489312,0 -104.6730689,39.8485999,0 -104.67381291586878,39.85003665521666,0 -104.67381291586878,39.85003665521666,0 </coordinates></LineString><TimeSpan><begin>2018-11-13T01:04:35.000Z</begin><end>2018-11-13T01:16:55.000Z</end></TimeSpan></Placemark><Placemark><name>Denver International Airport</name><address>8500 Peña Blvd, Denver, CO 80249, United States</address><ExtendedData><Data name="Email"><value>syugen.zhou@gmail.com</value></Data><Data name="Category"><value>International airport</value></Data><Data name="Distance"><value>0</value></Data></ExtendedData><description> International airport from 2018-11-13T01:16:55.000Z to 2018-11-13T06:21:57.180Z. Distance 0m </description><Point><coordinates>-104.6737376,39.8560963,0</coordinates></Point><TimeSpan><begin>2018-11-13T01:16:55.000Z</begin><end>2018-11-13T06:21:57.180Z</end></TimeSpan></Placemark><Placemark><name>Flying</name><address></address><ExtendedData><Data name="Email"><value>syugen.zhou@gmail.com</value></Data><Data name="Category"><value>Flying</value></Data><Data name="Distance"><value>1555571</value></Data></ExtendedData><description> Flying from 2018-11-13T06:21:57.180Z to 2018-11-13T08:36:05.471Z. Distance 1555571m </description><LineString><altitudeMode>clampToGround</altitudeMode><extrude>1</extrude><tesselate>1</tesselate><coordinates>-104.67381291586878,39.85003665521666,0 -104.67381291586878,39.85003665521666,0 </coordinates></LineString><TimeSpan><begin>2018-11-13T06:21:57.180Z</begin><end>2018-11-13T08:36:05.471Z</end></TimeSpan></Placemark></Document></kml>