<?xml version="1.0" encoding="UTF-8"?><kml xmlns="http://www.opengis.net/kml/2.2" xmlns:gx="http://www.google.com/kml/ext/2.2"><Document><name> Location history from 2021-05-15 to 2021-05-15 </name><open>1</open><description></description><StyleMap id="multiTrack"><Pair><key>normal</key><styleUrl>#multiTrack_n</styleUrl></Pair><Pair><key>highlight</key><styleUrl>#multiTrack_h</styleUrl></Pair></StyleMap><Style id="multiTrack_n"><IconStyle><Icon><href>https://earth.google.com/images/kml-icons/track-directional/track-0.png</href></Icon></IconStyle><LineStyle><color>99ffac59</color><width>6</width></LineStyle></Style><Style id="multiTrack_h"><IconStyle><scale>1.2</scale><Icon><href>https://earth.google.com/images/kml-icons/track-directional/track-0.png</href></Icon></IconStyle><LineStyle><color>99ffac59</color><width>8</width></LineStyle></Style><Placemark><name>Little America Hotel &amp; Resort - Cheyenne</name><address>2800 W Lincolnway, Cheyenne, WY 82009</address><ExtendedData><Data name="Email"><value>syugen.zhou@gmail.com</value></Data><Data name="Category"><value>Hotel</value></Data><Data name="Distance"><value>0</value></Data></ExtendedData><description> Hotel from 2021-05-15T01:55:56.420Z to 2021-05-15T14:00:32.209Z. Distance 0m </description><Point><coordinates>-104.85768739999999,41.119160099999995,0</coordinates></Point><TimeSpan><begin>2021-05-15T01:55:56.420Z</begin><end>2021-05-15T14:00:32.209Z</end></TimeSpan></Placemark><Placemark><name>Driving</name><address></address><ExtendedData><Data name="Email"><value>syugen.zhou@gmail.com</value></Data><Data name="Category"><value>Driving</value></Data><Data name="Distance"><value>8674</value></Data></ExtendedData><description> Driving from 2021-05-15T14:00:32.209Z to 2021-05-15T14:14:30.000Z. Distance 8674m </description><LineString><altitudeMode>clampToGround</altitudeMode><extrude>1</extrude><tesselate>1</tesselate><coordinates>-104.8574302,41.118703,0 -104.85734020000001,41.118726499999994,0 -104.85728730000001,41.11872689999999,0 -104.8572396,41.118713299999996,0 -104.8571697,41.11867939999999,0 -104.8569086,41.11846239999999,0 -104.8569213,41.11840339999999,0 -104.8569009,41.11839749999999,0 -104.8568788,41.11837559999999,0 -104.85673390000001,41.117986599999995,0 -104.8566399,41.11785249999999,0 -104.8564197,41.11763499999999,0 -104.85612420000001,41.117384599999994,0 -104.8560221,41.11731599999999,0 -104.85594380000002,41.11724379999999,0 -104.85538710000002,41.11649879999999,0 -104.85320970000002,41.11733759999999,0 -104.85135730000002,41.11813379999999,0 -104.84586360000002,41.12069499999999,0 -104.84742470000002,41.12269539999999,0 -104.84769440000002,41.123099999999994,0 -104.84786220000002,41.12344149999999,0 -104.84793060000003,41.12366949999999,0 -104.84796040000002,41.12388249999999,0 -104.84796080000002,41.1240178,0 -104.84791170000003,41.124292399999995,0 -104.84783110000002,41.1245384,0 -104.84779420000002,41.1246124,0 -104.84762210000002,41.1248563,0 -104.84751450000003,41.1249865,0 -104.84750890000004,41.125002699999996,0 -104.84750340000004,41.1250649,0 -104.84562820000002,41.12667019999999,0 -104.84472200000002,41.127544099999994,0 -104.84384250000002,41.12853679999999,0 -104.84330950000003,41.12922259999999,0 -104.84284480000002,41.12989159999999,0 -104.84224910000003,41.1308952,0 -104.84168810000003,41.1320439,0 -104.84147910000003,41.132559199999996,0 -104.84125790000002,41.1332248,0 -104.84101690000003,41.1341099,0 -104.83908100000002,41.1443383,0 -104.83892970000002,41.145641,0 -104.83884830000001,41.1471325,0 -104.83884300000001,41.1581418,0 -104.83893900000001,41.1594593,0 -104.83908640000001,41.1603266,0 -104.84005090000001,41.1639814,0 -104.8401807,41.1645683,0 -104.8401214,41.1647572,0 -104.8401057,41.1651618,0 -104.8399946,41.1657833,0 -104.8398945,41.1660835,0 -104.8398235,41.1662344,0 -104.8393408,41.1670026,0 -104.8388778,41.166836599999996,0 -104.8383314,41.1666121,0 -104.837701,41.1663177,0 -104.8355739,41.165232399999994,0 -104.8342953,41.16448689999999,0 -104.8336298,41.164046199999994,0 -104.8290908,41.16063109999999,0 -104.8289706,41.16056779999999,0 -104.82884419999999,41.16053039999999,0 -104.82876159999999,41.16051839999999,0 -104.8286292,41.16051629999999,0 -104.82845009999998,41.160536499999985,0 -104.82824679999999,41.16057839999999,0 -104.82836309999998,41.16082999999999,0 -104.82846909999998,41.16112179999999,0 -104.82858859999999,41.161586799999995,0 -104.82863179999998,41.162016799999996,0 -104.82861909999998,41.16357469999999,0 -104.82845739999999,41.1637892,0 -104.8283762,41.16386669999999,0 -104.8282712,41.163943999999994,0 -104.8280346,41.1640744,0 -104.8181949,41.1640309,0 -104.8176716,41.16399729999999,0 -104.8171802,41.16392739999999,0 -104.81691169999999,41.163870499999994,0 -104.8163398,41.16371699999999,0 -104.8157624,41.163496699999996,0 -104.8153696,41.16330709999999,0 -104.81499979999998,41.16308659999999,0 -104.81302319999999,41.161722199999986,0 -104.8123541,41.16134889999999,0 -104.81167819999999,41.161050899999985,0 -104.81102349999998,41.160825399999986,0 -104.81065909999998,41.16071989999999,0 -104.81003999999997,41.16057509999999,0 -104.80913619999997,41.160413199999994,0 -104.80830309999997,41.16034729999999,0 -104.80716469999997,41.16031699999999,0 -104.80122339999997,41.16027619999999,0 -104.80120679999997,41.16164129999999,0 -104.80025719999998,41.16163129999999,0 -104.80006759999998,41.16159089999999,0 -104.79980189999998,41.161587399999995,0 </coordinates></LineString><TimeSpan><begin>2021-05-15T14:00:32.209Z</begin><end>2021-05-15T14:14:30.000Z</end></TimeSpan></Placemark><Placemark><name>Target</name><address>1708 Dell Range Blvd, Cheyenne, WY 82009</address><ExtendedData><Data name="Email"><value>syugen.zhou@gmail.com</value></Data><Data name="Category"><value>Department store</value></Data><Data name="Distance"><value>0</value></Data></ExtendedData><description> Department store from 2021-05-15T14:14:30.000Z to 2021-05-15T14:27:20.000Z. Distance 0m </description><Point><coordinates>-104.80004749999999,41.162019099999995,0</coordinates></Point><TimeSpan><begin>2021-05-15T14:14:30.000Z</begin><end>2021-05-15T14:27:20.000Z</end></TimeSpan></Placemark><Placemark><name>Driving</name><address></address><ExtendedData><Data name="Email"><value>syugen.zhou@gmail.com</value></Data><Data name="Category"><value>Driving</value></Data><Data name="Distance"><value>152301</value></Data></ExtendedData><description> Driving from 2021-05-15T14:27:20.115Z to 2021-05-15T16:06:30.499Z. Distance 152301m </description><LineString><altitudeMode>clampToGround</altitudeMode><extrude>1</extrude><tesselate>1</tesselate><coordinates>-104.79969779999999,41.1605919,0 -104.80037029999998,41.160601,0 -104.80037669999999,41.161111999999996,0 -104.80121179999999,41.161136299999995,0 -104.8012234,41.1602762,0 -104.8083031,41.1603473,0 -104.8091362,41.1604132,0 -104.8106591,41.1607199,0 -104.81167819999999,41.16105089999999,0 -104.8123541,41.16134889999999,0 -104.81302319999999,41.16172219999999,0 -104.81499979999998,41.1630866,0 -104.8153696,41.1633071,0 -104.8157624,41.1634967,0 -104.8163398,41.163717,0 -104.8171802,41.1639274,0 -104.8176716,41.1639973,0 -104.8181949,41.1640309,0 -104.82879,41.1640778,0 -104.82878729999999,41.161706,0 -104.82861169999998,41.161026199999995,0 -104.82868639999998,41.16083329999999,0 -104.82870949999997,41.16080709999999,0 -104.82879289999998,41.160759799999994,0 -104.82884979999999,41.160745699999985,0 -104.82911269999998,41.16076989999999,0 -104.83371869999998,41.164259599999994,0 -104.83498649999997,41.165039799999995,0 -104.83848399999998,41.16680709999999,0 -104.83884659999998,41.16712009999999,0 -104.83897389999998,41.167283299999994,0 -104.83917579999998,41.16771969999999,0 -104.83945779999998,41.16867139999999,0 -104.83950469999998,41.16899249999999,0 -104.83951019999998,41.16930219999999,0 -104.83928439999998,41.17111029999999,0 -104.83929959999998,41.171153999999994,0 -104.83937719999999,41.17124799999999,0 -104.83826139999998,41.177468999999995,0 -104.83798469999998,41.18027539999999,0 -104.83794609999998,41.22543329999999,0 -104.83765429999998,41.22815359999999,0 -104.83755549999998,41.229944399999994,0 -104.83766589999998,41.232645299999994,0 -104.83788719999998,41.23446319999999,0 -104.83797799999998,41.2358525,0 -104.83802049999997,41.2505561,0 -104.83818959999998,41.2520938,0 -104.83841679999999,41.2534347,0 -104.83894,41.2555967,0 -104.86662879999999,41.3395163,0 -104.86713729999998,41.3413478,0 -104.86758459999999,41.3438212,0 -104.87111329999999,41.3816331,0 -104.8722013,41.388229700000004,0 -104.877006,41.439308700000005,0 -104.8772978,41.4412359,0 -104.8777485,41.44314000000001,0 -104.87867329999999,41.445863100000004,0 -104.87935889999999,41.4474117,0 -104.89411199999999,41.4746042,0 -104.89460249999999,41.4756307,0 -104.89537229999999,41.477529200000006,0 -104.89602429999998,41.47964150000001,0 -104.8963828,41.481248400000005,0 -104.89661489999999,41.4827914,0 -104.89953689999999,41.52127480000001,0 -104.89947719999999,41.52301680000001,0 -104.89924099999999,41.525071000000004,0 -104.898997,41.52636650000001,0 -104.8984529,41.52840530000001,0 -104.8975988,41.53073330000001,0 -104.89239509999999,41.54206950000001,0 -104.88485859999999,41.55544350000001,0 -104.86743529999998,41.593563200000006,0 -104.84429629999998,41.650975200000005,0 -104.83321429999997,41.6798507,0 -104.82884949999998,41.694301900000006,0 -104.82864839999996,41.6952112,0 -104.82857169999997,41.69591230000001,0 -104.82858539999997,41.6971106,0 -104.82877659999997,41.69842310000001,0 -104.82908769999997,41.699500400000005,0 -104.82933759999997,41.70013480000001,0 -104.83000939999997,41.701418700000005,0 -104.83075539999997,41.70246120000001,0 -104.83457789999997,41.70693610000001,0 -104.83514499999997,41.707685100000006,0 -104.83546389999998,41.7082136,0 -104.83575649999997,41.7088385,0 -104.83606339999996,41.709806799999996,0 -104.83616039999997,41.7102825,0 -104.83621949999997,41.711103800000004,0 -104.83563309999997,41.7163873,0 -104.83543079999995,41.7173588,0 -104.83498689999996,41.7187405,0 -104.83468079999996,41.7194802,0 -104.83061579999995,41.7274261,0 -104.83003439999996,41.7286938,0 -104.82954739999995,41.7300587,0 -104.82925009999995,41.7311448,0 -104.82899549999995,41.7324476,0 -104.82884679999995,41.7338495,0 -104.82882559999996,41.7352939,0 -104.82897339999995,41.737071,0 -104.83210719999997,41.754415099999996,0 -104.83216269999997,41.7553945,0 -104.83209179999996,41.7561611,0 -104.83200629999996,41.7565882,0 -104.83180719999997,41.7572395,0 -104.83144259999997,41.758074799999996,0 -104.83109319999997,41.75866129999999,0 -104.83043489999997,41.7595245,0 -104.82956059999997,41.76037439999999,0 -104.82893929999996,41.76085509999999,0 -104.82782769999996,41.76154089999999,0 -104.82669469999996,41.76207079999999,0 -104.82590549999996,41.76235439999999,0 -104.82523069999996,41.76255119999999,0 -104.82397799999995,41.76282369999999,0 -104.81413689999995,41.764278899999994,0 -104.81310149999996,41.76447259999999,0 -104.81159399999996,41.76485519999999,0 -104.80977509999997,41.765483499999995,0 -104.80884199999997,41.765884099999994,0 -104.80784459999997,41.76638259999999,0 -104.80677369999997,41.76701549999999,0 -104.79755349999996,41.77332619999999,0 -104.79610789999997,41.77450409999999,0 -104.79486519999996,41.775740099999986,0 -104.79426669999997,41.77644949999999,0 -104.79345819999996,41.77754619999999,0 -104.79249649999996,41.77924879999999,0 -104.79199499999996,41.78042919999999,0 -104.79167109999996,41.781465399999995,0 -104.79134569999995,41.78310669999999,0 -104.79126889999995,41.784090299999995,0 -104.79159469999995,41.792746099999995,0 -104.79174239999995,41.79362439999999,0 -104.79199949999993,41.794580399999994,0 -104.79477289999994,41.801003099999996,0 -104.79514469999994,41.8017125,0 -104.79588109999995,41.8028859,0 -104.79659389999993,41.8038371,0 -104.79739469999994,41.804739999999995,0 -104.81460209999995,41.821573,0 -104.81647839999994,41.8231322,0 -104.86885859999994,41.86195300000001,0 -104.87018879999994,41.863092,0 -104.87153109999994,41.86450620000001,0 -104.87218249999994,41.86534290000001,0 -104.87286049999993,41.866358600000005,0 -104.87343719999993,41.867417100000004,0 -104.87809979999993,41.87770210000001,0 -104.87876269999992,41.878843700000004,0 -104.87958259999992,41.8799914,0 -104.88038529999993,41.880928000000004,0 -104.88131939999992,41.8818681,0 -104.88190749999993,41.882387200000004,0 -104.89849449999993,41.8955971,0 -104.90020309999993,41.8967764,0 -104.90207469999993,41.8978008,0 -104.91856269999994,41.905281800000004,0 -104.91970269999995,41.905862,0 -104.92093889999994,41.906592700000004,0 -104.92236959999994,41.90759250000001,0 -104.92318779999994,41.908266000000005,0 -104.93899539999994,41.9225123,0 -104.93959199999993,41.923156000000006,0 -104.94055529999993,41.92442040000001,0 -104.94107749999993,41.92528240000001,0 -104.94150019999994,41.926169900000005,0 -104.94906789999993,41.9461166,0 -104.94973139999993,41.948403,0 -104.95006719999992,41.950109499999996,0 -104.95353059999992,41.978320499999995,0 -104.95372809999992,41.9791764,0 -104.95744119999992,41.9913441,0 -104.95769589999992,41.993110599999994,0 -104.95798019999992,42.005722799999994,0 -104.95813139999991,42.0069672,0 -104.95854479999991,42.008638,0 -104.96451629999991,42.0241775,0 -104.96490339999991,42.0255667,0 -104.96503439999991,42.0262641,0 -104.96515729999992,42.0274862,0 -104.9655605999999,42.0701719,0 -104.9657333999999,42.0717142,0 -104.96592379999991,42.072613100000005,0 -104.96625349999992,42.0736976,0 -104.96689989999992,42.07521750000001,0 -104.96734329999991,42.076025300000005,0 -104.96794939999992,42.07696000000001,0 -104.96891939999992,42.078197700000004,0 -104.97024589999992,42.0795641,0 -104.98027389999993,42.0885553,0 -104.98111999999992,42.0894742,0 -104.98210269999993,42.0907531,0 -104.98595829999992,42.096826300000004,0 -104.98714259999993,42.099484000000004,0 -104.98750159999993,42.100579100000004,0 -104.99169129999991,42.120308,0 -104.99204839999992,42.121459300000005,0 -104.99240699999991,42.12235630000001,0 -104.99312829999991,42.123748400000004,0 -104.99370379999992,42.124636300000006,0 -104.99930999999991,42.131748,0 -104.99986069999991,42.13270130000001,0 -105.00014849999991,42.13338830000001,0 -105.0004623999999,42.13443650000001,0 -105.0006595999999,42.135628000000004,0 -105.0006832999999,42.136641700000006,0 -104.99901269999991,42.1524498,0 -104.99902489999991,42.154557000000004,0 -105.00374299999991,42.1918997,0 -105.0040083999999,42.1931139,0 -105.00428289999991,42.1940064,0 -105.00486419999991,42.1954044,0 -105.02100769999991,42.2276862,0 -105.02097949999991,42.2277202,0 -105.0209779999999,42.2277468,0 -105.0211354999999,42.2281898,0 -105.0212078999999,42.2286783,0 -105.0211560999999,42.2292479,0 -105.0210002999999,42.229744399999994,0 -105.0207621999999,42.2301765,0 -105.0203827999999,42.230643099999995,0 -105.0199026999999,42.2310429,0 -105.0193098999999,42.2313869,0 -105.01860159999991,42.2316595,0 -105.0185023999999,42.231730400000004,0 -105.0141879999999,42.2330425,0 -105.0134922999999,42.2332017,0 -105.01336019999991,42.2332592,0 -105.00630809999991,42.2342811,0 -105.00420839999991,42.2344472,0 -104.97555809999992,42.234593999999994,0 -104.97539769999992,42.2345622,0 -104.96974919999991,42.2345613,0 -104.96959829999992,42.2345995,0 -104.8918104999999,42.2344096,0 -104.8911007999999,42.2344371,0 -104.8903302999999,42.2345097,0 -104.8886468999999,42.234798999999995,0 -104.8789907999999,42.2378752,0 -104.8776661999999,42.2382224,0 -104.87699609999989,42.2383614,0 -104.8764647999999,42.2384386,0 -104.8704656999999,42.238936599999995,0 -104.86866889999989,42.2392298,0 -104.8665143999999,42.239775099999996,0 -104.8648283999999,42.24031419999999,0 -104.8634573999999,42.2408531,0 -104.8470239999999,42.2485067,0 -104.8454492999999,42.249131299999995,0 -104.8439809999999,42.2496193,0 -104.8393275999999,42.2510026,0 -104.8386111999999,42.2512603,0 -104.8376142999999,42.251690499999995,0 -104.8362982999999,42.2524047,0 -104.82414869999991,42.2602335,0 -104.8229244999999,42.260950900000005,0 -104.82150489999991,42.2616859,0 -104.8071646999999,42.268459899999996,0 -104.8034068999999,42.2699078,0 -104.8030191999999,42.270025200000006,0 -104.80245199999989,42.2701262,0 -104.8018914999999,42.2701828,0 -104.80117039999989,42.2701728,0 -104.8006130999999,42.270110200000005,0 -104.80013319999989,42.2700127,0 -104.7902014999999,42.266986700000004,0 -104.78898639999989,42.26666310000001,0 -104.78840439999989,42.26655590000001,0 -104.77681989999988,42.26526970000001,0 -104.77629149999987,42.26524410000001,0 -104.77555389999988,42.26526770000002,0 -104.77508449999988,42.26531340000001,0 -104.76958869999987,42.26619870000001,0 -104.76890209999986,42.266405100000014,0 -104.76803299999986,42.26680800000001,0 -104.76380859999986,42.269084700000015,0 -104.76275039999986,42.269436200000015,0 -104.76263429999986,42.26943630000002,0 -104.76177569999986,42.26960860000001,0 -104.76080339999987,42.26969230000002,0 -104.75658719999987,42.26971850000002,0 -104.75651539999987,42.26974220000002,0 -104.73821049999987,42.26982940000002,0 -104.73783439999987,42.26979360000002,0 -104.73741229999987,42.26970900000002,0 -104.73677029999988,42.26952590000001,0 -104.73628599999988,42.26932080000002,0 -104.73077989999987,42.266396000000015,0 -104.72915869999987,42.26524830000002,0 -104.72827089999987,42.26470230000002,0 -104.72786199999986,42.264544700000016,0 -104.72743959999985,42.26441720000002,0 -104.72665219999986,42.26425960000002,0 -104.72583739999986,42.264194300000014,0 -104.72529949999986,42.264220600000016,0 -104.72130469999986,42.26469930000002,0 -104.72121319999985,42.26468290000002,0 -104.71843929999986,42.26502320000002,0 -104.71836229999985,42.26507480000002,0 -104.71389059999984,42.26564200000002,0 -104.71295719999985,42.26569950000002,0 -104.71071729999984,42.26567100000002,0 -104.71017569999984,42.26562410000002,0 -104.70908139999985,42.265457300000016,0 -104.70740089999984,42.26510170000002,0 -104.70683569999984,42.264941800000024,0 -104.69795699999983,42.26195470000002,0 -104.69649709999983,42.26153700000002,0 -104.67328829999984,42.25629070000002,0 -104.67158099999985,42.25599700000002,0 -104.66944519999984,42.255806900000024,0 -104.65149529999984,42.255555800000025,0 -104.64994849999984,42.25557640000003,0 -104.63301999999983,42.25637940000003,0 -104.63225539999983,42.25633340000003,0 -104.63113589999983,42.256190300000036,0 -104.62994729999983,42.25593690000004,0 -104.62939199999983,42.255776700000034,0 -104.62847129999983,42.25544710000003,0 -104.62796239999983,42.25522500000004,0 -104.62381369999983,42.25302400000003,0 -104.62274619999982,42.25251860000004,0 -104.62168709999983,42.25214300000004,0 -104.62080119999983,42.25188510000004,0 -104.61992799999983,42.25170450000004,0 -104.61900549999984,42.25157580000004,0 -104.60970829999984,42.25082490000004,0 -104.60819319999985,42.25053720000004,0 -104.59913559999984,42.24822500000003,0 -104.59829079999984,42.24807940000004,0 -104.58475379999985,42.24674620000003,0 -104.58378309999983,42.246595000000035,0 -104.58297499999983,42.246423500000034,0 -104.58135599999984,42.24595880000004,0 -104.58046049999983,42.245629500000035,0 -104.57956529999983,42.24523890000003,0 -104.57371989999983,42.24202060000003,0 -104.57270049999984,42.24159110000003,0 -104.54094289999983,42.22958040000003,0 -104.53992309999983,42.229131800000026,0 -104.53896149999984,42.22858550000002,0 -104.53790099999983,42.227809300000025,0 -104.52135379999983,42.214032100000026,0 -104.52082959999984,42.21366520000002,0 -104.51990819999985,42.21321150000002,0 -104.51917619999985,42.212971600000024,0 -104.51923669999985,42.212847500000024,0 -104.51932519999984,42.21277560000003,0 -104.51949119999983,42.21273910000003,0 -104.52852709999983,42.21264290000003,0 -104.52941439999984,42.21259720000003,0 -104.52975879999984,42.212553600000035,0 -104.53032379999983,42.21243590000003,0 -104.53078599999984,42.21230210000003,0 -104.53151919999985,42.212017800000034,0 -104.53229789999983,42.211599000000035,0 -104.53505979999983,42.20991840000003,0 -104.53581069999983,42.20951670000003,0 -104.53696469999983,42.209207500000026,0 -104.53764999999983,42.20915030000003,0 -104.54430479999982,42.20912440000003,0 -104.54475489999982,42.20915430000003,0 -104.54543219999982,42.209283400000025,0 -104.54738809999982,42.21000140000003,0 -104.55210749999982,42.20920070000003,0 -104.55250519999983,42.209155900000034,0 -104.56128719999982,42.20912210000003,0 -104.56150159999983,42.20910410000003,0 -104.56166079999983,42.20906560000003,0 -104.56183289999983,42.208977700000034,0 -104.56189629999983,42.20890560000003,0 -104.56193689999984,42.20882980000003,0 -104.56231069999983,42.20634340000003,0 -104.56242169999983,42.206100000000035,0 -104.56285599999984,42.20549060000003,0 -104.56231439999983,42.20532290000003,0 -104.56203159999984,42.20530130000003,0 -104.55938939999984,42.20529910000003,0 -104.55905319999984,42.20526710000003,0 -104.55892649999984,42.205235900000034,0 -104.55884589999984,42.20519730000004,0 -104.55877139999984,42.20513720000004,0 -104.55868819999984,42.20503190000004,0 -104.55840769999983,42.20454320000004,0 -104.55815059999983,42.204246800000035,0 -104.55807579999984,42.204200600000036,0 -104.55789679999984,42.20421920000004,0 -104.55790329999984,42.20430230000004,0 -104.55770539999985,42.20449670000004,0 -104.55765319999985,42.20457760000004,0 </coordinates></LineString><TimeSpan><begin>2021-05-15T14:27:20.115Z</begin><end>2021-05-15T16:06:30.499Z</end></TimeSpan></Placemark><Placemark><name>Fort Laramie National Historic Site</name><address>965 Grey Rocks Road, Fort Laramie, WY 82212</address><ExtendedData><Data name="Email"><value>syugen.zhou@gmail.com</value></Data><Data name="Category"><value>National reserve</value></Data><Data name="Distance"><value>0</value></Data></ExtendedData><description> National reserve from 2021-05-15T16:06:30.499Z to 2021-05-15T16:54:37.415Z. Distance 0m </description><Point><coordinates>-104.5465669,42.2029097,0</coordinates></Point><TimeSpan><begin>2021-05-15T16:06:30.499Z</begin><end>2021-05-15T16:54:37.415Z</end></TimeSpan></Placemark><Placemark><name>Driving</name><address></address><ExtendedData><Data name="Email"><value>syugen.zhou@gmail.com</value></Data><Data name="Category"><value>Driving</value></Data><Data name="Distance"><value>220230</value></Data></ExtendedData><description> Driving from 2021-05-15T16:54:37.415Z to 2021-05-15T19:00:39.095Z. Distance 220230m </description><LineString><altitudeMode>clampToGround</altitudeMode><extrude>1</extrude><tesselate>1</tesselate><coordinates>-104.55876099999999,42.2051241,0 -104.5587714,42.205137199999996,0 -104.55884590000001,42.2051973,0 -104.5589265,42.2052359,0 -104.55905320000001,42.20526709999999,0 -104.5593894,42.20529909999999,0 -104.5620316,42.20530129999999,0 -104.5623144,42.20532289999999,0 -104.5625496,42.20538379999999,0 -104.56285600000001,42.20549059999999,0 -104.5624217,42.20609999999999,0 -104.5623107,42.206343399999994,0 -104.5622175,42.20680639999999,0 -104.5620002,42.208567499999994,0 -104.5619369,42.20882979999999,0 -104.5618963,42.208905599999994,0 -104.5618329,42.20897769999999,0 -104.5617647,42.20902099999999,0 -104.5616608,42.209065599999995,0 -104.56150159999999,42.20910409999999,0 -104.5612872,42.209122099999995,0 -104.5533359,42.20912799999999,0 -104.5525052,42.20915589999999,0 -104.55210749999999,42.20920069999999,0 -104.5500783,42.20952049999999,0 -104.54738809999999,42.21000139999999,0 -104.5468041,42.20980779999999,0 -104.54543220000001,42.20928339999999,0 -104.54475490000002,42.20915429999999,0 -104.54430480000002,42.20912439999999,0 -104.53765000000001,42.20915029999999,0 -104.53696470000001,42.20920749999999,0 -104.53653660000002,42.20930409999999,0 -104.53581070000001,42.20951669999999,0 -104.53505980000003,42.209918399999985,0 -104.53229790000003,42.211598999999985,0 -104.53151920000003,42.21201779999999,0 -104.53115230000003,42.21217029999999,0 -104.53078600000003,42.21230209999999,0 -104.53032380000002,42.21243589999999,0 -104.52975880000002,42.212553599999985,0 -104.52941440000002,42.21259719999998,0 -104.52852710000002,42.212642899999985,0 -104.52007540000002,42.21274549999998,0 -104.51958850000003,42.21273259999998,0 -104.51949120000003,42.212739099999986,0 -104.51937030000003,42.212761599999986,0 -104.51932520000004,42.21277559999998,0 -104.51927790000003,42.21280559999998,0 -104.51923670000004,42.21284749999998,0 -104.51917620000003,42.21297159999998,0 -104.51849590000003,42.21285179999998,0 -104.51778200000004,42.21279799999998,0 -104.51573120000003,42.21276659999998,0 -104.51505480000003,42.21266319999998,0 -104.51432560000003,42.21249149999998,0 -104.51393690000002,42.21232589999998,0 -104.51350150000003,42.212067099999985,0 -104.50927680000004,42.20904319999998,0 -104.50884550000004,42.208787499999985,0 -104.50852810000004,42.208640999999986,0 -104.50798370000003,42.20842709999998,0 -104.49936340000004,42.20539829999998,0 -104.49287550000004,42.20304009999998,0 -104.49188140000004,42.202623199999984,0 -104.45435300000004,42.18505199999998,0 -104.45217640000004,42.18415589999998,0 -104.44383080000004,42.18091429999998,0 -104.44281130000005,42.18042969999998,0 -104.44146320000004,42.179681999999985,0 -104.43731290000004,42.177185899999984,0 -104.43144580000003,42.174356899999985,0 -104.35580100000003,42.138807599999986,0 -104.35383500000003,42.13800299999998,0 -104.35144030000004,42.13713329999999,0 -104.35080890000003,42.13694349999999,0 -104.35057120000002,42.13689189999999,0 -104.35038110000002,42.13687359999999,0 -104.34553630000002,42.13685409999999,0 -104.34548520000003,42.13946969999999,0 -104.34537170000003,42.140123499999994,0 -104.34524300000002,42.14062169999999,0 -104.34507870000003,42.14108939999999,0 -104.34489640000002,42.141504199999986,0 -104.34459800000002,42.14206699999998,0 -104.34032870000001,42.14903379999999,0 -104.33999510000001,42.14963909999999,0 -104.33846310000001,42.152822399999984,0 -104.33773830000001,42.154169999999986,0 -104.3354754,42.15790149999999,0 -104.33452340000001,42.15928299999999,0 -104.33312400000001,42.16107849999999,0 -104.33186730000001,42.16245999999999,0 -104.33109820000001,42.163239799999985,0 -104.32937190000001,42.16484029999998,0 -104.3283791,42.16565909999998,0 -104.30725720000001,42.18204249999998,0 -104.30616630000002,42.18296619999998,0 -104.30530360000002,42.183820899999986,0 -104.30453260000002,42.184698199999985,0 -104.30376670000001,42.18568839999999,0 -104.30321540000001,42.18657229999999,0 -104.30171330000003,42.18921929999998,0 -104.30116760000003,42.19051209999999,0 -104.29863380000002,42.19890179999999,0 -104.29839180000002,42.20007629999999,0 -104.29827830000002,42.20121599999999,0 -104.29811350000003,42.21115969999999,0 -104.29798670000002,42.21223479999999,0 -104.29352570000002,42.23175129999999,0 -104.29340430000002,42.232545499999986,0 -104.29330590000002,42.23383299999999,0 -104.29337710000001,42.25954569999999,0 -104.29346220000002,42.26039589999999,0 -104.29353290000002,42.26074699999999,0 -104.29368090000001,42.26122809999998,0 -104.29393390000001,42.26180379999999,0 -104.29427790000001,42.26239839999999,0 -104.30228240000001,42.27354709999999,0 -104.30264240000001,42.27416059999999,0 -104.302958,42.27481759999999,0 -104.3033041,42.27573759999999,0 -104.30348330000001,42.276368899999994,0 -104.30358440000002,42.27690059999999,0 -104.30365850000001,42.27762219999999,0 -104.30372760000002,42.29255619999999,0 -104.30358660000002,42.30311189999999,0 -104.30361310000002,42.304560899999984,0 -104.30373010000002,42.305691999999986,0 -104.30429040000003,42.308949599999984,0 -104.30463620000002,42.31015269999999,0 -104.30486680000003,42.310706299999985,0 -104.30514170000002,42.31127699999999,0 -104.30543440000001,42.31178079999999,0 -104.30599880000001,42.312597299999986,0 -104.30706800000002,42.31387559999999,0 -104.30789870000001,42.31480229999999,0 -104.3082289,42.31520829999999,0 -104.30856680000001,42.315678899999995,0 -104.30907870000001,42.31650709999999,0 -104.30927140000003,42.31687259999999,0 -104.30949700000002,42.31738769999999,0 -104.31113590000001,42.32177679999999,0 -104.31196810000002,42.32339599999999,0 -104.31242840000003,42.324121599999984,0 -104.31277470000002,42.32460979999998,0 -104.31311970000003,42.325046999999984,0 -104.32153070000003,42.33482879999998,0 -104.32185530000002,42.33523659999999,0 -104.32229180000002,42.33592249999998,0 -104.32248160000003,42.336292399999984,0 -104.32280800000002,42.33711199999998,0 -104.32301380000003,42.337960399999986,0 -104.32309370000003,42.33889809999999,0 -104.32298870000002,42.343193599999985,0 -104.32303450000002,42.34419159999999,0 -104.32312140000003,42.34486429999999,0 -104.32319670000003,42.345208599999985,0 -104.32340640000002,42.34590219999998,0 -104.32775510000002,42.35841959999999,0 -104.32825280000003,42.35965749999998,0 -104.32861740000003,42.36041339999999,0 -104.32927680000003,42.36151749999999,0 -104.32996990000004,42.36248539999999,0 -104.33078790000003,42.36343879999999,0 -104.33111610000003,42.36378879999999,0 -104.33226400000004,42.364881199999985,0 -104.33310310000003,42.36556929999999,0 -104.33385350000003,42.36611199999999,0 -104.34734720000004,42.37481979999999,0 -104.34774100000003,42.37511729999999,0 -104.34848750000003,42.37575569999999,0 -104.34929660000005,42.376566399999994,0 -104.34995150000003,42.377375499999985,0 -104.35028910000003,42.37787419999999,0 -104.35078080000004,42.37874989999999,0 -104.35508150000004,42.38800769999999,0 -104.35550540000004,42.38920419999999,0 -104.35570760000004,42.38997069999999,0 -104.35586580000005,42.39086129999999,0 -104.35650220000004,42.395550099999994,0 -104.35653060000004,42.396412299999994,0 -104.35648770000005,42.41885479999999,0 -104.35653920000004,42.41940219999999,0 -104.35678050000006,42.420451199999995,0 -104.35995050000005,42.43107109999999,0 -104.36038480000006,42.43298579999999,0 -104.36055800000007,42.43418649999999,0 -104.36073340000006,42.436621399999986,0 -104.36081180000005,42.45241019999999,0 -104.36085650000007,42.45287129999999,0 -104.36094660000006,42.45338139999999,0 -104.36104070000006,42.453741399999984,0 -104.36121040000006,42.45421609999999,0 -104.36145380000006,42.45476359999999,0 -104.36194720000006,42.455631899999986,0 -104.36778980000005,42.464387299999984,0 -104.36815220000005,42.46508139999999,0 -104.36833670000006,42.465652699999985,0 -104.36843220000006,42.466168299999985,0 -104.36846170000005,42.46664089999999,0 -104.36843920000005,42.46707329999999,0 -104.36837110000005,42.46750029999999,0 -104.36824440000005,42.46796079999999,0 -104.36262470000005,42.4819421,0 -104.36243180000005,42.4826244,0 -104.36212470000005,42.48394019999999,0 -104.36180290000004,42.48508369999999,0 -104.35794080000004,42.49699619999999,0 -104.35782880000005,42.49754029999999,0 -104.35772250000004,42.49826839999999,0 -104.35768590000004,42.49904699999999,0 -104.35843710000003,42.51772659999998,0 -104.35850470000004,42.51837829999999,0 -104.35872860000003,42.51926979999999,0 -104.35903960000003,42.520026499999986,0 -104.35938730000002,42.52066079999999,0 -104.36154910000002,42.523888599999985,0 -104.36179390000004,42.52436319999998,0 -104.36581850000003,42.53508549999998,0 -104.37023510000003,42.544122499999986,0 -104.37047840000004,42.544727499999986,0 -104.37068770000003,42.545459499999986,0 -104.37075150000004,42.545879099999986,0 -104.37080660000004,42.546761299999986,0 -104.37079810000004,42.560499599999986,0 -104.37085170000005,42.56108359999999,0 -104.37092480000004,42.561513099999985,0 -104.37110660000005,42.56218959999998,0 -104.37142240000004,42.562982799999986,0 -104.37187240000003,42.563756699999985,0 -104.37670000000004,42.57058529999999,0 -104.37730960000005,42.57127669999999,0 -104.37795940000005,42.57185629999999,0 -104.38505510000005,42.57728009999999,0 -104.38561930000004,42.57774549999999,0 -104.38607180000004,42.57817559999999,0 -104.38653170000005,42.57869979999999,0 -104.38956390000004,42.58270279999999,0 -104.38996010000004,42.58311599999999,0 -104.39041020000003,42.58351779999999,0 -104.39065490000003,42.583712099999985,0 -104.39115210000003,42.58404679999999,0 -104.39171440000004,42.58436159999999,0 -104.41237270000003,42.59441409999999,0 -104.41336680000003,42.59495549999998,0 -104.41422780000002,42.59548609999999,0 -104.42758260000002,42.604308999999986,0 -104.42815250000002,42.60474089999999,0 -104.42853570000003,42.60510209999998,0 -104.42896980000002,42.60559859999998,0 -104.42926390000002,42.606025299999985,0 -104.42952410000002,42.606528099999984,0 -104.42970800000003,42.60700899999999,0 -104.43761380000004,42.63260489999998,0 -104.43778500000003,42.63337289999999,0 -104.43793200000003,42.63427799999999,0 -104.43799000000003,42.634952099999985,0 -104.43800680000003,42.69703619999999,0 -104.43777130000002,42.72707289999999,0 -104.43782600000002,42.72760369999999,0 -104.43791650000003,42.72810039999999,0 -104.43809820000003,42.72868409999999,0 -104.43837870000003,42.72935709999999,0 -104.43859520000002,42.72977199999999,0 -104.43899060000003,42.730393699999986,0 -104.43944760000004,42.73095579999999,0 -104.44974310000003,42.74228369999999,0 -104.45001840000003,42.742623999999985,0 -104.45058400000002,42.74347969999999,0 -104.45086200000003,42.74404819999999,0 -104.45113730000003,42.74479269999999,0 -104.45129140000003,42.74546519999999,0 -104.45134840000001,42.74584859999999,0 -104.45240370000002,42.767341499999986,0 -104.45239520000003,42.76760159999999,0 -104.45235920000003,42.76788189999999,0 -104.45233130000003,42.76799729999999,0 -104.45221000000002,42.76831889999999,0 -104.45215880000003,42.76841049999999,0 -104.45198650000003,42.768630399999985,0 -104.45179280000004,42.76882239999999,0 -104.45096130000003,42.76940889999999,0 -104.44973290000003,42.77018069999998,0 -104.44650590000003,42.77233099999999,0 -104.44562420000004,42.77296159999998,0 -104.44519570000004,42.77329479999999,0 -104.44415280000003,42.774178699999986,0 -104.44362960000002,42.77468479999998,0 -104.44284050000003,42.775536399999986,0 -104.44231900000003,42.77616899999998,0 -104.44177460000002,42.77690829999999,0 -104.44123410000002,42.77775559999999,0 -104.44063730000002,42.77890149999999,0 -104.44012970000003,42.780147499999984,0 -104.43989140000002,42.78094199999998,0 -104.43974430000003,42.78155599999998,0 -104.43957320000003,42.782606299999976,0 -104.43800990000003,42.79662269999998,0 -104.43791890000003,42.797178699999975,0 -104.43777470000002,42.79779059999997,0 -104.43731040000002,42.79922319999997,0 -104.43702910000002,42.79989089999997,0 -104.43662370000003,42.800702799999975,0 -104.43631590000003,42.801229899999974,0 -104.41330000000002,42.836235099999975,0 -104.41290070000002,42.836903899999974,0 -104.41250180000002,42.83766479999998,0 -104.41222950000002,42.83828999999997,0 -104.41199980000002,42.83891269999998,0 -104.41155750000001,42.84041239999998,0 -104.41137740000002,42.84148759999998,0 -104.40700130000002,42.87386359999997,0 -104.40691090000001,42.875262899999974,0 -104.40691630000002,42.87566699999997,0 -104.40731360000002,42.88040299999997,0 -104.40984740000002,42.90395079999997,0 -104.40997190000002,42.905883999999965,0 -104.40991480000002,42.90737759999997,0 -104.40987630000002,42.90772169999997,0 -104.40954410000002,42.909389999999966,0 -104.40935020000002,42.910025299999965,0 -104.40912540000001,42.91059789999996,0 -104.40847010000002,42.91194759999996,0 -104.4075277,42.913383499999966,0 -104.4068263,42.91428839999996,0 -104.4060589,42.91515549999996,0 -104.40551450000001,42.91568559999996,0 -104.4046993,42.916409499999965,0 -104.4037569,42.91714299999997,0 -104.40247860000001,42.918015899999965,0 -104.37851300000001,42.93192239999996,0 -104.37661800000001,42.93319569999997,0 -104.37535000000001,42.934140199999966,0 -104.3741327,42.93512079999997,0 -104.37295850000001,42.93615309999997,0 -104.36648810000001,42.94236189999997,0 -104.36587510000003,42.94298949999997,0 -104.36522590000001,42.94377449999997,0 -104.36477970000001,42.94442829999997,0 -104.3645396,42.94483399999997,0 -104.36422320000001,42.94544979999997,0 -104.36394510000001,42.94612579999997,0 -104.36363800000001,42.94721369999997,0 -104.36350780000001,42.94802849999997,0 -104.3634718,42.94856039999997,0 -104.3626391,42.98392089999997,0 -104.362694,42.98527959999997,0 -104.3628187,42.986619899999965,0 -104.36494110000001,43.000465899999966,0 -104.3704302,43.05276789999997,0 -104.3704775,43.05346989999997,0 -104.3704821,43.05430979999997,0 -104.3704201,43.055216199999975,0 -104.3702945,43.056103899999975,0 -104.36570350000001,43.07711949999997,0 -104.3655585,43.07792839999997,0 -104.36547970000001,43.07858939999997,0 -104.36542820000001,43.079629499999974,0 -104.36555700000001,43.09576379999997,0 -104.36550000000001,43.09660439999997,0 -104.36538450000002,43.09743569999997,0 -104.36527150000002,43.097996599999966,0 -104.36508020000002,43.09871719999997,0 -104.3647128,43.09978919999997,0 -104.36431680000001,43.10067739999997,0 -104.35234060000002,43.122887999999975,0 -104.32181980000001,43.18839369999997,0 -104.31687190000001,43.201315599999965,0 -104.30063940000001,43.23593239999997,0 -104.3001974,43.23677969999997,0 -104.29920090000002,43.23849929999997,0 -104.29564340000002,43.24373599999998,0 -104.29387690000001,43.24597059999998,0 -104.29318190000002,43.246946199999975,0 -104.29283500000001,43.24764149999997,0 -104.2925203,43.24851529999997,0 -104.2923908,43.24903309999997,0 -104.2922795,43.24973079999997,0 -104.2922413,43.25061339999997,0 -104.29233040000001,43.251498999999974,0 -104.2924174,43.251910099999975,0 -104.29472060000002,43.25986569999997,0 -104.2951208,43.261399999999966,0 -104.29623020000001,43.26519519999997,0 -104.2963375,43.26568209999997,0 -104.29645190000001,43.26639839999997,0 -104.2965516,43.267586199999975,0 -104.2968907,43.27444539999997,0 -104.2970069,43.275640599999974,0 -104.297202,43.27691459999997,0 -104.30112510000001,43.29836769999997,0 -104.30121270000001,43.29912999999997,0 -104.30122500000002,43.299751599999965,0 -104.30119950000001,43.30035579999996,0 -104.30109990000001,43.301055299999966,0 -104.30084670000001,43.30203729999997,0 -104.3005389,43.30286189999997,0 -104.30009070000001,43.30372709999997,0 -104.29950270000002,43.30462919999997,0 -104.29900170000002,43.305240999999974,0 -104.29864550000002,43.305634199999965,0 -104.29144450000001,43.312123099999965,0 -104.29093030000001,43.312549299999965,0 -104.27871490000001,43.32352919999997,0 -104.2776851,43.32459179999997,0 -104.2772247,43.32514629999997,0 -104.2766707,43.32589449999997,0 -104.2715902,43.33333479999997,0 -104.2712259,43.33380679999997,0 -104.27059290000001,43.334546099999976,0 -104.26972370000001,43.335430799999976,0 -104.2691882,43.335922699999976,0 -104.2684667,43.336516599999975,0 -104.2675309,43.33720549999997,0 -104.2426436,43.35403389999997,0 -104.2419337,43.35455969999997,0 -104.241258,43.355100699999966,0 -104.2406882,43.35560609999997,0 -104.23980739999999,43.356481999999964,0 -104.2394659,43.35686899999996,0 -104.2023627,43.404944499999964,0 -104.2016872,43.40592449999996,0 -104.2013312,43.40652989999996,0 -104.1962272,43.41694599999996,0 -104.19579879999999,43.418015999999966,0 -104.19557169999999,43.41874899999996,0 -104.19540919999999,43.41939569999996,0 -104.19525139999999,43.42026359999996,0 -104.19517909999999,43.420918499999964,0 -104.19513939999999,43.42179799999996,0 -104.1951577,43.42256169999996,0 -104.19520769999998,43.42316359999996,0 -104.19537069999998,43.42419389999996,0 -104.19552199999998,43.42484219999996,0 -104.19578379999999,43.425694999999955,0 -104.20173579999998,43.44024769999996,0 -104.20737919999998,43.453347999999956,0 -104.20770049999999,43.45430289999996,0 -104.20798079999997,43.45549259999996,0 -104.20807899999998,43.456146799999956,0 -104.20816409999999,43.45734539999995,0 -104.20812159999998,43.458660799999954,0 -104.20791339999998,43.45996589999995,0 -104.20762599999998,43.46104639999995,0 -104.20179429999999,43.478406699999944,0 -104.20159429999998,43.479160099999945,0 -104.20143539999998,43.480030099999944,0 -104.20133759999999,43.48090479999994,0 -104.2013109,43.48156439999994,0 -104.20178659999999,43.490782499999945,0 -104.2018032,43.491881799999945,0 -104.20176609999999,43.49297889999994,0 -104.20165069999999,43.49428789999994,0 -104.19503529999999,43.546867099999936,0 -104.19144619999999,43.59131189999994,0 -104.19104969999998,43.598505299999935,0 -104.19043039999998,43.60615619999994,0 -104.18945189999998,43.61621259999994,0 -104.18941689999998,43.61695459999994,0 -104.18950219999998,43.721999499999946,0 -104.18959839999998,43.72347099999994,0 -104.19328369999998,43.748719599999944,0 -104.19331919999999,43.74962469999994,0 -104.19324789999999,43.750526599999944,0 -104.19315099999999,43.751092199999945,0 -104.1928454,43.75213579999995,0 -104.18976149999999,43.758933299999946,0 -104.1892388,43.76044709999994,0 -104.18906619999998,43.761066299999946,0 -104.17903379999998,43.810742899999944,0 -104.17894359999998,43.811574699999944,0 -104.17892699999999,43.812259899999944,0 -104.17895389999998,43.81292439999995,0 -104.17903919999998,43.813803199999946,0 -104.17912059999999,43.81433869999995,0 -104.1792744,43.81503069999995,0 -104.17957369999999,43.81604689999995,0 -104.1798515,43.81679729999995,0 -104.18027849999999,43.81773059999995,0 -104.18075359999999,43.81858479999995,0 -104.1809978,43.818962199999945,0 -104.1902304,43.83142359999995,0 -104.19065990000001,43.83216789999995,0 -104.19102670000002,43.832989499999954,0 -104.19129660000002,43.83385589999995,0 -104.19144430000001,43.834631899999955,0 -104.19150870000001,43.83573829999995,0 -104.19141290000002,43.836735099999956,0 -104.19132350000001,43.83718289999996,0 -104.19107350000002,43.838075099999955,0 -104.19081230000002,43.83879709999996,0 -104.19056980000002,43.83935059999996,0 -104.19033770000001,43.839800599999954,0 -104.19006320000001,43.84025459999996,0 -104.1867363,43.844904999999954,0 -104.18655730000002,43.84512709999996,0 -104.18491320000001,43.84746039999995,0 -104.18473340000001,43.847802199999954,0 -104.18434610000001,43.84879199999996,0 -104.18434520000001,43.848906399999954,0 -104.18469750000001,43.848857299999956,0 -104.1887657,43.84882989999995,0 -104.1944352,43.84867599999995,0 </coordinates></LineString><TimeSpan><begin>2021-05-15T16:54:37.415Z</begin><end>2021-05-15T19:00:39.095Z</end></TimeSpan></Placemark><Placemark><name>Loaf 'N Jug</name><address>731 Washington Blvd, Newcastle, WY 82701</address><ExtendedData><Data name="Email"><value>syugen.zhou@gmail.com</value></Data><Data name="Category"><value>Convenience store</value></Data><Data name="Distance"><value>0</value></Data></ExtendedData><description> Convenience store from 2021-05-15T19:00:39.095Z to 2021-05-15T19:09:36.104Z. Distance 0m </description><Point><coordinates>-104.19454429999999,43.8489716,0</coordinates></Point><TimeSpan><begin>2021-05-15T19:00:39.095Z</begin><end>2021-05-15T19:09:36.104Z</end></TimeSpan></Placemark><Placemark><name>Driving</name><address></address><ExtendedData><Data name="Email"><value>syugen.zhou@gmail.com</value></Data><Data name="Category"><value>Driving</value></Data><Data name="Distance"><value>109599</value></Data></ExtendedData><description> Driving from 2021-05-15T19:09:36.104Z to 2021-05-15T20:27:20.000Z. Distance 109599m </description><LineString><altitudeMode>clampToGround</altitudeMode><extrude>1</extrude><tesselate>1</tesselate><coordinates>-104.1947739,43.8486621,0 -104.18469750000001,43.8488573,0 -104.1843461,43.848791999999996,0 -104.18421090000001,43.8497225,0 -104.18433500000002,43.8511491,0 -104.1848915,43.8524626,0 -104.18829210000001,43.856495800000005,0 -104.18939560000001,43.85737520000001,0 -104.19315040000001,43.85922330000001,0 -104.19600980000001,43.86165390000001,0 -104.19669530000002,43.86266470000001,0 -104.19740510000001,43.86445220000001,0 -104.19755340000002,43.865509900000006,0 -104.19735330000002,43.86720980000001,0 -104.19626090000003,43.86999750000001,0 -104.19488630000002,43.87205280000001,0 -104.19043000000002,43.87729270000001,0 -104.18918920000002,43.87952460000001,0 -104.18690410000002,43.88628910000001,0 -104.18679160000002,43.88845520000001,0 -104.18897750000001,43.90038950000001,0 -104.1891652,43.90833970000001,0 -104.1889294,43.90914890000001,0 -104.18802240000001,43.91049550000001,0 -104.18262110000002,43.91467270000001,0 -104.18186430000002,43.91584520000001,0 -104.18136940000002,43.91738840000001,0 -104.18174050000002,43.92183710000001,0 -104.18133080000003,43.92462640000001,0 -104.18156150000003,43.92563530000001,0 -104.18420620000002,43.93036150000001,0 -104.18471970000002,43.93245940000001,0 -104.18422340000002,43.93638500000001,0 -104.18442780000001,43.93720510000001,0 -104.18625400000002,43.94090170000001,0 -104.18872670000002,43.943275600000014,0 -104.18982490000002,43.94513300000001,0 -104.19028530000003,43.946979700000014,0 -104.19046470000002,43.95010110000001,0 -104.18984190000002,43.95250500000001,0 -104.18989930000002,43.95329220000001,0 -104.19079860000002,43.9552885,0 -104.19412230000002,43.9593529,0 -104.19612750000002,43.9608285,0 -104.19695910000002,43.9617774,0 -104.19752700000001,43.962861200000006,0 -104.19787380000001,43.964686500000006,0 -104.199312,43.967631700000005,0 -104.1993788,43.96897980000001,0 -104.19844850000001,43.97142790000001,0 -104.19737770000002,43.97615130000001,0 -104.19664710000002,43.977234200000005,0 -104.19518530000002,43.97838110000001,0 -104.19230890000001,43.97959610000001,0 -104.19151560000002,43.98029240000001,0 -104.19102880000003,43.98110980000001,0 -104.19088690000002,43.98197060000001,0 -104.19104480000003,43.98352330000001,0 -104.19072500000003,43.98460760000001,0 -104.19007560000003,43.98536140000001,0 -104.18604550000002,43.98875660000001,0 -104.18057240000002,43.99647070000001,0 -104.17769990000002,43.9991836,0 -104.17319870000003,44.0024165,0 -104.17235160000003,44.00335390000001,0 -104.16856190000003,44.01299900000001,0 -104.16764620000002,44.014572,0 -104.15903070000003,44.024947600000004,0 -104.15761900000003,44.0272541,0 -104.14468980000002,44.0626381,0 -104.13607860000002,44.080798800000004,0 -104.13762340000002,44.0812503,0 -104.14972030000001,44.0882333,0 -104.15087580000002,44.0886772,0 -104.15263970000002,44.0889763,0 -104.16543000000001,44.089178399999994,0 -104.16677150000001,44.089379,0 -104.16841480000002,44.0899059,0 -104.17021220000001,44.0910349,0 -104.17581370000002,44.09822449999999,0 -104.17944150000001,44.102202299999995,0 -104.18022530000002,44.1033913,0 -104.18084620000002,44.105356799999996,0 -104.18108280000001,44.1095895,0 -104.18151540000002,44.110645299999995,0 -104.18239360000001,44.111794399999994,0 -104.18330330000002,44.1125954,0 -104.18565690000003,44.113858199999996,0 -104.19319150000003,44.1161707,0 -104.19581930000003,44.1174713,0 -104.20148450000002,44.1221457,0 -104.20211980000002,44.122975499999995,0 -104.20283350000003,44.124617699999995,0 -104.20330880000003,44.128441499999994,0 -104.20655340000003,44.134761899999994,0 -104.20782250000003,44.14079439999999,0 -104.21366330000004,44.15348639999999,0 -104.21893850000004,44.15869889999999,0 -104.22409300000004,44.16182089999999,0 -104.22889530000003,44.16581029999999,0 -104.23095590000004,44.16935569999999,0 -104.23190280000004,44.170339799999994,0 -104.23308690000003,44.1710388,0 -104.24431000000004,44.175737999999996,0 -104.24663680000003,44.177231,0 -104.24790150000003,44.1784956,0 -104.25162350000002,44.184813299999995,0 -104.26328890000002,44.195872800000004,0 -104.26637590000003,44.1997148,0 -104.27212020000002,44.2099605,0 -104.27261560000002,44.2117289,0 -104.27263780000003,44.2129909,0 -104.27103080000002,44.217326799999995,0 -104.27086220000002,44.2190107,0 -104.27120900000003,44.2207259,0 -104.27809050000002,44.2319914,0 -104.27949510000002,44.2393606,0 -104.28011630000002,44.250258699999996,0 -104.28070330000003,44.252161199999996,0 -104.28224520000003,44.25418349999999,0 -104.28361070000004,44.25529139999999,0 -104.28506630000004,44.25612989999999,0 -104.30511200000004,44.262372799999994,0 -104.30697720000003,44.26320019999999,0 -104.30999490000005,44.26517619999999,0 -104.31106360000004,44.266211799999994,0 -104.31227470000005,44.268125999999995,0 -104.31426140000005,44.2837943,0 -104.31591110000005,44.28971169999999,0 -104.31468640000004,44.30982799999999,0 -104.31456850000005,44.34023559999999,0 -104.31484120000006,44.34165259999999,0 -104.32368960000005,44.356117799999986,0 -104.32397170000006,44.358493799999984,0 -104.32147960000006,44.36792679999999,0 -104.32147300000005,44.36963029999999,0 -104.32182450000006,44.37095559999999,0 -104.32247840000007,44.37220339999999,0 -104.33322990000006,44.38448809999999,0 -104.35286570000007,44.397350799999984,0 -104.35518410000006,44.39837759999999,0 -104.36354630000005,44.400884699999985,0 -104.36384570000006,44.40058699999999,0 -104.36473760000007,44.400144799999985,0 -104.36545650000006,44.39999169999999,0 -104.36855380000006,44.39993979999999,0 -104.37010730000006,44.39966409999999,0 -104.37484330000005,44.3980499,0 -104.37821310000005,44.397255599999994,0 -104.38171280000006,44.3968542,0 -104.38369420000005,44.3968625,0 -104.38397990000006,44.3969731,0 -104.39423270000006,44.392694299999995,0 -104.39621850000006,44.3922964,0 -104.40066030000006,44.3918778,0 -104.40178460000006,44.3919055,0 -104.42984830000005,44.3969693,0 -104.43756530000005,44.40019160000001,0 -104.44389200000005,44.4020479,0 -104.44515100000005,44.402604600000004,0 -104.44929990000006,44.405588,0 -104.45041910000006,44.4059081,0 -104.45090370000005,44.405949299999996,0 -104.45452690000006,44.4053696,0 -104.45649520000006,44.405491700000006,0 -104.45794420000006,44.405923800000004,0 -104.45890670000007,44.405984200000006,0 -104.46010080000006,44.40575030000001,0 -104.46640510000006,44.40310720000001,0 -104.46729510000006,44.40300860000001,0 -104.46883560000005,44.40320760000001,0 -104.47634670000005,44.40687140000001,0 -104.48408060000006,44.41003880000001,0 -104.48555310000005,44.41028510000001,0 -104.48664010000005,44.41025830000001,0 -104.48756470000005,44.41009220000001,0 -104.48869850000004,44.409695400000004,0 -104.49621710000004,44.4043815,0 -104.49748920000005,44.4037887,0 -104.49878850000005,44.4034892,0 -104.51010330000004,44.4028658,0 -104.51159830000005,44.402576,0 -104.51715120000004,44.4008634,0 -104.51867970000004,44.4006737,0 -104.52755340000003,44.4010195,0 -104.52963570000003,44.40085979999999,0 -104.53487990000004,44.3998241,0 -104.53611090000003,44.399730299999995,0 -104.54738690000002,44.400045799999994,0 -104.55396480000002,44.400935999999994,0 -104.56098120000001,44.40141409999999,0 -104.5623424,44.40136309999999,0 -104.56810470000002,44.40036299999999,0 -104.57152290000002,44.40026459999999,0 -104.57432200000001,44.400487999999996,0 -104.57650890000001,44.401209599999994,0 -104.57801380000001,44.4022322,0 -104.5816937,44.4064817,0 -104.5825197,44.4078959,0 -104.5826934,44.4088871,0 -104.58227520000001,44.4111136,0 -104.5824133,44.411733700000006,0 -104.58266230000001,44.412077000000004,0 -104.5833907,44.41257040000001,0 -104.5843771,44.412798900000006,0 -104.5885631,44.41305320000001,0 -104.5902646,44.413589400000006,0 -104.591471,44.41434830000001,0 -104.59887379999999,44.42189360000001,0 -104.6028771,44.42481850000001,0 -104.60397599999999,44.42519000000001,0 -104.60665599999999,44.42545360000001,0 -104.60825709999999,44.42597700000001,0 -104.61393869999999,44.42971430000001,0 -104.61455959999999,44.43034390000001,0 -104.6149871,44.43114300000001,0 -104.61560819999998,44.43478500000001,0 -104.6162402,44.43549220000001,0 -104.61829219999998,44.43643680000001,0 -104.62632369999999,44.44163360000001,0 -104.6390742,44.45144230000001,0 -104.6400669,44.45248380000001,0 -104.64239179999998,44.456232600000014,0 -104.64288609999998,44.45661410000002,0 -104.64560359999999,44.45761120000002,0 -104.64595519999999,44.45796720000002,0 -104.64611759999998,44.45847780000002,0 -104.64606759999998,44.45884150000002,0 -104.64493679999998,44.46089810000002,0 -104.64493099999999,44.46222920000002,0 -104.64421379999999,44.46315670000001,0 -104.64401,44.46386180000002,0 -104.6458275,44.46816370000002,0 -104.64760899999999,44.470109600000015,0 -104.6481883,44.47130340000002,0 -104.64835719999999,44.475202300000014,0 -104.64956889999999,44.47906360000002,0 -104.65177639999999,44.482694400000014,0 -104.6527033,44.48350910000001,0 -104.6535811,44.48394290000002,0 -104.66012660000001,44.48620010000002,0 -104.6699732,44.492936100000016,0 -104.67674600000001,44.495593700000015,0 -104.67789910000002,44.496329500000016,0 -104.68013270000002,44.49848540000002,0 -104.68587110000001,44.50139690000002,0 -104.6887052,44.50218710000002,0 -104.6894441,44.502941700000015,0 -104.6909728,44.50810700000002,0 -104.69260820000001,44.510292200000016,0 -104.69393590000001,44.51163210000002,0 -104.694293,44.51249690000002,0 -104.6942159,44.51293820000002,0 -104.6939024,44.513458700000015,0 -104.6920792,44.515166700000016,0 -104.6893785,44.51851580000002,0 -104.6894616,44.522886000000014,0 -104.68911179999999,44.523358600000016,0 -104.68385599999999,44.52749300000002,0 -104.68269629999999,44.52906840000002,0 -104.6776812,44.54156370000002,0 -104.67762609999998,44.54370870000002,0 -104.68056519999999,44.551652400000016,0 -104.689208,44.56476620000002,0 -104.69175789999998,44.571079300000015,0 -104.69423539999998,44.573851300000015,0 -104.69481479999999,44.57578050000002,0 -104.69644439999999,44.57811050000002,0 -104.69660569999998,44.578611700000025,0 -104.69666839999998,44.58034670000002,0 -104.69630139999998,44.581310700000024,0 -104.69558669999999,44.58221280000003,0 -104.6960106,44.582442400000026,0 -104.69653439999999,44.58292920000003,0 -104.69692479999999,44.58433920000004,0 -104.69682899999998,44.587427100000035,0 -104.69718539999998,44.58797720000003,0 -104.69775719999998,44.58835660000003,0 -104.70105179999997,44.58940530000003,0 -104.70305309999999,44.58978580000003,0 -104.70357599999998,44.58971900000003,0 -104.70448139999998,44.589313500000024,0 -104.70520019999998,44.58820170000003,0 -104.70844569999997,44.585447200000026,0 -104.70973849999997,44.58463340000003,0 -104.71059679999998,44.58437740000003,0 -104.71686009999998,44.58362040000003,0 -104.71882789999998,44.58288740000003,0 -104.71985039999997,44.58279560000003,0 -104.72248969999997,44.582944700000034,0 -104.72303109999997,44.58309600000003,0 -104.72413029999997,44.583788800000036,0 -104.72577069999997,44.58547250000004,0 -104.72591519999997,44.58580350000003,0 -104.72583529999997,44.58709890000003,0 -104.72608989999998,44.588759300000035,0 -104.72513639999997,44.59058480000003,0 -104.72475649999997,44.591848100000036,0 -104.72465499999997,44.59307580000004,0 -104.72501199999996,44.593957400000036,0 -104.72499109999997,44.594488000000034,0 -104.72415249999997,44.59511240000003,0 -104.71988259999996,44.59529580000004,0 -104.71928309999996,44.595065800000036,0 -104.71910389999996,44.594835800000034,0 -104.71899749999996,44.594386600000036,0 -104.71999529999995,44.59272870000003,0 -104.71977729999995,44.591773900000035,0 </coordinates></LineString><TimeSpan><begin>2021-05-15T19:09:36.104Z</begin><end>2021-05-15T20:27:20.000Z</end></TimeSpan></Placemark><Placemark><name>Devils Tower National Monument</name><address>WY-110, Devils Tower, WY 82714</address><ExtendedData><Data name="Email"><value>syugen.zhou@gmail.com</value></Data><Data name="Category"><value>National park</value></Data><Data name="Distance"><value>0</value></Data></ExtendedData><description> National park from 2021-05-15T20:27:20.000Z to 2021-05-15T20:42:35.462Z. Distance 0m </description><Point><coordinates>-104.7146168,44.5902098,0</coordinates></Point><TimeSpan><begin>2021-05-15T20:27:20.000Z</begin><end>2021-05-15T20:42:35.462Z</end></TimeSpan></Placemark><Placemark><name>Walking</name><address></address><ExtendedData><Data name="Email"><value>syugen.zhou@gmail.com</value></Data><Data name="Category"><value>Walking</value></Data><Data name="Distance"><value>2195</value></Data></ExtendedData><description> Walking from 2021-05-15T20:42:35.462Z to 2021-05-15T21:25:22.389Z. Distance 2195m </description><LineString><altitudeMode>clampToGround</altitudeMode><extrude>1</extrude><tesselate>1</tesselate><coordinates>-104.71791119999999,44.5902594,0 -104.71788699999999,44.5900298,0 -104.71769659999998,44.5899123,0 -104.71767919999999,44.5898321,0 -104.71770599999999,44.5897528,0 -104.71781459999998,44.5896439,0 -104.71773819999999,44.589324,0 -104.71767649999998,44.5892705,0 -104.71768449999999,44.5890852,0 -104.7175424,44.588846399999994,0 -104.7174458,44.5888369,0 -104.7173372,44.588881799999996,0 -104.7172661,44.588888399999995,0 -104.7170126,44.588768099999996,0 -104.7166707,44.5887719,0 -104.7163528,44.5888273,0 -104.7160591,44.5887318,0 -104.7159719,44.5886334,0 -104.71577350000001,44.5886325,0 -104.7155347,44.5886993,0 -104.71496210000001,44.5885943,0 -104.71443500000002,44.5885532,0 -104.71429020000001,44.5885761,0 -104.71421510000002,44.5885628,0 -104.7141105,44.58847109999999,0 -104.71404880000001,44.5884959,0 -104.71392270000001,44.5886716,0 -104.71366660000001,44.5888904,0 -104.71363570000001,44.58898489999999,0 -104.7136545,44.5890613,0 -104.71383820000001,44.589364999999994,0 -104.71398040000001,44.589522599999995,0 -104.7139308,44.589658199999995,0 -104.7137015,44.58991989999999,0 -104.71339170000002,44.59000399999999,0 -104.71313280000001,44.59002589999999,0 -104.71304700000002,44.590321999999986,0 -104.71292760000001,44.590437599999994,0 -104.71292090000001,44.59088549999999,0 -104.71275870000001,44.591096599999986,0 -104.71276540000001,44.59116819999999,0 -104.7127117,44.59122069999999,0 -104.71259500000001,44.59128849999998,0 -104.7125682,44.591332499999986,0 -104.71255750000002,44.59165619999999,0 -104.7126554,44.59176889999999,0 -104.7129652,44.59196659999999,0 -104.7130255,44.592025799999995,0 -104.7131918,44.5921204,0 -104.7133353,44.592265499999996,0 -104.71319720000001,44.592510999999995,0 -104.713275,44.5925769,0 -104.7134091,44.592768799999995,0 -104.7135298,44.592877699999995,0 -104.7138195,44.59302569999999,0 -104.7139375,44.593061999999996,0 -104.7154127,44.593720999999995,0 -104.71574129999999,44.593789699999995,0 -104.7158821,44.59376489999999,0 -104.7162241,44.59301039999999,0 -104.7164762,44.593040999999985,0 -104.71668810000001,44.59315369999999,0 -104.7171924,44.59327119999999,0 -104.7182411,44.59331509999999,0 -104.71859780000001,44.59328929999999,0 -104.71878960000001,44.593181399999985,0 -104.71899610000001,44.59292449999999,0 -104.7192483,44.59271529999999,0 -104.7193113,44.592471799999984,0 -104.71922950000001,44.592356299999985,0 -104.71923750000002,44.592057299999986,0 -104.71917990000001,44.59179369999998,0 -104.71923490000002,44.59152919999998,0 -104.71936090000003,44.59140979999998,0 -104.71936630000002,44.591268499999984,0 -104.71942130000002,44.591158599999986,0 -104.71942660000002,44.59104589999998,0 -104.71936630000002,44.59094179999998,0 -104.71925630000001,44.590818599999984,0 -104.71912890000002,44.59078139999998,0 -104.71898620000002,44.590774699999976,0 -104.71880440000002,44.590743199999984,0 -104.71872420000003,44.59070419999998,0 -104.71879360000003,44.59065529999998,0 -104.71905110000003,44.590587499999984,0 -104.71915440000002,44.59058079999998,0 -104.71927640000001,44.59055119999998,0 -104.71933810000002,44.59051679999998,0 -104.71948430000002,44.59036399999998,0 -104.71955540000002,44.59034489999998,0 -104.71973440000001,44.590353999999984,0 -104.7197682,44.59044599999998,0 -104.7201533,44.59080319999998,0 -104.72024060000001,44.590922699999986,0 -104.7198558,44.591437499999984,0 -104.7197807,44.59160939999999,0 -104.71977530000001,44.591872999999985,0 -104.71985040000001,44.59230849999999,0 -104.71999530000001,44.59272869999999,0 -104.71997790000002,44.59278109999999,0 </coordinates></LineString><TimeSpan><begin>2021-05-15T20:42:35.462Z</begin><end>2021-05-15T21:25:22.389Z</end></TimeSpan></Placemark><Placemark><name>Driving</name><address></address><ExtendedData><Data name="Email"><value>syugen.zhou@gmail.com</value></Data><Data name="Category"><value>Driving</value></Data><Data name="Distance"><value>76745</value></Data></ExtendedData><description> Driving from 2021-05-15T21:25:22.389Z to 2021-05-15T22:22:06.403Z. Distance 76745m </description><LineString><altitudeMode>clampToGround</altitudeMode><extrude>1</extrude><tesselate>1</tesselate><coordinates>-104.719978,44.5927809,0 -104.7189975,44.5943866,0 -104.71910390000001,44.594835800000006,0 -104.71928310000001,44.59506580000001,0 -104.71988260000002,44.5952958,0 -104.72276480000002,44.5951146,0 -104.72377400000002,44.59516690000001,0 -104.72415250000002,44.595112400000005,0 -104.72499110000003,44.59448800000001,0 -104.72501200000002,44.59395740000001,0 -104.72465500000003,44.59307580000001,0 -104.72475650000001,44.59184810000001,0 -104.72513640000003,44.59058480000001,0 -104.72608990000002,44.58875930000001,0 -104.72583530000003,44.58709890000001,0 -104.72591520000003,44.58580350000001,0 -104.72577070000003,44.58547250000001,0 -104.72413030000003,44.583788800000015,0 -104.72303110000003,44.58309600000001,0 -104.72248970000001,44.58294470000001,0 -104.71985040000003,44.58279560000001,0 -104.71882790000002,44.58288740000001,0 -104.71686010000002,44.58362040000001,0 -104.71059680000002,44.5843774,0 -104.70973850000003,44.5846334,0 -104.70844570000003,44.585447200000004,0 -104.70520020000002,44.5882017,0 -104.70448140000002,44.5893135,0 -104.70357600000003,44.589719,0 -104.70305310000003,44.5897858,0 -104.70105180000003,44.58940530000001,0 -104.69775720000004,44.588356600000004,0 -104.69718540000004,44.587977200000005,0 -104.69682900000004,44.587427100000006,0 -104.69692480000003,44.58433920000001,0 -104.69674990000004,44.58336320000001,0 -104.69653440000005,44.58292920000001,0 -104.69601060000004,44.58244240000001,0 -104.69586910000004,44.58186660000001,0 -104.69630140000004,44.58131070000001,0 -104.69666840000004,44.580346700000014,0 -104.69660570000003,44.57861170000001,0 -104.69644440000005,44.57811050000001,0 -104.69481480000003,44.57578050000001,0 -104.69423540000004,44.57385130000001,0 -104.69175790000003,44.57107930000001,0 -104.68920800000004,44.56476620000001,0 -104.68056520000005,44.55165240000001,0 -104.67762610000004,44.5437087,0 -104.67768120000004,44.541563700000005,0 -104.68138050000005,44.5328961,0 -104.68222610000004,44.530022800000005,0 -104.68269630000003,44.52906840000001,0 -104.68385600000003,44.52749300000001,0 -104.68911180000003,44.52335860000001,0 -104.68946160000003,44.52288600000001,0 -104.68955430000004,44.5223517,0 -104.68937850000003,44.5185158,0 -104.69207920000004,44.5151667,0 -104.69390240000004,44.51345870000001,0 -104.69421590000005,44.51293820000001,0 -104.69429300000004,44.51249690000001,0 -104.69417820000004,44.51202800000001,0 -104.69393590000004,44.51163210000001,0 -104.69260820000004,44.5102922,0 -104.69075330000004,44.5076599,0 -104.68984660000004,44.5040631,0 -104.69043550000005,44.50262070000001,0 -104.68587110000004,44.50139690000001,0 -104.68013270000006,44.498485400000014,0 -104.67960870000006,44.49810370000001,0 -104.67789910000005,44.49632950000001,0 -104.67674600000005,44.49559370000001,0 -104.66997320000004,44.49293610000001,0 -104.66012660000004,44.48620010000001,0 -104.65358110000004,44.48394290000001,0 -104.65270330000004,44.483509100000006,0 -104.65177640000003,44.48269440000001,0 -104.64956890000003,44.47906360000001,0 -104.64835720000004,44.475202300000014,0 -104.64818830000003,44.47130340000001,0 -104.64760900000003,44.470109600000015,0 -104.64582750000004,44.46816370000001,0 -104.64404100000003,44.46414150000001,0 -104.64401000000004,44.46386180000001,0 -104.64421380000003,44.46315670000001,0 -104.64493100000003,44.46222920000001,0 -104.64493680000002,44.460898100000016,0 -104.64539710000004,44.45982790000001,0 -104.64606760000004,44.45884150000001,0 -104.64611760000003,44.45847780000001,0 -104.64595520000003,44.45796720000001,0 -104.64560360000003,44.45761120000001,0 -104.64521950000004,44.45742890000001,0 -104.64386460000003,44.45705500000001,0 -104.64288610000003,44.45661410000001,0 -104.64239180000003,44.45623260000001,0 -104.64006690000004,44.45248380000001,0 -104.63907420000002,44.451442300000004,0 -104.62632370000003,44.4416336,0 -104.61829220000003,44.4364368,0 -104.61682230000002,44.4358405,0 -104.61624020000004,44.4354922,0 -104.61560820000003,44.434785,0 -104.61498710000004,44.431143,0 -104.61455960000004,44.4303439,0 -104.61393870000003,44.4297143,0 -104.60825710000003,44.425976999999996,0 -104.60665600000003,44.425453600000004,0 -104.60397600000003,44.42519,0 -104.60287710000003,44.4248185,0 -104.59887380000004,44.4218936,0 -104.59147100000004,44.41434829999999,0 -104.59026460000004,44.41358939999999,0 -104.58856310000003,44.41305319999999,0 -104.58437710000004,44.41279889999999,0 -104.58339070000004,44.41257039999999,0 -104.58266230000004,44.41207699999999,0 -104.58241330000004,44.41173369999999,0 -104.58227520000004,44.41111359999999,0 -104.58269340000004,44.408887099999994,0 -104.58251970000005,44.407895899999986,0 -104.58169370000005,44.406481699999986,0 -104.57801380000005,44.402232199999986,0 -104.57650890000005,44.40120959999998,0 -104.57579370000005,44.40089899999999,0 -104.57432200000005,44.40048799999998,0 -104.57152290000005,44.40026459999998,0 -104.56810470000005,44.40036299999998,0 -104.56607440000005,44.40060579999997,0 -104.56234240000005,44.401363099999976,0 -104.56098120000006,44.40141409999997,0 -104.55396480000006,44.40093599999997,0 -104.54738690000006,44.40004579999997,0 -104.53611090000007,44.39973029999997,0 -104.53487990000008,44.399824099999975,0 -104.52963570000007,44.40085979999998,0 -104.52755340000007,44.401019499999975,0 -104.51867970000008,44.40067369999998,0 -104.51715120000007,44.40086339999998,0 -104.51159830000007,44.40257599999998,0 -104.51010330000008,44.40286579999998,0 -104.49878850000009,44.40348919999998,0 -104.49748920000008,44.40378869999998,0 -104.49621710000008,44.404381499999985,0 -104.48869850000008,44.40969539999998,0 -104.48756470000009,44.41009219999999,0 -104.48664010000009,44.41025829999999,0 -104.48555310000009,44.41028509999999,0 -104.4840806000001,44.41003879999999,0 -104.4763467000001,44.40687139999999,0 -104.46883560000009,44.40320759999999,0 -104.46810750000009,44.40304859999999,0 -104.46729510000009,44.40300859999999,0 -104.4664051000001,44.40310719999999,0 -104.46578730000009,44.40327979999999,0 -104.46010080000009,44.40575029999999,0 -104.45890670000009,44.405984199999985,0 -104.45794420000009,44.40592379999999,0 -104.45649520000008,44.405491699999985,0 -104.45529030000009,44.405347599999985,0 -104.45452690000008,44.40536959999998,0 -104.45090370000008,44.40594929999998,0 -104.45041910000008,44.40590809999998,0 -104.44929990000007,44.40558799999998,0 -104.44515100000008,44.40260459999998,0 -104.44389200000008,44.402047899999985,0 -104.43756530000007,44.400191599999985,0 -104.42984830000007,44.39696929999999,0 -104.42896070000008,44.39671669999999,0 -104.40178460000007,44.39190549999999,0 -104.40066030000008,44.39187779999999,0 -104.39670090000008,44.39224209999999,0 -104.39619480000007,44.393772099999985,0 -104.39518080000008,44.39501649999999,0 -104.39399070000009,44.39588309999999,0 -104.39255060000008,44.39650309999999,0 -104.39056910000008,44.39704749999999,0 -104.38842010000008,44.39730589999999,0 -104.38270320000008,44.397193599999994,0 -104.37831510000008,44.397603499999995,0 -104.37554530000008,44.3982087,0 -104.36035250000008,44.4037386,0 -104.35837680000009,44.4047352,0 -104.35595940000009,44.4064768,0 -104.35319590000009,44.40900799999999,0 -104.35029590000009,44.41096829999999,0 -104.31528640000009,44.4289273,0 -104.28734790000009,44.4417936,0 -104.28510180000009,44.443091700000004,0 -104.28342850000008,44.444347300000004,0 -104.27046210000009,44.4573467,0 -104.2680779000001,44.4592297,0 -104.24483960000009,44.4747604,0 -104.2423336000001,44.4768153,0 -104.2262777000001,44.4953425,0 -104.2249413000001,44.497436,0 -104.2188130000001,44.5125564,0 -104.2165738000001,44.515988,0 -104.2143044000001,44.5186475,0 -104.20956550000011,44.5228063,0 -104.2065546000001,44.524823899999994,0 -104.20176420000011,44.527363799999996,0 -104.19587870000011,44.529624,0 -104.1883403000001,44.5314371,0 -104.1734066000001,44.53343699999999,0 -104.1612077000001,44.5342643,0 -104.15686120000011,44.534805799999994,0 -104.15190430000011,44.535820699999995,0 -104.14113780000011,44.538807899999995,0 -104.12432860000011,44.54281689999999,0 -104.12074650000011,44.543470799999994,0 -104.11556060000011,44.5440304,0 -104.11081560000012,44.54415169999999,0 -104.07806740000012,44.54265409999999,0 -104.05565890000011,44.54241319999999,0 -104.05295570000013,44.54267229999999,0 -104.04913460000012,44.54346999999999,0 -104.04393340000011,44.54505189999999,0 -104.04078950000012,44.54572019999999,0 -104.04068910000011,44.54566579999999,0 -104.0363883000001,44.54568439999999,0 -104.0359854000001,44.54553689999999,0 -104.0343704000001,44.54549359999999,0 </coordinates></LineString><TimeSpan><begin>2021-05-15T21:25:22.389Z</begin><end>2021-05-15T22:22:06.403Z</end></TimeSpan></Placemark><Placemark><name>Spearfish Welcome Center</name><address>I-90 Westbound Mile Marker, 1, Spearfish, SD 57783</address><ExtendedData><Data name="Email"><value>syugen.zhou@gmail.com</value></Data><Data name="Category"><value>Rest stop</value></Data><Data name="Distance"><value>0</value></Data></ExtendedData><description> Rest stop from 2021-05-15T22:22:06.403Z to 2021-05-15T22:33:09.396Z. Distance 0m </description><Point><coordinates>-104.0340341,44.5452783,0</coordinates></Point><TimeSpan><begin>2021-05-15T22:22:06.403Z</begin><end>2021-05-15T22:33:09.396Z</end></TimeSpan></Placemark><Placemark><name>Driving</name><address></address><ExtendedData><Data name="Email"><value>syugen.zhou@gmail.com</value></Data><Data name="Category"><value>Driving</value></Data><Data name="Distance"><value>95859</value></Data></ExtendedData><description> Driving from 2021-05-15T22:33:09.396Z to 2021-05-15T23:22:55.404Z. Distance 95859m </description><LineString><altitudeMode>clampToGround</altitudeMode><extrude>1</extrude><tesselate>1</tesselate><coordinates>-104.03269949999999,44.5454945,0 -104.03111279999999,44.545621499999996,0 -104.0291937,44.5459652,0 -104.0282283,44.5460309,0 -104.02810029999999,44.546088999999995,0 -103.9939278,44.546138299999996,0 -103.99171940000001,44.546241200000004,0 -103.98922,44.5465065,0 -103.9845203,44.5472994,0 -103.98300979999999,44.54743,0 -103.9822394,44.5474364,0 -103.9807139,44.547334500000005,0 -103.97299269999999,44.545940900000005,0 -103.9694136,44.544977300000006,0 -103.96788109999999,44.544445200000006,0 -103.96206219999999,44.54184010000001,0 -103.95953639999999,44.540410400000006,0 -103.95753789999998,44.53901990000001,0 -103.94104739999999,44.525679100000005,0 -103.93996579999998,44.5250304,0 -103.93890049999997,44.5245333,0 -103.93776609999998,44.524128000000005,0 -103.93624859999998,44.5237538,0 -103.9300816,44.5228106,0 -103.92737999999999,44.5225456,0 -103.92492389999998,44.522445000000005,0 -103.89730619999997,44.5224673,0 -103.89130009999997,44.5222221,0 -103.86616429999997,44.520195900000004,0 -103.86528029999997,44.5200302,0 -103.86456619999997,44.5198338,0 -103.86375419999997,44.519526,0 -103.86266139999996,44.5189346,0 -103.86213429999998,44.5185486,0 -103.86142069999998,44.517855600000004,0 -103.86080419999999,44.5169531,0 -103.86047039999998,44.5161329,0 -103.85815099999998,44.505696,0 -103.85740099999998,44.5036033,0 -103.85662959999998,44.5021737,0 -103.85549139999998,44.5005851,0 -103.85434719999998,44.4993286,0 -103.84145609999997,44.4868826,0 -103.83959399999998,44.4853521,0 -103.83824879999997,44.484458,0 -103.83641439999998,44.4834512,0 -103.82711589999998,44.4792224,0 -103.82563119999998,44.4786552,0 -103.82451219999997,44.47832439999999,0 -103.82261579999998,44.47792839999999,0 -103.821559,44.47778889999999,0 -103.79122239999998,44.475397599999994,0 -103.78302809999998,44.475092,0 -103.75221909999998,44.4750793,0 -103.74991889999997,44.475265799999995,0 -103.74771449999997,44.4756783,0 -103.74598759999996,44.476214399999996,0 -103.72319919999997,44.486218799999996,0 -103.72140679999997,44.486850399999994,0 -103.71967009999996,44.487301699999996,0 -103.71682519999996,44.487744299999996,0 -103.71483699999996,44.48784739999999,0 -103.70484879999997,44.4874872,0 -103.70200619999996,44.487068099999995,0 -103.69961989999996,44.486487,0 -103.69704669999996,44.4856048,0 -103.69120239999997,44.4829565,0 -103.68678049999997,44.4813706,0 -103.68347659999996,44.4804606,0 -103.68118109999996,44.4799523,0 -103.66892869999995,44.477733,0 -103.66694599999997,44.4774757,0 -103.66397559999996,44.477232199999996,0 -103.65823389999996,44.4770623,0 -103.65342419999995,44.476625799999994,0 -103.64578809999995,44.475538799999995,0 -103.64458269999996,44.4752955,0 -103.64320969999996,44.4748793,0 -103.64176619999996,44.4742512,0 -103.64082959999996,44.473711099999996,0 -103.63078639999996,44.466084499999994,0 -103.62772119999995,44.464329899999996,0 -103.60386699999995,44.453487499999994,0 -103.60120549999995,44.45203159999999,0 -103.59972259999995,44.451071899999995,0 -103.58879439999995,44.442990599999995,0 -103.58599669999995,44.44051759999999,0 -103.57529059999995,44.429898099999996,0 -103.57455389999996,44.42936889999999,0 -103.57307119999994,44.42854899999999,0 -103.57186679999995,44.428066099999995,0 -103.57043919999994,44.427656899999995,0 -103.54526589999995,44.422531299999996,0 -103.53493059999995,44.419872,0 -103.53408699999994,44.4195782,0 -103.53308189999994,44.4191031,0 -103.53215199999994,44.4185212,0 -103.53126559999995,44.4177718,0 -103.53078359999995,44.41723139999999,0 -103.52223159999996,44.405128299999994,0 -103.51995399999996,44.4025128,0 -103.51818839999996,44.4008493,0 -103.51630289999996,44.399338799999995,0 -103.51513629999995,44.3985981,0 -103.51402299999995,44.3980313,0 -103.51259799999995,44.3974436,0 -103.51134839999995,44.397043700000005,0 -103.50556999999995,44.3956558,0 -103.50370949999994,44.3951032,0 -103.50202149999996,44.3944678,0 -103.49201269999995,44.389679799999996,0 -103.49095459999995,44.3890299,0 -103.49032669999995,44.388529999999996,0 -103.48977749999995,44.38797269999999,0 -103.48309259999995,44.3799247,0 -103.47776649999994,44.37491059999999,0 -103.46830209999995,44.36717809999999,0 -103.46676439999996,44.36572739999999,0 -103.44524979999996,44.341212899999995,0 -103.44363949999996,44.339025199999995,0 -103.43632039999996,44.32754839999999,0 -103.43601439999996,44.32695019999999,0 -103.43572989999996,44.32613359999999,0 -103.43557209999994,44.32517939999999,0 -103.43566779999995,44.32384319999999,0 -103.43660719999995,44.32000669999999,0 -103.43675539999995,44.3183721,0 -103.43667629999995,44.31682239999999,0 -103.43366629999994,44.298919299999994,0 -103.43312879999993,44.29743729999999,0 -103.43216289999994,44.29543079999999,0 -103.42326919999994,44.281953299999984,0 -103.42309999999993,44.28159499999999,0 -103.40026629999993,44.246649699999985,0 -103.40016339999993,44.24661199999999,0 -103.39779029999993,44.24312369999999,0 -103.38449589999992,44.22869149999999,0 -103.38317469999993,44.22749549999998,0 -103.38180099999992,44.22646679999999,0 -103.36930619999993,44.21828829999999,0 -103.36784259999993,44.21717899999999,0 -103.34849159999993,44.197697099999985,0 -103.34745419999993,44.19686269999999,0 -103.32445309999993,44.18057429999999,0 -103.32371339999993,44.179863099999984,0 -103.32277609999993,44.178615499999985,0 -103.32241039999992,44.17790439999999,0 -103.32010929999993,44.17200049999998,0 -103.31972309999993,44.171280899999985,0 -103.31898799999993,44.170317199999985,0 -103.31845379999993,44.16978419999998,0 -103.31743159999994,44.16899139999998,0 -103.30962359999994,44.16412969999998,0 -103.30883559999994,44.16353919999998,0 -103.30802689999993,44.162747199999984,0 -103.30732519999994,44.16178579999998,0 -103.29582659999994,44.14087449999998,0 -103.29526709999995,44.14009379999998,0 -103.29479459999995,44.13958669999998,0 -103.29406959999994,44.13896369999998,0 -103.29302629999995,44.13828719999998,0 -103.28060399999994,44.13214789999998,0 -103.27948349999994,44.13141829999998,0 -103.27862599999995,44.13063799999998,0 -103.27806939999995,44.12994759999999,0 -103.27772249999995,44.129378799999984,0 -103.27632299999995,44.125506499999986,0 -103.27503729999995,44.11849569999998,0 -103.27458469999995,44.11729729999998,0 -103.27400389999994,44.116398299999986,0 -103.27341889999995,44.11574439999998,0 -103.26710119999994,44.11019899999998,0 -103.26588729999995,44.109385899999985,0 -103.26487009999994,44.108892099999984,0 -103.26341699999993,44.10840309999998,0 -103.25026889999994,44.10619329999998,0 -103.24001279999993,44.105743099999984,0 -103.22292249999992,44.10427219999998,0 -103.19782489999993,44.10421299999999,0 -103.19670839999993,44.10414129999999,0 -103.19560729999993,44.10395539999999,0 -103.19441989999993,44.10361889999999,0 -103.18563049999993,44.100169999999984,0 -103.18392599999993,44.09973069999999,0 -103.18315969999993,44.09961279999999,0 -103.18176039999993,44.099514099999986,0 -103.15838779999994,44.09944709999999,0 -103.15664509999993,44.099548799999994,0 -103.15644919999993,44.09951279999999,0 -103.15257789999994,44.09967149999999,0 -103.15242469999994,44.099626599999986,0 -103.15187219999994,44.099619399999995,0 -103.15166869999993,44.09955239999999,0 -103.15152389999993,44.09943409999999,0 -103.15140609999993,44.09921859999999,0 -103.15141509999992,44.096515499999995,0 </coordinates></LineString><TimeSpan><begin>2021-05-15T22:33:09.396Z</begin><end>2021-05-15T23:22:55.404Z</end></TimeSpan></Placemark><Placemark><name>McDonald's</name><address>3919 Cheyenne Boulevard, Rapid City, SD 57703</address><ExtendedData><Data name="Email"><value>syugen.zhou@gmail.com</value></Data><Data name="Category"><value>Fast Food</value></Data><Data name="Distance"><value>0</value></Data></ExtendedData><description> Fast Food from 2021-05-15T23:22:55.404Z to 2021-05-15T23:35:36.000Z. Distance 0m </description><Point><coordinates>-103.15026019999999,44.0957195,0</coordinates></Point><TimeSpan><begin>2021-05-15T23:22:55.404Z</begin><end>2021-05-15T23:35:36.000Z</end></TimeSpan></Placemark><Placemark><name>Driving</name><address></address><ExtendedData><Data name="Email"><value>syugen.zhou@gmail.com</value></Data><Data name="Category"><value>Driving</value></Data><Data name="Distance"><value>768</value></Data></ExtendedData><description> Driving from 2021-05-15T23:35:36.000Z to 2021-05-15T23:51:40.056Z. Distance 768m </description><LineString><altitudeMode>clampToGround</altitudeMode><extrude>1</extrude><tesselate>1</tesselate><coordinates>-103.15016810000002,44.0957195,0 -103.15016810000002,44.095782,0 -103.15011710000002,44.0958215,0 -103.15011840000001,44.095985199999994,0 -103.15011840000001,44.095985199999994,0 -103.1499079,44.09598619999999,0 -103.14990710000001,44.09598619999999,0 -103.14990710000001,44.09598619999999,0 -103.14990740000002,44.096036399999996,0 -103.14990790000002,44.096133599999995,0 -103.14995080000001,44.09632619999999,0 -103.14995170000002,44.0963303,0 -103.14995170000002,44.0963303,0 -103.15004900000001,44.0963151,0 -103.15018630000002,44.0962983,0 -103.1503328,44.0962864,0 -103.15073810000001,44.0962867,0 -103.1507952,44.0962867,0 -103.15123890000001,44.0962946,0 -103.15123890000001,44.0962946,0 -103.15124240000002,44.0970168,0 -103.15124220000001,44.0972344,0 -103.15124190000002,44.0974519,0 -103.15123710000002,44.097743,0 -103.15121150000002,44.0984879,0 -103.15119180000002,44.0991052,0 -103.15119320000001,44.0994103,0 -103.15119310000001,44.100221,0 -103.15119400000002,44.1003521,0 -103.15119490000004,44.100483100000005,0 -103.15119490000004,44.100483100000005,0 -103.15119630000002,44.10053870000001,0 -103.15119780000003,44.10059420000001,0 -103.15119710000003,44.10074530000001,0 -103.15119640000003,44.1008963,0 -103.15118930000004,44.10174070000001,0 -103.15120240000003,44.10258060000001,0 -103.15120590000004,44.102705500000006,0 -103.15130450000004,44.10280590000001,0 -103.15130240000003,44.10311070000001,0 -103.15129910000003,44.10357170000001,0 -103.15129660000004,44.103918400000005,0 -103.15129400000004,44.104291100000005,0 -103.15129070000003,44.104640100000005,0 -103.15128820000004,44.1048982,0 -103.15128820000004,44.1048982,0 -103.15214340000004,44.10490550000001,0 -103.15236660000004,44.10490510000001,0 -103.15274180000004,44.10490450000001,0 -103.15348050000004,44.10491110000001,0 -103.15373100000004,44.10491330000001,0 -103.15448240000003,44.10492000000001,0 -103.15448240000003,44.10492000000001,0 -103.15449500000004,44.10478230000001,0 -103.15449520000003,44.104740400000004,0 -103.15449580000003,44.104560600000006,0 -103.15449580000003,44.1045542,0 -103.15448720000002,44.10448,0 -103.15447270000003,44.1044171,0 -103.15443800000003,44.1043522,0 -103.15441140000003,44.1043084,0 -103.15439230000003,44.104283,0 -103.15433550000003,44.104206,0 -103.15427280000003,44.1041176,0 -103.15418410000002,44.1040136,0 -103.15415850000002,44.103981000000005,0 -103.15411300000002,44.103923200000004,0 -103.15407460000003,44.10385540000001,0 -103.15407400000002,44.10385260000001,0 -103.15405710000002,44.10377890000001,0 -103.15405180000002,44.1036446,0 -103.15404970000002,44.103314000000005,0 -103.15404740000001,44.10295430000001,0 -103.15404690000001,44.102881100000005,0 -103.1540556,44.102803300000005,0 -103.15406450000002,44.102775400000006,0 -103.15408710000001,44.10270410000001,0 -103.15413600000001,44.10262000000001,0 -103.15419890000001,44.10253840000001,0 -103.1542979,44.10246500000001,0 -103.15430730000001,44.10245810000001,0 -103.15447340000001,44.10235910000001,0 -103.15447340000001,44.10235910000001,0 -103.15466740000002,44.10224340000001,0 -103.15504850000002,44.102011800000014,0 -103.15517880000002,44.10193260000001,0 </coordinates></LineString><TimeSpan><begin>2021-05-15T23:35:36.000Z</begin><end>2021-05-15T23:51:40.056Z</end></TimeSpan></Placemark><Placemark><name>My Place Hotel - Rapid City, SD</name><address>1612 Discovery Cir, Rapid City, SD 57701</address><ExtendedData><Data name="Email"><value>syugen.zhou@gmail.com</value></Data><Data name="Category"><value>Hotel</value></Data><Data name="Distance"><value>0</value></Data></ExtendedData><description> Hotel from 2021-05-15T23:51:40.056Z to 2021-05-16T12:49:47.822Z. Distance 0m </description><Point><coordinates>-103.1546163,44.1014553,0</coordinates></Point><TimeSpan><begin>2021-05-15T23:51:40.056Z</begin><end>2021-05-16T12:49:47.822Z</end></TimeSpan></Placemark></Document></kml>
