<?xml version="1.0" encoding="UTF-8"?><kml xmlns="http://www.opengis.net/kml/2.2" xmlns:gx="http://www.google.com/kml/ext/2.2"><Document><name> Location history from 2021-05-14 to 2021-05-14 </name><open>1</open><description></description><StyleMap id="multiTrack"><Pair><key>normal</key><styleUrl>#multiTrack_n</styleUrl></Pair><Pair><key>highlight</key><styleUrl>#multiTrack_h</styleUrl></Pair></StyleMap><Style id="multiTrack_n"><IconStyle><Icon><href>https://earth.google.com/images/kml-icons/track-directional/track-0.png</href></Icon></IconStyle><LineStyle><color>99ffac59</color><width>6</width></LineStyle></Style><Style id="multiTrack_h"><IconStyle><scale>1.2</scale><Icon><href>https://earth.google.com/images/kml-icons/track-directional/track-0.png</href></Icon></IconStyle><LineStyle><color>99ffac59</color><width>8</width></LineStyle></Style><Placemark><name>702 Marlin Ave</name><address>702 Marlin Ave, Foster City, CA 94404</address><ExtendedData><Data name="Email"><value>syugen.zhou@gmail.com</value></Data><Data name="Category"><value></value></Data><Data name="Distance"><value>0</value></Data></ExtendedData><description>  from 2021-05-14T01:02:38.000Z to 2021-05-14T18:21:29.999Z. Distance 0m </description><Point><coordinates>-122.25498479999999,37.5541321,0</coordinates></Point><TimeSpan><begin>2021-05-14T01:02:38.000Z</begin><end>2021-05-14T18:21:29.999Z</end></TimeSpan></Placemark><Placemark><name>Driving</name><address></address><ExtendedData><Data name="Email"><value>syugen.zhou@gmail.com</value></Data><Data name="Category"><value>Driving</value></Data><Data name="Distance"><value>16115</value></Data></ExtendedData><description> Driving from 2021-05-14T18:21:29.999Z to 2021-05-14T18:35:09.999Z. Distance 16115m </description><LineString><altitudeMode>clampToGround</altitudeMode><extrude>1</extrude><tesselate>1</tesselate><coordinates>-122.25551569999999,37.5538862,0 -122.2555829,37.5538082,0 -122.2696225,37.561786100000006,0 -122.27036039999999,37.56228720000001,0 -122.27481599999999,37.5648166,0 -122.27488559999999,37.564721,0 -122.27542939999998,37.5641616,0 -122.27569349999999,37.563924,0 -122.27582349999999,37.5638862,0 -122.27576579999999,37.5638275,0 -122.27576669999999,37.563736500000005,0 -122.27575399999998,37.563697100000006,0 -122.27571299999997,37.5636382,0 -122.27565309999996,37.5635849,0 -122.27548809999998,37.563346300000006,0 -122.27543359999997,37.563188800000006,0 -122.27542489999998,37.5630669,0 -122.27546389999998,37.56288300000001,0 -122.27553849999998,37.5627232,0 -122.27558839999998,37.562651,0 -122.27574309999999,37.562488200000004,0 -122.27665179999997,37.56179040000001,0 -122.27665659999997,37.56170130000001,0 -122.28253099999998,37.55798820000001,0 -122.28436129999999,37.556953600000014,0 -122.28542229999998,37.55642320000001,0 -122.2879674,37.55536300000001,0 -122.2894724,37.55481720000001,0 -122.2912929,37.55425660000001,0 -122.2921063,37.55406230000001,0 -122.2922566,37.55409390000001,0 -122.2945314,37.55385830000001,0 -122.29492379999998,37.55386590000001,0 -122.29523279999998,37.55390370000001,0 -122.29547059999999,37.553949400000015,0 -122.29581529999999,37.554042500000016,0 -122.29621459999998,37.554197400000014,0 -122.29654589999998,37.554375600000014,0 -122.29681219999999,37.55456560000002,0 -122.29766279999997,37.555342500000016,0 -122.29831699999998,37.55600730000002,0 -122.2985509,37.55609660000002,0 -122.3019882,37.55990270000002,0 -122.303062,37.56097740000002,0 -122.3292478,37.585038000000026,0 -122.32958339999999,37.58531350000003,0 -122.3299886,37.585599900000034,0 -122.33032999999998,37.58580690000003,0 -122.33102679999999,37.586155000000026,0 -122.33163809999998,37.58639440000003,0 -122.33201089999999,37.586513100000026,0 -122.33266259999998,37.58667340000003,0 -122.33296649999998,37.586729200000036,0 -122.33345839999997,37.58678910000003,0 -122.33422789999997,37.58684310000003,0 -122.35326499999998,37.58733600000003,0 -122.35386109999997,37.58738800000003,0 -122.35481839999998,37.587515700000026,0 -122.35577469999998,37.58770310000003,0 -122.35717519999999,37.58809610000003,0 -122.358069,37.58842390000002,0 -122.35903669999999,37.588860500000024,0 -122.3599776,37.58936130000003,0 -122.3606132,37.58974420000003,0 -122.3656405,37.593012900000026,0 -122.36623189999999,37.59343980000003,0 -122.38590099999999,37.60628450000003,0 -122.38591360000001,37.60638980000003,0 -122.38592510000001,37.606416300000035,0 -122.38594690000001,37.60644080000004,0 -122.38695949999999,37.60720400000003,0 -122.39053809999999,37.60959770000004,0 -122.39071469999998,37.609692300000034,0 -122.39399379999999,37.61176610000003,0 -122.39459000000001,37.612233300000035,0 -122.39512700000002,37.61269700000003,0 -122.39525240000002,37.61295260000004,0 -122.39527440000002,37.61302860000004,0 -122.39528960000003,37.61316530000004,0 -122.39527660000003,37.61330690000004,0 -122.39523060000002,37.61344150000004,0 -122.39516540000002,37.61355460000004,0 -122.39500450000003,37.61372590000004,0 -122.39483220000001,37.61383420000004,0 -122.3947095,37.61389080000004,0 -122.393972,37.61413800000004,0 -122.39391679999999,37.61414810000004,0 -122.3927716,37.61453280000004,0 -122.39264580000001,37.614601000000036,0 -122.39204990000002,37.61476240000004,0 -122.39159790000001,37.614846600000035,0 -122.3911362,37.61488560000004,0 -122.3901132,37.61508350000004,0 -122.38997739999999,37.61507160000004,0 -122.3885657,37.61535540000004,0 -122.38809570000001,37.615374500000044,0 -122.38785990000001,37.61533700000004,0 -122.38737060000001,37.61520820000004,0 -122.38721430000001,37.61510750000004,0 -122.38702860000001,37.615039500000044,0 </coordinates></LineString><TimeSpan><begin>2021-05-14T18:21:29.999Z</begin><end>2021-05-14T18:35:09.999Z</end></TimeSpan></Placemark><Placemark><name>San Francisco International Airport</name><address>San Francisco, CA 94128</address><ExtendedData><Data name="Email"><value>syugen.zhou@gmail.com</value></Data><Data name="Category"><value>Airport</value></Data><Data name="Distance"><value>0</value></Data></ExtendedData><description> Airport from 2021-05-14T18:35:09.999Z to 2021-05-14T19:48:47.149Z. Distance 0m </description><Point><coordinates>-122.3789554,37.6213129,0</coordinates></Point><TimeSpan><begin>2021-05-14T18:35:09.999Z</begin><end>2021-05-14T19:48:47.149Z</end></TimeSpan></Placemark><Placemark><name>Flying</name><address></address><ExtendedData><Data name="Email"><value>syugen.zhou@gmail.com</value></Data><Data name="Category"><value>Flying</value></Data><Data name="Distance"><value>1555808</value></Data></ExtendedData><description> Flying from 2021-05-14T19:48:47.149Z to 2021-05-14T23:19:31.094Z. Distance 1555808m </description><LineString><altitudeMode>clampToGround</altitudeMode><extrude>1</extrude><tesselate>1</tesselate><coordinates>-122.38682272222819,37.61449185672418,0 -122.38682272222819,37.61449185672418,0 -122.3915091,37.6126395,0 -104.6896637,39.8363954,0 -104.6737376,39.8560963,0 -104.6737376,39.8560963,0 </coordinates></LineString><TimeSpan><begin>2021-05-14T19:48:47.149Z</begin><end>2021-05-14T23:19:31.094Z</end></TimeSpan></Placemark><Placemark><name>Denver International Airport</name><address>8500 Peña Blvd, Denver, CO 80249</address><ExtendedData><Data name="Email"><value>syugen.zhou@gmail.com</value></Data><Data name="Category"><value>International airport</value></Data><Data name="Distance"><value>0</value></Data></ExtendedData><description> International airport from 2021-05-14T23:19:31.094Z to 2021-05-15T00:11:47.121Z. Distance 0m </description><Point><coordinates>-104.6737376,39.8560963,0</coordinates></Point><TimeSpan><begin>2021-05-14T23:19:31.094Z</begin><end>2021-05-15T00:11:47.121Z</end></TimeSpan></Placemark><Placemark><name>Driving</name><address></address><ExtendedData><Data name="Email"><value>syugen.zhou@gmail.com</value></Data><Data name="Category"><value>Driving</value></Data><Data name="Distance"><value>173860</value></Data></ExtendedData><description> Driving from 2021-05-15T00:11:47.121Z to 2021-05-15T01:55:56.420Z. Distance 173860m </description><LineString><altitudeMode>clampToGround</altitudeMode><extrude>1</extrude><tesselate>1</tesselate><coordinates>-104.6885406,39.8373837,0 -104.68853639999999,39.837970299999995,0 -104.69091409999999,39.837984399999996,0 -104.6912194,39.8380375,0 -104.69151679999999,39.8380448,0 -104.6917884,39.8380359,0 -104.6928727,39.8380643,0 -104.69289839999999,39.8351706,0 -104.6929694,39.8351058,0 -104.69298899999998,39.8350754,0 -104.69300829999999,39.8350158,0 -104.69304009999999,39.834953,0 -104.6931378,39.8348403,0 -104.6932123,39.834792500000006,0 -104.6933971,39.8347142,0 -104.6943815,39.8347339,0 -104.69477380000001,39.834710900000005,0 -104.6971298,39.8344256,0 -104.69764870000002,39.8343895,0 -104.69841210000001,39.834365,0 -104.69859590000002,39.8342938,0 -104.70888900000001,39.834370799999995,0 -104.71064950000002,39.834347599999994,0 -104.72473240000001,39.834493599999995,0 -104.72699050000001,39.8344654,0 -104.728914,39.834507499999994,0 -104.7344747,39.834500799999994,0 -104.7346502,39.83451329999999,0 -104.7615677,39.83467689999999,0 -104.76303879999999,39.834660099999994,0 -104.7631411,39.834709999999994,0 -104.76315460000001,39.8347129,0 -104.7635382,39.8347258,0 -104.7673621,39.835082199999995,0 -104.7680949,39.835117600000004,0 -104.7705444,39.83488070000001,0 -104.77141800000001,39.83487050000001,0 -104.77149320000001,39.83489140000001,0 -104.77155710000001,39.834918500000015,0 -104.77163150000001,39.83497670000001,0 -104.77168360000002,39.835038300000015,0 -104.77181610000001,39.83528350000001,0 -104.77186060000001,39.87069060000001,0 -104.7716498,39.883659000000016,0 -104.77167180000001,39.88503450000002,0 -104.77163260000002,39.885770100000016,0 -104.77164560000001,39.88669630000001,0 -104.77161790000001,39.887255300000014,0 -104.77163620000002,39.88745870000002,0 -104.7713343,39.905511400000016,0 -104.7713468,39.90575500000001,0 -104.77125380000001,39.913573800000016,0 -104.77121520000001,39.91439720000001,0 -104.77250300000001,39.914359200000014,0 -104.7781642,39.91433650000001,0 -104.77851190000001,39.914361700000015,0 -104.78102310000001,39.91439590000002,0 -104.78535270000002,39.91436070000002,0 -104.78579650000002,39.91433580000002,0 -104.79011360000001,39.914328800000014,0 -104.78993160000002,39.92842630000001,0 -104.78989190000001,39.928930000000015,0 -104.78981980000002,39.93448040000002,0 -104.7898394,39.934780300000014,0 -104.79028120000001,39.93767610000002,0 -104.79020840000001,39.94190190000001,0 -104.79017590000001,39.942026200000015,0 -104.79013920000001,39.94334020000001,0 -104.795266,39.94335990000001,0 -104.7953598,39.94333740000001,0 -104.8401466,39.94335060000002,0 -104.8402133,39.94341080000002,0 -104.8402346,39.943439900000016,0 -104.84026,39.94351420000001,0 -104.8402607,39.943551700000015,0 -104.8402311,39.943735300000014,0 -104.8292139,39.96311510000002,0 -104.82879270000001,39.96395620000002,0 -104.82855390000002,39.96450090000001,0 -104.82804700000001,39.96587820000001,0 -104.82773310000002,39.96696810000002,0 -104.82757840000002,39.96765520000001,0 -104.82734350000003,39.969097800000014,0 -104.82717820000002,39.97176250000001,0 -104.82711500000002,39.97360220000001,0 -104.82697620000003,39.97468320000001,0 -104.82687940000002,39.97517990000001,0 -104.82434660000003,39.983828300000006,0 -104.82429390000003,39.98386380000001,0 -104.82426860000002,39.98388930000001,0 -104.82422640000003,39.983957200000006,0 -104.82337220000002,39.985792100000005,0 -104.82329720000003,39.9860242,0 -104.82321160000002,39.9864825,0 -104.82318430000002,39.986539400000005,0 -104.82310910000002,39.986654800000004,0 -104.82304950000001,39.9866899,0 -104.82302980000001,39.986711400000004,0 -104.82299630000001,39.98676970000001,0 -104.82299860000002,39.98687090000001,0 -104.82303480000002,39.98693090000001,0 -104.82305450000001,39.986953000000014,0 -104.82310720000001,39.986986500000015,0 -104.82313360000002,39.98699530000001,0 -104.82322140000001,39.987006000000015,0 -104.82326260000002,39.987005300000014,0 -104.82335090000001,39.986984000000014,0 -104.82338140000002,39.986970600000014,0 -104.82343890000001,39.986929900000014,0 -104.82351210000003,39.98689510000001,0 -104.82356290000003,39.98687990000001,0 -104.82360390000002,39.98687500000001,0 -104.82417110000002,39.986876900000006,0 -104.82426900000002,39.98689690000001,0 -104.82433520000002,39.986922500000006,0 -104.82436940000002,39.986964300000004,0 -104.82441520000002,39.9869977,0 -104.82449910000003,39.987030100000005,0 -104.82454890000002,39.987037400000006,0 -104.82463340000002,39.98703450000001,0 -104.82471060000002,39.987011100000004,0 -104.82475960000002,39.9869836,0 -104.82477290000001,39.9869719,0 -104.82489000000001,39.986910699999996,0 -104.82495810000002,39.9868883,0 -104.82499580000002,39.9868826,0 -104.82865050000002,39.987017,0 -104.82918880000003,39.987010299999994,0 -104.82930530000003,39.986986099999996,0 -104.83086380000003,39.98692049999999,0 -104.83522800000003,39.98692429999999,0 -104.83532930000003,39.98693949999999,0 -104.83949540000002,39.98697789999999,0 -104.84241730000002,39.98721559999999,0 -104.84409670000002,39.98727699999999,0 -104.84481000000002,39.98726309999999,0 -104.84490930000003,39.98722399999999,0 -104.85159030000004,39.986914899999995,0 -104.85269270000003,39.98688609999999,0 -104.85290890000003,39.986912399999994,0 -104.85725430000004,39.9868908,0 -104.86165140000004,39.98679109999999,0 -104.86226770000003,39.9867608,0 -104.87184340000003,39.9867643,0 -104.87575120000002,39.98670609999999,0 -104.88805450000004,39.986678299999994,0 -104.88821630000002,39.98664759999999,0 -104.89114670000002,39.986610899999995,0 -104.89131170000003,39.986630899999994,0 -104.89223610000003,39.98661909999999,0 -104.89226510000003,39.98661239999999,0 -104.89494490000004,39.98658579999999,0 -104.89504780000004,39.98656539999999,0 -104.89941560000004,39.98650299999999,0 -104.89951070000005,39.98651429999999,0 -104.90444130000004,39.98631899999999,0 -104.90774950000005,39.98625519999998,0 -104.90785670000004,39.98623929999998,0 -104.91844120000005,39.986215299999984,0 -104.91857410000003,39.986235599999986,0 -104.92587700000003,39.98627639999999,0 -104.92894460000004,39.986358299999985,0 -104.93320410000003,39.98636899999999,0 -104.93325900000004,39.98635189999999,0 -104.93802630000003,39.98635909999998,0 -104.93811020000004,39.98637879999998,0 -104.93876420000004,39.986400199999984,0 -104.94091210000003,39.98639369999999,0 -104.94101840000005,39.986372899999985,0 -104.95694080000004,39.986538799999984,0 -104.95710010000005,39.98655959999998,0 -104.96045020000004,39.98660699999998,0 -104.96105660000003,39.98663199999998,0 -104.96145560000004,39.98667279999998,0 -104.96193690000004,39.98675059999998,0 -104.96249250000004,39.98688749999998,0 -104.96282810000005,39.98699449999998,0 -104.96304640000005,39.98708129999998,0 -104.96353100000006,39.98730789999998,0 -104.96393210000006,39.98753859999998,0 -104.96447460000006,39.98793059999998,0 -104.96456730000006,39.98797929999998,0 -104.96485340000005,39.98825689999998,0 -104.96874810000006,39.99250929999998,0 -104.96882620000005,39.992636999999974,0 -104.96999820000006,39.99399019999998,0 -104.97430770000007,39.99869689999998,0 -104.97462700000005,39.99900489999998,0 -104.97514520000006,39.99940439999998,0 -104.97570740000006,39.99972969999998,0 -104.97631030000005,39.99999839999998,0 -104.97714130000006,40.00023069999998,0 -104.97769450000006,40.00032849999998,0 -104.97837240000005,40.00038449999998,0 -104.97966750000006,40.00039119999998,0 -104.97985800000006,40.00046799999998,0 -104.97995030000006,40.00051979999998,0 -104.97999950000006,40.00057119999998,0 -104.98004190000006,40.000663799999984,0 -104.98006170000006,40.00166739999999,0 -104.98026590000006,40.003298999999984,0 -104.98036410000006,40.00461739999999,0 -104.98036710000005,40.00462229999999,0 -104.98045150000006,40.004681199999986,0 -104.98053290000007,40.010105399999986,0 -104.98018580000007,40.11169299999999,0 -104.98013350000008,40.11266539999999,0 -104.97979080000007,40.11658219999999,0 -104.97975570000008,40.117460599999994,0 -104.97976110000008,40.12322469999999,0 -104.98008870000008,40.12703109999999,0 -104.98012010000008,40.12769479999999,0 -104.98009640000008,40.14487199999999,0 -104.98006480000008,40.14572019999999,0 -104.97988290000008,40.147603999999994,0 -104.97889520000008,40.15413529999999,0 -104.97876280000008,40.15587229999999,0 -104.97873110000008,40.16034709999999,0 -104.97880450000008,40.161530199999994,0 -104.97940720000008,40.167247999999994,0 -104.97956400000008,40.169821299999995,0 -104.97959420000008,40.1710182,0 -104.97953590000009,40.17563989999999,0 -104.97961470000008,40.1783206,0 -104.9799939000001,40.1832655,0 -104.9800578000001,40.1852896,0 -104.97988270000009,40.2175576,0 -104.98015660000009,40.263007,0 -104.9799827000001,40.30946720000001,0 -104.98001960000009,40.31031290000001,0 -104.97997160000008,40.311489200000004,0 -104.98002280000009,40.3119644,0 -104.98011940000008,40.342605000000006,0 -104.98022290000007,40.34395680000001,0 -104.98160860000009,40.3539746,0 -104.98181570000008,40.3550339,0 -104.98197280000008,40.35562110000001,0 -104.98233990000008,40.35667920000001,0 -104.98238230000008,40.35715110000001,0 -104.98259150000008,40.357741100000005,0 -104.98307410000008,40.35888190000001,0 -104.98367680000007,40.3596263,0 -104.98388590000008,40.35998700000001,0 -104.98797840000007,40.36849560000001,0 -104.99094950000007,40.373761400000014,0 -104.99145330000007,40.374750800000015,0 -104.99187760000008,40.37571430000001,0 -104.99223490000008,40.376657600000016,0 -104.99263510000009,40.377954400000014,0 -104.99291470000009,40.379193700000016,0 -104.99331770000008,40.37972670000001,0 -104.99318320000009,40.395094700000016,0 -104.99326490000009,40.39913930000001,0 -104.99321480000008,40.40000270000001,0 -104.99325400000008,40.40094370000001,0 -104.99300720000008,40.406416000000014,0 -104.99290930000008,40.407614400000014,0 -104.99279850000008,40.41045310000001,0 -104.99256670000008,40.414145300000015,0 -104.99259040000008,40.41494650000001,0 -104.99256340000007,40.41768240000002,0 -104.99249810000008,40.419067100000014,0 -104.99226170000009,40.430598300000014,0 -104.99223180000007,40.43105230000002,0 -104.99224310000007,40.43236060000002,0 -104.99179440000007,40.45025010000002,0 -104.99172860000007,40.475776400000015,0 -104.99149480000007,40.47782740000002,0 -104.99142080000007,40.479681000000014,0 -104.99152640000007,40.48213680000001,0 -104.99167640000006,40.48346830000001,0 -104.99160500000006,40.498980300000014,0 -104.99136040000006,40.50236720000001,0 -104.99135320000006,40.50456940000001,0 -104.99155700000006,40.50805410000001,0 -104.99154530000006,40.50846820000001,0 -104.99243070000006,40.527623100000014,0 -104.99256490000006,40.528570500000015,0 -104.99273510000008,40.52941470000001,0 -104.99531200000007,40.53831600000001,0 -105.00055790000006,40.556194800000014,0 -105.00085030000007,40.55753840000001,0 -105.00108570000008,40.55907420000001,0 -105.00124510000006,40.56100650000001,0 -105.00123810000007,40.603932000000015,0 -105.00112720000007,40.609416400000015,0 -105.00116180000006,40.62447520000002,0 -105.00059020000006,40.63841270000002,0 -105.00078590000007,40.66773850000002,0 -105.00038470000005,40.69431460000002,0 -105.00035760000006,40.69476770000002,0 -105.00022340000005,40.69582430000003,0 -105.00011340000005,40.696394400000024,0 -104.99995000000006,40.69705230000003,0 -104.99968860000004,40.69786880000002,0 -104.99442520000005,40.71143380000002,0 -104.99418590000005,40.71226480000002,0 -104.99405370000005,40.71283620000002,0 -104.99391450000006,40.71365850000002,0 -104.99383250000005,40.71449420000002,0 -104.99209270000004,40.759738800000015,0 -104.99196710000005,40.760798500000014,0 -104.99186170000004,40.76135710000002,0 -104.99166810000006,40.76213580000002,0 -104.96371770000005,40.84834700000002,0 -104.94803220000004,40.89568070000002,0 -104.94763390000004,40.89661350000002,0 -104.94714630000004,40.89755430000002,0 -104.94660110000004,40.89843650000002,0 -104.93610900000004,40.91363790000002,0 -104.93577340000004,40.91418580000002,0 -104.93531610000005,40.91504820000002,0 -104.93506550000005,40.91559110000002,0 -104.93473060000005,40.91643930000002,0 -104.92444370000004,40.94932540000002,0 -104.92424910000004,40.950071700000024,0 -104.92402240000004,40.95138730000002,0 -104.92394370000004,40.952586500000024,0 -104.92403630000004,40.95754660000002,0 -104.92398170000004,40.95852810000002,0 -104.92388560000005,40.95927620000002,0 -104.92375830000005,40.95993390000002,0 -104.92356030000005,40.96070280000002,0 -104.92315300000006,40.96187190000002,0 -104.91665910000005,40.97677240000002,0 -104.90790100000005,40.99409680000002,0 -104.90760730000005,40.99475150000002,0 -104.90724050000004,40.99573110000002,0 -104.90700110000004,40.996563100000024,0 -104.90683110000005,40.99735060000002,0 -104.90330440000005,41.01941060000002,0 -104.90294040000005,41.02111990000002,0 -104.90250400000005,41.02264560000002,0 -104.90207540000006,41.02388770000002,0 -104.90175650000005,41.02468840000002,0 -104.89723840000005,41.034757700000014,0 -104.89669250000006,41.03586870000001,0 -104.89612420000006,41.03690600000001,0 -104.89522930000005,41.038346100000005,0 -104.88873300000004,41.04808740000001,0 -104.88784400000004,41.04957470000001,0 -104.88725310000004,41.05069410000001,0 -104.88524140000004,41.05478470000001,0 -104.88485230000005,41.05544990000001,0 -104.88462230000005,41.05579200000001,0 -104.88439600000004,41.05608360000001,0 -104.88330170000005,41.05727600000001,0 -104.88211890000005,41.058293000000006,0 -104.88127500000004,41.058890200000015,0 -104.88060130000004,41.05930590000001,0 -104.87976840000005,41.05973810000001,0 -104.87584590000004,41.06153500000001,0 -104.87513630000004,41.06190670000001,0 -104.87442540000004,41.06231190000001,0 -104.87300440000004,41.06323640000001,0 -104.87271610000005,41.063468500000006,0 -104.87257930000004,41.06355870000001,0 -104.87142420000005,41.064510800000015,0 -104.85923480000005,41.07576930000001,0 -104.85810900000004,41.07689430000001,0 -104.85734380000004,41.07771550000002,0 -104.85631040000004,41.07895420000001,0 -104.85513630000004,41.08051140000001,0 -104.85440730000005,41.08156670000002,0 -104.85360120000004,41.08287660000001,0 -104.85301310000004,41.08399030000002,0 -104.85244180000005,41.08517010000001,0 -104.85204510000005,41.08607450000002,0 -104.85175740000005,41.086824000000014,0 -104.85128040000005,41.08825790000001,0 -104.85085540000004,41.08978910000001,0 -104.85052520000004,41.09153880000001,0 -104.85030140000003,41.093184500000014,0 -104.85022720000005,41.09434330000001,0 -104.85020340000005,41.09606440000002,0 -104.85090730000005,41.11903990000002,0 -104.85089230000006,41.11970150000001,0 -104.85077570000006,41.12049780000002,0 -104.85067430000005,41.12091390000001,0 -104.85042980000006,41.12156150000001,0 -104.85028060000006,41.12168860000001,0 -104.84991830000006,41.12215410000002,0 -104.84974750000005,41.122302300000015,0 -104.84950960000005,41.12247090000002,0 -104.84936910000005,41.12255370000002,0 -104.84913610000005,41.122667300000025,0 -104.84891650000004,41.12273260000003,0 -104.84875180000004,41.12276180000003,0 -104.84855970000005,41.12277920000003,0 -104.84831580000005,41.12277570000003,0 -104.84809720000005,41.12274510000003,0 -104.84781750000006,41.12266700000003,0 -104.84761360000007,41.12257900000003,0 -104.84743810000008,41.122473600000035,0 -104.84727850000007,41.12234570000003,0 -104.84714880000007,41.12220550000003,0 -104.84630190000007,41.12105370000003,0 -104.84626040000006,41.12091550000003,0 -104.84626010000007,41.12081640000003,0 -104.84628540000007,41.12074710000003,0 -104.84644100000007,41.12054020000003,0 -104.85217020000007,41.11788350000003,0 -104.85280540000007,41.117614200000034,0 -104.85544570000008,41.11658090000003,0 -104.85594380000006,41.11724380000003,0 -104.85602210000006,41.11731600000004,0 -104.85612420000005,41.11738460000004,0 -104.85641970000005,41.117635000000035,0 -104.85663990000005,41.11785250000004,0 -104.85673390000005,41.11798660000004,0 -104.85687880000006,41.118375600000036,0 -104.85690090000006,41.118397500000036,0 -104.85692130000005,41.11840340000004,0 -104.85690860000005,41.118462400000034,0 -104.85708290000005,41.118608400000035,0 -104.85791800000005,41.118420500000035,0 </coordinates></LineString><TimeSpan><begin>2021-05-15T00:11:47.121Z</begin><end>2021-05-15T01:55:56.420Z</end></TimeSpan></Placemark><Placemark><name>Little America Hotel &amp; Resort - Cheyenne</name><address>2800 W Lincolnway, Cheyenne, WY 82009</address><ExtendedData><Data name="Email"><value>syugen.zhou@gmail.com</value></Data><Data name="Category"><value>Hotel</value></Data><Data name="Distance"><value>0</value></Data></ExtendedData><description> Hotel from 2021-05-15T01:55:56.420Z to 2021-05-15T14:00:32.209Z. Distance 0m </description><Point><coordinates>-104.85768739999999,41.119160099999995,0</coordinates></Point><TimeSpan><begin>2021-05-15T01:55:56.420Z</begin><end>2021-05-15T14:00:32.209Z</end></TimeSpan></Placemark></Document></kml>
