<?xml version="1.0" encoding="UTF-8"?><kml xmlns="http://www.opengis.net/kml/2.2" xmlns:gx="http://www.google.com/kml/ext/2.2"><Document><name> Location history from 2019-11-10 to 2019-11-10 </name><open>1</open><description></description><StyleMap id="multiTrack"><Pair><key>normal</key><styleUrl>#multiTrack_n</styleUrl></Pair><Pair><key>highlight</key><styleUrl>#multiTrack_h</styleUrl></Pair></StyleMap><Style id="multiTrack_n"><IconStyle><Icon><href>https://earth.google.com/images/kml-icons/track-directional/track-0.png</href></Icon></IconStyle><LineStyle><color>99ffac59</color><width>6</width></LineStyle></Style><Style id="multiTrack_h"><IconStyle><scale>1.2</scale><Icon><href>https://earth.google.com/images/kml-icons/track-directional/track-0.png</href></Icon></IconStyle><LineStyle><color>99ffac59</color><width>8</width></LineStyle></Style><Placemark><name>La Quinta Inn &amp; Suites by Wyndham San Antonio Medical Ctr NW</name><address>4431 Horizon Hill Blvd, San Antonio, TX 78229</address><ExtendedData><Data name="Email"><value>syugen.zhou@gmail.com</value></Data><Data name="Category"><value>Hotel</value></Data><Data name="Distance"><value>0</value></Data></ExtendedData><description> Hotel from 2019-11-10T02:01:40.000Z to 2019-11-10T15:28:31.000Z. Distance 0m </description><Point><coordinates>-98.5561828,29.5165111,0</coordinates></Point><TimeSpan><begin>2019-11-10T02:01:40.000Z</begin><end>2019-11-10T15:28:31.000Z</end></TimeSpan></Placemark><Placemark><name>Driving</name><address></address><ExtendedData><Data name="Email"><value>syugen.zhou@gmail.com</value></Data><Data name="Category"><value>Driving</value></Data><Data name="Distance"><value>285170</value></Data></ExtendedData><description> Driving from 2019-11-10T15:28:31.287Z to 2019-11-10T17:57:03.164Z. Distance 285170m </description><LineString><altitudeMode>clampToGround</altitudeMode><extrude>1</extrude><tesselate>1</tesselate><coordinates>-98.5555117,29.5162154,0 -98.5549358,29.5163356,0 -98.5548967,29.5163348,0 -98.5548627,29.5163254,0 -98.55481619999999,29.5162937,0 -98.5548003,29.5162696,0 -98.55434399999999,29.5163709,0 -98.55408929999999,29.515462499999998,0 -98.5540436,29.515438899999996,0 -98.55399159999999,29.515399199999997,0 -98.55397529999999,29.515374399999995,0 -98.5535436,29.514367999999997,0 -98.55352889999999,29.5143498,0 -98.5533672,29.514242199999998,0 -98.5531829,29.513614,0 -98.55307169999999,29.5133296,0 -98.55170439999999,29.508682799999995,0 -98.55152559999999,29.508232899999996,0 -98.55060799999998,29.506296999999996,0 -98.55032,29.5055442,0 -98.54857559999999,29.4995377,0 -98.5484493,29.499004300000003,0 -98.548326,29.498247400000004,0 -98.5481448,29.4966897,0 -98.5479729,29.4958328,0 -98.546828,29.491820800000003,0 -98.54649,29.490852699999998,0 -98.54624720000001,29.490283400000003,0 -98.545791,29.489379300000003,0 -98.54545350000001,29.488796800000003,0 -98.5451007,29.4882753,0 -98.54471290000001,29.487788100000003,0 -98.5442864,29.487328000000005,0 -98.5437603,29.486845300000002,0 -98.54337350000002,29.4865378,0 -98.54265300000002,29.486049900000005,0 -98.54210160000001,29.4857422,0 -98.54144080000002,29.4854315,0 -98.54093800000003,29.485232800000002,0 -98.54038070000003,29.485051900000002,0 -98.53993040000002,29.484930800000004,0 -98.53904130000002,29.484752200000006,0 -98.53830580000003,29.484667000000005,0 -98.53780310000003,29.4846375,0 -98.53311710000003,29.4846293,0 -98.53254620000003,29.484580700000002,0 -98.53189150000003,29.4844887,0 -98.53117520000002,29.484331599999997,0 -98.53069910000004,29.4841986,0 -98.53013050000004,29.4840025,0 -98.52948030000005,29.483730899999994,0 -98.52866180000004,29.483304599999997,0 -98.52815690000003,29.482987099999995,0 -98.52806690000003,29.482904399999995,0 -98.51874450000004,29.475705499999997,0 -98.51829300000004,29.475294399999996,0 -98.51792600000003,29.474909599999997,0 -98.51748450000004,29.474365999999993,0 -98.51720350000002,29.47396319999999,0 -98.51693460000003,29.47351269999999,0 -98.51668340000003,29.47301339999999,0 -98.51640050000003,29.47229179999999,0 -98.51622170000003,29.47165229999999,0 -98.51609510000003,29.47091769999999,0 -98.51605470000004,29.47036399999999,0 -98.51605230000004,29.469827699999986,0 -98.51603660000004,29.469732999999987,0 -98.51603190000003,29.463846099999987,0 -98.51604630000003,29.46371139999999,0 -98.51603990000002,29.45894919999999,0 -98.51597250000002,29.458221699999985,0 -98.51580610000002,29.45731909999999,0 -98.51568050000003,29.45717809999999,0 -98.51555710000002,29.456629599999992,0 -98.51543190000004,29.45571799999999,0 -98.51540140000003,29.455250999999986,0 -98.51540360000003,29.45451649999999,0 -98.51558450000003,29.452322599999988,0 -98.51560890000003,29.45163709999999,0 -98.51558790000004,29.450697299999987,0 -98.51547500000004,29.449695499999994,0 -98.51501800000004,29.447478999999994,0 -98.51491680000004,29.44677639999999,0 -98.51489130000003,29.446180499999993,0 -98.51499270000004,29.444677299999995,0 -98.51498890000003,29.444148299999995,0 -98.51493150000005,29.443746899999997,0 -98.51483230000004,29.4433774,0 -98.51471030000003,29.443064,0 -98.51457050000003,29.442785699999998,0 -98.51444340000003,29.442573899999996,0 -98.51423910000004,29.442288099999992,0 -98.51393410000004,29.441947099999993,0 -98.51357760000003,29.441633099999994,0 -98.51338220000004,29.44148869999999,0 -98.51307370000004,29.44129369999999,0 -98.51266140000004,29.44108439999999,0 -98.51222310000006,29.440914699999993,0 -98.51182730000005,29.44080469999999,0 -98.50785990000004,29.44005409999999,0 -98.50748960000004,29.439964899999993,0 -98.50701760000004,29.43982309999999,0 -98.50678730000004,29.439738299999995,0 -98.50634460000003,29.439531699999996,0 -98.50607520000004,29.439368199999997,0 -98.50575860000004,29.4391358,0 -98.50540580000003,29.438790799999996,0 -98.50519340000004,29.4385296,0 -98.50494960000003,29.4381362,0 -98.50440870000003,29.436908300000002,0 -98.50440520000002,29.4368758,0 -98.50441630000003,29.436796299999997,0 -98.50432340000003,29.436550599999997,0 -98.50383560000003,29.4355589,0 -98.50362530000004,29.435211300000002,0 -98.50323120000003,29.4346599,0 -98.50243120000003,29.4336633,0 -98.50187470000003,29.4329041,0 -98.50172540000004,29.4328727,0 -98.50171400000004,29.432866899999997,0 -98.50155210000004,29.432673899999998,0 -98.50123750000004,29.4323464,0 -98.50106540000004,29.4322017,0 -98.50085640000005,29.432075200000003,0 -98.50073640000005,29.432023700000002,0 -98.50051770000005,29.431961,0 -98.50026690000004,29.4319299,0 -98.50014730000005,29.431930100000002,0 -98.49989030000005,29.431962600000006,0 -98.49967690000005,29.432025600000006,0 -98.49956420000005,29.43207350000001,0 -98.49935480000005,29.43219770000001,0 -98.49908420000006,29.43243630000001,0 -98.49837130000006,29.433207200000005,0 -98.49788460000006,29.433586500000004,0 -98.49750450000006,29.433847200000006,0 -98.49740980000006,29.433949000000005,0 -98.49659830000006,29.434486700000008,0 -98.49561570000006,29.435083000000013,0 -98.49486190000006,29.435481600000013,0 -98.49429180000006,29.435710800000013,0 -98.49358090000005,29.43595230000001,0 -98.49292910000005,29.436225100000016,0 -98.49243110000006,29.436468200000014,0 -98.49164850000007,29.43692580000001,0 -98.49152910000005,29.43697650000001,0 -98.48894380000006,29.438470300000013,0 -98.48891540000005,29.438521000000012,0 -98.48882580000006,29.438590200000014,0 -98.48656890000007,29.439856200000012,0 -98.48640990000006,29.43992730000001,0 -98.48592150000006,29.44009420000001,0 -98.48558150000007,29.440176700000013,0 -98.48503070000007,29.440268700000015,0 -98.48472460000008,29.440292400000015,0 -98.48432380000007,29.440289700000015,0 -98.48422100000006,29.440338500000017,0 -98.48357080000007,29.440236200000015,0 -98.48302560000008,29.440086300000015,0 -98.48103980000008,29.439409200000014,0 -98.48007820000008,29.439168600000013,0 -98.47712900000008,29.438595800000012,0 -98.47567620000008,29.438423400000016,0 -98.47499900000008,29.438386400000017,0 -98.47148310000009,29.43831850000002,0 -98.4712922000001,29.438286000000016,0 -98.45962700000008,29.43835630000002,0 -98.4586873000001,29.43842350000002,0 -98.4540591000001,29.43900900000002,0 -98.45298490000009,29.43908310000002,0 -98.44746120000008,29.439107500000016,0 -98.44665180000008,29.439152300000014,0 -98.44540400000008,29.43928430000001,0 -98.44418810000008,29.43948390000001,0 -98.44323630000008,29.43969470000001,0 -98.44230070000008,29.43995250000001,0 -98.44093770000009,29.44041280000001,0 -98.43973290000008,29.440924100000007,0 -98.43888440000009,29.44134290000001,0 -98.4319028000001,29.445371000000012,0 -98.42526890000009,29.448988300000014,0 -98.4247267000001,29.449260000000013,0 -98.41787820000009,29.45223310000001,0 -98.41685890000008,29.45276970000001,0 -98.41635510000009,29.45307910000001,0 -98.41580630000009,29.45346540000001,0 -98.41567060000008,29.45347800000001,0 -98.41561460000008,29.453498600000014,0 -98.41365300000008,29.454671900000015,0 -98.41347210000008,29.45475610000001,0 -98.41326250000007,29.45482630000001,0 -98.41295330000008,29.45488220000001,0 -98.41270370000008,29.45489180000001,0 -98.41255390000008,29.454880200000012,0 -98.41237950000007,29.45484410000001,0 -98.41214270000008,29.454763500000013,0 -98.41190470000006,29.454654800000014,0 -98.41159200000007,29.45445720000001,0 -98.41069780000008,29.453826900000013,0 -98.41036980000008,29.453622500000012,0 -98.40879080000008,29.452765200000012,0 -98.40823120000009,29.452389100000012,0 -98.40787340000008,29.45209700000001,0 -98.4075347000001,29.45176920000001,0 -98.40711070000009,29.45126200000001,0 -98.40575040000009,29.44917900000001,0 -98.4054465000001,29.448827800000014,0 -98.4052823000001,29.448675300000016,0 -98.4048459000001,29.448346500000014,0 -98.40456350000011,29.448167600000016,0 -98.4040360000001,29.447873700000017,0 -98.4039125000001,29.447866400000013,0 -98.40348660000011,29.447642700000014,0 -98.40292510000012,29.44741370000001,0 -98.40104310000011,29.446744000000006,0 -98.40030660000012,29.446438900000004,0 -98.39921250000012,29.44591160000001,0 -98.39854830000012,29.44554550000001,0 -98.39804620000012,29.44523730000001,0 -98.39721250000012,29.444643300000006,0 -98.39647970000011,29.44405070000001,0 -98.39475100000013,29.442504100000008,0 -98.39375890000012,29.44151570000001,0 -98.39301520000012,29.440706200000008,0 -98.39252130000013,29.44009960000001,0 -98.39252610000013,29.439997700000013,0 -98.39152780000013,29.43838430000001,0 -98.39120010000012,29.437796000000006,0 -98.39060410000012,29.436581200000006,0 -98.39036970000012,29.436025400000005,0 -98.39004660000012,29.435002100000005,0 -98.39009730000012,29.434865200000004,0 -98.39012240000012,29.434641900000006,0 -98.39017330000011,29.434506700000004,0 -98.39023710000012,29.4344186,0 -98.39031220000012,29.434349000000005,0 -98.39039660000013,29.4342937,0 -98.39049120000013,29.4342538,0 -98.39060890000013,29.4342263,0 -98.39073920000013,29.434219100000004,0 -98.39080730000013,29.434225800000004,0 -98.39096310000012,29.434274100000003,0 -98.39108620000013,29.4343435,0 -98.39118220000013,29.4344347,0 -98.39123700000013,29.434518100000002,0 -98.39127890000013,29.4346357,0 -98.39128700000013,29.4347769,0 -98.39126540000015,29.4348997,0 -98.39124060000015,29.434961,0 -98.39115180000015,29.4350839,0 -98.39109410000015,29.435136299999996,0 -98.39090300000015,29.435248899999994,0 -98.39083460000015,29.435315699999997,0 -98.38656560000014,29.436684699999997,0 -98.38648930000014,29.4366894,0 -98.38518220000014,29.4371055,0 -98.38458660000015,29.437255099999998,0 -98.38448440000013,29.4373503,0 -98.38220320000015,29.4381686,0 -98.38209710000015,29.438279,0 -98.31948500000014,29.458055100000003,0 -98.31778090000013,29.458509100000004,0 -98.31740640000014,29.458582300000003,0 -98.30974570000014,29.460626100000006,0 -98.30898510000014,29.460787700000004,0 -98.30886440000013,29.460866000000006,0 -98.29543940000013,29.46442050000001,0 -98.29488550000012,29.464519900000013,0 -98.28906170000012,29.46606570000001,0 -98.26371510000011,29.474279200000012,0 -98.2627994000001,29.474604100000015,0 -98.25717280000012,29.47643030000002,0 -98.19764190000012,29.496705900000016,0 -98.11240270000012,29.52893690000002,0 -98.11156330000013,29.529189800000015,0 -98.08607600000012,29.535906400000012,0 -98.04645880000012,29.548827800000016,0 -98.04552290000012,29.549163100000015,0 -98.04483980000012,29.549447900000015,0 -98.04418410000011,29.54975500000002,0 -98.04311820000011,29.550308200000018,0 -98.04194770000011,29.55103330000002,0 -98.04109620000011,29.55164080000002,0 -98.04052450000012,29.552095300000015,0 -98.03971750000011,29.55279570000001,0 -98.03917080000012,29.55333900000001,0 -98.03300720000011,29.560103300000012,0 -98.03204740000012,29.56101000000001,0 -98.03122530000012,29.56168730000001,0 -98.03030300000012,29.56235890000001,0 -98.0295992000001,29.562807800000012,0 -98.01777240000011,29.569878500000016,0 -98.00188840000011,29.578376900000013,0 -98.00095190000012,29.578923500000016,0 -97.97495880000011,29.59667410000002,0 -97.97407790000011,29.59721340000002,0 -97.9735079000001,29.597521000000018,0 -97.9727981000001,29.597859900000017,0 -97.97209570000011,29.598151200000018,0 -97.97120910000011,29.598461600000018,0 -97.97021570000011,29.598744900000018,0 -97.96916700000011,29.598967000000016,0 -97.9682496000001,29.599105100000017,0 -97.96777430000012,29.599154300000016,0 -97.96678080000011,29.599211900000018,0 -97.93364250000012,29.599283700000022,0 -97.93289830000012,29.59926390000002,0 -97.91829220000011,29.59928790000002,0 -97.91704670000011,29.599357100000024,0 -97.91643500000012,29.59941790000002,0 -97.91521550000012,29.599593600000023,0 -97.91445390000013,29.599741300000023,0 -97.85190290000013,29.61413630000002,0 -97.85103310000014,29.61430150000002,0 -97.85026220000013,29.614415100000024,0 -97.84865960000013,29.61455430000002,0 -97.80691170000013,29.61492720000002,0 -97.80558250000014,29.61501810000002,0 -97.80477120000015,29.615117100000017,0 -97.80387370000014,29.61527330000002,0 -97.80245570000015,29.615600300000022,0 -97.75726640000015,29.62880110000002,0 -97.75181530000015,29.63014620000002,0 -97.67421180000015,29.651142000000018,0 -97.67285010000015,29.651424100000018,0 -97.67187050000015,29.65156550000002,0 -97.67112720000014,29.651640800000017,0 -97.66947140000015,29.651710800000014,0 -97.66881050000015,29.651698800000013,0 -97.62094940000016,29.64823950000001,0 -97.61985330000014,29.64819560000001,0 -97.61843520000015,29.64822170000001,0 -97.61705660000015,29.648340700000013,0 -97.58218780000014,29.653999900000013,0 -97.58117950000015,29.65410450000001,0 -97.58031340000015,29.65415290000001,0 -97.57928880000014,29.65416250000001,0 -97.56183260000014,29.653647000000007,0 -97.48889560000013,29.649256800000007,0 -97.48774430000013,29.649263800000007,0 -97.48651550000014,29.64933780000001,0 -97.48576320000014,29.64941730000001,0 -97.45052090000013,29.654444400000013,0 -97.40760420000014,29.659039500000013,0 -97.38782330000014,29.66197760000001,0 -97.38638060000014,29.66214170000001,0 -97.29706590000013,29.66958090000001,0 -97.29643280000013,29.669673500000012,0 -97.29570440000015,29.669819700000012,0 -97.29509580000014,29.669975000000015,0 -97.29413800000015,29.67028240000002,0 -97.29356730000015,29.670509100000018,0 -97.26500560000014,29.68426110000002,0 -97.26329890000014,29.68499120000002,0 -97.26214040000013,29.68543350000002,0 -97.24482150000014,29.691460800000023,0 -97.24414720000014,29.69165890000002,0 -97.24267070000015,29.69200230000002,0 -97.24165600000015,29.692170600000022,0 -97.24016360000014,29.692328300000025,0 -97.23923350000014,29.692368800000025,0 -97.16531080000014,29.691694200000025,0 -97.16431520000013,29.691732700000024,0 -97.16318760000013,29.69183670000002,0 -97.16242540000013,29.691942300000026,0 -97.16142900000013,29.692125700000027,0 -97.14886340000012,29.695135700000026,0 -97.14773160000013,29.695355900000028,0 -97.14031760000012,29.69626690000003,0 -97.13904880000013,29.69635010000003,0 -97.12411400000012,29.69619670000003,0 -97.05679960000012,29.697803300000032,0 -97.05571990000011,29.69777340000003,0 -97.03720200000011,29.696478400000032,0 -97.03633830000011,29.696376500000035,0 -97.00931090000012,29.69172170000003,0 -97.0084451000001,29.69160310000003,0 -97.00718280000011,29.69149890000003,0 -96.9798968000001,29.691031400000032,0 -96.9776317000001,29.690872200000033,0 -96.95706340000011,29.68867510000003,0 -96.95605790000012,29.688639200000033,0 -96.95502600000012,29.68865080000003,0 -96.92072340000011,29.69063560000003,0 -96.91900120000012,29.690797900000025,0 -96.91796030000012,29.690931000000027,0 -96.88674090000012,29.695752000000027,0 -96.88599430000012,29.695824000000023,0 -96.88501250000013,29.695870500000023,0 -96.85715320000013,29.696364800000023,0 -96.85643840000013,29.696337800000027,0 -96.85551480000014,29.696253400000025,0 -96.85466380000013,29.696116100000026,0 -96.85381870000013,29.695927500000025,0 -96.85259110000013,29.695545700000025,0 -96.83472820000013,29.688498000000024,0 -96.83391620000012,29.688214200000026,0 -96.83321700000012,29.688035300000028,0 -96.83269130000012,29.687933200000028,0 -96.83190390000011,29.687829800000028,0 -96.83098360000011,29.68779010000003,0 -96.83009200000012,29.687821000000028,0 -96.77185860000012,29.691977700000027,0 -96.77080550000012,29.692015300000026,0 -96.73351170000012,29.69228340000003,0 -96.73215070000012,29.692234300000028,0 -96.73091300000011,29.692110600000028,0 -96.7036436000001,29.688391600000028,0 -96.7026527000001,29.68829600000003,0 -96.7014398000001,29.688243700000026,0 -96.7001684000001,29.688265000000026,0 -96.6204230000001,29.693178700000022,0 -96.6192833000001,29.693215600000027,0 -96.5601278000001,29.69357780000003,0 -96.5591492000001,29.693537600000028,0 -96.55814980000011,29.693459100000027,0 -96.5447074000001,29.691836100000028,0 -96.5438546000001,29.69177420000003,0 -96.5429679000001,29.69178920000003,0 -96.54205930000009,29.691882000000035,0 -96.5414759000001,29.691981100000035,0 -96.5406413000001,29.692180700000034,0 -96.53628550000009,29.693553500000036,0 -96.5354997000001,29.693863100000033,0 -96.5350964000001,29.69406630000003,0 -96.5345322000001,29.69441750000003,0 -96.5292755000001,29.69830030000003,0 -96.5289873000001,29.69848710000003,0 -96.52847180000009,29.698779400000035,0 -96.5280291000001,29.698990900000037,0 -96.5196445000001,29.702140100000033,0 -96.5185868000001,29.702504600000033,0 -96.5140555000001,29.70383070000003,0 -96.51322980000009,29.70411490000003,0 -96.5128999000001,29.704253600000033,0 -96.5121390000001,29.70464680000003,0 -96.50569200000011,29.70872810000003,0 -96.5051564000001,29.70903200000003,0 -96.5044744000001,29.70933950000003,0 -96.5038840000001,29.70955030000003,0 -96.4945343000001,29.71189100000003,0 -96.49355840000011,29.712095700000035,0 -96.4590608000001,29.717071400000034,0 -96.4425199000001,29.718732400000036,0 -96.44177020000011,29.718839500000037,0 -96.30045550000011,29.747445700000036,0 -96.30015490000011,29.747491900000036,0 -96.29974100000011,29.747411700000036,0 -96.29274110000011,29.748774500000035,0 -96.29156070000012,29.749040200000035,0 -96.28925730000012,29.749681600000038,0 -96.28796530000012,29.749978800000036,0 -96.28550840000013,29.750439700000037,0 -96.28281640000013,29.750844600000036,0 -96.23767350000011,29.756205300000037,0 -96.23551560000013,29.756531600000034,0 -96.23279370000012,29.756862600000034,0 -96.22894020000012,29.757243000000035,0 -96.22748910000013,29.757436500000036,0 -96.19159240000012,29.763546300000034,0 -96.19083260000014,29.763632900000037,0 -96.19013340000014,29.763678000000034,0 -96.18971350000014,29.763682400000032,0 -96.18868660000012,29.76363550000004,0 -96.18805080000013,29.76356640000004,0 -96.18697380000013,29.76337330000004,0 -96.18646670000012,29.76324940000004,0 -96.17638480000014,29.760256700000035,0 -96.17489290000013,29.759947500000035,0 -96.17394180000014,29.759810700000035,0 -96.17306250000013,29.75972410000003,0 -96.17171820000013,29.759663900000035,0 -96.17081310000013,29.759671600000036,0 -96.16959470000013,29.759744500000032,0 -96.16872490000014,29.759840300000036,0 -96.16737880000014,29.76006480000003,0 -96.16606270000014,29.760374900000034,0 -96.14231050000014,29.76758850000003,0 -96.14141060000014,29.767962500000035,0 -96.14033310000015,29.76851790000003,0 -96.13953330000014,29.769027600000033,0 -96.13885460000014,29.769528100000034,0 -96.13563620000015,29.77211340000003,0 -96.13524230000014,29.772395600000028,0 -96.13421040000014,29.773022000000026,0 -96.13325110000015,29.77349020000003,0 -96.13243760000016,29.77380930000003,0 -96.13161190000015,29.774073700000027,0 -96.12944700000016,29.774601800000028,0 -96.12791860000016,29.774906700000027,0 -96.12571880000014,29.775247500000024,0 -96.12404930000015,29.775416100000026,0 -96.12230840000015,29.775525900000027,0 -96.11720910000014,29.775692000000024,0 -96.11466130000014,29.775716900000024,0 -96.10848290000014,29.776019000000026,0 -96.10037870000014,29.776259700000026,0 -96.09922500000013,29.776247900000026,0 -96.09791550000013,29.776160800000028,0 -96.08517570000014,29.774583400000026,0 -96.08364450000013,29.774355000000025,0 -96.07764130000012,29.773305800000024,0 -96.07362790000013,29.77282580000002,0 -96.06828250000014,29.772460700000025,0 -96.06540130000013,29.772180000000024,0 -96.04507060000013,29.769679100000026,0 -96.04407600000013,29.769607000000022,0 -96.04343150000012,29.769598500000022,0 -96.04281400000012,29.76961780000002,0 -96.04204010000014,29.76968320000002,0 -96.04106730000014,29.76982700000002,0 -96.04059940000013,29.769924600000024,0 -96.03964670000015,29.770034700000025,0 -96.03877270000015,29.770353200000024,0 -96.03548680000014,29.771192300000024,0 -96.03439860000015,29.77140760000002,0 -96.02962480000015,29.772524000000026,0 -96.02901960000015,29.772695400000025,0 -96.01691680000015,29.775585800000023,0 -96.01234490000014,29.776785100000026,0 -96.00364980000015,29.778882900000024,0 -95.99850020000014,29.78023520000003,0 -95.99529530000014,29.78100230000003,0 -95.99430520000014,29.78120570000003,0 -95.99331930000015,29.78136930000003,0 -95.99235330000015,29.781486700000034,0 -95.99046230000015,29.781606800000034,0 -95.98713350000016,29.781578600000035,0 -95.98447620000015,29.781377900000034,0 -95.98279060000016,29.781141700000035,0 -95.98085050000016,29.780753600000036,0 -95.97811910000016,29.77997470000004,0 -95.97629520000015,29.77949990000004,0 -95.97513590000015,29.779243200000042,0 -95.97312580000016,29.778879600000046,0 -95.97139850000016,29.778709900000045,0 -95.97055270000016,29.77865950000005,0 -95.96906760000014,29.77862030000005,0 -95.95210510000015,29.778776800000053,0 -95.95198840000015,29.778786000000053,0 -95.95145680000016,29.77877960000005,0 -95.94425730000016,29.778971500000047,0 -95.94391750000015,29.77895370000005,0 -95.94015020000016,29.77897290000005,0 -95.93798150000016,29.77892720000005,0 -95.93666710000016,29.77882250000005,0 -95.92484240000017,29.77728450000005,0 -95.92363390000017,29.777168800000048,0 -95.92287700000017,29.77713270000005,0 -95.85594360000017,29.777306000000046,0 -95.85213860000017,29.777132100000042,0 -95.84995180000017,29.777083300000044,0 -95.81936550000017,29.777396400000043,0 -95.81856410000016,29.777469200000045,0 -95.81760080000016,29.77764400000005,0 -95.81676640000018,29.777872600000045,0 -95.81641880000018,29.777991500000045,0 -95.81573670000017,29.778268900000047,0 -95.81531050000018,29.778473100000046,0 -95.81486040000019,29.77871810000005,0 -95.81442820000018,29.778988400000046,0 -95.81407290000018,29.77924440000005,0 -95.81344230000019,29.779750900000046,0 -95.8094144000002,29.783470600000047,0 -95.8089282000002,29.783857700000052,0 -95.80812980000019,29.784335300000052,0 -95.80763560000018,29.784570400000053,0 -95.80704880000019,29.78480640000005,0 -95.80673210000019,29.78491350000005,0 -95.80587760000019,29.785116900000048,0 -95.8053855000002,29.785192200000047,0 -95.8045303000002,29.785249100000044,0 -95.79963480000019,29.785236400000045,0 -95.79282500000019,29.785381900000047,0 -95.78669930000018,29.78531120000005,0 -95.78641390000018,29.785291700000045,0 -95.78607540000019,29.785304100000047,0 -95.77488980000018,29.785174300000044,0 -95.77468840000017,29.785106400000046,0 -95.77332680000018,29.78510420000005,0 -95.77275290000019,29.78506010000005,0 -95.77162040000019,29.784921600000047,0 -95.77113580000018,29.784901200000046,0 -95.77099970000017,29.78484970000005,0 -95.76639100000018,29.784950900000048,0 -95.76169560000018,29.78493850000005,0 -95.7578801000002,29.78482650000005,0 -95.75506240000018,29.78466480000005,0 -95.74879600000018,29.78460010000005,0 -95.74653070000018,29.784717500000053,0 -95.74651770000018,29.78453640000005,0 -95.74630500000018,29.784547000000053,0 </coordinates></LineString><TimeSpan><begin>2019-11-10T15:28:31.287Z</begin><end>2019-11-10T17:57:03.164Z</end></TimeSpan></Placemark><Placemark><name>Rudy's "Country Store" and Bar-B-Q</name><address>21799 Katy Fwy, Katy, TX 77450</address><ExtendedData><Data name="Email"><value>syugen.zhou@gmail.com</value></Data><Data name="Category"><value>Barbecue</value></Data><Data name="Distance"><value>0</value></Data></ExtendedData><description> Barbecue from 2019-11-10T17:57:03.164Z to 2019-11-10T18:45:19.105Z. Distance 0m </description><Point><coordinates>-95.74619829999999,29.7841548,0</coordinates></Point><TimeSpan><begin>2019-11-10T17:57:03.164Z</begin><end>2019-11-10T18:45:19.105Z</end></TimeSpan></Placemark><Placemark><name>Driving</name><address></address><ExtendedData><Data name="Email"><value>syugen.zhou@gmail.com</value></Data><Data name="Category"><value>Driving</value></Data><Data name="Distance"><value>87297</value></Data></ExtendedData><description> Driving from 2019-11-10T18:45:19.105Z to 2019-11-10T20:13:51.000Z. Distance 87297m </description><LineString><altitudeMode>clampToGround</altitudeMode><extrude>1</extrude><tesselate>1</tesselate><coordinates>-95.7461994,29.784439399999997,0 -95.7462223,29.784482299999997,0 -95.7462492,29.7845118,0 -95.74630499999999,29.784547,0 -95.74604839999999,29.784559900000005,0 -95.7465177,29.784536400000007,0 -95.74653070000001,29.784717500000006,0 -95.74502980000001,29.784776500000007,0 -95.74263110000001,29.784822100000007,0 -95.7422865,29.784886300000007,0 -95.7385967,29.785022500000004,0 -95.73857280000001,29.785029700000003,0 -95.7385506,29.785040800000004,0 -95.73843210000001,29.785132700000002,0 -95.7341777,29.785092300000006,0 -95.7336193,29.785104300000008,0 -95.7291556,29.78506930000001,0 -95.722442,29.784930900000006,0 -95.7163332,29.784892200000005,0 -95.70874049999999,29.784974400000007,0 -95.6977345,29.78490560000001,0 -95.6920296,29.784754400000008,0 -95.6852601,29.784730300000014,0 -95.6786171,29.78480410000001,0 -95.658079,29.784723100000008,0 -95.6555003,29.784673500000004,0 -95.6415683,29.784591300000002,0 -95.63760950000001,29.7846517,0 -95.63059830000002,29.7846175,0 -95.62479610000001,29.784656,0 -95.6247259,29.7846495,0 -95.60247380000001,29.784539799999997,0 -95.59865090000001,29.784462499999997,0 -95.59450260000001,29.7844976,0 -95.55220910000001,29.784208900000003,0 -95.55209250000001,29.784188700000005,0 -95.54410750000002,29.784264700000005,0 -95.51531270000002,29.784108100000005,0 -95.51025490000002,29.784265700000002,0 -95.50801990000002,29.784294600000006,0 -95.50160100000002,29.784235100000007,0 -95.49692780000002,29.784023,0 -95.49662660000001,29.783998500000003,0 -95.49477670000002,29.7839441,0 -95.48868750000001,29.783907199999998,0 -95.48702250000001,29.783865199999997,0 -95.48412870000001,29.783727699999993,0 -95.48043140000001,29.783486199999995,0 -95.47844850000001,29.783435599999994,0 -95.47614780000002,29.783481799999993,0 -95.47374780000001,29.783592399999996,0 -95.47125210000002,29.78379139999999,0 -95.46958850000001,29.783892899999994,0 -95.46853810000002,29.783933599999997,0 -95.46673550000003,29.783961999999995,0 -95.46279270000002,29.7839364,0 -95.46198710000002,29.783901299999997,0 -95.46118560000002,29.783824099999997,0 -95.46044770000003,29.783720499999998,0 -95.46015520000003,29.783738699999994,0 -95.45977980000004,29.78366749999999,0 -95.45920110000002,29.783529199999993,0 -95.45883020000002,29.783413999999993,0 -95.45826370000002,29.783189799999995,0 -95.45781350000003,29.782964899999996,0 -95.45752160000002,29.782791599999996,0 -95.45307590000002,29.779858999999995,0 -95.45287050000002,29.779735599999995,0 -95.45243950000003,29.779507099999993,0 -95.45200200000002,29.779313199999994,0 -95.45167280000003,29.77918899999999,0 -95.45117380000002,29.77903599999999,0 -95.45056640000001,29.77890189999999,0 -95.44985210000002,29.778816199999987,0 -95.44959270000001,29.778801799999986,0 -95.44361930000002,29.778839199999982,0 -95.44272640000003,29.77879789999998,0 -95.42717880000002,29.77726039999998,0 -95.42635670000003,29.777226999999982,0 -95.40972680000003,29.77744429999998,0 -95.40885100000003,29.77743049999998,0 -95.40786940000004,29.777371299999977,0 -95.40731830000003,29.777313999999976,0 -95.40631240000003,29.777176499999975,0 -95.40429790000003,29.77683229999997,0 -95.40410100000003,29.77678709999997,0 -95.40310720000002,29.776620499999968,0 -95.40225920000003,29.776510799999965,0 -95.40161360000002,29.776451899999966,0 -95.40061320000002,29.776398099999966,0 -95.39959670000002,29.77639829999997,0 -95.38622740000002,29.776664499999963,0 -95.38517370000002,29.776730699999966,0 -95.38427620000003,29.776850699999965,0 -95.38349200000002,29.776985999999965,0 -95.38256870000002,29.777171299999964,0 -95.38199970000002,29.777332299999966,0 -95.38069660000002,29.777765999999964,0 -95.37873870000003,29.778502399999965,0 -95.37840080000002,29.77861679999996,0 -95.37782860000002,29.778777999999964,0 -95.37712010000001,29.778874999999964,0 -95.37655230000001,29.778907999999962,0 -95.37602010000002,29.77889509999996,0 -95.3754858,29.778836899999956,0 -95.37534070000001,29.77881169999996,0 -95.37517730000002,29.778765599999957,0 -95.3749561,29.778732399999956,0 -95.37413670000001,29.778550799999955,0 -95.37116540000001,29.777254299999957,0 -95.37081520000001,29.777085299999953,0 -95.3704745,29.776901199999955,0 -95.37024410000001,29.776756699999954,0 -95.37001430000001,29.776591999999958,0 -95.36982770000002,29.77644039999996,0 -95.36951960000002,29.77614139999996,0 -95.36936630000001,29.775966399999962,0 -95.36903830000001,29.775534399999966,0 -95.3678859,29.773669099999964,0 -95.3678232,29.773633499999963,0 -95.36780990000001,29.773622599999964,0 -95.36692280000003,29.772445599999966,0 -95.36685500000002,29.772388599999964,0 -95.36678540000001,29.772351099999963,0 -95.36632820000001,29.77161509999996,0 -95.36615750000001,29.771297199999957,0 -95.36602860000002,29.77100949999996,0 -95.3659477,29.77078949999996,0 -95.36586550000001,29.77049609999996,0 -95.36579840000002,29.770107899999964,0 -95.36577540000002,29.769774099999964,0 -95.36578150000001,29.76947959999996,0 -95.36581840000001,29.76915259999996,0 -95.3658528,29.768973199999962,0 -95.36595140000001,29.768609799999957,0 -95.36610010000001,29.76820809999996,0 -95.3672377,29.76574689999996,0 -95.36736130000001,29.765525699999962,0 -95.36751440000002,29.765289199999962,0 -95.36766190000002,29.765097399999963,0 -95.36781340000002,29.76492459999996,0 -95.36804610000002,29.76469909999996,0 -95.36835350000001,29.76445419999996,0 -95.3686466,29.764265499999958,0 -95.36913290000001,29.764002099999956,0 -95.3715382,29.762908799999956,0 -95.3723774,29.762476999999954,0 -95.3726707,29.762305699999953,0 -95.37303490000001,29.762067699999953,0 -95.3733513,29.761835199999954,0 -95.37360009999999,29.761628399999953,0 -95.37384709999999,29.76138519999995,0 -95.3739772,29.76123249999995,0 -95.3742321,29.76087729999995,0 -95.3743435,29.76067039999995,0 -95.37445149999999,29.760427999999948,0 -95.37457229999998,29.76005469999995,0 -95.37463209999999,29.75971029999995,0 -95.37477879999999,29.757573599999944,0 -95.37473279999999,29.753499399999946,0 -95.37467089999998,29.75292769999995,0 -95.37458039999999,29.75253549999995,0 -95.37445449999997,29.752192999999952,0 -95.37427879999997,29.751821399999955,0 -95.37412469999998,29.751566699999955,0 -95.37387609999998,29.751225999999956,0 -95.37372509999997,29.751051599999958,0 -95.37346179999997,29.750792299999958,0 -95.37305299999997,29.750457899999954,0 -95.37277329999998,29.750271999999956,0 -95.36702299999997,29.74678089999996,0 -95.36692059999999,29.74672799999996,0 -95.36658739999997,29.746520799999956,0 -95.36607939999998,29.74623919999996,0 -95.36321749999999,29.744519599999958,0 -95.36276319999999,29.744286699999954,0 -95.3621209,29.744009299999956,0 -95.3600931,29.743297699999957,0 -95.359372,29.743013199999957,0 -95.35907569999999,29.74287499999996,0 -95.35855029999998,29.742595999999953,0 -95.35595109999997,29.740958499999955,0 -95.35431329999997,29.739851799999954,0 -95.34659599999998,29.73495969999995,0 -95.34581419999996,29.734427999999955,0 -95.34117629999997,29.730787399999958,0 -95.34052189999998,29.73030479999996,0 -95.34034629999998,29.73020699999996,0 -95.33110519999997,29.724293699999958,0 -95.33073779999997,29.72403249999996,0 -95.32704939999998,29.72164439999996,0 -95.32640659999997,29.721284999999963,0 -95.32587069999998,29.720961499999962,0 -95.32165709999997,29.718740999999962,0 -95.31861709999997,29.71708129999996,0 -95.31728559999998,29.716233099999958,0 -95.31723859999998,29.716191799999955,0 -95.31670029999998,29.715848199999954,0 -95.31651419999999,29.715674499999952,0 -95.3158321,29.715251699999957,0 -95.31562579999999,29.715157199999958,0 -95.3142492,29.71427709999996,0 -95.31410570000001,29.71420659999996,0 -95.31351550000001,29.71382889999996,0 -95.31338240000001,29.713761899999962,0 -95.3013632,29.705655599999965,0 -95.2939635,29.700890399999963,0 -95.2934127,29.700498199999966,0 -95.2897212,29.697647799999963,0 -95.2893886,29.697370499999963,0 -95.2887217,29.69675489999996,0 -95.2869254,29.69487259999996,0 -95.2868688,29.69478469999996,0 -95.2845677,29.692305299999965,0 -95.28450109999999,29.692261799999965,0 -95.28083089999998,29.688515799999962,0 -95.28074269999998,29.68845139999996,0 -95.26503779999997,29.67255099999996,0 -95.26455759999997,29.672011799999957,0 -95.26415359999999,29.67151709999996,0 -95.26376839999999,29.671008099999955,0 -95.24530129999998,29.643019199999955,0 -95.24467599999998,29.642198799999953,0 -95.24429789999998,29.641757299999952,0 -95.24377419999998,29.641190999999953,0 -95.24336399999997,29.64078259999995,0 -95.20310339999997,29.60413469999995,0 -95.20035229999998,29.601431199999944,0 -95.19971389999999,29.600768199999944,0 -95.19226929999999,29.593446799999942,0 -95.191959,29.593174399999945,0 -95.1916873,29.59295669999995,0 -95.1880734,29.58979419999995,0 -95.18773319999998,29.58944819999995,0 -95.18355759999999,29.585737999999946,0 -95.1818692,29.584150099999942,0 -95.18031749999999,29.58256859999994,0 -95.17863999999999,29.58072969999994,0 -95.17604009999998,29.577703899999943,0 -95.17508999999998,29.57654689999994,0 -95.17431609999998,29.575660799999937,0 -95.17416859999999,29.575515599999935,0 -95.17047489999999,29.571231399999935,0 -95.1704119,29.571131099999935,0 -95.1669744,29.567129099999935,0 -95.166725,29.566863899999937,0 -95.1638847,29.563613599999936,0 -95.15658479999999,29.555970699999932,0 -95.15647489999999,29.55583109999993,0 -95.15327669999999,29.55248929999993,0 -95.1530851,29.55231229999993,0 -95.1512466,29.55038739999993,0 -95.15117799999999,29.55029559999993,0 -95.14338209999998,29.542158799999935,0 -95.14333359999998,29.54211959999994,0 -95.14320899999998,29.54203729999994,0 -95.14075399999999,29.53945409999994,0 -95.13958089999998,29.53810279999994,0 -95.13880179999998,29.53713169999994,0 -95.13759409999999,29.535715699999937,0 -95.13295219999999,29.530756599999936,0 -95.13108739999998,29.528826099999936,0 -95.13106429999999,29.52864159999994,0 -95.13106029999999,29.52863149999994,0 -95.12946579999999,29.526866599999938,0 -95.12836959999998,29.52572249999994,0 -95.12795019999999,29.525246999999943,0 -95.1272078,29.524284399999942,0 -95.12674139999999,29.52360019999994,0 -95.12647409999998,29.523281199999936,0 -95.12623339999998,29.52305319999994,0 -95.12606309999998,29.52291659999994,0 -95.12581349999998,29.522750399999946,0 -95.12565349999997,29.522660399999946,0 -95.12532549999997,29.522513599999947,0 -95.12505339999997,29.522420199999942,0 -95.12476779999997,29.522344899999943,0 -95.12451559999998,29.52230329999994,0 -95.12425429999998,29.522274299999943,0 -95.12396419999999,29.52226279999994,0 -95.12372779999998,29.522274199999945,0 -95.12347859999998,29.522302299999943,0 -95.12306149999998,29.52239209999994,0 -95.12279769999998,29.522473999999942,0 -95.12234719999998,29.522677399999942,0 -95.12128189999997,29.52333369999994,0 -95.11711589999997,29.52618889999994,0 -95.11605369999998,29.52684639999994,0 -95.11516209999998,29.52734369999994,0 -95.11087399999998,29.52959949999994,0 -95.11055559999998,29.529787599999935,0 -95.11035459999998,29.529929199999934,0 -95.11017179999997,29.53007699999993,0 -95.10988269999997,29.53036209999993,0 -95.10969719999999,29.53059089999993,0 -95.10956999999998,29.530778099999928,0 -95.10945589999997,29.53097099999993,0 -95.10932869999998,29.531239599999925,0 -95.10921069999998,29.531585199999927,0 -95.10915609999998,29.531831499999928,0 -95.1091221,29.532105699999924,0 -95.10911669999999,29.532283699999923,0 -95.10913759999998,29.532655999999925,0 -95.10918929999998,29.532943199999924,0 -95.10925439999998,29.533177899999924,0 -95.10937959999997,29.53349559999992,0 -95.11201009999996,29.53898699999992,0 -95.11213859999997,29.53933219999992,0 -95.11220209999996,29.53961069999992,0 -95.11223039999997,29.539792899999924,0 -95.11225039999997,29.54005469999992,0 -95.11224919999997,29.540268799999918,0 -95.11223519999997,29.540453499999916,0 -95.11220309999997,29.540671699999915,0 -95.11210959999997,29.54103149999992,0 -95.11195769999996,29.541412199999918,0 -95.11186279999997,29.541597799999916,0 -95.11168699999996,29.541869899999917,0 -95.11157269999997,29.542021799999915,0 -95.11135229999996,29.542266899999916,0 -95.11109269999996,29.542508199999915,0 -95.10718819999995,29.54530509999991,0 -95.10682969999995,29.545544399999912,0 -95.10613999999995,29.54587109999991,0 -95.10567489999995,29.54604079999991,0 -95.10261109999995,29.547028699999913,0 -95.10222349999995,29.547168499999913,0 -95.10179219999995,29.547303299999907,0 -95.10131909999994,29.54748969999991,0 -95.10044069999995,29.547731499999912,0 -95.09707949999994,29.54881979999991,0 -95.09548239999994,29.54940599999991,0 -95.09533119999995,29.549438999999907,0 -95.09538039999994,29.549586399999907,0 -95.09540259999994,29.549712299999904,0 -95.09537499999995,29.549833999999905,0 -95.09508139999994,29.550562899999907,0 -95.09507269999995,29.550672699999907,0 -95.09481709999994,29.551155899999905,0 -95.09480909999994,29.5511858999999,0 -95.09481039999993,29.5512347999999,0 -95.09482249999992,29.5512599999999,0 -95.09483399999992,29.5512735999999,0 -95.0948607999999,29.551292099999902,0 -95.09567059999992,29.551630199999902,0 -95.09578269999992,29.5514075999999,0 -95.09600399999991,29.551115899999907,0 -95.09626819999991,29.550831199999905,0 -95.09650159999991,29.550650399999903,0 -95.09714029999991,29.5502097999999,0 -95.0976057999999,29.550731999999897,0 -95.0976782999999,29.5506830999999,0 </coordinates></LineString><TimeSpan><begin>2019-11-10T18:45:19.105Z</begin><end>2019-11-10T20:13:51.000Z</end></TimeSpan></Placemark><Placemark><name>Space Center Houston</name><address>1601 E NASA Pkwy, Houston, TX 77058</address><ExtendedData><Data name="Email"><value>syugen.zhou@gmail.com</value></Data><Data name="Category"><value>Tourist attraction</value></Data><Data name="Distance"><value>0</value></Data></ExtendedData><description> Tourist attraction from 2019-11-10T20:13:51.000Z to 2019-11-10T20:15:52.000Z. Distance 0m </description><Point><coordinates>-95.0981044,29.551831999999997,0</coordinates></Point><TimeSpan><begin>2019-11-10T20:13:51.000Z</begin><end>2019-11-10T20:15:52.000Z</end></TimeSpan></Placemark><Placemark><name>On a bus</name><address></address><ExtendedData><Data name="Email"><value>syugen.zhou@gmail.com</value></Data><Data name="Category"><value>On a bus</value></Data><Data name="Distance"><value>3672</value></Data></ExtendedData><description> On a bus from 2019-11-10T20:15:52.000Z to 2019-11-10T21:23:22.000Z. Distance 3672m </description><LineString><altitudeMode>clampToGround</altitudeMode><extrude>1</extrude><tesselate>1</tesselate><coordinates>-95.0981044,29.551831999999997,0 -95.0981044,29.551831999999997,0 -95.0893542,29.5579716,0 -95.0893866,29.5579139,0 -95.0906231,29.5576131,0 -95.0859846,29.5594848,0 -95.0883378,29.5533435,0 -95.0934266,29.5549591,0 -95.0941336,29.5544993,0 -95.0938858,29.5551207,0 -95.0938245,29.5550888,0 -95.0979821,29.5517204,0 -95.0979821,29.5517204,0 </coordinates></LineString><TimeSpan><begin>2019-11-10T20:15:52.000Z</begin><end>2019-11-10T21:23:22.000Z</end></TimeSpan></Placemark><Placemark><name>Space Center Houston</name><address>1601 E NASA Pkwy, Houston, TX 77058</address><ExtendedData><Data name="Email"><value>syugen.zhou@gmail.com</value></Data><Data name="Category"><value>Tourist attraction</value></Data><Data name="Distance"><value>0</value></Data></ExtendedData><description> Tourist attraction from 2019-11-10T21:23:22.000Z to 2019-11-10T22:00:58.000Z. Distance 0m </description><Point><coordinates>-95.0981044,29.551831999999997,0</coordinates></Point><TimeSpan><begin>2019-11-10T21:23:22.000Z</begin><end>2019-11-10T22:00:58.000Z</end></TimeSpan></Placemark><Placemark><name>Driving</name><address></address><ExtendedData><Data name="Email"><value>syugen.zhou@gmail.com</value></Data><Data name="Category"><value>Driving</value></Data><Data name="Distance"><value>421232</value></Data></ExtendedData><description> Driving from 2019-11-10T22:00:58.301Z to 2019-11-11T02:04:12.049Z. Distance 421232m </description><LineString><altitudeMode>clampToGround</altitudeMode><extrude>1</extrude><tesselate>1</tesselate><coordinates>-95.09770759999999,29.551351099999998,0 -95.09732359999998,29.5509195,0 -95.0970031,29.5511311,0 -95.09666519999999,29.5514391,0 -95.09643849999999,29.551738900000004,0 -95.09635309999999,29.551915500000003,0 -95.09486079999999,29.551292100000005,0 -95.09483399999999,29.551273600000002,0 -95.09481039999999,29.551234800000003,0 -95.09480909999999,29.551185900000004,0 -95.0948171,29.551155900000005,0 -95.0950727,29.55067270000001,0 -95.0951592,29.55058940000001,0 -95.0954274,29.550196800000013,0 -95.0954846,29.55007380000001,0 -95.09552910000001,29.549882800000013,0 -95.09554310000001,29.549674500000013,0 -95.0962434,29.549434900000016,0 -95.09715190000001,29.549047300000016,0 -95.09745920000002,29.548896600000017,0 -95.1005542,29.547863400000015,0 -95.10148130000002,29.547593800000016,0 -95.10264970000001,29.547149800000014,0 -95.10603290000002,29.546054700000013,0 -95.10636170000001,29.54592190000001,0 -95.1067385,29.545732000000008,0 -95.10714800000001,29.54547290000001,0 -95.10797170000001,29.544885500000014,0 -95.1082126,29.54469370000001,0 -95.1111083,29.542627000000014,0 -95.111362,29.54240270000001,0 -95.1115119,29.542250200000012,0 -95.1118121,29.54187470000001,0 -95.1120341,29.541500500000012,0 -95.1121743,29.54117440000001,0 -95.1122353,29.54098850000001,0 -95.1123183,29.540637900000014,0 -95.11235950000001,29.54022240000001,0 -95.1123394,29.53978500000001,0 -95.11230900000001,29.539586800000006,0 -95.1122095,29.53920870000001,0 -95.1121127,29.53895610000001,0 -95.1094468,29.53338080000001,0 -95.10931070000001,29.53298120000001,0 -95.1092569,29.53271530000001,0 -95.1092266,29.53228130000001,0 -95.1092667,29.531821500000017,0 -95.10931390000002,29.531616800000013,0 -95.10941760000001,29.531304700000014,0 -95.1094994,29.531119400000016,0 -95.10972790000001,29.530728500000013,0 -95.1098671,29.530543300000012,0 -95.11010080000001,29.530283900000015,0 -95.11036700000001,29.530045300000015,0 -95.11060710000002,29.529872200000014,0 -95.11082350000002,29.529739000000014,0 -95.11557740000002,29.527207000000015,0 -95.11662080000002,29.526600000000013,0 -95.11741830000003,29.526091400000013,0 -95.12145630000002,29.52330170000001,0 -95.12234470000003,29.52276100000001,0 -95.12248430000002,29.52269140000001,0 -95.12275800000003,29.52258460000001,0 -95.12314970000003,29.52249080000001,0 -95.12337070000002,29.522460700000007,0 -95.12377200000003,29.52244670000001,0 -95.12409170000002,29.522479900000008,0 -95.12441240000003,29.522556200000007,0 -95.12470290000003,29.522658200000013,0 -95.12501490000004,29.522810600000014,0 -95.12530500000004,29.523007300000014,0 -95.12559770000003,29.523281700000016,0 -95.12573870000003,29.52345950000002,0 -95.12637100000002,29.524385200000015,0 -95.12695000000002,29.525142600000017,0 -95.12726120000004,29.525498800000015,0 -95.12781430000003,29.526037200000015,0 -95.12808120000003,29.526114500000013,0 -95.13251520000003,29.530708700000012,0 -95.13590040000003,29.534330800000014,0 -95.14095470000002,29.54008030000001,0 -95.14320910000002,29.54245400000001,0 -95.14327670000003,29.54255000000001,0 -95.15075070000002,29.550350700000006,0 -95.15076760000002,29.550378000000006,0 -95.15180360000002,29.551474700000007,0 -95.15193120000004,29.551628600000008,0 -95.16390800000003,29.564149400000005,0 -95.16634460000003,29.566962200000006,0 -95.16640300000003,29.567053200000004,0 -95.16834230000003,29.5693209,0 -95.16856180000003,29.5695448,0 -95.17661840000004,29.578947600000003,0 -95.17948840000004,29.5821655,0 -95.18085930000004,29.5836067,0 -95.18278620000004,29.5854911,0 -95.18417560000005,29.586758899999996,0 -95.19205470000003,29.593577999999997,0 -95.20238160000004,29.603775499999998,0 -95.20575410000004,29.606932699999994,0 -95.24299570000004,29.640818099999997,0 -95.24369960000004,29.641529699999996,0 -95.24460650000003,29.642583199999994,0 -95.24522050000003,29.643421099999994,0 -95.26345110000004,29.671049699999998,0 -95.26427620000004,29.672112999999996,0 -95.26474610000004,29.672643899999997,0 -95.27295800000005,29.681004599999998,0 -95.27618450000004,29.6841397,0 -95.27975610000004,29.6877577,0 -95.27980930000004,29.687838100000004,0 -95.28420880000004,29.692313000000002,0 -95.28457780000004,29.692748900000005,0 -95.28498240000003,29.693311700000002,0 -95.28577900000005,29.6946077,0 -95.28593210000004,29.6948237,0 -95.28643850000005,29.695434500000005,0 -95.28669670000004,29.695704900000006,0 -95.28738360000004,29.69632640000001,0 -95.29003810000003,29.69853670000001,0 -95.29339610000002,29.700829000000006,0 -95.29771320000002,29.703529300000007,0 -95.29781840000003,29.70360800000001,0 -95.30037960000003,29.70521520000001,0 -95.31275900000001,29.713581100000006,0 -95.31893880000003,29.717528600000005,0 -95.31952700000002,29.717860500000004,0 -95.32526810000003,29.720863400000002,0 -95.32536420000002,29.7209295,0 -95.32597670000003,29.721283400000004,0 -95.33103060000002,29.7244764,0 -95.33126160000002,29.724601800000006,0 -95.33357870000002,29.726095100000006,0 -95.33370480000002,29.726163500000002,0 -95.34062040000002,29.730606600000005,0 -95.34252540000003,29.732099700000003,0 -95.34271550000003,29.732269100000003,0 -95.34559620000002,29.734533400000004,0 -95.34610300000003,29.734888900000005,0 -95.35276560000001,29.7391493,0 -95.35378840000001,29.7397528,0 -95.35750320000001,29.742157,0 -95.35770580000002,29.742264600000002,0 -95.35972780000002,29.743524600000004,0 -95.36016640000003,29.743753600000005,0 -95.36088990000002,29.744077000000008,0 -95.36449450000002,29.745533400000006,0 -95.36538180000002,29.745984300000003,0 -95.36687670000002,29.746843000000005,0 -95.37278040000002,29.750422200000006,0 -95.37319260000002,29.7507316,0 -95.37338530000002,29.7508957,0 -95.37366450000003,29.7511823,0 -95.37382830000004,29.7513805,0 -95.37408010000003,29.751748799999998,0 -95.37423320000003,29.752032399999997,0 -95.37440700000005,29.7524589,0 -95.37451820000004,29.7528809,0 -95.37456510000004,29.753183900000003,0 -95.37460020000003,29.753641100000007,0 -95.37465030000004,29.75739160000001,0 -95.37462590000004,29.757770200000007,0 -95.37453860000005,29.75813920000001,0 -95.37442980000004,29.75845240000001,0 -95.37332010000004,29.760967600000008,0 -95.37321050000004,29.761173100000004,0 -95.37291680000004,29.761608200000005,0 -95.37269920000004,29.761840200000005,0 -95.37253210000004,29.761994200000004,0 -95.37206310000005,29.7623229,0 -95.37163080000005,29.7625807,0 -95.37104750000006,29.7628567,0 -95.37094750000006,29.7628676,0 -95.36890970000006,29.763796300000003,0 -95.36833480000006,29.764109400000006,0 -95.36815730000005,29.7642297,0 -95.36780980000006,29.764505800000002,0 -95.36760580000005,29.764701100000003,0 -95.36739390000005,29.764937800000006,0 -95.36714820000005,29.76527520000001,0 -95.36687630000006,29.765759800000005,0 -95.36529570000005,29.769331400000006,0 -95.36518030000005,29.769650100000007,0 -95.36510360000005,29.76993540000001,0 -95.36506910000006,29.770157100000006,0 -95.36505540000006,29.77038290000001,0 -95.36506220000004,29.77058500000001,0 -95.36509260000004,29.770815700000007,0 -95.36519110000003,29.77117610000001,0 -95.36528870000004,29.77141580000001,0 -95.36539000000003,29.77161770000001,0 -95.36587470000003,29.77242280000001,0 -95.36595100000004,29.77257870000001,0 -95.36729790000004,29.774743500000014,0 -95.36756840000004,29.775219900000014,0 -95.36780360000003,29.77574170000001,0 -95.36798040000004,29.77628760000001,0 -95.36808960000003,29.77679120000001,0 -95.36813480000004,29.777128900000008,0 -95.36819930000003,29.77953130000001,0 -95.36824250000004,29.779634100000006,0 -95.36834120000003,29.782581400000005,0 -95.36837170000004,29.782927800000003,0 -95.36844500000004,29.7833598,0 -95.36856560000005,29.783805200000003,0 -95.36865420000005,29.7840572,0 -95.36886400000004,29.7845235,0 -95.36911580000005,29.7849668,0 -95.37096170000004,29.787700800000003,0 -95.37118600000004,29.788070200000003,0 -95.37134950000004,29.788386200000005,0 -95.37147450000003,29.788696400000006,0 -95.37158940000003,29.789103500000003,0 -95.37165150000004,29.7895523,0 -95.37168010000003,29.790081,0 -95.37168680000003,29.7912807,0 -95.37158820000002,29.793046500000003,0 -95.37164970000002,29.799217700000003,0 -95.37170210000004,29.800053600000002,0 -95.37183650000003,29.801063100000007,0 -95.37248420000003,29.804406700000005,0 -95.37251190000003,29.804499300000007,0 -95.37299850000004,29.80696750000001,0 -95.37303910000004,29.80731470000001,0 -95.37320070000004,29.80811000000001,0 -95.37359610000004,29.80949430000001,0 -95.37402760000005,29.810635000000016,0 -95.37409260000004,29.810750900000016,0 -95.37659100000003,29.81695900000002,0 -95.37735150000005,29.81856220000002,0 -95.37737790000006,29.81865740000002,0 -95.37898270000005,29.82191580000002,0 -95.37938680000006,29.82283960000002,0 -95.37979770000005,29.82408450000002,0 -95.38063310000005,29.82772390000002,0 -95.38085950000004,29.82843160000002,0 -95.38116980000005,29.82914200000002,0 -95.38138260000004,29.82953810000002,0 -95.38160540000004,29.82989970000002,0 -95.38193160000003,29.83036750000002,0 -95.38596790000004,29.835404900000015,0 -95.38642350000003,29.836035900000017,0 -95.39141950000004,29.84370360000002,0 -95.40149950000003,29.857982100000022,0 -95.40214600000003,29.85904190000002,0 -95.40804500000004,29.87061360000002,0 -95.40838970000003,29.87122190000002,0 -95.40990870000003,29.873598900000015,0 -95.41022830000004,29.874196800000014,0 -95.41050030000002,29.874834400000015,0 -95.41149640000003,29.878005700000013,0 -95.41166850000003,29.878660800000013,0 -95.41174140000004,29.879080700000017,0 -95.41180490000004,29.879737100000018,0 -95.41199370000004,29.89077270000002,0 -95.41201540000004,29.89096840000002,0 -95.41248560000004,29.91735950000002,0 -95.41173470000004,29.92973570000002,0 -95.41175270000004,29.932972400000022,0 -95.41184480000004,29.93406880000002,0 -95.41197530000004,29.934931700000018,0 -95.41222220000003,29.935977000000015,0 -95.41275990000003,29.937698800000017,0 -95.41731290000003,29.950496300000015,0 -95.41751290000003,29.951148600000018,0 -95.41778520000004,29.952307200000014,0 -95.41791590000004,29.953122900000018,0 -95.41815360000004,29.955399500000016,0 -95.41827980000004,29.957130600000013,0 -95.41837200000005,29.962672900000012,0 -95.41841000000004,29.96312680000001,0 -95.41854400000004,29.96398920000001,0 -95.42114520000004,29.974893600000016,0 -95.42736160000004,30.008847400000015,0 -95.42759430000004,30.01041580000002,0 -95.42890230000003,30.02350360000002,0 -95.42895580000003,30.023776300000016,0 -95.42901760000002,30.025096500000014,0 -95.42917960000003,30.037371600000014,0 -95.42928940000002,30.038751400000017,0 -95.42944460000002,30.039974100000016,0 -95.43056480000001,30.04708530000002,0 -95.43058230000003,30.04714840000002,0 -95.43062680000003,30.04758200000002,0 -95.43089680000001,30.049055900000017,0 -95.43200850000002,30.054046200000016,0 -95.43509470000002,30.070675300000016,0 -95.43547650000002,30.072510200000014,0 -95.43549400000002,30.072695200000016,0 -95.43584500000003,30.074462500000017,0 -95.43680150000003,30.08014950000002,0 -95.43685860000002,30.08081900000002,0 -95.43685890000003,30.08147570000002,0 -95.43678980000003,30.08212990000002,0 -95.43557160000002,30.087572500000018,0 -95.43537740000002,30.08866150000002,0 -95.43522320000002,30.08996290000002,0 -95.43515320000003,30.091376300000018,0 -95.43516590000003,30.092355200000018,0 -95.43536540000002,30.09653100000002,0 -95.43548390000002,30.107065200000022,0 -95.43551930000002,30.107594600000027,0 -95.43561680000003,30.108353700000027,0 -95.43564840000003,30.108422200000025,0 -95.43570550000003,30.108664600000026,0 -95.43718790000003,30.113058800000022,0 -95.43752790000002,30.113803400000027,0 -95.43778900000001,30.114261400000025,0 -95.43804720000001,30.114653600000025,0 -95.44019460000001,30.117353400000024,0 -95.44052290000002,30.117821600000024,0 -95.44102050000002,30.118658700000026,0 -95.44145820000001,30.119614400000028,0 -95.44171180000001,30.120344400000025,0 -95.4418677,30.120925800000023,0 -95.4497461,30.159772400000026,0 -95.4501659,30.16240990000003,0 -95.4507174,30.168155100000032,0 -95.4507519,30.168801100000028,0 -95.4508537,30.16958570000003,0 -95.4524547,30.18628770000003,0 -95.45268229999999,30.188095200000024,0 -95.4529819,30.189935500000022,0 -95.45561639999998,30.203164100000027,0 -95.45572549999999,30.203879300000025,0 -95.45695989999999,30.217004000000028,0 -95.45742729999999,30.22313250000003,0 -95.45857879999998,30.23492380000003,0 -95.45860069999999,30.23546150000003,0 -95.45858359999998,30.236127200000034,0 -95.45827599999998,30.240491100000032,0 -95.45817589999999,30.241318300000035,0 -95.45803249999999,30.242115700000035,0 -95.45700529999999,30.246601000000034,0 -95.45689459999998,30.24724640000003,0 -95.45681819999999,30.24789670000003,0 -95.45678449999998,30.24861630000003,0 -95.45658919999998,30.27541270000003,0 -95.45666939999998,30.276631200000033,0 -95.45690979999998,30.278119700000033,0 -95.45710499999998,30.278914200000035,0 -95.45734159999999,30.279694400000032,0 -95.45780469999998,30.280845800000034,0 -95.45814209999999,30.281581700000032,0 -95.45873229999998,30.282606600000037,0 -95.46107549999998,30.285925900000038,0 -95.46169469999998,30.286932900000036,0 -95.46211229999997,30.28770180000004,0 -95.46274609999998,30.289072000000036,0 -95.46327979999998,30.29043150000004,0 -95.47526909999998,30.326479600000038,0 -95.47650669999999,30.32976390000004,0 -95.47776859999999,30.33286450000004,0 -95.47808119999999,30.333784400000038,0 -95.4826258,30.34561470000004,0 -95.4829218,30.34650780000004,0 -95.4832794,30.347821900000042,0 -95.4834788,30.348753700000042,0 -95.4836783,30.34999400000004,0 -95.48376429999999,30.350777700000044,0 -95.4846159,30.362392300000046,0 -95.4854416,30.377056900000046,0 -95.48545800000001,30.377168500000042,0 -95.4863125,30.40093510000004,0 -95.4863893,30.40174390000004,0 -95.4867737,30.404271100000038,0 -95.4870595,30.405508100000038,0 -95.4874858,30.40705290000004,0 -95.4942731,30.429229700000036,0 -95.4946659,30.430869300000037,0 -95.4949014,30.432169100000035,0 -95.49506380000001,30.43333220000003,0 -95.495175,30.434488000000034,0 -95.4958738,30.462684000000035,0 -95.496296,30.467669100000037,0 -95.49638230000001,30.46971610000004,0 -95.4963228,30.47155650000004,0 -95.4962236,30.472702800000043,0 -95.49382859999999,30.488437800000042,0 -95.49378259999997,30.488636900000046,0 -95.49179519999998,30.501828000000046,0 -95.49163329999999,30.503504800000044,0 -95.49087039999999,30.516896000000045,0 -95.49084339999997,30.518110100000047,0 -95.49089699999999,30.51894030000005,0 -95.4909572,30.519400900000047,0 -95.49122899999999,30.520855200000046,0 -95.50147829999999,30.563356300000045,0 -95.5020606,30.566156500000044,0 -95.50227989999999,30.568016800000045,0 -95.51028029999998,30.657072100000043,0 -95.51039719999997,30.657940800000045,0 -95.51053239999997,30.658650600000044,0 -95.51086999999997,30.659924300000043,0 -95.51131029999998,30.661135700000045,0 -95.51179029999997,30.662149800000048,0 -95.51839569999997,30.674048300000045,0 -95.51862369999998,30.674418300000045,0 -95.51909219999997,30.675078700000046,0 -95.51943209999996,30.67549330000005,0 -95.51987459999997,30.67598130000005,0 -95.52035319999996,30.676450900000052,0 -95.52104979999996,30.677039300000054,0 -95.52155319999996,30.677413400000056,0 -95.52607479999996,30.680318700000054,0 -95.52720959999995,30.680962500000053,0 -95.54967139999997,30.69195940000005,0 -95.55045879999996,30.69240620000005,0 -95.55102279999997,30.69277390000005,0 -95.55149159999996,30.69311810000005,0 -95.55228999999997,30.69379560000005,0 -95.55295139999997,30.69446810000005,0 -95.55355999999996,30.69520340000005,0 -95.55881059999996,30.702085100000048,0 -95.57361689999996,30.72397380000005,0 -95.57416939999996,30.72467610000005,0 -95.57510459999996,30.72569490000005,0 -95.57571829999996,30.72627920000005,0 -95.58281549999997,30.73234650000005,0 -95.58364719999997,30.73298090000005,0 -95.61128129999997,30.75112850000005,0 -95.61363899999998,30.752779500000052,0 -95.63558689999999,30.767182600000055,0 -95.63816259999999,30.768768500000053,0 -95.67523259999999,30.793080100000058,0 -95.67574429999999,30.793443100000054,0 -95.67646459999999,30.794006100000054,0 -95.67730879999999,30.794755100000053,0 -95.6923461,30.809763200000056,0 -95.7163246,30.835043100000057,0 -95.71702509999999,30.835676600000056,0 -95.7174836,30.836055500000054,0 -95.7470852,30.857993800000056,0 -95.74817649999999,30.858913600000054,0 -95.74902379999999,30.859749800000053,0 -95.74946839999998,30.860238500000055,0 -95.78718559999999,30.906840100000053,0 -95.78789569999999,30.90762540000005,0 -95.78890259999999,30.90858680000005,0 -95.78965529999999,30.909209800000053,0 -95.79064559999999,30.909935000000054,0 -95.79167269999999,30.910583200000055,0 -95.8746252,30.958167900000056,0 -95.8753493,30.958614300000054,0 -95.8759489,30.959023200000054,0 -95.87682689999998,30.959693100000052,0 -95.87761069999999,30.960367400000052,0 -95.87809189999999,30.96082630000005,0 -95.8996078,30.982927000000046,0 -95.90008279999999,30.983465100000046,0 -95.90065519999999,30.984180500000047,0 -95.9429703,31.041699700000045,0 -95.9434307,31.042413300000046,0 -95.94382710000001,31.043116400000045,0 -95.94427320000001,31.044034000000046,0 -95.94460990000002,31.044862800000043,0 -95.96502590000001,31.104397100000043,0 -95.9654191,31.10530440000004,0 -95.9657691,31.10599460000004,0 -95.97464020000001,31.120497900000043,0 -95.9750779,31.12137820000004,0 -95.9753677,31.122057400000045,0 -95.97562380000001,31.122753800000044,0 -95.98206900000001,31.145776500000046,0 -95.99087300000001,31.184418700000045,0 -95.99089410000002,31.184634700000046,0 -95.99104690000001,31.185330700000044,0 -95.99114650000001,31.185606800000045,0 -95.99195630000001,31.18929630000005,0 -95.99203360000001,31.189515700000047,0 -95.99260600000002,31.192014700000048,0 -95.99265280000002,31.19213250000005,0 -95.99649780000001,31.20906470000005,0 -95.99662990000002,31.20981120000005,0 -95.99671030000002,31.21045050000005,0 -95.99677810000003,31.21162630000005,0 -95.99676310000002,31.212485400000045,0 -95.99671730000003,31.213124300000043,0 -95.99656090000003,31.214378900000046,0 -95.99652120000003,31.214570200000043,0 -95.99424130000004,31.23155700000004,0 -95.99405740000003,31.23262180000004,0 -95.99380310000004,31.233793200000036,0 -95.99293070000003,31.237039500000034,0 -95.99283860000003,31.23724880000003,0 -95.99273650000002,31.237559300000033,0 -95.99253440000004,31.238524800000032,0 -95.99216970000003,31.23980480000003,0 -95.99195940000004,31.240424300000033,0 -95.98944340000004,31.24671140000003,0 -95.98922720000004,31.24733530000003,0 -95.98896260000004,31.248276700000027,0 -95.98874780000004,31.249331500000032,0 -95.98864580000004,31.250081800000032,0 -95.98697380000004,31.268556100000033,0 -95.98694690000005,31.269442500000036,0 -95.98700040000004,31.270598500000034,0 -95.98710080000005,31.271449000000032,0 -95.98721050000005,31.27208180000003,0 -95.98752890000004,31.27335290000003,0 -95.98797610000004,31.274610200000033,0 -95.98841210000003,31.275575600000035,0 -95.99740120000003,31.293137300000037,0 -95.99785460000004,31.294148800000038,0 -95.99825270000002,31.295284600000034,0 -96.02060820000003,31.377223100000037,0 -96.02081680000002,31.377881400000035,0 -96.02126820000002,31.379027000000033,0 -96.02162420000002,31.379778000000034,0 -96.02227290000003,31.38091230000003,0 -96.04679180000002,31.41824590000003,0 -96.04757880000001,31.419345100000033,0 -96.04819770000002,31.42014710000003,0 -96.04915360000001,31.421284800000034,0 -96.08237090000002,31.458153100000033,0 -96.08287280000002,31.458764800000033,0 -96.08340300000002,31.459493000000034,0 -96.08394520000003,31.460338000000036,0 -96.08427220000002,31.460920900000033,0 -96.08470870000002,31.461808300000033,0 -96.08508390000001,31.462726400000033,0 -96.08935510000002,31.476002000000033,0 -96.08947570000002,31.476318000000035,0 -96.09767510000002,31.501738300000035,0 -96.09801760000002,31.502579600000033,0 -96.09847910000003,31.503526400000034,0 -96.09881830000003,31.50413180000003,0 -96.12334080000004,31.541322600000033,0 -96.12486120000003,31.543952200000035,0 -96.12845180000002,31.550872800000036,0 -96.12994060000003,31.553394700000037,0 -96.14805730000003,31.580902300000037,0 -96.14866540000003,31.582024700000037,0 -96.14899780000002,31.582761800000036,0 -96.14924660000003,31.583402400000036,0 -96.15550320000003,31.602171500000036,0 -96.15576260000002,31.603062300000033,0 -96.15599450000002,31.604180200000034,0 -96.15611660000002,31.605058200000034,0 -96.15831230000002,31.639641200000035,0 -96.15846080000003,31.641321900000037,0 -96.15878720000002,31.643798100000037,0 -96.16263800000002,31.66732070000004,0 -96.16346550000003,31.672924000000037,0 -96.16602070000002,31.68771100000004,0 -96.16631450000001,31.688901300000037,0 -96.16667570000001,31.68999340000004,0 -96.16720680000002,31.69127660000004,0 -96.17261930000002,31.70316450000004,0 -96.17309620000002,31.70433720000004,0 -96.17340750000002,31.705196900000036,0 -96.18082340000002,31.72878420000004,0 -96.18107550000002,31.729450300000035,0 -96.18143020000002,31.730244000000035,0 -96.18196010000003,31.731247800000034,0 -96.18225220000002,31.73173300000003,0 -96.18282100000002,31.73257750000003,0 -96.18330610000001,31.73322080000003,0 -96.18390390000002,31.733929500000027,0 -96.21033190000001,31.76167470000003,0 -96.21075550000002,31.76208220000003,0 -96.22886070000001,31.777970900000035,0 -96.22996420000001,31.77887410000003,0 -96.23151010000001,31.780021300000033,0 -96.24298740000002,31.787719700000032,0 -96.24407930000001,31.78849380000003,0 -96.24498500000001,31.789214700000027,0 -96.2599725,31.80269380000003,0 -96.26007260000002,31.802771200000024,0 -96.27473440000001,31.815940700000024,0 -96.27538870000001,31.816597200000025,0 -96.27631320000002,31.817666000000028,0 -96.27679620000002,31.81831380000003,0 -96.27719500000002,31.81890100000003,0 -96.27766410000001,31.81968720000003,0 -96.28479730000001,31.833168000000033,0 -96.28528700000001,31.833974200000032,0 -96.28588950000001,31.834832300000034,0 -96.28648030000001,31.835569700000033,0 -96.28688760000001,31.836032500000034,0 -96.30832020000001,31.858527800000033,0 -96.3091167,31.85930310000003,0 -96.3096316,31.85973410000003,0 -96.31013490000001,31.86011420000003,0 -96.3105694,31.86040980000003,0 -96.3115884,31.861005000000034,0 -96.3121864,31.86129700000003,0 -96.31273589999999,31.86153130000003,0 -96.33343959999999,31.869023500000033,0 -96.3341389,31.869327500000033,0 -96.33469089999998,31.869603100000035,0 -96.335432,31.870031300000036,0 -96.33604,31.870438800000038,0 -96.33679849999999,31.871030900000036,0 -96.33732469999998,31.871504300000034,0 -96.33966659999999,31.873950000000036,0 -96.3402969,31.87455790000004,0 -96.3456039,31.88014300000004,0 -96.3461531,31.880771900000042,0 -96.353176,31.88814460000004,0 -96.3536322,31.888553600000044,0 -96.354074,31.888912600000044,0 -96.3545626,31.88926990000004,0 -96.355283,31.889736000000045,0 -96.3853434,31.905880300000046,0 -96.38672229999999,31.906680200000043,0 -96.4006472,31.915221400000043,0 -96.4007834,31.915328700000046,0 -96.4111411,31.921657200000045,0 -96.41192589999999,31.922205800000043,0 -96.4125105,31.92268480000004,0 -96.4131629,31.92330880000004,0 -96.41490119999999,31.92529410000004,0 -96.4153829,31.925768700000038,0 -96.4158589,31.926187800000037,0 -96.4163887,31.926602200000037,0 -96.41688389999999,31.926952700000037,0 -96.4225153,31.930450800000038,0 -96.4228342,31.930683200000036,0 -96.4232931,31.931076400000034,0 -96.4236373,31.931424700000036,0 -96.4239551,31.931809700000038,0 -96.4242087,31.932166400000035,0 -96.42457929999999,31.932859300000036,0 -96.42480689999998,31.933487800000034,0 -96.42494369999999,31.934137300000035,0 -96.42500119999998,31.934674300000033,0 -96.42498919999998,31.93521370000003,0 -96.42494669999998,31.935617200000028,0 -96.42042959999999,31.95625440000003,0 -96.42033369999999,31.957250300000034,0 -96.42034519999999,31.96270090000003,0 -96.42046659999998,31.963851900000034,0 -96.42058759999998,31.96456300000003,0 -96.42199239999998,31.970144500000032,0 -96.42213239999997,31.970825200000036,0 -96.42406359999997,31.984368300000035,0 -96.42429089999996,31.985381100000037,0 -96.42461509999997,31.986442900000036,0 -96.42476929999997,31.986862600000034,0 -96.43957279999997,32.02201670000004,0 -96.44586359999995,32.03853390000004,0 -96.44607879999997,32.039192600000035,0 -96.45030569999996,32.054198000000035,0 -96.45038849999996,32.05456440000003,0 -96.45210349999996,32.060758500000034,0 -96.45219819999997,32.061333200000036,0 -96.45224319999997,32.06181980000004,0 -96.45223809999996,32.06256160000003,0 -96.45219339999996,32.063003300000034,0 -96.45194249999994,32.06459870000003,0 -96.45177739999995,32.065295100000036,0 -96.45162879999995,32.065751100000035,0 -96.45142339999995,32.06627070000003,0 -96.45118699999995,32.066758000000036,0 -96.45088669999996,32.06730130000003,0 -96.45030299999996,32.06814070000003,0 -96.44178239999995,32.078461200000035,0 -96.44115959999996,32.07931970000003,0 -96.44058339999997,32.080273500000025,0 -96.44021869999996,32.08098050000003,0 -96.43989009999996,32.081726300000035,0 -96.43956519999996,32.08260370000003,0 -96.43922809999997,32.08377320000003,0 -96.43902229999996,32.08480570000003,0 -96.43890979999996,32.08572290000003,0 -96.43886949999997,32.08689860000003,0 -96.43888509999996,32.08760380000003,0 -96.43897529999995,32.088638200000034,0 -96.43908559999996,32.08936500000003,0 -96.44144179999995,32.10010270000003,0 -96.44146289999995,32.10025450000003,0 -96.44495469999995,32.11601040000003,0 -96.44527359999995,32.116992600000025,0 -96.44553969999994,32.11766500000003,0 -96.44584149999994,32.118327800000024,0 -96.44622799999995,32.11906740000003,0 -96.44666589999996,32.119799800000024,0 -96.45138219999995,32.12689630000003,0 -96.45255439999995,32.128562000000024,0 -96.45694459999996,32.13520980000003,0 -96.45883169999996,32.13836560000003,0 -96.45969569999995,32.13971950000003,0 -96.46229509999995,32.143460600000026,0 -96.46283499999996,32.14429110000003,0 -96.46498909999995,32.14806560000003,0 -96.46675729999995,32.15080550000003,0 -96.46704279999996,32.151319600000036,0 -96.46742779999995,32.15214620000004,0 -96.46764839999996,32.15276400000003,0 -96.46786709999995,32.15355810000004,0 -96.46800209999995,32.15425270000004,0 -96.46976699999995,32.16814630000004,0 -96.46976929999995,32.16827030000004,0 -96.47357009999995,32.19817850000004,0 -96.47374379999994,32.19902790000004,0 -96.47389449999994,32.19954940000004,0 -96.47424879999994,32.200485200000045,0 -96.48270549999994,32.21761760000004,0 -96.48478179999994,32.22161280000004,0 -96.48563689999993,32.22356110000004,0 -96.48621849999992,32.22477900000004,0 -96.48958399999992,32.23111160000004,0 -96.49552909999991,32.243271700000044,0 -96.49654689999991,32.24519990000004,0 -96.49932969999992,32.24959390000004,0 -96.50009439999992,32.25089900000004,0 -96.50881199999992,32.26723580000004,0 -96.50926119999993,32.26795300000004,0 -96.50961839999992,32.26844670000004,0 -96.51021229999992,32.26917720000004,0 -96.51102289999992,32.27002550000004,0 -96.5116547999999,32.27059510000004,0 -96.51213249999991,32.27098330000003,0 -96.51310849999992,32.27167950000003,0 -96.51417579999992,32.27231490000003,0 -96.51433299999992,32.272380700000035,0 -96.51486109999992,32.272646500000036,0 -96.54024869999992,32.28440850000003,0 -96.54404629999992,32.28630070000004,0 -96.54723119999993,32.28776470000004,0 -96.55095079999992,32.28935390000004,0 -96.55686569999992,32.292081900000035,0 -96.55697779999991,32.29212370000003,0 -96.58449729999991,32.30485250000003,0 -96.58456379999991,32.304875900000035,0 -96.59421489999991,32.30933790000003,0 -96.5950770999999,32.30978260000003,0 -96.59584909999991,32.31021950000003,0 -96.5967471999999,32.31078060000003,0 -96.5975078999999,32.31133770000003,0 -96.5982768999999,32.31196270000003,0 -96.5991464999999,32.31275210000003,0 -96.5997003999999,32.31332110000003,0 -96.60537309999991,32.32009540000003,0 -96.6062731999999,32.32124340000003,0 -96.6175150999999,32.33709990000003,0 -96.6183548999999,32.33840140000003,0 -96.6280386999999,32.35449020000003,0 -96.6290517999999,32.35602120000003,0 -96.6303150999999,32.35768970000003,0 -96.6450902999999,32.374885000000035,0 -96.6455341999999,32.375488100000034,0 -96.6461887999999,32.37649960000003,0 -96.64642179999991,32.376909800000035,0 -96.64713969999991,32.37848650000004,0 -96.64795229999991,32.38075210000004,0 -96.64811309999992,32.381130700000035,0 -96.65468419999992,32.399741700000035,0 -96.65620269999992,32.40329540000004,0 -96.65727909999991,32.40632680000004,0 -96.65745529999992,32.406744300000035,0 -96.65933299999992,32.41209100000003,0 -96.65951469999993,32.41271840000003,0 -96.65979329999993,32.41405660000003,0 -96.65990149999993,32.41494320000003,0 -96.65995079999993,32.41593050000004,0 -96.65991929999993,32.417027700000034,0 -96.65982719999992,32.417911800000034,0 -96.65974159999992,32.418459200000036,0 -96.65951959999992,32.419488400000034,0 -96.65861069999993,32.422791300000036,0 -96.65848639999993,32.42333740000004,0 -96.65835629999992,32.424097900000035,0 -96.65823749999991,32.42525270000003,0 -96.65821459999991,32.42608580000004,0 -96.65822819999991,32.42664410000003,0 -96.65831079999992,32.42763260000004,0 -96.65855589999993,32.429063700000036,0 -96.65863049999992,32.42935380000004,0 -96.65869589999991,32.429714900000036,0 -96.65894569999992,32.43049820000004,0 -96.66407169999992,32.443998400000034,0 -96.66423109999991,32.44459580000003,0 -96.66445389999991,32.445652900000034,0 -96.6645794999999,32.44647760000003,0 -96.66465919999992,32.44779840000003,0 -96.66463759999992,32.44866650000003,0 -96.66455689999992,32.449588700000035,0 -96.66101029999992,32.46925570000003,0 -96.66086409999993,32.470260300000035,0 -96.66079179999993,32.471624600000034,0 -96.66083079999993,32.47247690000003,0 -96.66090909999993,32.47326570000003,0 -96.66101599999993,32.47396650000003,0 -96.66109419999992,32.47432950000003,0 -96.66110149999992,32.474417300000034,0 -96.66128739999992,32.47517430000003,0 -96.66150909999992,32.47590220000003,0 -96.66181099999991,32.47670980000002,0 -96.66321149999992,32.48002050000002,0 -96.66352289999992,32.480926600000025,0 -96.66372619999991,32.48167130000002,0 -96.6638507999999,32.482240500000024,0 -96.66400659999991,32.48324170000002,0 -96.66409699999991,32.48455440000002,0 -96.6634731999999,32.50671010000002,0 -96.6633922999999,32.50821740000002,0 -96.6631974999999,32.51022940000002,0 -96.6631562999999,32.51127810000002,0 -96.66322039999989,32.51382320000002,0 -96.66316479999989,32.514884600000016,0 -96.66309179999989,32.51552070000002,0 -96.6628440999999,32.51676860000002,0 -96.6625540999999,32.51781070000002,0 -96.6598866999999,32.52490900000002,0 -96.6595930999999,32.52582270000002,0 -96.6593678999999,32.52673720000003,0 -96.6591658999999,32.527961600000026,0 -96.6590953999999,32.528787800000025,0 -96.6587005999999,32.542463000000026,0 -96.6587290999999,32.54332720000003,0 -96.6588071999999,32.544093600000025,0 -96.6589582999999,32.545070000000024,0 -96.6593337999999,32.546511800000026,0 -96.6652823999999,32.56279690000003,0 -96.66566089999989,32.563653200000026,0 -96.6778302999999,32.589020000000026,0 -96.6855977999999,32.603481800000026,0 -96.69477039999988,32.62343500000003,0 -96.70765149999988,32.64936490000003,0 -96.70798369999989,32.64996420000003,0 -96.70841239999989,32.65059200000003,0 -96.70884699999988,32.651119400000034,0 -96.70915959999988,32.65145060000003,0 -96.70957469999988,32.65184560000003,0 -96.71006839999988,32.652248300000025,0 -96.71070839999987,32.65269290000003,0 -96.71110599999989,32.65292900000003,0 -96.72311079999989,32.65924890000003,0 -96.7240725999999,32.65985870000002,0 -96.7252448999999,32.660726500000024,0 -96.72585459999989,32.66123940000003,0 -96.7267127999999,32.66205160000003,0 -96.7270890999999,32.66244260000003,0 -96.7312905999999,32.66742000000003,0 -96.7318962999999,32.668186600000034,0 -96.7338735999999,32.67048130000003,0 -96.73408789999989,32.67068820000003,0 -96.7449960999999,32.68266430000003,0 -96.74573199999989,32.683582200000025,0 -96.7465895999999,32.684855900000024,0 -96.7472963999999,32.686200900000024,0 -96.74765889999989,32.687042400000024,0 -96.7534622999999,32.70270620000003,0 -96.75623539999988,32.71270690000003,0 -96.75666799999989,32.713763900000025,0 -96.76176109999989,32.723758700000026,0 -96.7620514999999,32.72447180000003,0 -96.76223309999989,32.724997200000026,0 -96.77018609999989,32.75123280000003,0 -96.77137739999989,32.75494670000003,0 -96.77164799999989,32.75562250000003,0 -96.77221329999989,32.75678320000003,0 -96.77406369999989,32.76009620000003,0 -96.77459939999989,32.76130650000003,0 -96.77607699999989,32.765381100000035,0 -96.7761332999999,32.76558310000003,0 -96.77770039999989,32.76996180000003,0 -96.77798529999988,32.77106000000003,0 -96.77807239999989,32.77168840000003,0 -96.77810339999988,32.772140800000024,0 -96.77809539999987,32.772942800000024,0 -96.77817269999989,32.773717600000026,0 -96.77821469999988,32.773946200000026,0 -96.77837169999988,32.77446260000003,0 -96.77857559999987,32.77486680000003,0 -96.77888779999986,32.77534540000003,0 -96.77896229999988,32.77568430000003,0 -96.77915919999987,32.776017700000025,0 -96.78060689999987,32.77785960000003,0 -96.78070859999987,32.77800810000003,0 -96.78104359999988,32.77838940000003,0 -96.78115979999987,32.77848050000003,0 -96.78135259999988,32.77860420000003,0 -96.78156739999987,32.77870450000003,0 -96.78190209999987,32.778795300000034,0 -96.78201619999987,32.77880950000004,0 -96.78227209999987,32.77881810000004,0 -96.78251229999988,32.77879500000004,0 -96.78272349999988,32.77874950000003,0 -96.78287909999987,32.77869750000003,0 -96.78306719999988,32.77861310000003,0 -96.78326459999988,32.77848920000003,0 -96.78353169999987,32.77826780000003,0 -96.78456009999987,32.77730280000003,0 -96.78492999999987,32.776988000000024,0 -96.78558879999987,32.77650670000003,0 -96.78620299999989,32.77612080000002,0 -96.78677389999987,32.77583440000002,0 -96.78732399999987,32.775610200000024,0 -96.78761479999987,32.77551520000002,0 -96.78789999999988,32.77544200000003,0 -96.78813549999988,32.77543510000003,0 -96.78994639999988,32.77519080000003,0 -96.79142479999987,32.77483830000003,0 -96.79158179999988,32.77481840000003,0 -96.79168699999987,32.77481840000003,0 -96.79490099999987,32.77387660000003,0 -96.79498339999986,32.77382660000003,0 -96.79779739999987,32.77317390000003,0 -96.79808029999987,32.77308240000003,0 -96.79850449999986,32.77290450000003,0 -96.79916619999987,32.77257680000003,0 -96.79952339999987,32.77232450000003,0 -96.80233219999988,32.770053100000034,0 -96.80257059999988,32.76990680000004,0 -96.80269129999988,32.76985350000003,0 -96.80344849999987,32.76960190000003,0 -96.80371409999988,32.76953490000004,0 -96.80398629999989,32.76948890000004,0 -96.80436769999989,32.76945730000004,0 -96.80468939999987,32.76946280000004,0 -96.80500759999988,32.76949400000004,0 -96.80548099999989,32.76959210000003,0 -96.80584759999988,32.76971900000004,0 -96.80741109999988,32.77036480000004,0 -96.80840269999989,32.770848500000035,0 -96.80922239999988,32.771330100000036,0 -96.80950599999989,32.77152900000004,0 -96.80974599999988,32.77173250000004,0 -96.80993269999988,32.77192640000004,0 -96.81007889999988,32.77211420000004,0 -96.81028849999987,32.772467100000036,0 -96.81043329999989,32.77286920000003,0 -96.81058129999988,32.773654500000035,0 -96.81061919999988,32.773742100000035,0 -96.81104739999988,32.77624510000003,0 -96.81114609999989,32.776304300000035,0 -96.81159569999987,32.77945440000003,0 -96.81164089999987,32.780088600000035,0 -96.81165359999987,32.78094120000003,0 -96.81148969999987,32.781033300000026,0 -96.81148599999986,32.78103770000003,0 -96.81138949999986,32.78175400000003,0 -96.81134099999987,32.78198840000003,0 -96.81133999999986,32.782029400000035,0 -96.81116419999987,32.78266740000003,0 -96.81117749999986,32.78284130000004,0 -96.81136479999985,32.783649300000036,0 -96.81141199999985,32.783980700000036,0 -96.81095829999985,32.78413570000004,0 -96.81005829999987,32.784354100000044,0 -96.80989609999986,32.78437470000004,0 -96.80962899999986,32.78438470000005,0 -96.80957869999986,32.784393100000045,0 -96.80821859999988,32.784380900000045,0 -96.80793239999987,32.78431360000005,0 -96.80780009999988,32.78424440000005,0 -96.80755149999987,32.78405650000004,0 -96.80740069999987,32.783971000000044,0 -96.80724399999987,32.783786200000044,0 -96.80578529999987,32.78238220000005,0 -96.80577199999988,32.78235610000005,0 -96.80485809999988,32.78151190000005,0 -96.80478709999987,32.78140150000005,0 -96.80472399999987,32.78121880000005,0 -96.80468419999987,32.78098710000005,0 -96.80429329999988,32.779564400000055,0 -96.80298399999988,32.77983500000005,0 -96.80291819999988,32.77909390000005,0 -96.80222269999987,32.77670810000005,0 -96.80071909999987,32.77682560000005,0 -96.79997969999987,32.776961900000046,0 -96.79759579999987,32.777508400000045,0 -96.79752839999988,32.77751710000004,0 -96.79660749999987,32.777743100000045,0 -96.79634409999986,32.77785730000004,0 -96.79619919999986,32.777907400000046,0 -96.79657849999987,32.77898990000004,0 -96.79668039999986,32.77949080000004,0 -96.79644819999987,32.77954250000005,0 </coordinates></LineString><TimeSpan><begin>2019-11-10T22:00:58.301Z</begin><end>2019-11-11T02:04:12.049Z</end></TimeSpan></Placemark><Placemark><name>Dallas Downtown Historic District</name><address>Dallas, TX</address><ExtendedData><Data name="Email"><value>syugen.zhou@gmail.com</value></Data><Data name="Category"><value></value></Data><Data name="Distance"><value>0</value></Data></ExtendedData><description>  from 2019-11-11T02:04:12.049Z to 2019-11-11T02:43:00.108Z. Distance 0m </description><Point><coordinates>-96.8002704,32.779091099999995,0</coordinates></Point><TimeSpan><begin>2019-11-11T02:04:12.049Z</begin><end>2019-11-11T02:43:00.108Z</end></TimeSpan></Placemark><Placemark><name>Driving</name><address></address><ExtendedData><Data name="Email"><value>syugen.zhou@gmail.com</value></Data><Data name="Category"><value>Driving</value></Data><Data name="Distance"><value>13972</value></Data></ExtendedData><description> Driving from 2019-11-11T02:43:00.108Z to 2019-11-11T03:44:57.000Z. Distance 13972m </description><LineString><altitudeMode>clampToGround</altitudeMode><extrude>1</extrude><tesselate>1</tesselate><coordinates>-96.7966647,32.779399399999996,0 -96.7967352,32.77978279999999,0 -96.7968866,32.7803427,0 -96.79547860000001,32.780637899999995,0 -96.79525720000001,32.779934999999995,0 -96.7943249,32.7773038,0 -96.79427899999999,32.7772149,0 -96.79395,32.776908,0 -96.79546869999999,32.7756343,0 -96.79562269999998,32.775526299999996,0 -96.79701889999998,32.774387999999995,0 -96.79702199999997,32.774310699999994,0 -96.79704249999998,32.77425709999999,0 -96.79725259999998,32.773949599999995,0 -96.79743109999998,32.7737456,0 -96.7975896,32.7735973,0 -96.79776949999999,32.7734622,0 -96.79905819999999,32.77269509999999,0 -96.79916619999999,32.772576799999996,0 -96.79952339999998,32.772324499999996,0 -96.80103509999999,32.771090799999996,0 -96.80111409999998,32.7710886,0 -96.80113099999998,32.7710803,0 -96.8024368,32.770057699999995,0 -96.8025528,32.769997999999994,0 -96.80266999999999,32.7699575,0 -96.80285489999999,32.769925799999996,0 -96.80338699999999,32.769886099999994,0 -96.80368,32.76982939999999,0 -96.80392269999999,32.76973769999999,0 -96.8048247,32.769298899999995,0 -96.8049962,32.769239299999995,0 -96.80529800000001,32.7691753,0 -96.80556600000001,32.7691411,0 -96.80588630000001,32.769138999999996,0 -96.80601850000001,32.769086099999996,0 -96.8066046,32.7692091,0 -96.8069284,32.7693083,0 -96.8074194,32.7695036,0 -96.8097995,32.77079749999999,0 -96.8102694,32.771009899999996,0 -96.8107227,32.7711658,0 -96.81140740000001,32.7713333,0 -96.8117258,32.7713786,0 -96.8122467,32.7714198,0 -96.8129531,32.7714203,0 -96.81340300000001,32.7713575,0 -96.8174446,32.7706132,0 -96.81973190000001,32.7701498,0 -96.8209943,32.769855099999994,0 -96.8235031,32.769188699999994,0 -96.8236912,32.7692212,0 -96.82496030000001,32.7690309,0 -96.82581080000001,32.7688606,0 -96.82684460000002,32.7687149,0 -96.8271299,32.7687283,0 -96.82753910000001,32.7686548,0 -96.83172730000001,32.7681758,0 -96.83178550000001,32.768179100000005,0 -96.83422370000001,32.7679521,0 -96.83487610000002,32.7678668,0 -96.83502200000001,32.767907,0 -96.83504190000001,32.7679084,0 -96.8354554,32.767844200000006,0 -96.8355212,32.767853200000005,0 -96.83565060000001,32.7679158,0 -96.83570540000001,32.7684228,0 -96.83575310000002,32.7693123,0 -96.83579240000002,32.769461299999996,0 -96.83590280000001,32.76973399999999,0 -96.835222,32.770347199999996,0 -96.83514180000002,32.7704586,0 -96.83496210000001,32.770649399999996,0 -96.8335564,32.7719131,0 -96.83286989999999,32.772357099999994,0 -96.8324731,32.77257769999999,0 -96.8319519,32.77280309999999,0 -96.8313163,32.77302839999999,0 -96.830792,32.77315589999999,0 -96.8235555,32.774670599999986,0 -96.82352259999999,32.77468269999999,0 -96.8234296,32.77475199999999,0 -96.8160863,32.77629719999999,0 -96.8160221,32.776269699999986,0 -96.8159997,32.77626879999999,0 -96.8157468,32.77631619999999,0 -96.8154526,32.77634979999999,0 -96.8152996,32.77635659999999,0 -96.8150798,32.77638899999999,0 -96.81461820000001,32.77648709999998,0 -96.8145729,32.776501799999984,0 -96.81359110000001,32.77670599999999,0 -96.81343910000001,32.77675929999999,0 -96.813196,32.776800999999985,0 -96.8132307,32.77857729999999,0 -96.81329910000001,32.778971599999984,0 -96.81358190000002,32.779961499999985,0 -96.81394250000001,32.78100339999998,0 -96.81448640000002,32.78185519999999,0 -96.81470910000002,32.782315899999986,0 -96.81488410000001,32.782770699999986,0 -96.81514450000002,32.783171299999985,0 -96.81497770000001,32.78325309999998,0 -96.81495290000001,32.78328159999998,0 -96.81494770000002,32.78329629999998,0 -96.81495650000001,32.78332359999998,0 -96.81496820000002,32.78333889999998,0 -96.81500320000002,32.78336709999998,0 -96.81467590000001,32.78337809999998,0 -96.81466560000003,32.783383999999984,0 -96.81465910000001,32.78339659999998,0 -96.81466570000002,32.78354349999998,0 -96.81467230000001,32.783552399999984,0 -96.81471440000001,32.78357909999998,0 -96.81473430000001,32.78373819999998,0 -96.81310130000003,32.78379889999998,0 -96.81311260000003,32.78395409999998,0 -96.81587930000003,32.78385829999998,0 -96.81578010000003,32.78370039999998,0 -96.81514780000002,32.78284629999998,0 -96.81505680000002,32.78261589999999,0 -96.81491840000002,32.78215269999998,0 -96.81490370000002,32.78212389999999,0 -96.81483000000003,32.78188789999999,0 -96.81416180000002,32.78099099999999,0 -96.81407520000002,32.78084299999999,0 -96.81392920000002,32.78052539999999,0 -96.81348770000001,32.77905819999999,0 -96.81342910000002,32.778457499999995,0 -96.81342720000002,32.776902799999995,0 -96.81604130000002,32.776357399999995,0 -96.81606200000002,32.776345799999994,0 -96.81607000000002,32.77633639999999,0 -96.81608630000004,32.776297199999995,0 -96.82342960000003,32.774752,0 -96.82353220000003,32.77476059999999,0 -96.82369750000002,32.7747475,0 -96.83081170000001,32.7732642,0 -96.83162290000001,32.7730487,0 -96.83214610000002,32.7728467,0 -96.83293800000003,32.7724424,0 -96.83347480000002,32.772100200000004,0 -96.83383220000003,32.7718135,0 -96.83512760000002,32.7706464,0 -96.83517870000003,32.7705827,0 -96.83530130000003,32.770472500000004,0 -96.83532560000002,32.7704388,0 -96.83537980000003,32.7704009,0 -96.83597940000003,32.7698294,0 -96.83607240000002,32.7697541,0 -96.83599070000002,32.769656600000005,0 -96.83594200000003,32.76957300000001,0 -96.83588480000003,32.769411100000006,0 -96.83583010000002,32.76875920000001,0 -96.83584320000003,32.76871180000001,0 -96.83571760000002,32.76716150000001,0 -96.83572190000002,32.76706930000001,0 -96.83532600000002,32.76710780000001,0 -96.83519430000003,32.767131600000006,0 -96.82715970000002,32.768043600000006,0 -96.82697820000003,32.76811020000001,0 -96.82503370000002,32.768445400000004,0 -96.82424120000002,32.7686204,0 -96.82416550000002,32.7686476,0 -96.82406160000001,32.7687509,0 -96.81740110000001,32.770090100000004,0 -96.81724220000001,32.7701797,0 -96.81706320000002,32.7702337,0 -96.81577800000002,32.770547799999996,0 -96.81399250000003,32.770927699999994,0 -96.81387670000001,32.770896699999994,0 -96.81329830000001,32.77096099999999,0 -96.81263800000002,32.770981899999995,0 -96.81228100000003,32.77096689999999,0 -96.81192450000002,32.770914399999995,0 -96.81167450000002,32.7708599,0 -96.81137940000004,32.7707773,0 -96.81099300000002,32.770626,0 -96.81079080000002,32.770525799999994,0 -96.81067360000003,32.7704843,0 -96.81010690000002,32.770161699999996,0 -96.80999590000002,32.770139099999994,0 -96.80740160000002,32.768687799999995,0 -96.80717380000002,32.7686048,0 -96.80694930000003,32.768499000000006,0 -96.80672290000003,32.768415000000005,0 -96.80632440000004,32.76830830000001,0 -96.80584370000003,32.768237600000006,0 -96.80541780000004,32.768226600000006,0 -96.80517820000003,32.76824070000001,0 -96.80491730000003,32.768272700000004,0 -96.80389860000002,32.768456900000004,0 -96.80365540000003,32.768520900000006,0 -96.80343440000003,32.7685983,0 -96.80310370000002,32.768752299999996,0 -96.80293100000002,32.7688494,0 -96.80258250000001,32.769079399999995,0 -96.80231170000002,32.769297599999994,0 -96.80145380000002,32.770093599999996,0 -96.80134090000003,32.7702476,0 -96.79926710000002,32.7719069,0 -96.79882700000003,32.772200999999995,0 -96.79827710000002,32.772492299999996,0 -96.79808320000002,32.7725752,0 -96.79765560000003,32.77272859999999,0 -96.79693950000002,32.7729144,0 -96.79682280000002,32.7728865,0 -96.79653580000002,32.77287,0 -96.79641430000002,32.7728406,0 -96.79636200000003,32.772818300000004,0 -96.79630960000001,32.772786800000006,0 -96.79622740000002,32.7727158,0 -96.79618580000002,32.772662000000004,0 -96.79615580000002,32.7726011,0 -96.79614090000003,32.7725505,0 -96.79613270000002,32.7724734,0 -96.79613980000002,32.7724035,0 -96.79616300000002,32.772336700000004,0 -96.79619140000001,32.7722852,0 -96.7962621,32.7722034,0 -96.79647200000002,32.772063300000006,0 -96.79671760000002,32.772005500000006,0 -96.79696910000001,32.77199900000001,0 -96.79708210000003,32.77201420000001,0 -96.79726830000003,32.7720696,0 -96.79739190000004,32.772133000000004,0 -96.79746760000003,32.7721883,0 -96.79753070000004,32.772259600000005,0 -96.79755610000004,32.7723023,0 -96.79758070000004,32.772367300000006,0 -96.79758660000005,32.772426200000005,0 -96.79757410000005,32.772531300000004,0 -96.79748970000004,32.77273960000001,0 -96.79658500000004,32.77347840000001,0 -96.79648410000004,32.77354640000001,0 -96.79617020000005,32.77380610000001,0 -96.79608720000006,32.7738595,0 -96.79424700000006,32.775367800000005,0 -96.79433320000007,32.77545770000001,0 -96.79550230000007,32.77645880000001,0 -96.79574910000007,32.77670510000001,0 -96.79588000000007,32.77693500000001,0 -96.79657850000007,32.778989900000006,0 -96.79662310000006,32.77918160000001,0 </coordinates></LineString><TimeSpan><begin>2019-11-11T02:43:00.108Z</begin><end>2019-11-11T03:44:57.000Z</end></TimeSpan></Placemark><Placemark><name>Residence Inn by Marriott Dallas Downtown</name><address>1712 Commerce St, Dallas, TX 75201</address><ExtendedData><Data name="Email"><value>syugen.zhou@gmail.com</value></Data><Data name="Category"><value>Hotel</value></Data><Data name="Distance"><value>0</value></Data></ExtendedData><description> Hotel from 2019-11-11T03:44:57.000Z to 2019-11-11T15:51:54.000Z. Distance 0m </description><Point><coordinates>-96.7962067,32.780232399999996,0</coordinates></Point><TimeSpan><begin>2019-11-11T03:44:57.000Z</begin><end>2019-11-11T15:51:54.000Z</end></TimeSpan></Placemark></Document></kml>
