<?xml version="1.0" encoding="UTF-8"?><kml xmlns="http://www.opengis.net/kml/2.2" xmlns:gx="http://www.google.com/kml/ext/2.2"><Document><name> Location history from 2019-11-09 to 2019-11-09 </name><open>1</open><description></description><StyleMap id="multiTrack"><Pair><key>normal</key><styleUrl>#multiTrack_n</styleUrl></Pair><Pair><key>highlight</key><styleUrl>#multiTrack_h</styleUrl></Pair></StyleMap><Style id="multiTrack_n"><IconStyle><Icon><href>https://earth.google.com/images/kml-icons/track-directional/track-0.png</href></Icon></IconStyle><LineStyle><color>99ffac59</color><width>6</width></LineStyle></Style><Style id="multiTrack_h"><IconStyle><scale>1.2</scale><Icon><href>https://earth.google.com/images/kml-icons/track-directional/track-0.png</href></Icon></IconStyle><LineStyle><color>99ffac59</color><width>8</width></LineStyle></Style><Placemark><name>Flying</name><address></address><ExtendedData><Data name="Email"><value>syugen.zhou@gmail.com</value></Data><Data name="Category"><value>Flying</value></Data><Data name="Distance"><value>2424337</value></Data></ExtendedData><description> Flying from 2019-11-09T07:34:04.999Z to 2019-11-09T11:20:55.000Z. Distance 2424337m </description><LineString><altitudeMode>clampToGround</altitudeMode><extrude>1</extrude><tesselate>1</tesselate><coordinates>-97.6622055,30.1697383,0 -97.6429584,30.1974076,0 -97.6468212,30.2070074,0 -97.6660893,30.2102483,0 -97.6669249,30.2027285,0 -97.6663989,30.2041303,0 -97.66569970000002,30.2048403,0 -97.66569970000002,30.2048403,0 </coordinates></LineString><TimeSpan><begin>2019-11-09T07:34:04.999Z</begin><end>2019-11-09T11:20:55.000Z</end></TimeSpan></Placemark><Placemark><name>Austin-Bergstrom International Airport</name><address>3600 Presidential Blvd, Austin, TX 78719</address><ExtendedData><Data name="Email"><value>syugen.zhou@gmail.com</value></Data><Data name="Category"><value>Airport</value></Data><Data name="Distance"><value>0</value></Data></ExtendedData><description> Airport from 2019-11-09T11:20:55.000Z to 2019-11-09T12:23:09.000Z. Distance 0m </description><Point><coordinates>-97.66635289999999,30.197471099999998,0</coordinates></Point><TimeSpan><begin>2019-11-09T11:20:55.000Z</begin><end>2019-11-09T12:23:09.000Z</end></TimeSpan></Placemark><Placemark><name>Driving</name><address></address><ExtendedData><Data name="Email"><value>syugen.zhou@gmail.com</value></Data><Data name="Category"><value>Driving</value></Data><Data name="Distance"><value>1215</value></Data></ExtendedData><description> Driving from 2019-11-09T12:23:09.944Z to 2019-11-09T12:25:21.000Z. Distance 1215m </description><LineString><altitudeMode>clampToGround</altitudeMode><extrude>1</extrude><tesselate>1</tesselate><coordinates>-97.6650923,30.205583800000003,0 -97.664776,30.205592900000003,0 -97.6639586,30.205609400000004,0 -97.6636612,30.205613200000005,0 -97.6631459,30.20562460000001,0 -97.6631083,30.205630300000006,0 -97.6630742,30.205639500000007,0 -97.66305539999999,30.205648800000006,0 -97.66302699999999,30.205664600000002,0 -97.6630002,30.205692600000006,0 -97.66298509999999,30.205717600000003,0 -97.66297469999998,30.2057428,0 -97.66296289999998,30.205798300000005,0 -97.66296599999998,30.2058357,0 -97.66294229999998,30.206214600000003,0 -97.66294129999997,30.2064231,0 -97.66295929999997,30.2065515,0 -97.66300559999996,30.2066468,0 -97.66310349999996,30.2067376,0 -97.66319489999995,30.206795500000005,0 -97.66319489999995,30.206795500000005,0 -97.66314559999996,30.206910500000006,0 -97.66313959999997,30.206929100000007,0 -97.66313169999997,30.207008900000012,0 -97.66313169999997,30.207008900000012,0 -97.66301529999997,30.20699940000001,0 -97.66297709999996,30.20699970000001,0 -97.66284109999995,30.20699910000001,0 -97.66281489999996,30.20699910000001,0 -97.66279319999995,30.20700100000001,0 -97.66276539999996,30.207058400000008,0 -97.66274069999994,30.20721230000001,0 -97.66268029999995,30.20745120000001,0 -97.66268029999995,30.20745120000001,0 -97.66266549999995,30.207810700000014,0 -97.66265749999994,30.208005800000013,0 -97.66265749999994,30.208005800000013,0 -97.66268979999995,30.20804500000001,0 -97.66268979999995,30.20804500000001,0 -97.66265809999994,30.20858370000001,0 -97.66265479999994,30.208636000000013,0 -97.66264249999993,30.208755700000008,0 -97.66262439999993,30.208882800000005,0 -97.66258849999993,30.209050200000007,0 -97.66255829999993,30.209153000000008,0 -97.66252009999992,30.209260000000004,0 -97.66247089999992,30.209391800000002,0 -97.66243919999991,30.2094618,0 -97.66223189999991,30.209854,0 -97.66211109999992,30.210007500000003,0 -97.66202689999992,30.210112300000002,0 -97.66190539999992,30.210238000000004,0 -97.66182399999991,30.210321100000005,0 -97.66176109999992,30.2103825,0 -97.66150679999991,30.2105874,0 -97.66146519999992,30.2106126,0 -97.66146139999992,30.210614900000003,0 -97.66121999999991,30.210761100000003,0 -97.66119759999992,30.2107757,0 -97.6607413999999,30.2109875,0 -97.66063959999991,30.211034200000004,0 -97.66036289999992,30.211161200000003,0 -97.66000639999992,30.2113525,0 -97.65992639999992,30.2114037,0 -97.65965159999992,30.211592500000002,0 -97.65953579999992,30.2116814,0 -97.65943629999992,30.2117711,0 -97.65933499999993,30.2118685,0 -97.65928569999993,30.211919199999997,0 -97.65899469999992,30.212313599999995,0 </coordinates></LineString><TimeSpan><begin>2019-11-09T12:23:09.944Z</begin><end>2019-11-09T12:25:21.000Z</end></TimeSpan></Placemark><Placemark><name>Starbucks</name><address>2401 Cardinal Loop, Del Valle, TX 78617</address><ExtendedData><Data name="Email"><value>syugen.zhou@gmail.com</value></Data><Data name="Category"><value>Coffee shop</value></Data><Data name="Distance"><value>0</value></Data></ExtendedData><description> Coffee shop from 2019-11-09T12:25:21.000Z to 2019-11-09T12:56:02.000Z. Distance 0m </description><Point><coordinates>-97.6582486,30.213253899999998,0</coordinates></Point><TimeSpan><begin>2019-11-09T12:25:21.000Z</begin><end>2019-11-09T12:56:02.000Z</end></TimeSpan></Placemark><Placemark><name>Driving</name><address></address><ExtendedData><Data name="Email"><value>syugen.zhou@gmail.com</value></Data><Data name="Category"><value>Driving</value></Data><Data name="Distance"><value>25048</value></Data></ExtendedData><description> Driving from 2019-11-09T12:56:02.000Z to 2019-11-09T13:48:51.585Z. Distance 25048m </description><LineString><altitudeMode>clampToGround</altitudeMode><extrude>1</extrude><tesselate>1</tesselate><coordinates>-97.6584077,30.2132904,0 -97.65838839999999,30.213356900000004,0 -97.6579721,30.214148000000005,0 -97.6576314,30.214585400000008,0 -97.6574206,30.214760700000006,0 -97.6571632,30.214933700000003,0 -97.65654649999999,30.215225600000004,0 -97.65625179999999,30.215141400000004,0 -97.65601929999998,30.215024700000008,0 -97.65576969999998,30.214845600000007,0 -97.65515149999999,30.21415460000001,0 -97.65483069999998,30.213921800000012,0 -97.65466589999998,30.213765700000017,0 -97.65432719999998,30.213355700000015,0 -97.65419959999998,30.213271000000017,0 -97.65383269999998,30.213113600000018,0 -97.65376179999997,30.213055000000015,0 -97.65373709999997,30.212996600000018,0 -97.65374309999997,30.21292810000002,0 -97.65375859999997,30.21288990000002,0 -97.65402949999998,30.21259400000002,0 -97.65534349999997,30.211378800000023,0 -97.65694009999997,30.212115400000023,0 -97.66067869999998,30.21402320000002,0 -97.66772259999998,30.218024200000023,0 -97.67376329999998,30.22110330000002,0 -97.67723219999999,30.22267620000002,0 -97.67889509999999,30.22314360000002,0 -97.67965579999999,30.223214400000018,0 -97.68039939999998,30.223181700000023,0 -97.68077729999997,30.223115000000025,0 -97.68290559999998,30.222507300000025,0 -97.68401559999998,30.222115700000025,0 -97.68576999999998,30.221391400000023,0 -97.68722679999999,30.220643800000023,0 -97.68895319999999,30.219654500000022,0 -97.69123019999998,30.218491500000024,0 -97.69408389999997,30.217414900000026,0 -97.70874629999997,30.212739000000028,0 -97.70964239999998,30.212545500000026,0 -97.71038649999998,30.212447700000027,0 -97.71171029999998,30.21240830000003,0 -97.71232739999998,30.21245020000003,0 -97.71722469999997,30.213141600000032,0 -97.72580399999998,30.214042200000033,0 -97.73885579999997,30.215889200000035,0 -97.74090739999998,30.216087200000036,0 -97.74250759999998,30.21616370000003,0 -97.74256749999998,30.216253000000034,0 -97.74258869999998,30.216266600000036,0 -97.74575139999997,30.216519000000037,0 -97.74586149999998,30.21654620000004,0 -97.74762979999997,30.21673050000004,0 -97.74791009999997,30.21680250000004,0 -97.74819159999997,30.216909700000038,0 -97.74845919999997,30.217056200000037,0 -97.74865399999997,30.217192700000037,0 -97.74889339999997,30.217417700000034,0 -97.74901559999996,30.217567800000033,0 -97.74918519999996,30.217850100000035,0 -97.74927189999995,30.218067700000034,0 -97.74934539999995,30.218393300000034,0 -97.74935599999995,30.218665100000035,0 -97.74932539999995,30.218910300000033,0 -97.74921879999995,30.219296800000034,0 -97.74756629999995,30.222484500000032,0 -97.74752869999995,30.22267400000003,0 -97.74753389999995,30.222758800000026,0 -97.74701429999995,30.223556000000023,0 -97.74324989999994,30.229969300000025,0 -97.74320119999994,30.230016100000025,0 -97.74281819999995,30.230659500000026,0 -97.74275889999994,30.230731500000026,0 -97.74223559999994,30.231589400000026,0 -97.74110409999994,30.233686300000024,0 -97.73552519999996,30.243088000000025,0 -97.73523009999995,30.243696600000025,0 -97.73496839999996,30.244492400000027,0 -97.73488429999996,30.24499370000003,0 -97.73485769999995,30.245799200000025,0 -97.73491659999995,30.246331400000027,0 -97.73667969999994,30.254716500000026,0 -97.73699989999994,30.256633400000023,0 -97.73705529999995,30.25762100000003,0 -97.73700849999996,30.25833520000003,0 -97.73691259999995,30.258904500000025,0 -97.73671499999995,30.259655200000026,0 -97.73215259999995,30.272238100000024,0 -97.73206989999994,30.272305500000027,0 -97.73202969999994,30.272357700000025,0 -97.73120349999994,30.273982200000024,0 -97.73111109999994,30.274005500000023,0 -97.73085079999994,30.275060100000026,0 -97.73028799999993,30.276455000000027,0 -97.72907799999993,30.278511000000027,0 -97.72961259999992,30.278487300000027,0 -97.72999469999992,30.27850080000003,0 -97.73049619999992,30.278562900000033,0 -97.73096569999993,30.278662200000028,0 -97.74192229999993,30.28172790000003,0 -97.74204189999992,30.28198000000003,0 -97.74206919999992,30.28212980000003,0 -97.74154499999993,30.28749550000003,0 -97.74156089999993,30.287699600000035,0 -97.73946979999994,30.287518900000038,0 -97.73925449999993,30.287433700000037,0 -97.73933279999993,30.286623900000038,0 -97.73862539999992,30.286575000000038,0 -97.73843539999993,30.28653610000004,0 -97.73828819999991,30.28646570000004,0 -97.73815259999992,30.28635080000004,0 -97.73806129999993,30.28622350000004,0 -97.73800639999992,30.286091700000043,0 -97.73796239999993,30.285904200000044,0 -97.73795189999993,30.285593500000044,0 -97.73801679999993,30.285267900000044,0 -97.73808029999992,30.285106200000044,0 -97.73812149999993,30.285050900000044,0 -97.73821709999991,30.28497400000004,0 -97.73845619999992,30.284902300000045,0 -97.74031929999992,30.285046200000043,0 -97.74048199999993,30.285107400000044,0 -97.74112739999993,30.285155900000046,0 -97.74116589999991,30.28515100000004,0 -97.74153399999992,30.28497880000004,0 -97.74390909999993,30.285123800000044,0 -97.74417849999992,30.282363500000045,0 -97.74192229999993,30.281727900000046,0 -97.74183119999992,30.281526500000048,0 -97.74177619999992,30.281238400000053,0 -97.74178879999992,30.281098000000053,0 -97.74456599999992,30.273699700000055,0 -97.74079619999992,30.272665400000058,0 -97.7409769999999,30.27218400000006,0 -97.74079539999991,30.27213520000006,0 -97.7406224999999,30.27261880000006,0 -97.74346099999991,30.273410000000062,0 -97.7419195999999,30.27765440000006,0 -97.74987649999991,30.279895100000058,0 -97.7504683999999,30.279986900000058,0 -97.7532418999999,30.280215500000057,0 -97.75344989999991,30.280276800000056,0 -97.75381669999992,30.280444600000056,0 -97.75392969999992,30.280473900000057,0 -97.7560806999999,30.282011600000057,0 -97.7564757999999,30.282368400000053,0 -97.75662919999989,30.282462600000052,0 -97.7567349999999,30.28250890000005,0 -97.7590729999999,30.283075000000053,0 -97.7603519999999,30.283543800000054,0 -97.76325779999989,30.285665800000054,0 -97.76323589999988,30.285762100000053,0 -97.76323929999988,30.285844600000054,0 -97.76314899999988,30.28614340000005,0 -97.76282389999989,30.286880600000053,0 -97.76265769999988,30.287175700000052,0 -97.76271119999987,30.287279000000055,0 -97.76100289999987,30.28979740000005,0 -97.76051639999987,30.290634400000055,0 -97.75992329999987,30.291879100000052,0 -97.75939989999986,30.293283700000053,0 -97.75809439999988,30.29811940000005,0 -97.75798209999986,30.299007300000053,0 -97.75796699999987,30.29969640000005,0 -97.75821939999986,30.302312700000055,0 -97.75826169999985,30.303409900000055,0 -97.75821979999985,30.303954800000056,0 -97.75758839999985,30.307059500000054,0 -97.75752479999984,30.307112700000058,0 -97.75743029999984,30.307333000000057,0 -97.75724699999984,30.307600400000055,0 -97.75708239999985,30.307757500000054,0 -97.75674529999985,30.30798710000006,0 -97.75596669999985,30.308439100000058,0 -97.75589249999986,30.308562600000055,0 -97.75584299999984,30.30878950000006,0 -97.75885079999985,30.309293900000057,0 -97.75903039999984,30.30929830000006,0 -97.76126729999986,30.309799000000062,0 -97.76171349999986,30.309941800000058,0 -97.76199189999986,30.31007050000006,0 -97.76311109999986,30.31076930000006,0 -97.76336659999986,30.310964000000062,0 -97.76421549999986,30.31186100000006,0 -97.76431069999987,30.31193500000006,0 -97.76596849999986,30.31292040000006,0 -97.76897689999986,30.31449360000006,0 -97.76930469999986,30.314439900000064,0 -97.76994179999987,30.314211000000064,0 -97.77024139999986,30.314072100000065,0 -97.77114749999987,30.313405700000068,0 -97.77160539999986,30.313128500000072,0 -97.77187079999986,30.31350390000007,0 -97.77234209999986,30.313951000000067,0 -97.77326649999986,30.31516980000007,0 -97.77338599999986,30.315264900000066,0 -97.77377129999986,30.315439000000065,0 -97.77419499999986,30.315582700000064,0 -97.77442169999988,30.315695000000062,0 -97.77445329999986,30.315725100000062,0 -97.77446559999987,30.315751400000064,0 -97.77446199999987,30.315902900000065,0 -97.77381249999988,30.318293300000068,0 -97.77281789999988,30.320602700000066,0 -97.77276679999987,30.32092520000007,0 -97.77278919999988,30.32125410000007,0 -97.77285949999988,30.321505100000067,0 -97.77297429999989,30.32175430000007,0 </coordinates></LineString><TimeSpan><begin>2019-11-09T12:56:02.000Z</begin><end>2019-11-09T13:48:51.585Z</end></TimeSpan></Placemark><Placemark><name>Covert Park at Mount Bonnell</name><address>3800 Mt Bonnell Rd, Austin, TX 78731</address><ExtendedData><Data name="Email"><value>syugen.zhou@gmail.com</value></Data><Data name="Category"><value>Park</value></Data><Data name="Distance"><value>0</value></Data></ExtendedData><description> Park from 2019-11-09T13:48:51.585Z to 2019-11-09T15:22:43.688Z. Distance 0m </description><Point><coordinates>-97.7732083,30.3216722,0</coordinates></Point><TimeSpan><begin>2019-11-09T13:48:51.585Z</begin><end>2019-11-09T15:22:43.688Z</end></TimeSpan></Placemark><Placemark><name>Driving</name><address></address><ExtendedData><Data name="Email"><value>syugen.zhou@gmail.com</value></Data><Data name="Category"><value>Driving</value></Data><Data name="Distance"><value>1089</value></Data></ExtendedData><description> Driving from 2019-11-09T15:22:43.688Z to 2019-11-09T15:26:29.000Z. Distance 1089m </description><LineString><altitudeMode>clampToGround</altitudeMode><extrude>1</extrude><tesselate>1</tesselate><coordinates>-97.7730414,30.3218972,0 -97.77300819999999,30.321826299999998,0 -97.7729153,30.3216291,0 -97.77288449999999,30.3215631,0 -97.7728595,30.3215051,0 -97.7728264,30.321403699999994,0 -97.77281789999999,30.3213749,0 -97.7727892,30.321254099999997,0 -97.7727739,30.321090499999997,0 -97.7727694,30.321006199999996,0 -97.7727668,30.32092519999999,0 -97.77277070000001,30.320849999999993,0 -97.77277780000001,30.320790499999994,0 -97.7727875,30.320727399999996,0 -97.7727998,30.320674499999992,0 -97.7728179,30.320602699999988,0 -97.7728637,30.320485699999992,0 -97.7729079,30.32038659999999,0 -97.77294080000001,30.320322099999988,0 -97.77298160000002,30.32024239999999,0 -97.77303480000002,30.320127999999993,0 -97.77308290000002,30.320004799999996,0 -97.77312980000002,30.31988979999999,0 -97.7732265,30.31965749999999,0 -97.77328700000001,30.319524699999988,0 -97.77343160000001,30.31919399999999,0 -97.77367530000001,30.31862399999999,0 -97.7738125,30.31829329999999,0 -97.77386800000002,30.31812339999999,0 -97.77392900000001,30.317931199999993,0 -97.77397090000002,30.317780299999992,0 -97.77408860000001,30.31731349999999,0 -97.77420190000001,30.316920799999988,0 -97.77426650000001,30.31667419999999,0 -97.77446200000001,30.315902899999987,0 -97.77446830000001,30.315864099999988,0 -97.77447110000001,30.31583209999999,0 -97.77447200000002,30.315811299999993,0 -97.77447120000002,30.31579069999999,0 -97.77446780000002,30.31576279999999,0 -97.77446560000003,30.315751399999986,0 -97.77446190000002,30.315741099999986,0 -97.77445790000002,30.315732699999987,0 -97.77445330000002,30.315725099999987,0 -97.77444640000002,30.31571699999999,0 -97.77443860000001,30.315709699999985,0 -97.7744217,30.315694999999984,0 -97.77440630000001,30.315683999999987,0 -97.77438650000002,30.315672399999986,0 -97.77427500000002,30.31561809999999,0 -97.77421470000002,30.31559209999999,0 -97.77419500000002,30.315582699999986,0 -97.77415600000002,30.315568199999987,0 -97.77396760000002,30.315502499999987,0 -97.77386940000002,30.315470799999986,0 -97.77377130000002,30.31543899999999,0 -97.77355450000002,30.31534399999999,0 -97.77347060000002,30.315308399999992,0 -97.77342630000001,30.315286799999992,0 -97.77341890000001,30.315282799999988,0 -97.773386,30.315264899999992,0 -97.7733427,30.31523439999999,0 -97.77330860000001,30.31520749999999,0 -97.7732665,30.315169799999993,0 -97.7732362,30.315135699999995,0 -97.7731888,30.315083899999994,0 -97.7731666,30.315053799999994,0 -97.7729692,30.31477409999999,0 -97.77273450000001,30.314467099999995,0 -97.77257560000001,30.314260999999995,0 -97.77244370000001,30.314082299999992,0 -97.77240020000002,30.31402259999999,0 -97.77234210000002,30.313950999999992,0 -97.77228210000003,30.31388389999999,0 -97.77222790000002,30.313827199999984,0 -97.77222070000002,30.31382089999999,0 -97.77194240000003,30.31357539999999,0 -97.77191160000002,30.313547699999987,0 -97.77189090000002,30.313526099999986,0 -97.77187080000002,30.313503899999986,0 -97.77185150000001,30.313479099999984,0 -97.77180940000002,30.313420299999983,0 -97.77174770000002,30.313330199999985,0 -97.77160540000003,30.31312849999999,0 -97.77196270000003,30.312972099999993,0 -97.77216280000003,30.312887999999994,0 -97.77225510000004,30.312856599999993,0 -97.77234670000004,30.312829299999994,0 -97.77247020000004,30.312800399999993,0 -97.77260680000005,30.312772499999994,0 -97.77291110000004,30.312722699999995,0 -97.77359030000004,30.312600999999997,0 -97.77367530000005,30.312588199999997,0 -97.77378370000004,30.312573999999998,0 -97.77380400000004,30.312572799999998,0 -97.77378780000005,30.312409799999994,0 -97.77380880000004,30.312363899999998,0 -97.77369320000004,30.312322299999995,0 -97.77362810000004,30.312268299999996,0 -97.77361040000004,30.312246499999993,0 </coordinates></LineString><TimeSpan><begin>2019-11-09T15:22:43.688Z</begin><end>2019-11-09T15:26:29.000Z</end></TimeSpan></Placemark><Placemark><name>Tarrytown</name><address>Austin, TX 78703</address><ExtendedData><Data name="Email"><value>syugen.zhou@gmail.com</value></Data><Data name="Category"><value></value></Data><Data name="Distance"><value>0</value></Data></ExtendedData><description>  from 2019-11-09T15:26:29.000Z to 2019-11-09T15:28:47.000Z. Distance 0m </description><Point><coordinates>-97.7685096,30.3008287,0</coordinates></Point><TimeSpan><begin>2019-11-09T15:26:29.000Z</begin><end>2019-11-09T15:28:47.000Z</end></TimeSpan></Placemark><Placemark><name>Hiking</name><address></address><ExtendedData><Data name="Email"><value>syugen.zhou@gmail.com</value></Data><Data name="Category"><value>Hiking</value></Data><Data name="Distance"><value>686</value></Data></ExtendedData><description> Hiking from 2019-11-09T15:28:47.000Z to 2019-11-09T16:07:43.898Z. Distance 686m </description><LineString><altitudeMode>clampToGround</altitudeMode><extrude>1</extrude><tesselate>1</tesselate><coordinates>-97.7735442894203,30.31229783132604,0 -97.7735442894203,30.31229783132604,0 -97.7735205,30.3122862,0 -97.774631,30.3122309,0 -97.7752426,30.311096,0 -97.7749555,30.3101157,0 -97.7749604,30.3101856,0 -97.7743889,30.3105819,0 -97.7746332,30.3117823,0 -97.7734969,30.3120012,0 -97.7734969,30.3120012,0 </coordinates></LineString><TimeSpan><begin>2019-11-09T15:28:47.000Z</begin><end>2019-11-09T16:07:43.898Z</end></TimeSpan></Placemark><Placemark><name>Driving</name><address></address><ExtendedData><Data name="Email"><value>syugen.zhou@gmail.com</value></Data><Data name="Category"><value>Driving</value></Data><Data name="Distance"><value>16506</value></Data></ExtendedData><description> Driving from 2019-11-09T16:07:43.898Z to 2019-11-09T16:42:33.236Z. Distance 16506m </description><LineString><altitudeMode>clampToGround</altitudeMode><extrude>1</extrude><tesselate>1</tesselate><coordinates>-97.77362869999999,30.312136199999998,0 -97.7735884,30.312175699999994,0 -97.77360449999999,30.312239199999997,0 -97.7736932,30.312322299999998,0 -97.77380879999998,30.3123639,0 -97.77380399999998,30.312572800000005,0 -97.77234669999999,30.312829300000008,0 -97.77160539999998,30.31312850000001,0 -97.77187079999999,30.313503900000008,0 -97.77234209999999,30.313951000000003,0 -97.77338599999997,30.315264900000003,0 -97.77442169999999,30.315695000000005,0 -97.77446559999998,30.315751400000007,0 -97.77381249999999,30.318293300000008,0 -97.77281789999999,30.32060270000001,0 -97.77278919999999,30.32125410000001,0 -97.7732949,30.32256540000001,0 -97.7733488,30.32365610000001,0 -97.7739939,30.32464240000001,0 -97.77416199999999,30.32515030000001,0 -97.77435729999999,30.32541110000001,0 -97.77478359999999,30.32677330000001,0 -97.7747766,30.32733270000001,0 -97.77509419999998,30.32765320000001,0 -97.77658559999998,30.33158960000001,0 -97.77663539999998,30.332051800000016,0 -97.77654889999998,30.332425700000016,0 -97.77611499999998,30.33320760000002,0 -97.77592829999999,30.33460910000002,0 -97.77595769999999,30.33489380000002,0 -97.77605779999999,30.33512710000002,0 -97.7771468,30.33632860000002,0 -97.7771509,30.336495300000017,0 -97.77709519999999,30.336555800000014,0 -97.7770153,30.336586400000012,0 -97.7768638,30.336582800000013,0 -97.7760725,30.336355700000013,0 -97.77598259999999,30.336359800000015,0 -97.77588839999999,30.33642150000001,0 -97.77587619999998,30.336485300000014,0 -97.77668549999999,30.338821000000017,0 -97.77682289999998,30.338954800000014,0 -97.77707109999999,30.339075900000015,0 -97.77797879999997,30.339231400000013,0 -97.77820799999998,30.339356800000015,0 -97.77842849999996,30.339582800000017,0 -97.77892249999996,30.340599300000015,0 -97.77889619999996,30.341308200000018,0 -97.77949939999996,30.341357400000017,0 -97.77968459999997,30.341331200000013,0 -97.78229669999996,30.341706400000014,0 -97.78260829999996,30.341859200000012,0 -97.78483959999996,30.343640200000014,0 -97.78503169999995,30.343932200000012,0 -97.78522249999995,30.344445300000007,0 -97.78525859999995,30.34479750000001,0 -97.78500159999996,30.34577130000001,0 -97.78473629999995,30.346276200000013,0 -97.78474479999996,30.346619500000013,0 -97.78547009999994,30.347923600000012,0 -97.78528389999994,30.351017600000016,0 -97.78508489999994,30.351322400000015,0 -97.78482829999994,30.351508300000017,0 -97.78330599999995,30.352227300000017,0 -97.78248679999996,30.353077100000014,0 -97.78235049999995,30.35330730000002,0 -97.78230819999996,30.35361160000002,0 -97.78243919999996,30.354486500000018,0 -97.78298489999996,30.355886700000017,0 -97.78331229999996,30.356252400000013,0 -97.78482699999996,30.357129700000012,0 -97.78553819999996,30.35782450000001,0 -97.78665979999997,30.358471500000014,0 -97.78760349999996,30.35885310000001,0 -97.78994489999997,30.35932460000001,0 -97.79153389999996,30.35939180000001,0 -97.79197029999996,30.35951280000001,0 -97.79263689999996,30.35987020000001,0 -97.79345309999997,30.360686400000006,0 -97.79352969999995,30.36071410000001,0 -97.79554239999996,30.362946600000008,0 -97.79697529999996,30.365237100000005,0 -97.79748089999995,30.36585800000001,0 -97.79810079999994,30.36633890000001,0 -97.80007239999995,30.36746400000001,0 -97.80078949999994,30.36802290000001,0 -97.80263499999994,30.37034700000001,0 -97.80318809999993,30.37123360000001,0 -97.80471229999993,30.37471540000001,0 -97.80545879999994,30.37713030000001,0 -97.80613629999993,30.378377100000012,0 -97.80707859999993,30.37940030000001,0 -97.80833079999992,30.38037410000001,0 -97.80976959999992,30.38122070000001,0 -97.81211979999992,30.38215400000001,0 -97.81381859999993,30.38243820000001,0 -97.81601299999993,30.38251110000001,0 -97.81663899999992,30.382639400000006,0 -97.81778969999993,30.383097400000004,0 -97.82739729999993,30.389927800000006,0 -97.83077969999994,30.391765700000004,0 -97.83189829999993,30.392048100000004,0 -97.83650529999994,30.392081500000003,0 -97.83716169999994,30.3922163,0 -97.83963619999994,30.392368400000002,0 -97.84378019999994,30.393610700000004,0 -97.84445299999993,30.393918200000005,0 -97.84901979999992,30.396837900000005,0 -97.84953989999994,30.397477000000002,0 -97.85282469999994,30.402801000000004,0 -97.85312159999994,30.403148,0 -97.85394729999994,30.403832800000007,0 -97.85694699999995,30.398150800000007,0 -97.85702739999995,30.398131700000004,0 -97.85738669999995,30.3976899,0 -97.85810639999995,30.397167200000002,0 -97.86201479999995,30.395938899999997,0 -97.86222139999995,30.3957986,0 -97.86310319999995,30.395525399999997,0 -97.86918789999996,30.3943333,0 -97.87024049999995,30.3979959,0 -97.87050399999995,30.3985054,0 -97.87116409999994,30.399377000000005,0 -97.87158569999995,30.400182600000004,0 -97.87223079999995,30.400738500000006,0 -97.87232719999996,30.400990000000007,0 -97.87225939999995,30.401289800000008,0 -97.87180569999995,30.401890400000006,0 -97.87111939999996,30.403614100000006,0 -97.87110869999995,30.403794600000005,0 -97.87119179999995,30.404058300000006,0 -97.87134869999996,30.404242200000006,0 -97.87316849999995,30.405136900000006,0 -97.87336519999995,30.40489180000001,0 -97.87343999999995,30.404889500000007,0 -97.87423089999994,30.405247600000006,0 </coordinates></LineString><TimeSpan><begin>2019-11-09T16:07:43.898Z</begin><end>2019-11-09T16:42:33.236Z</end></TimeSpan></Placemark><Placemark><name>The Oasis On Lake Travis</name><address>6550 Comanche Trail, Austin, TX 78732</address><ExtendedData><Data name="Email"><value>syugen.zhou@gmail.com</value></Data><Data name="Category"><value>Tex Mex</value></Data><Data name="Distance"><value>0</value></Data></ExtendedData><description> Tex Mex from 2019-11-09T16:42:33.236Z to 2019-11-09T18:02:11.046Z. Distance 0m </description><Point><coordinates>-97.8740631,30.405661,0</coordinates></Point><TimeSpan><begin>2019-11-09T16:42:33.236Z</begin><end>2019-11-09T18:02:11.046Z</end></TimeSpan></Placemark><Placemark><name>Driving</name><address></address><ExtendedData><Data name="Email"><value>syugen.zhou@gmail.com</value></Data><Data name="Category"><value>Driving</value></Data><Data name="Distance"><value>174301</value></Data></ExtendedData><description> Driving from 2019-11-09T18:02:11.046Z to 2019-11-09T20:23:27.000Z. Distance 174301m </description><LineString><altitudeMode>clampToGround</altitudeMode><extrude>1</extrude><tesselate>1</tesselate><coordinates>-97.8735736,30.4049487,0 -97.87344,30.4048895,0 -97.8733652,30.4048918,0 -97.8732674,30.4049912,0 -97.8732278,30.405079300000004,0 -97.87147209999999,30.404223700000003,0 -97.87137279999999,30.4041473,0 -97.8712535,30.4040062,0 -97.8711864,30.4038431,0 -97.871169,30.4037286,0 -97.87152189999999,30.402465399999997,0 -97.8718057,30.401890399999996,0 -97.87225939999999,30.401289799999994,0 -97.87229699999999,30.401195299999998,0 -97.87232719999999,30.400989999999993,0 -97.87230869999999,30.400902399999993,0 -97.8722308,30.400738499999992,0 -97.87210649999999,30.400601899999995,0 -97.87158569999998,30.400182599999994,0 -97.87138959999999,30.399901699999994,0 -97.87116409999999,30.39937699999999,0 -97.87050399999998,30.398505399999987,0 -97.87031119999999,30.39817449999999,0 -97.8702405,30.39799589999999,0 -97.87017399999999,30.397649199999993,0 -97.8698909,30.396794899999993,0 -97.8698066,30.396180599999994,0 -97.8694893,30.395391199999995,0 -97.8691879,30.394333299999996,0 -97.86310320000001,30.395525399999993,0 -97.8622214,30.395798599999992,0 -97.8619802,30.39582389999999,0 -97.8584058,30.396907999999993,0 -97.85782920000001,30.397198899999992,0 -97.8572513,30.39765389999999,0 -97.8571787,30.397737899999992,0 -97.8565894,30.39789129999999,0 -97.85607490000001,30.39788519999999,0 -97.85590040000001,30.39791419999999,0 -97.85508260000002,30.397652199999992,0 -97.85470380000001,30.39760349999999,0 -97.85400990000001,30.397629699999992,0 -97.85093700000002,30.39800129999999,0 -97.850537,30.397919299999987,0 -97.85019120000001,30.397791499999986,0 -97.8499106,30.397563899999987,0 -97.84972760000001,30.397461099999987,0 -97.84942410000001,30.397050899999986,0 -97.8489174,30.39658489999999,0 -97.84753010000001,30.39576769999999,0 -97.84682330000001,30.39543169999999,0 -97.84555710000001,30.394564799999987,0 -97.84492120000002,30.394014899999988,0 -97.84433720000001,30.393647699999985,0 -97.84409740000001,30.393538399999986,0 -97.83955220000001,30.392180999999983,0 -97.83928880000002,30.392130399999985,0 -97.83702660000002,30.39202279999998,0 -97.83650530000001,30.39208149999998,0 -97.83189830000002,30.39204809999998,0 -97.83154170000002,30.391984899999976,0 -97.83077970000002,30.391765699999972,0 -97.83033820000001,30.391571699999975,0 -97.82739730000002,30.389927799999974,0 -97.81778970000002,30.383097399999972,0 -97.81718270000002,30.38281919999997,0 -97.81663900000002,30.382639399999974,0 -97.81601300000003,30.382511099999977,0 -97.81568990000002,30.382477299999977,0 -97.81381860000003,30.382438199999978,0 -97.81280470000003,30.382312799999976,0 -97.81211980000002,30.38215399999998,0 -97.80976960000002,30.38122069999998,0 -97.80910820000003,30.38086879999998,0 -97.80833080000004,30.38037409999998,0 -97.80707860000004,30.37940029999998,0 -97.80668920000004,30.379025499999983,0 -97.80613630000003,30.37837709999998,0 -97.80577260000004,30.37781829999998,0 -97.80545880000004,30.37713029999998,0 -97.80471230000003,30.374715399999978,0 -97.80318810000003,30.37123359999998,0 -97.80263500000004,30.370346999999978,0 -97.80141520000004,30.36872789999998,0 -97.80078950000004,30.36802289999998,0 -97.80007240000005,30.36746399999998,0 -97.79810080000006,30.366338899999977,0 -97.79748090000005,30.365857999999978,0 -97.79697530000006,30.365237099999973,0 -97.79587610000004,30.363414999999975,0 -97.79554240000004,30.362946599999976,0 -97.79352970000005,30.360714099999978,0 -97.79351350000005,30.360597299999977,0 -97.79301160000004,30.360045599999975,0 -97.79301280000004,30.359964199999975,0 -97.79275030000005,30.359528499999975,0 -97.79251560000006,30.359028299999974,0 -97.79246620000006,30.358736099999977,0 -97.79249000000006,30.358396199999977,0 -97.79257320000006,30.358045699999977,0 -97.79255900000007,30.35794949999998,0 -97.79327210000007,30.356051599999976,0 -97.79353310000008,30.355566599999975,0 -97.79357000000007,30.35543619999997,0 -97.79628420000007,30.35097619999997,0 -97.79642690000007,30.35079939999997,0 -97.79903580000007,30.346715999999976,0 -97.79919710000007,30.346534299999973,0 -97.80941670000007,30.330536099999975,0 -97.81005520000006,30.329643699999977,0 -97.81224950000008,30.326002899999978,0 -97.81284600000008,30.32526339999998,0 -97.81320590000009,30.32453489999998,0 -97.81395140000008,30.323307299999982,0 -97.81447070000007,30.32270939999998,0 -97.81512670000008,30.32214359999998,0 -97.81583270000007,30.32166999999998,0 -97.82394670000008,30.31747679999998,0 -97.82470510000007,30.31699059999998,0 -97.82527840000007,30.31652819999998,0 -97.82566420000008,30.316136099999976,0 -97.82611100000008,30.315554599999974,0 -97.82621540000007,30.315460199999972,0 -97.82663100000008,30.314702999999973,0 -97.82676960000008,30.314348399999975,0 -97.82691040000007,30.313724799999974,0 -97.82699000000007,30.312993599999974,0 -97.82698860000006,30.31264319999997,0 -97.82680870000007,30.31152859999997,0 -97.82608860000008,30.309454999999975,0 -97.82550850000007,30.307405999999975,0 -97.82535720000007,30.306627899999974,0 -97.82530700000007,30.305860899999974,0 -97.82538540000006,30.30542299999998,0 -97.82555210000007,30.304910299999978,0 -97.82693070000006,30.30240519999998,0 -97.82698020000008,30.302344799999982,0 -97.82740460000008,30.301556099999978,0 -97.82793740000007,30.30005209999998,0 -97.82807110000007,30.299353099999976,0 -97.82843740000008,30.291378899999977,0 -97.82829400000008,30.29029809999998,0 -97.82795230000008,30.28915349999998,0 -97.82754140000009,30.288217899999978,0 -97.82703200000009,30.28738989999998,0 -97.81816700000009,30.27541199999998,0 -97.81796970000009,30.275005199999985,0 -97.81779940000008,30.274523499999987,0 -97.81767680000009,30.273770199999987,0 -97.8176460000001,30.273214999999983,0 -97.81833330000009,30.267264299999983,0 -97.8183301000001,30.266836899999984,0 -97.8182272000001,30.266165499999985,0 -97.81803730000009,30.26552389999998,0 -97.81773870000009,30.26487919999998,0 -97.8171926000001,30.264062199999984,0 -97.8035890000001,30.246774499999983,0 -97.8031902000001,30.24613489999998,0 -97.8027530000001,30.24526729999998,0 -97.8026958000001,30.24507189999998,0 -97.79947500000009,30.238535399999982,0 -97.79944220000009,30.238520599999983,0 -97.79938610000009,30.238452499999983,0 -97.7978751000001,30.235464399999984,0 -97.79739170000009,30.234811899999986,0 -97.7970553000001,30.234459199999982,0 -97.7965811000001,30.234048799999986,0 -97.79618830000008,30.233772599999988,0 -97.79575420000009,30.233523599999987,0 -97.79379350000009,30.232574099999987,0 -97.79373850000009,30.232487399999986,0 -97.78632880000008,30.228951299999988,0 -97.78527430000008,30.228524899999986,0 -97.78455170000008,30.22829209999999,0 -97.78317400000009,30.22796469999999,0 -97.78129420000009,30.227734699999992,0 -97.77737880000008,30.227572599999988,0 -97.77361400000008,30.22760419999999,0 -97.77233400000009,30.22748909999999,0 -97.77124950000008,30.227239899999987,0 -97.77042940000008,30.226959699999984,0 -97.76916480000008,30.226338699999985,0 -97.76376140000009,30.222714299999986,0 -97.76366260000009,30.222628099999984,0 -97.76282390000009,30.222101299999984,0 -97.76038800000008,30.220874099999982,0 -97.76036700000009,30.22079249999998,0 -97.76034060000009,30.220766099999985,0 -97.75680170000008,30.219017499999985,0 -97.75571920000007,30.218322199999985,0 -97.75412160000008,30.21694509999999,0 -97.75408300000008,30.216887499999984,0 -97.75352210000008,30.216394299999987,0 -97.75326130000008,30.216071499999984,0 -97.75315440000007,30.21587479999998,0 -97.75304790000007,30.21559219999998,0 -97.75298080000007,30.215152499999984,0 -97.75300890000007,30.214818199999986,0 -97.75313120000007,30.21438769999999,0 -97.75497810000007,30.211069899999988,0 -97.75709570000008,30.207560299999987,0 -97.75709400000008,30.207437199999987,0 -97.75807630000007,30.206106799999983,0 -97.77139680000008,30.189521099999986,0 -97.77244980000008,30.188040599999983,0 -97.78700720000006,30.165794299999984,0 -97.78818560000008,30.163621099999983,0 -97.78875420000007,30.162359599999984,0 -97.78976120000007,30.159658099999984,0 -97.79252040000007,30.15027149999998,0 -97.79635390000007,30.139602699999976,0 -97.80704650000007,30.112662599999975,0 -97.81551510000007,30.09467059999998,0 -97.81682620000008,30.092488899999974,0 -97.81691280000007,30.092385199999978,0 -97.82222820000007,30.08296139999998,0 -97.84682450000007,30.03311819999998,0 -97.84832000000007,30.030637599999984,0 -97.85993610000007,30.014365799999982,0 -97.86925690000007,29.99833319999998,0 -97.87013250000007,29.99654299999998,0 -97.87076940000007,29.99498859999998,0 -97.87135570000007,29.99328999999998,0 -97.87190880000007,29.991230299999977,0 -97.87382400000007,29.981113199999974,0 -97.87495790000006,29.969600299999975,0 -97.87524320000006,29.967890599999976,0 -97.87850970000007,29.952261399999976,0 -97.87932460000006,29.949670799999975,0 -97.88002860000006,29.947934499999977,0 -97.90134920000007,29.906442299999973,0 -97.90207580000006,29.905166999999977,0 -97.90368520000007,29.902770899999975,0 -97.90551330000007,29.900499799999974,0 -97.91154590000006,29.894128499999976,0 -97.92149720000006,29.883174699999977,0 -97.92318680000007,29.881521599999974,0 -97.92536920000008,29.87969849999998,0 -97.93726100000008,29.870944699999978,0 -97.93863640000006,29.86981769999998,0 -98.02027960000007,29.796604899999977,0 -98.02916180000007,29.78702679999998,0 -98.04247700000008,29.768886599999977,0 -98.04834070000007,29.76035259999998,0 -98.05848180000007,29.74627229999998,0 -98.05907200000007,29.745551999999982,0 -98.06038550000007,29.744207499999984,0 -98.08349030000007,29.724552799999984,0 -98.08470460000007,29.72328719999998,0 -98.08554690000007,29.72225859999998,0 -98.08612950000007,29.72144039999998,0 -98.08700170000006,29.72001079999998,0 -98.08793460000007,29.718020299999978,0 -98.08829590000006,29.717013999999978,0 -98.08875430000006,29.71533909999998,0 -98.09031930000006,29.707119599999977,0 -98.09060470000006,29.706031899999978,0 -98.09120190000007,29.704460099999977,0 -98.09172310000007,29.70339009999998,0 -98.09242690000006,29.702217799999975,0 -98.09355840000006,29.70071719999997,0 -98.09455900000006,29.69963419999997,0 -98.09534150000006,29.698911299999974,0 -98.09637190000007,29.69808139999997,0 -98.09791070000006,29.697065699999975,0 -98.09926820000005,29.696345299999972,0 -98.12205820000005,29.687146799999976,0 -98.12339550000006,29.68667569999997,0 -98.12447990000005,29.68636169999997,0 -98.12593870000006,29.686026499999972,0 -98.13955800000006,29.68363139999997,0 -98.14061950000006,29.68337029999997,0 -98.14209780000006,29.68285799999997,0 -98.14284670000006,29.68251879999997,0 -98.14408690000006,29.681817399999968,0 -98.15781240000005,29.67215389999997,0 -98.16904950000006,29.663847699999966,0 -98.17062740000006,29.662933099999968,0 -98.18217660000005,29.658085399999962,0 -98.18320130000005,29.657558999999967,0 -98.18680360000006,29.655063499999965,0 -98.20833310000006,29.641743999999964,0 -98.25824240000006,29.616253299999965,0 -98.25942620000006,29.61556489999996,0 -98.26068250000006,29.614699599999962,0 -98.26654800000006,29.609768599999963,0 -98.27567000000006,29.601027599999963,0 -98.27696910000006,29.60001319999996,0 -98.27820560000006,29.599226999999964,0 -98.30031190000005,29.58801029999996,0 -98.30100150000005,29.587596399999963,0 -98.30835440000007,29.58257989999996,0 -98.30944190000007,29.58199019999996,0 -98.31029590000007,29.581611299999963,0 -98.31977120000008,29.57825119999996,0 -98.32134640000008,29.57755289999996,0 -98.32322700000007,29.576469699999965,0 -98.32485950000009,29.575258799999965,0 -98.34669000000008,29.55643559999997,0 -98.34765110000008,29.55571709999997,0 -98.34852080000007,29.555149799999967,0 -98.34991160000007,29.55437979999997,0 -98.35203620000007,29.553392199999966,0 -98.35353770000006,29.55282109999997,0 -98.35807840000007,29.55149889999997,0 -98.35931340000006,29.551044099999967,0 -98.36074720000006,29.550396199999966,0 -98.38620920000007,29.536026999999965,0 -98.38758850000006,29.535053399999967,0 -98.38832210000007,29.53445069999997,0 -98.38927950000006,29.533549999999966,0 -98.39026800000006,29.53245119999997,0 -98.39093190000006,29.531597799999968,0 -98.39171510000006,29.53036549999997,0 -98.39215020000006,29.52955919999997,0 -98.39269870000007,29.528333599999968,0 -98.39394410000007,29.52419549999997,0 -98.39405570000008,29.524072199999967,0 -98.39467090000008,29.522615699999964,0 -98.39499020000007,29.522103299999966,0 -98.39534240000008,29.521685999999963,0 -98.39578200000008,29.52129239999996,0 -98.39620340000008,29.521000799999964,0 -98.39775180000008,29.520106499999965,0 -98.39903610000007,29.51920689999997,0 -98.40076150000009,29.517717499999964,0 -98.40091510000008,29.517537599999965,0 -98.40169820000008,29.516990199999967,0 -98.40225980000008,29.516698399999964,0 -98.40306780000009,29.516392499999967,0 -98.40354780000008,29.516264899999967,0 -98.40436260000008,29.51612829999997,0 -98.40497560000007,29.51609189999997,0 -98.43439870000009,29.51615799999997,0 -98.43532890000007,29.51610059999997,0 -98.43784210000007,29.515792199999968,0 -98.43928230000007,29.51574089999997,0 -98.44004970000007,29.515773899999967,0 -98.44309370000008,29.516139299999963,0 -98.44383870000007,29.51618139999996,0 -98.45416300000007,29.516199199999964,0 -98.46229770000006,29.516670999999963,0 -98.46318340000006,29.516778399999964,0 -98.46472380000006,29.517087499999963,0 -98.46776120000007,29.51797409999996,0 -98.47664750000007,29.52001389999996,0 -98.47839110000007,29.520296699999957,0 -98.47930430000007,29.520380699999958,0 -98.51236270000007,29.520819199999956,0 -98.51390650000008,29.52075499999995,0 -98.51533660000007,29.520621299999952,0 -98.51778540000008,29.52020489999995,0 -98.52037080000008,29.51951519999995,0 -98.52786610000007,29.51659489999995,0 -98.52838430000007,29.516344899999947,0 -98.52976960000007,29.515497499999945,0 -98.53311660000007,29.512749199999945,0 -98.53394620000007,29.512231399999948,0 -98.53458510000006,29.51192289999995,0 -98.54106510000007,29.509538999999947,0 -98.54182350000006,29.50917309999995,0 -98.54254010000005,29.50874269999995,0 -98.54311460000005,29.50832949999995,0 -98.54362960000005,29.507894799999946,0 -98.54382270000005,29.507848599999946,0 -98.54610800000005,29.505772399999948,0 -98.54658190000005,29.50541549999995,0 -98.54707840000006,29.505107399999947,0 -98.54751120000006,29.504910299999946,0 -98.54787440000005,29.504809399999946,0 -98.54810900000005,29.504787099999948,0 -98.54847470000006,29.504818699999948,0 -98.54881820000006,29.50492759999995,0 -98.54902800000005,29.50504149999995,0 -98.54923040000006,29.505196499999954,0 -98.54946510000005,29.505431399999956,0 -98.54968650000005,29.505709699999954,0 -98.54978770000005,29.505780799999954,0 -98.55014360000004,29.506302599999955,0 -98.55116440000005,29.50826339999995,0 -98.55160910000004,29.509379199999955,0 -98.55165990000005,29.50942049999996,0 -98.55334230000004,29.51513969999996,0 -98.55328370000004,29.51532819999996,0 -98.55359750000004,29.517233599999958,0 -98.55357510000005,29.517287799999956,0 -98.55465240000004,29.52102819999996,0 -98.55479640000004,29.521228899999958,0 -98.55529510000004,29.522754899999956,0 -98.55545200000003,29.522871299999956,0 -98.55554620000004,29.522889099999954,0 -98.55603450000004,29.522792199999955,0 -98.55610030000003,29.522751499999952,0 -98.55617550000004,29.52262199999995,0 -98.55521640000003,29.51928789999995,0 -98.55514350000003,29.519165199999946,0 -98.55434400000003,29.51637089999995,0 -98.55480030000003,29.51626959999995,0 -98.55481620000003,29.51629369999995,0 -98.55486270000004,29.516325399999946,0 -98.55493580000004,29.516335599999945,0 -98.55569900000003,29.51617559999994,0 -98.55581040000003,29.516524099999938,0 -98.55525690000003,29.516634899999936,0 -98.55522970000003,29.516542599999937,0 -98.55525550000003,29.51646369999993,0 -98.55576320000004,29.516352599999934,0 -98.55569900000005,29.516175599999933,0 -98.55493580000005,29.516335599999938,0 -98.55486270000006,29.51632539999994,0 -98.55481620000005,29.51629369999994,0 -98.55480030000004,29.516269599999944,0 -98.55434400000004,29.51637089999994,0 -98.55408930000004,29.51546249999994,0 -98.55399160000005,29.51539919999994,0 -98.55352890000005,29.514349799999945,0 -98.55336720000004,29.51424219999994,0 -98.55170440000003,29.50868279999994,0 -98.55060800000004,29.50629699999994,0 -98.55032000000004,29.505544199999942,0 -98.54844930000004,29.499004299999946,0 -98.54814480000005,29.496689699999944,0 -98.54797290000006,29.495832799999942,0 -98.54682800000006,29.491820799999942,0 -98.54624720000005,29.490283399999942,0 -98.54545350000005,29.488796799999946,0 -98.54510070000005,29.488275299999945,0 -98.54428640000005,29.48732799999995,0 -98.54337350000004,29.486537799999944,0 -98.54265300000004,29.486049899999948,0 -98.54210160000005,29.485742199999944,0 -98.54093800000005,29.485232799999945,0 -98.53993040000005,29.484930799999947,0 -98.53904130000005,29.48475219999995,0 -98.53780310000005,29.484637499999945,0 -98.53311710000004,29.484629299999945,0 -98.53189150000004,29.484488699999943,0 -98.53069910000005,29.484198599999942,0 -98.52948030000005,29.483730899999944,0 -98.52866180000004,29.483304599999947,0 -98.52815690000003,29.482987099999942,0 -98.51874450000004,29.475705499999943,0 -98.51792600000003,29.474909599999943,0 -98.51748450000004,29.47436599999994,0 -98.51693460000003,29.47351269999994,0 -98.51668340000003,29.47301339999994,0 -98.51640050000003,29.472291799999937,0 -98.51622170000003,29.471652299999942,0 -98.51609510000003,29.47091769999994,0 -98.51603660000004,29.46973299999994,0 -98.51603990000004,29.458949199999942,0 -98.51597250000003,29.458221699999942,0 -98.51580610000003,29.457319099999943,0 -98.51568050000003,29.457178099999947,0 -98.51543190000004,29.455717999999944,0 -98.51540360000003,29.454516499999947,0 -98.51560890000003,29.451637099999946,0 -98.51558790000004,29.450697299999945,0 -98.51547500000004,29.449695499999947,0 -98.51491680000004,29.446776399999948,0 -98.51489130000003,29.446180499999947,0 -98.51498890000003,29.444148299999945,0 -98.51493150000005,29.443746899999947,0 -98.51471030000003,29.443063999999946,0 -98.51444340000003,29.442573899999946,0 -98.51423910000004,29.442288099999942,0 -98.51393410000004,29.441947099999943,0 -98.51357760000003,29.44163309999994,0 -98.51307370000004,29.44129369999994,0 -98.51266140000004,29.44108439999994,0 -98.51222310000006,29.440914699999944,0 -98.51182730000005,29.44080469999994,0 -98.50748960000006,29.43996489999994,0 -98.50678730000006,29.439738299999938,0 -98.50634460000005,29.43953169999994,0 -98.50575860000005,29.439135799999935,0 -98.50540580000005,29.438790799999932,0 -98.50519340000005,29.438529599999935,0 -98.50494960000005,29.438136199999935,0 -98.50440870000004,29.43690829999994,0 -98.50441630000005,29.43679629999994,0 -98.50383560000004,29.435558899999943,0 -98.50362530000004,29.435211299999946,0 -98.50143750000004,29.432319299999946,0 -98.50110780000004,29.431628499999945,0 -98.50093040000003,29.430951899999943,0 -98.50084990000003,29.430230199999947,0 -98.50089200000004,29.428852099999943,0 -98.50232490000003,29.41783849999995,0 -98.50240090000003,29.41749449999995,0 -98.50239300000003,29.41737279999995,0 -98.50261310000003,29.416796299999948,0 -98.50305740000003,29.416058699999947,0 -98.50344310000004,29.415598799999945,0 -98.50421880000003,29.414835399999944,0 -98.50691570000004,29.412467199999945,0 -98.50783060000003,29.411409899999946,0 -98.50820090000005,29.410869599999945,0 -98.50881050000005,29.409732199999944,0 -98.50886690000004,29.409694599999945,0 -98.51164630000004,29.403288099999944,0 -98.51185900000004,29.402504499999946,0 -98.51192350000004,29.401973199999944,0 -98.51191010000004,29.401332699999944,0 -98.51160460000004,29.39941229999994,0 -98.51167870000003,29.39926969999994,0 -98.51169300000004,29.39871389999994,0 -98.51184060000003,29.39812489999994,0 -98.51182630000002,29.398013099999936,0 -98.51185600000002,29.397422499999937,0 -98.51182320000004,29.397163599999935,0 -98.51171750000003,29.396847499999936,0 -98.51158170000004,29.396598999999934,0 -98.51116470000004,29.396168399999933,0 -98.51094040000004,29.395994599999934,0 -98.51027060000004,29.395654999999934,0 -98.50961760000004,29.395490999999936,0 -98.50918630000004,29.395468999999938,0 -98.50882140000004,29.395505799999935,0 -98.50702500000004,29.395934899999936,0 -98.50625330000004,29.39599869999994,0 -98.50610060000004,29.396078399999936,0 -98.50132810000004,29.39606849999994,0 -98.50125940000004,29.39598939999994,0 -98.50123630000004,29.395978599999946,0 -98.49905730000003,29.395731099999946,0 -98.49864310000004,29.39573009999995,0 -98.49848310000003,29.39561229999995,0 -98.49835930000003,29.395411699999947,0 -98.49841140000004,29.395197999999947,0 -98.49838470000003,29.395119299999948,0 -98.49879300000003,29.394126999999948,0 -98.49740160000005,29.393715099999945,0 -98.48635380000005,29.391487599999948,0 -98.48544560000005,29.385799799999948,0 -98.48534450000004,29.385553599999945,0 -98.48436430000004,29.384464799999947,0 -98.48385100000004,29.38376999999995,0 -98.48362900000004,29.38339499999995,0 -98.48147080000004,29.37859119999995,0 -98.48134250000004,29.378159499999953,0 -98.48127700000003,29.37746699999995,0 -98.48125700000003,29.36544289999995,0 -98.48141750000002,29.36110929999995,0 -98.48135400000002,29.360018499999953,0 -98.48092230000003,29.360009199999954,0 -98.48081070000002,29.359988499999954,0 -98.48028810000002,29.359781199999958,0 -98.47994970000002,29.359719699999953,0 -98.47969450000002,29.359610099999955,0 -98.47957020000003,29.35978549999996,0 -98.47936340000003,29.35998339999996,0 -98.47922150000002,29.36007559999996,0 -98.47895710000002,29.36019359999996,0 -98.47881410000001,29.36030039999996,0 -98.4786109,29.360555299999962,0 -98.47843940000001,29.36084919999996,0 -98.47902330000001,29.36109729999996,0 -98.4790997,29.36110319999996,0 -98.4791252,29.36109379999996,0 -98.4791413,29.36107629999996,0 -98.4791601,29.36093599999996,0 -98.4792137,29.360775899999958,0 -98.47933390000001,29.360583499999958,0 </coordinates></LineString><TimeSpan><begin>2019-11-09T18:02:11.046Z</begin><end>2019-11-09T20:23:27.000Z</end></TimeSpan></Placemark><Placemark><name>San Antonio Missions National Historical Park</name><address>6701 San Jose Dr, San Antonio, TX 78214</address><ExtendedData><Data name="Email"><value>syugen.zhou@gmail.com</value></Data><Data name="Category"><value>National park</value></Data><Data name="Distance"><value>0</value></Data></ExtendedData><description> National park from 2019-11-09T20:23:27.000Z to 2019-11-09T21:12:31.157Z. Distance 0m </description><Point><coordinates>-98.4475562,29.3261236,0</coordinates></Point><TimeSpan><begin>2019-11-09T20:23:27.000Z</begin><end>2019-11-09T21:12:31.157Z</end></TimeSpan></Placemark><Placemark><name>Driving</name><address></address><ExtendedData><Data name="Email"><value>syugen.zhou@gmail.com</value></Data><Data name="Category"><value>Driving</value></Data><Data name="Distance"><value>12874</value></Data></ExtendedData><description> Driving from 2019-11-09T21:12:31.157Z to 2019-11-09T21:34:28.000Z. Distance 12874m </description><LineString><altitudeMode>clampToGround</altitudeMode><extrude>1</extrude><tesselate>1</tesselate><coordinates>-98.4793929,29.3605005,0 -98.47944840000001,29.3604498,0 -98.4795624,29.360398300000004,0 -98.47959320000001,29.3603726,0 -98.47960800000001,29.3603457,0 -98.47961200000002,29.360318899999996,0 -98.4796067,29.360277999999997,0 -98.4795825,29.360241699999996,0 -98.47941190000002,29.360066799999995,0 -98.47939030000002,29.36003819999999,0 -98.47936340000003,29.359983399999994,0 -98.47957020000003,29.35978549999999,0 -98.47969450000002,29.359610099999987,0 -98.47984170000002,29.359682999999986,0 -98.47994970000002,29.359719699999985,0 -98.48028810000002,29.359781199999986,0 -98.48039990000002,29.359818599999986,0 -98.48070560000002,29.35995319999999,0 -98.48081070000002,29.359988499999986,0 -98.48092230000003,29.360009199999986,0 -98.48135400000002,29.360018499999985,0 -98.48141750000002,29.36110929999998,0 -98.48140830000003,29.361972499999982,0 -98.48125700000001,29.365442899999977,0 -98.48128020000001,29.36613449999998,0 -98.48127340000002,29.373070699999978,0 -98.48029950000002,29.37307659999998,0 -98.48014580000002,29.37309259999998,0 -98.48004570000002,29.37311319999998,0 -98.47980160000002,29.37320109999998,0 -98.47783590000003,29.37411379999998,0 -98.47543590000002,29.37532049999998,0 -98.47529240000003,29.37541729999998,0 -98.47519020000003,29.375458899999984,0 -98.47514420000003,29.375471599999983,0 -98.47506350000003,29.375479799999987,0 -98.47282210000003,29.375495899999983,0 -98.46121440000003,29.375397699999983,0 -98.46118370000002,29.37765859999998,0 -98.46130610000003,29.377666499999982,0 -98.46177620000003,29.378045399999984,0 -98.46357540000002,29.379283499999982,0 -98.46375070000002,29.37941829999998,0 -98.46382310000003,29.379452599999983,0 -98.46408840000002,29.37954089999998,0 -98.46529320000002,29.38061389999998,0 -98.46537890000002,29.38071009999998,0 -98.47266250000001,29.38709239999998,0 -98.47326350000002,29.38765859999998,0 -98.47387370000001,29.388283299999976,0 -98.47470470000002,29.389239499999974,0 -98.47520050000003,29.389868499999974,0 -98.47620790000003,29.391318299999973,0 -98.47670380000004,29.392152099999976,0 -98.47713420000004,29.392957799999973,0 -98.47976210000003,29.398882199999974,0 -98.47984650000004,29.399116999999972,0 -98.48034560000004,29.40027089999997,0 -98.48061910000004,29.40110229999997,0 -98.48071500000003,29.401532899999975,0 -98.48079660000003,29.40207529999997,0 -98.48083550000004,29.402627099999968,0 -98.48081460000004,29.403398399999972,0 -98.48069590000004,29.40423549999997,0 -98.47966780000003,29.40842769999997,0 -98.47959640000003,29.408925699999966,0 -98.47958130000002,29.40929229999997,0 -98.47963310000003,29.410163799999967,0 -98.47986280000003,29.411328399999967,0 -98.48004430000003,29.411992999999963,0 -98.48017790000004,29.412717899999965,0 -98.48022800000004,29.413194899999965,0 -98.48025300000003,29.417820099999968,0 -98.48016020000004,29.41800649999997,0 -98.48013710000004,29.41820619999997,0 -98.48005970000004,29.41857089999997,0 -98.48004190000003,29.418600699999974,0 -98.47964170000003,29.419804499999973,0 -98.47961170000004,29.419966999999975,0 -98.47959580000003,29.420201299999977,0 -98.47961000000002,29.42050309999998,0 -98.47966720000004,29.420838799999977,0 -98.47966870000003,29.420905999999977,0 -98.47965880000004,29.420998399999977,0 -98.47985390000004,29.421638299999977,0 -98.47986650000004,29.42166039999998,0 -98.48004370000004,29.421859199999982,0 -98.48016280000003,29.42203449999998,0 -98.48059300000004,29.42215349999998,0 -98.48327990000004,29.422746199999978,0 -98.48308380000005,29.42350209999998,0 -98.48292770000003,29.42422819999998,0 -98.48288850000004,29.424494899999978,0 -98.48288780000004,29.424623799999974,0 -98.48310810000004,29.425635199999977,0 -98.48310200000004,29.42580739999998,0 -98.48381370000004,29.42591419999998,0 -98.48381150000004,29.42581669999998,0 -98.48379550000004,29.425705799999978,0 -98.48387160000004,29.42527019999998,0 </coordinates></LineString><TimeSpan><begin>2019-11-09T21:12:31.157Z</begin><end>2019-11-09T21:34:28.000Z</end></TimeSpan></Placemark><Placemark><name>The Alamo</name><address>300 Alamo Plaza, San Antonio, TX 78205</address><ExtendedData><Data name="Email"><value>syugen.zhou@gmail.com</value></Data><Data name="Category"><value>Historical place</value></Data><Data name="Distance"><value>0</value></Data></ExtendedData><description> Historical place from 2019-11-09T21:34:28.000Z to 2019-11-09T23:54:09.000Z. Distance 0m </description><Point><coordinates>-98.48614189999999,29.425967099999998,0</coordinates></Point><TimeSpan><begin>2019-11-09T21:34:28.000Z</begin><end>2019-11-09T23:54:09.000Z</end></TimeSpan></Placemark><Placemark><name>Hiking</name><address></address><ExtendedData><Data name="Email"><value>syugen.zhou@gmail.com</value></Data><Data name="Category"><value>Hiking</value></Data><Data name="Distance"><value>2626</value></Data></ExtendedData><description> Hiking from 2019-11-09T23:54:09.382Z to 2019-11-10T01:04:52.077Z. Distance 2626m </description><LineString><altitudeMode>clampToGround</altitudeMode><extrude>1</extrude><tesselate>1</tesselate><coordinates>-98.48634892935144,29.425473510239794,0 -98.4847843,29.4256176,0 -98.4867186,29.4245266,0 -98.4847843,29.4256176,0 -98.4867186,29.4245266,0 -98.4878977,29.425004,0 -98.4879241,29.4236113,0 -98.4892027,29.4227276,0 -98.490432,29.423223,0 -98.4928357,29.4234909,0 -98.4915268,29.4250843,0 -98.4899831,29.4250892,0 -98.4881019,29.4240629,0 -98.4851465,29.4226946,0 -98.48518390208615,29.42185367319646,0 -98.48518390208615,29.42185367319646,0 </coordinates></LineString><TimeSpan><begin>2019-11-09T23:54:09.382Z</begin><end>2019-11-10T01:04:52.077Z</end></TimeSpan></Placemark><Placemark><name>Alamo Plaza</name><address>San Antonio, TX 78205</address><ExtendedData><Data name="Email"><value>syugen.zhou@gmail.com</value></Data><Data name="Category"><value></value></Data><Data name="Distance"><value>0</value></Data></ExtendedData><description>  from 2019-11-10T01:04:52.077Z to 2019-11-10T01:16:06.139Z. Distance 0m </description><Point><coordinates>-98.48630449999999,29.426302,0</coordinates></Point><TimeSpan><begin>2019-11-10T01:04:52.077Z</begin><end>2019-11-10T01:16:06.139Z</end></TimeSpan></Placemark><Placemark><name>Hiking</name><address></address><ExtendedData><Data name="Email"><value>syugen.zhou@gmail.com</value></Data><Data name="Category"><value>Hiking</value></Data><Data name="Distance"><value>378</value></Data></ExtendedData><description> Hiking from 2019-11-10T01:16:06.139Z to 2019-11-10T01:40:02.360Z. Distance 378m </description><LineString><altitudeMode>clampToGround</altitudeMode><extrude>1</extrude><tesselate>1</tesselate><coordinates>-98.48518390208615,29.42185367319646,0 -98.48518390208615,29.42185367319646,0 -98.4860792,29.4230674,0 -98.4864339,29.4250015,0 -98.4864339,29.4250015,0 </coordinates></LineString><TimeSpan><begin>2019-11-10T01:16:06.139Z</begin><end>2019-11-10T01:40:02.360Z</end></TimeSpan></Placemark><Placemark><name>Driving</name><address></address><ExtendedData><Data name="Email"><value>syugen.zhou@gmail.com</value></Data><Data name="Category"><value>Driving</value></Data><Data name="Distance"><value>13507</value></Data></ExtendedData><description> Driving from 2019-11-10T01:40:02.360Z to 2019-11-10T02:01:40.000Z. Distance 13507m </description><LineString><altitudeMode>clampToGround</altitudeMode><extrude>1</extrude><tesselate>1</tesselate><coordinates>-98.48402270000001,29.4259452,0 -98.483102,29.425807399999997,0 -98.48202800000001,29.425252,0 -98.4812948,29.4251075,0 -98.4806269,29.4251069,0 -98.48061340000001,29.428061200000002,0 -98.48098550000002,29.428546300000004,0 -98.48103640000001,29.429045700000003,0 -98.48083820000001,29.429713500000002,0 -98.480849,29.429878799999997,0 -98.47832930000001,29.4334331,0 -98.47717970000001,29.435982899999996,0 -98.4769605,29.436889899999997,0 -98.47699120000001,29.437305699999996,0 -98.47735820000001,29.438334299999998,0 -98.47750540000001,29.4384573,0 -98.47781340000002,29.4389217,0 -98.47806860000001,29.439156300000004,0 -98.4786744,29.439443000000004,0 -98.48065930000001,29.439606500000004,0 -98.48175540000001,29.439852300000002,0 -98.48190210000001,29.4398521,0 -98.48340850000002,29.440352800000003,0 -98.48462300000003,29.4405175,0 -98.48539690000003,29.4405009,0 -98.48641980000002,29.4403097,0 -98.48716950000002,29.4399652,0 -98.49301380000001,29.436452399999997,0 -98.49486520000002,29.435740899999995,0 -98.49762900000002,29.43425569999999,0 -98.49782400000001,29.43421999999999,0 -98.49923750000002,29.433273899999993,0 -98.49980460000002,29.43271949999999,0 -98.50012390000002,29.432507799999993,0 -98.50042680000001,29.432422999999996,0 -98.50076360000001,29.432467099999997,0 -98.50100230000001,29.432596499999995,0 -98.50143450000002,29.433019699999996,0 -98.50347630000002,29.435712999999996,0 -98.50405340000002,29.436939399999993,0 -98.50405800000001,29.437113599999996,0 -98.50441940000002,29.438068199999996,0 -98.50484180000002,29.4386867,0 -98.50543800000001,29.4392669,0 -98.50620220000002,29.4397683,0 -98.50707640000003,29.4400927,0 -98.51186330000003,29.441035799999998,0 -98.51288850000003,29.4414693,0 -98.51349160000002,29.441878000000003,0 -98.51408810000004,29.4424775,0 -98.51441860000003,29.443000700000002,0 -98.51466180000003,29.443667500000004,0 -98.51476190000004,29.4442744,0 -98.51469650000004,29.446257300000003,0 -98.51479930000005,29.447465,0 -98.51520940000005,29.4493518,0 -98.51540000000004,29.4521484,0 -98.51514750000004,29.455305199999998,0 -98.51523110000004,29.4565478,0 -98.51578590000004,29.459285899999998,0 -98.51575560000003,29.470328999999996,0 -98.51598470000003,29.471973999999992,0 -98.51653250000004,29.473402399999994,0 -98.51716340000004,29.474430099999996,0 -98.51840050000004,29.475785799999993,0 -98.52806420000005,29.483246499999993,0 -98.53014950000004,29.48426299999999,0 -98.53099000000003,29.484520699999994,0 -98.53301800000004,29.48483839999999,0 -98.53766200000004,29.484850199999993,0 -98.53898520000004,29.48496749999999,0 -98.54036330000004,29.48528639999999,0 -98.54205320000005,29.485983699999988,0 -98.54309900000005,29.48664189999999,0 -98.54451600000006,29.487949599999993,0 -98.54544310000006,29.489292799999994,0 -98.54622650000006,29.49086049999999,0 -98.54764280000005,29.495522899999987,0 -98.54813060000005,29.499369199999986,0 -98.54948900000005,29.504155399999988,0 -98.55137320000006,29.508343599999982,0 -98.55169910000006,29.509354899999988,0 -98.55165990000006,29.50942049999999,0 -98.55334230000007,29.515139699999988,0 -98.55328370000007,29.515328199999992,0 -98.55359750000007,29.51723359999999,0 -98.55357510000006,29.517287799999988,0 -98.55465240000007,29.521028199999993,0 -98.55479640000006,29.52122889999999,0 -98.55529510000007,29.52275489999999,0 -98.55545200000006,29.522871299999988,0 -98.55554620000005,29.522889099999986,0 -98.55603450000005,29.522792199999987,0 -98.55610030000005,29.522751499999984,0 -98.55617550000005,29.52262199999998,0 -98.55434400000006,29.51637089999998,0 -98.55480030000005,29.516269599999983,0 -98.55486270000006,29.516325399999985,0 -98.55493580000005,29.516335599999984,0 -98.55551890000005,29.516213899999983,0 </coordinates></LineString><TimeSpan><begin>2019-11-10T01:40:02.360Z</begin><end>2019-11-10T02:01:40.000Z</end></TimeSpan></Placemark><Placemark><name>La Quinta Inn &amp; Suites by Wyndham San Antonio Medical Ctr NW</name><address>4431 Horizon Hill Blvd, San Antonio, TX 78229</address><ExtendedData><Data name="Email"><value>syugen.zhou@gmail.com</value></Data><Data name="Category"><value>Hotel</value></Data><Data name="Distance"><value>0</value></Data></ExtendedData><description> Hotel from 2019-11-10T02:01:40.000Z to 2019-11-10T15:28:31.000Z. Distance 0m </description><Point><coordinates>-98.5561828,29.5165111,0</coordinates></Point><TimeSpan><begin>2019-11-10T02:01:40.000Z</begin><end>2019-11-10T15:28:31.000Z</end></TimeSpan></Placemark></Document></kml>
