<?xml version="1.0" encoding="UTF-8"?><kml xmlns="http://www.opengis.net/kml/2.2" xmlns:gx="http://www.google.com/kml/ext/2.2"><Document><name> Location history from 2020-08-14 to 2020-08-14 </name><open>1</open><description></description><StyleMap id="multiTrack"><Pair><key>normal</key><styleUrl>#multiTrack_n</styleUrl></Pair><Pair><key>highlight</key><styleUrl>#multiTrack_h</styleUrl></Pair></StyleMap><Style id="multiTrack_n"><IconStyle><Icon><href>https://earth.google.com/images/kml-icons/track-directional/track-0.png</href></Icon></IconStyle><LineStyle><color>99ffac59</color><width>6</width></LineStyle></Style><Style id="multiTrack_h"><IconStyle><scale>1.2</scale><Icon><href>https://earth.google.com/images/kml-icons/track-directional/track-0.png</href></Icon></IconStyle><LineStyle><color>99ffac59</color><width>8</width></LineStyle></Style><Placemark><name>702 Marlin Ave</name><address>702 Marlin Ave, Foster City, CA 94404</address><ExtendedData><Data name="Email"><value>syugen.zhou@gmail.com</value></Data><Data name="Category"><value></value></Data><Data name="Distance"><value>0</value></Data></ExtendedData><description>  from 2020-08-12T02:46:46.485Z to 2020-08-14T23:03:16.860Z. Distance 0m </description><Point><coordinates>-122.25498479999999,37.5541321,0</coordinates></Point><TimeSpan><begin>2020-08-12T02:46:46.485Z</begin><end>2020-08-14T23:03:16.860Z</end></TimeSpan></Placemark><Placemark><name>Driving</name><address></address><ExtendedData><Data name="Email"><value>syugen.zhou@gmail.com</value></Data><Data name="Category"><value>Driving</value></Data><Data name="Distance"><value>270720</value></Data></ExtendedData><description> Driving from 2020-08-14T23:03:16.860Z to 2020-08-15T02:01:05.999Z. Distance 270720m </description><LineString><altitudeMode>clampToGround</altitudeMode><extrude>1</extrude><tesselate>1</tesselate><coordinates>-122.255256,37.5544134,0 -122.25512749999999,37.55433690000001,0 -122.2555829,37.553808200000006,0 -122.2696225,37.56178610000001,0 -122.27036039999999,37.56228720000001,0 -122.27150939999999,37.56294110000001,0 -122.27201249999999,37.56241850000001,0 -122.27252209999997,37.561980500000004,0 -122.27307969999997,37.56251290000001,0 -122.27318039999997,37.56264300000001,0 -122.27327179999996,37.562834900000006,0 -122.27329859999998,37.562963700000005,0 -122.27329699999999,37.56320070000001,0 -122.27322139999998,37.56344480000001,0 -122.27313919999999,37.56358190000001,0 -122.2723826,37.564326500000014,0 -122.272368,37.564467700000016,0 -122.2449391,37.58947650000001,0 -122.24403819999999,37.59012750000001,0 -122.2431403,37.59060650000001,0 -122.24250640000001,37.59087060000001,0 -122.15556860000001,37.616749000000006,0 -122.1524206,37.61751840000001,0 -122.15144450000001,37.617824600000006,0 -122.1498582,37.618414900000005,0 -122.1124278,37.6310002,0 -122.1116736,37.6313283,0 -122.10885160000001,37.6327448,0 -122.10439810000003,37.6345334,0 -122.10423260000002,37.6346216,0 -122.10405530000001,37.634614,0 -122.1026018,37.6350657,0 -122.1003111,37.635929000000004,0 -122.0994949,37.636331500000004,0 -122.09903890000001,37.6366128,0 -122.0984379,37.637064800000005,0 -122.0980646,37.6374052,0 -122.09761680000001,37.6378998,0 -122.09731260000001,37.638306899999996,0 -122.0952962,37.641733099999996,0 -122.09502330000002,37.6420646,0 -122.09470220000003,37.642352200000005,0 -122.09382610000003,37.642960800000004,0 -122.09360380000003,37.6431635,0 -122.09334310000003,37.643500800000005,0 -122.09319350000003,37.643803500000004,0 -122.09311950000001,37.64405670000001,0 -122.09308510000002,37.644377000000006,0 -122.09313220000003,37.6447725,0 -122.09323160000002,37.6450641,0 -122.09331460000003,37.6452252,0 -122.09350100000002,37.6454935,0 -122.0937061,37.6457093,0 -122.0948702,37.6467197,0 -122.09537760000002,37.647328200000004,0 -122.0954157,37.647356300000006,0 -122.09554240000001,37.6473997,0 -122.0971456,37.64967260000001,0 -122.1100761,37.6705417,0 -122.1106544,37.6713402,0 -122.11128229999998,37.67205880000001,0 -122.11178249999998,37.672558800000004,0 -122.11262029999999,37.673281900000006,0 -122.11744639999998,37.676815700000006,0 -122.12040249999998,37.67868430000001,0 -122.13050829999997,37.68563970000001,0 -122.13052189999996,37.68578900000001,0 -122.13351679999995,37.688126800000006,0 -122.13360959999994,37.688221600000006,0 -122.13376919999995,37.6884511,0 -122.13387019999995,37.6886838,0 -122.13392779999995,37.6890414,0 -122.13389989999993,37.689287300000004,0 -122.13380689999993,37.6895605,0 -122.13365889999993,37.6898016,0 -122.13345769999992,37.6900156,0 -122.13321149999993,37.69019720000001,0 -122.13275719999992,37.69040270000001,0 -122.13255259999991,37.69045450000001,0 -122.13196899999991,37.69054650000001,0 -122.1317984999999,37.690603700000004,0 -122.1309082999999,37.69072980000001,0 -122.1303522999999,37.6907743,0 -122.12963869999989,37.6907883,0 -122.12918999999988,37.690767,0 -122.1291044999999,37.6907756,0 -122.1265773999999,37.6905785,0 -122.12468269999991,37.6903364,0 -122.1175613999999,37.6892125,0 -122.11461229999989,37.688661499999995,0 -122.1132835999999,37.6884908,0 -122.11196789999991,37.6884318,0 -122.11024059999991,37.688500999999995,0 -122.0951024999999,37.6901801,0 -122.09249719999991,37.6903849,0 -122.08989659999992,37.690484000000005,0 -122.07299489999993,37.6905732,0 -122.07069509999994,37.6906932,0 -122.06900059999994,37.690886299999995,0 -122.06673329999994,37.6913595,0 -122.05925479999995,37.6934178,0 -122.05810059999995,37.6935444,0 -122.05701929999995,37.6936046,0 -122.05595389999995,37.6935619,0 -122.05322539999996,37.6932663,0 -122.05236929999997,37.6932255,0 -122.05115079999996,37.6932559,0 -122.05012319999996,37.693373699999995,0 -122.04934919999995,37.6935132,0 -122.04840219999996,37.693752499999995,0 -122.04718979999996,37.69418099999999,0 -122.04635569999996,37.694567899999996,0 -122.04570299999997,37.6949298,0 -122.04484539999999,37.69549789999999,0 -122.04366139999998,37.696509999999996,0 -122.04049799999997,37.699433799999994,0 -122.03999399999996,37.699827799999994,0 -122.03912339999998,37.700401299999996,0 -122.03817579999999,37.70089599999999,0 -122.03691709999998,37.7013825,0 -122.03585169999998,37.7016741,0 -122.03495419999999,37.701846499999995,0 -122.0338032,37.7019648,0 -122.0331763,37.701992,0 -122.03227710000002,37.701968,0 -122.0312401,37.7018633,0 -122.03003419999999,37.7016371,0 -122.0274898,37.7009506,0 -122.0262489,37.7007499,0 -122.02519600000001,37.7006705,0 -122.02375490000001,37.7006939,0 -122.02254330000001,37.7008357,0 -122.02161250000002,37.7010227,0 -122.02059540000002,37.7013123,0 -122.0185593,37.702065999999995,0 -122.01779400000002,37.702309299999996,0 -122.01720830000002,37.702456999999995,0 -122.01618280000002,37.702648499999995,0 -122.01555990000003,37.7027215,0 -122.00149060000003,37.703359799999994,0 -122.00034300000003,37.703325799999995,0 -121.99837660000003,37.703134899999995,0 -121.99763010000004,37.703020599999995,0 -121.99576930000002,37.7026162,0 -121.99404480000001,37.7020884,0 -121.99282140000003,37.701617299999995,0 -121.98989180000002,37.7003394,0 -121.98893670000002,37.699987199999995,0 -121.98787000000002,37.6996957,0 -121.98656710000003,37.699466799999996,0 -121.98346180000003,37.6991193,0 -121.97334220000002,37.6974271,0 -121.97108340000003,37.697164199999996,0 -121.96928960000002,37.6970635,0 -121.96736260000002,37.6970572,0 -121.96607900000001,37.6971087,0 -121.96425400000003,37.6972673,0 -121.96296030000002,37.697437300000004,0 -121.95894490000002,37.6981373,0 -121.95754580000002,37.6982604,0 -121.93563520000001,37.6981361,0 -121.9349478,37.6981796,0 -121.933804,37.6983129,0 -121.93300540000001,37.6984573,0 -121.92809810000001,37.699594700000006,0 -121.9279633,37.699553900000005,0 -121.9279315,37.6995519,0 -121.92696559999999,37.699690000000004,0 -121.9235035,37.70050750000001,0 -121.92167069999999,37.70086010000001,0 -121.9215476,37.7008602,0 -121.9214441,37.7008419,0 -121.92133199999999,37.700791200000005,0 -121.92126859999999,37.700746800000005,0 -121.92119849999999,37.7006722,0 -121.92115739999998,37.70059630000001,0 -121.92113619999998,37.700445300000005,0 -121.92116999999999,37.700326600000004,0 -121.921249,37.7002193,0 -121.9213258,37.7001608,0 -121.92149930000002,37.700091,0 -121.92158560000001,37.7000795,0 -121.92176100000002,37.700094099999994,0 -121.92188650000001,37.7001412,0 -121.92195530000001,37.700181799999996,0 -121.92204360000002,37.70026409999999,0 -121.92213750000002,37.70039469999999,0 -121.92261660000003,37.70161589999999,0 -121.92325360000002,37.70288959999999,0 -121.92379570000003,37.70380519999999,0 -121.92392970000002,37.7039359,0 -121.92435310000003,37.704569899999996,0 -121.93677310000004,37.71933129999999,0 -121.94223730000003,37.7263811,0 -121.94234960000004,37.7264601,0 -121.94955960000004,37.735798599999995,0 -121.95517360000005,37.744034199999994,0 -121.95937030000007,37.75095569999999,0 -121.97005910000007,37.76733649999999,0 -121.97058970000008,37.76826159999999,0 -121.97764250000007,37.782179899999996,0 -121.98028960000008,37.78679809999999,0 -121.98095650000008,37.78808969999999,0 -121.98388310000009,37.794392499999994,0 -121.98442970000009,37.79532429999999,0 -121.9872069000001,37.79907839999999,0 -121.98780450000011,37.80001179999999,0 -121.98824580000012,37.80083799999999,0 -121.99277050000012,37.81140279999999,0 -121.99303650000013,37.81232869999999,0 -121.99318030000012,37.81311749999999,0 -121.99324500000013,37.81376779999999,0 -121.99317650000012,37.81662249999999,0 -121.99319790000013,37.816979199999984,0 -121.99310950000012,37.820458899999984,0 -121.9931463000001,37.82123039999998,0 -121.99322090000011,37.821772899999985,0 -121.9934617000001,37.82274769999998,0 -121.99376540000011,37.82351929999999,0 -121.99437470000012,37.82463509999999,0 -121.99490800000011,37.82536259999999,0 -121.99551770000012,37.82603529999999,0 -121.99608620000011,37.82656089999999,0 -121.9971366000001,37.82735499999999,0 -122.00661210000011,37.83348819999999,0 -122.0182655000001,37.84054269999999,0 -122.01928530000008,37.841220099999994,0 -122.0263166000001,37.8464964,0 -122.0269638000001,37.8470844,0 -122.02724390000012,37.8473862,0 -122.02772430000012,37.8480123,0 -122.02805260000011,37.848562699999995,0 -122.02834590000012,37.8492174,0 -122.02854320000013,37.8498758,0 -122.02896420000015,37.853645099999994,0 -122.02911180000015,37.854384499999995,0 -122.02929950000016,37.8549939,0 -122.02975890000016,37.8559049,0 -122.02982700000017,37.855987,0 -122.03310230000017,37.8612962,0 -122.03344200000016,37.8617505,0 -122.03394490000018,37.862274199999995,0 -122.03679330000018,37.86448119999999,0 -122.03734310000017,37.8649659,0 -122.03742920000018,37.865078000000004,0 -122.03748760000016,37.8651266,0 -122.03799750000017,37.8657195,0 -122.04436980000017,37.874345600000005,0 -122.04536050000019,37.8754496,0 -122.04804310000019,37.8780209,0 -122.04881200000018,37.87893720000001,0 -122.05047430000018,37.88134030000001,0 -122.05135340000017,37.88231290000001,0 -122.05497990000016,37.88556360000001,0 -122.05547020000016,37.88608770000001,0 -122.05726200000015,37.88872770000001,0 -122.05768170000015,37.88921110000001,0 -122.05826700000013,37.88973520000001,0 -122.05865590000012,37.89001380000001,0 -122.05934390000012,37.89041050000001,0 -122.06092070000012,37.89116270000001,0 -122.06111150000012,37.89122280000001,0 -122.06918660000012,37.895023800000004,0 -122.06961430000011,37.895299200000004,0 -122.07016910000011,37.89579930000001,0 -122.07056670000013,37.89632960000001,0 -122.07073440000013,37.89668890000001,0 -122.07084170000014,37.89702420000001,0 -122.07093710000015,37.89766440000001,0 -122.07091220000015,37.898018000000015,0 -122.07031530000016,37.90051050000002,0 -122.06992870000015,37.90276650000002,0 -122.06995950000015,37.90294200000002,0 -122.06934760000014,37.90575070000002,0 -122.06878180000014,37.90769240000002,0 -122.06635840000014,37.914333800000016,0 -122.06588810000014,37.91515680000001,0 -122.06541230000013,37.91582510000002,0 -122.06498470000014,37.91632770000002,0 -122.06362190000014,37.91772950000002,0 -122.06325840000014,37.918203800000015,0 -122.06252460000013,37.91948880000002,0 -122.06156570000013,37.921707200000014,0 -122.06103580000013,37.92321060000002,0 -122.06070920000012,37.92464730000002,0 -122.06018690000012,37.92948340000002,0 -122.06008410000011,37.93164830000001,0 -122.06007700000012,37.93553110000002,0 -122.06021020000013,37.938628500000014,0 -122.06013030000014,37.939749200000016,0 -122.05991350000015,37.940844200000015,0 -122.05970680000013,37.94150370000001,0 -122.05453920000012,37.95316760000001,0 -122.05274910000013,37.95679420000001,0 -122.05272880000012,37.95698890000001,0 -122.05246700000012,37.957819900000004,0 -122.05241070000011,37.95828910000001,0 -122.05240400000011,37.958746000000005,0 -122.05243800000011,37.95912510000001,0 -122.05252990000012,37.95958220000001,0 -122.05275740000012,37.960252700000005,0 -122.05485270000013,37.964233300000004,0 -122.05540700000013,37.96517310000001,0 -122.05654770000011,37.96679720000001,0 -122.06318150000011,37.97485860000001,0 -122.06376290000011,37.97571920000001,0 -122.06433830000012,37.976759400000006,0 -122.0647187000001,37.97761560000001,0 -122.0651192000001,37.978787600000004,0 -122.0675959000001,37.99094890000001,0 -122.06780280000011,37.99163730000001,0 -122.0682412000001,37.99259730000001,0 -122.0688598000001,37.9935691,0 -122.06945800000008,37.994290500000005,0 -122.06999540000008,37.9948187,0 -122.07633180000009,37.9999154,0 -122.08796490000009,38.0105541,0 -122.09537800000008,38.018167600000005,0 -122.09585750000008,38.0186057,0 -122.09669090000008,38.019195100000005,0 -122.09735130000008,38.019547300000006,0 -122.1045391000001,38.0224078,0 -122.1096940000001,38.024695200000004,0 -122.1098598000001,38.02473090000001,0 -122.1125845000001,38.025858500000005,0 -122.1132866000001,38.02625990000001,0 -122.11492930000009,38.0273727,0 -122.11529430000007,38.0276622,0 -122.11578850000006,38.0281624,0 -122.11620940000005,38.0287604,0 -122.11621510000006,38.0287851,0 -122.11619800000007,38.0288926,0 -122.11640680000006,38.0293566,0 -122.11662350000006,38.030068799999995,0 -122.11669840000005,38.030477999999995,0 -122.11674360000005,38.03104879999999,0 -122.11670000000004,38.034041499999994,0 -122.11677900000005,38.0348592,0 -122.11697820000005,38.035756799999994,0 -122.11717850000004,38.0363804,0 -122.11743790000004,38.0369628,0 -122.11789920000004,38.037798099999996,0 -122.11832010000003,38.038408,0 -122.12647790000003,38.048933299999995,0 -122.12648830000003,38.0490084,0 -122.12654050000003,38.0491154,0 -122.12870030000003,38.0519086,0 -122.12903860000003,38.0525141,0 -122.12919880000003,38.0529022,0 -122.12940780000004,38.0536527,0 -122.12948040000003,38.05431969999999,0 -122.12941150000003,38.056172999999994,0 -122.12945560000003,38.05685139999999,0 -122.12956080000004,38.057395,0 -122.12970400000003,38.057865899999996,0 -122.13112450000004,38.060862,0 -122.13132320000005,38.0616481,0 -122.13136620000004,38.062045,0 -122.13136420000004,38.0625827,0 -122.13124700000003,38.0633817,0 -122.13103570000004,38.0640205,0 -122.13086860000004,38.064373,0 -122.13060570000005,38.064812599999996,0 -122.13029480000003,38.0652416,0 -122.11936640000005,38.07835529999999,0 -122.11844150000005,38.0793003,0 -122.11376100000005,38.0836227,0 -122.11271750000006,38.0847127,0 -122.10836990000006,38.089932899999994,0 -122.10758000000006,38.0911098,0 -122.10726800000005,38.09172519999999,0 -122.10696040000005,38.0924926,0 -122.10332660000005,38.1035531,0 -122.10309680000005,38.1047456,0 -122.10306910000006,38.1056966,0 -122.10314450000007,38.106417900000004,0 -122.10328740000007,38.107118,0 -122.10349200000007,38.107762300000005,0 -122.10403120000007,38.108886500000004,0 -122.10527570000006,38.110874700000004,0 -122.10566520000006,38.1116632,0 -122.10586270000007,38.112200300000005,0 -122.10612190000008,38.11331860000001,0 -122.10617770000007,38.1139385,0 -122.10600220000008,38.1189089,0 -122.10602890000008,38.119512900000004,0 -122.10742890000007,38.1295325,0 -122.10765310000006,38.130308500000005,0 -122.10795760000006,38.1310809,0 -122.10946580000007,38.1338041,0 -122.10986660000007,38.1346624,0 -122.11017840000007,38.1357147,0 -122.11027760000007,38.136311600000006,0 -122.11032490000008,38.137160400000006,0 -122.11028090000008,38.13778020000001,0 -122.11016900000007,38.13847170000001,0 -122.10949280000007,38.14132440000001,0 -122.10937220000007,38.142299000000015,0 -122.10939630000006,38.14348120000001,0 -122.10955920000008,38.14451140000001,0 -122.10999700000008,38.14583690000001,0 -122.11412040000009,38.155743400000006,0 -122.11457600000008,38.15663870000001,0 -122.11492580000008,38.157190000000014,0 -122.11547170000007,38.15792360000001,0 -122.12890400000008,38.17353910000001,0 -122.12963840000008,38.17460960000002,0 -122.13684160000008,38.187582700000014,0 -122.13732500000008,38.18871880000001,0 -122.13756520000007,38.189609900000015,0 -122.13766880000009,38.190227600000014,0 -122.13772040000009,38.19093510000002,0 -122.1378978000001,38.20521510000002,0 -122.1377629000001,38.20774200000002,0 -122.13773970000008,38.21506700000002,0 -122.13771010000009,38.21532260000002,0 -122.1375618000001,38.215842700000024,0 -122.13738950000008,38.216200100000016,0 -122.13705580000008,38.216674900000015,0 -122.13682690000009,38.21692190000002,0 -122.13443200000007,38.218786600000016,0 -122.13441330000008,38.21896470000002,0 -122.12948070000007,38.22235550000002,0 -122.12521300000006,38.22500730000002,0 -122.12253780000007,38.22648210000002,0 -122.11953170000008,38.22796420000002,0 -122.10667660000009,38.233528200000016,0 -122.10656620000009,38.23359540000001,0 -122.0769521000001,38.24650310000001,0 -122.0757976000001,38.24689520000001,0 -122.07447670000009,38.24725820000001,0 -122.0741675000001,38.24732080000001,0 -122.0731726000001,38.24760710000001,0 -122.07210210000011,38.248031100000006,0 -122.0714206000001,38.248378900000006,0 -122.07044210000011,38.2490139,0 -122.0695814000001,38.2497521,0 -122.0353972000001,38.29007,0 -122.03498250000011,38.2906375,0 -122.03465300000012,38.2911855,0 -122.03437210000013,38.291790299999995,0 -122.03410720000012,38.29257629999999,0 -122.03401630000012,38.2930406,0 -122.03394680000011,38.29381169999999,0 -122.0336714000001,38.306769599999996,0 -122.03349200000008,38.308440999999995,0 -122.03268820000008,38.3131882,0 -122.03245990000008,38.31396049999999,0 -122.03221490000007,38.314561899999994,0 -122.03180610000008,38.3153678,0 -122.03103920000008,38.3164908,0 -122.02533460000008,38.3229243,0 -122.02465630000007,38.323887,0 -122.01619060000009,38.3371621,0 -122.01560030000007,38.3379313,0 -122.01483540000007,38.3387649,0 -122.01388410000008,38.3396057,0 -122.01306530000006,38.340206800000004,0 -122.01201080000006,38.34085460000001,0 -122.01131470000006,38.3412176,0 -122.01000660000005,38.341784700000005,0 -122.00895260000006,38.342140500000006,0 -122.00520480000007,38.3432103,0 -122.00396020000008,38.343617900000005,0 -121.98151780000008,38.352351,0 -121.98072780000008,38.3527225,0 -121.98020500000007,38.3530116,0 -121.97944150000006,38.35350640000001,0 -121.97883620000007,38.353971200000004,0 -121.97417850000006,38.3582765,0 -121.97375990000006,38.3586139,0 -121.97306860000005,38.359097600000005,0 -121.96478900000005,38.3641816,0 -121.96414360000006,38.3646198,0 -121.95908660000006,38.368465400000005,0 -121.95882400000005,38.3685312,0 -121.95718250000006,38.3696426,0 -121.95524400000006,38.3705919,0 -121.95467510000009,38.3709447,0 -121.9543363000001,38.3712328,0 -121.95394320000008,38.371683,0 -121.9537663000001,38.3719582,0 -121.95361160000009,38.3722809,0 -121.95346970000008,38.3727404,0 -121.9534420000001,38.37330409999999,0 -121.9534884000001,38.37380149999999,0 -121.95379670000008,38.37541699999999,0 -121.95382520000008,38.375793699999996,0 -121.95379500000007,38.3764347,0 -121.94282470000006,38.4231864,0 -121.94255880000004,38.424757699999994,0 -121.94241050000005,38.42633349999999,0 -121.94229470000005,38.448522,0 -121.94223640000006,38.4493277,0 -121.94179160000004,38.45202509999999,0 -121.94172380000005,38.45281309999999,0 -121.94173380000004,38.453999499999995,0 -121.94195280000004,38.456222,0 -121.94197970000005,38.4625602,0 -121.94206840000005,38.46334469999999,0 -121.95244480000005,38.5082672,0 -121.95267280000006,38.50995509999999,0 -121.95272670000007,38.510892899999995,0 -121.95326730000008,38.621547699999994,0 -121.95317370000008,38.62335989999999,0 -121.95214260000009,38.632518699999984,0 -121.95164220000008,38.66611379999999,0 -121.95199140000007,38.682934399999986,0 -121.95215730000007,38.68441679999999,0 -121.95848590000007,38.71735129999998,0 -121.95863890000007,38.719196099999984,0 -121.95858560000006,38.72092919999998,0 -121.95844740000005,38.72205659999998,0 -121.95122310000005,38.754173399999985,0 -121.95016440000005,38.758185199999986,0 -121.94668260000005,38.77358409999999,0 -121.94506370000005,38.778729299999995,0 -121.94465270000006,38.78042279999999,0 -121.94431080000005,38.78279759999999,0 -121.94387620000005,38.78918069999999,0 -121.94365890000005,38.79098919999999,0 -121.93906050000004,38.81365029999999,0 -121.93883900000004,38.81517729999999,0 -121.93865380000005,38.81734699999999,0 -121.93861310000005,38.81962729999999,0 -121.93990930000007,38.84847789999999,0 -121.94001510000005,38.84915999999999,0 -121.94021800000004,38.849793099999985,0 -121.94047930000005,38.85034319999998,0 -121.94102200000005,38.85113819999999,0 -121.94148370000005,38.85163069999999,0 -121.94182920000004,38.85193969999999,0 -121.94243370000007,38.852382599999984,0 -121.94287710000005,38.85264999999998,0 -121.94504230000005,38.85374009999998,0 -121.94597160000006,38.854294199999984,0 -121.94697490000004,38.85507709999998,0 -121.94706570000005,38.855112699999985,0 -121.94713460000006,38.85512129999998,0 -121.94728040000005,38.85529219999998,0 -121.97151070000005,38.87866389999998,0 -121.97240400000004,38.879695499999976,0 -121.97301230000004,38.88050849999998,0 -121.97342640000005,38.881154299999984,0 -121.97405040000005,38.882330699999976,0 -121.97783470000005,38.89124219999998,0 -121.97902830000004,38.89353009999998,0 -122.00051750000004,38.926290799999975,0 -122.00093740000005,38.92701239999998,0 -122.00130720000004,38.92776789999998,0 -122.00189600000003,38.929393599999976,0 -122.00211340000004,38.93031499999997,0 -122.00243990000006,38.93261749999998,0 -122.00264280000005,38.93352729999998,0 -122.00284720000005,38.93419069999998,0 -122.00329440000006,38.935324699999974,0 -122.00401480000005,38.936668599999976,0 -122.01090090000005,38.94714469999998,0 -122.01145760000004,38.94787839999998,0 -122.01240810000004,38.94894599999998,0 -122.01315660000004,38.94965499999998,0 -122.01571680000004,38.951726199999975,0 -122.01625280000005,38.952218799999976,0 -122.01704730000004,38.953055399999975,0 -122.01779940000003,38.95397209999997,0 -122.02642870000003,38.96711809999998,0 -122.02678480000003,38.96778929999998,0 -122.02716270000003,38.96865009999998,0 -122.02759220000003,38.96998349999998,0 -122.02810540000002,38.972293899999976,0 -122.02830010000001,38.97292999999998,0 -122.0286864,38.97392499999998,0 -122.0293985,38.975276999999984,0 -122.0533063,39.01158429999998,0 -122.0536427,39.01199909999998,0 -122.0540807,39.01243169999998,0 -122.054543,39.01280059999998,0 -122.0562204,39.01389169999998,0 -122.05655709999999,39.01414999999998,0 -122.0569047,39.01447659999998,0 -122.0571688,39.01478179999998,0 -122.06102279999999,39.02061389999998,0 -122.0614165,39.02131239999998,0 -122.0620736,39.02281389999998,0 -122.0631252,39.02616439999998,0 -122.06354479999999,39.02709529999998,0 -122.06393779999999,39.027819299999976,0 -122.07809359999999,39.049309899999976,0 -122.0789741,39.05038639999998,0 -122.0800682,39.05148239999998,0 -122.0807445,39.05205629999998,0 -122.08320539999998,39.053927299999984,0 -122.08434659999999,39.054979799999984,0 -122.08483659999999,39.055508899999985,0 -122.08554829999999,39.05639249999999,0 -122.08602549999999,39.057081099999984,0 -122.08658119999997,39.058034499999984,0 -122.09420799999998,39.07369709999998,0 -122.09455429999997,39.074297299999984,0 -122.10715149999999,39.09344049999999,0 -122.10810719999998,39.09466979999999,0 -122.10886019999998,39.095475699999994,0 -122.10971759999997,39.09625979999999,0 -122.11147809999997,39.09759819999999,0 -122.11286739999997,39.09878929999999,0 -122.11318029999995,39.09909999999999,0 -122.11433699999996,39.100471899999995,0 -122.11490279999997,39.101285499999996,0 -122.11540729999996,39.102154899999995,0 -122.11600309999996,39.103476799999996,0 -122.11634609999996,39.1045382,0 -122.11679719999997,39.1065816,0 -122.11725509999997,39.108046699999996,0 -122.11748479999997,39.1086143,0 -122.11818889999998,39.1099039,0 -122.12769159999998,39.124257400000005,0 -122.12873589999998,39.1254613,0 -122.12936509999997,39.1260762,0 -122.13198569999996,39.1282642,0 -122.13274139999994,39.12900929999999,0 -122.13331559999995,39.12966029999999,0 -122.13406909999993,39.13065989999999,0 -122.13457019999993,39.1314484,0 -122.13522529999993,39.1327551,0 -122.13568439999993,39.134037899999996,0 -122.13595469999993,39.1351947,0 -122.13609309999993,39.136305,0 -122.13611909999993,39.1371742,0 -122.13596039999993,39.1407057,0 -122.13609159999993,39.14227940000001,0 -122.13630499999994,39.1432986,0 -122.13673569999993,39.1446453,0 -122.13717499999993,39.1456284,0 -122.15319329999993,39.172331,0 -122.15420399999994,39.1736925,0 -122.15533479999993,39.1748841,0 -122.16369059999992,39.1824992,0 -122.16446849999993,39.1833176,0 -122.16538649999993,39.18449230000001,0 -122.17153029999992,39.19378040000001,0 -122.17948519999993,39.208350900000006,0 -122.17975739999993,39.20897120000001,0 -122.18015199999992,39.21011340000001,0 -122.18045599999992,39.21152820000001,0 -122.18135219999994,39.22216010000001,0 -122.18230849999993,39.27653500000002,0 -122.18652759999992,39.30397330000002,0 -122.18688509999993,39.30525770000001,0 -122.18751669999992,39.30675080000001,0 -122.18813579999991,39.30783220000001,0 -122.19253299999993,39.31375500000001,0 -122.19324389999991,39.31494740000001,0 -122.19379809999991,39.31618310000001,0 -122.19416119999991,39.31732730000001,0 -122.19443149999991,39.31875010000002,0 -122.1945026999999,39.319664900000014,0 -122.1947660999999,39.34986280000002,0 -122.1947165999999,39.35058410000002,0 -122.19457499999987,39.35155540000002,0 -122.19440529999989,39.352308700000016,0 -122.1930907999999,39.356221200000014,0 -122.19292799999988,39.35684830000002,0 -122.19272119999987,39.358017900000014,0 -122.19265609999987,39.358905600000014,0 -122.19293169999987,39.393603900000016,0 -122.19298239999988,39.39430530000002,0 -122.19312619999987,39.39526890000001,0 -122.19545219999988,39.405202500000016,0 -122.19555649999988,39.40582400000002,0 -122.19563069999988,39.40673320000002,0 -122.19558359999988,39.40826050000002,0 -122.19541999999988,39.409304900000016,0 -122.19326499999988,39.41903610000002,0 -122.19315159999988,39.420074800000016,0 -122.19341189999989,39.45617190000002,0 -122.19358479999988,39.457586800000016,0 -122.19378989999989,39.458491500000015,0 -122.19505259999987,39.46188260000002,0 -122.19525689999988,39.46255750000002,0 -122.1955037999999,39.46372450000002,0 -122.1956079999999,39.464763400000024,0 -122.1958407999999,39.490841600000024,0 -122.19601109999991,39.49242000000002,0 -122.1963217999999,39.49371210000002,0 -122.1968634999999,39.49511050000002,0 -122.2000226999999,39.50113980000001,0 -122.20051949999991,39.501963300000014,0 -122.20127209999993,39.502981100000014,0 -122.21194749999991,39.51557130000002,0 -122.21262229999991,39.51649290000002,0 -122.21341269999992,39.51784500000002,0 -122.21384359999992,39.518809400000016,0 -122.2142904999999,39.52020760000002,0 -122.2144845999999,39.521186600000014,0 -122.21457719999991,39.52208560000002,0 -122.21461339999992,39.54879910000002,0 -122.21463679999992,39.54887140000001,0 -122.21459889999993,39.55457110000001,0 -122.20962609999992,39.58657510000002,0 -122.20941149999993,39.58934950000002,0 -122.20932919999991,39.589456700000014,0 -122.20919539999991,39.590193100000015,0 -122.20912259999993,39.59103620000001,0 -122.20898679999992,39.59123020000001,0 -122.20882409999993,39.59139300000001,0 -122.20833929999995,39.59167030000001,0 -122.20823149999995,39.59178710000001,0 -122.20808989999993,39.59209780000002,0 </coordinates></LineString><TimeSpan><begin>2020-08-14T23:03:16.860Z</begin><end>2020-08-15T02:01:05.999Z</end></TimeSpan></Placemark><Placemark><name>Willows Rest Area - Northbound</name><address>Willows, CA 95988</address><ExtendedData><Data name="Email"><value>syugen.zhou@gmail.com</value></Data><Data name="Category"><value>Rest stop</value></Data><Data name="Distance"><value>0</value></Data></ExtendedData><description> Rest stop from 2020-08-15T02:01:05.999Z to 2020-08-15T02:11:56.998Z. Distance 0m </description><Point><coordinates>-122.2085331,39.592315,0</coordinates></Point><TimeSpan><begin>2020-08-15T02:01:05.999Z</begin><end>2020-08-15T02:11:56.998Z</end></TimeSpan></Placemark><Placemark><name>Driving</name><address></address><ExtendedData><Data name="Email"><value>syugen.zhou@gmail.com</value></Data><Data name="Category"><value>Driving</value></Data><Data name="Distance"><value>65878</value></Data></ExtendedData><description> Driving from 2020-08-15T02:11:56.998Z to 2020-08-15T02:43:01.000Z. Distance 65878m </description><LineString><altitudeMode>clampToGround</altitudeMode><extrude>1</extrude><tesselate>1</tesselate><coordinates>-122.20805130000001,39.59222150000001,0 -122.20803649999999,39.5923129,0 -122.2080409,39.592420800000006,0 -122.20807860000001,39.592584400000014,0 -122.20812169999999,39.592697300000005,0 -122.2081519,39.592753900000005,0 -122.20827570000002,39.592885700000004,0 -122.2083685,39.59295960000001,0 -122.20855050000002,39.5930808,0 -122.20865190000002,39.593121700000005,0 -122.20884540000002,39.593385100000006,0 -122.208912,39.5935101,0 -122.2089655,39.5936638,0 -122.2089771,39.593719,0 -122.20898760000001,39.5938918,0 -122.2089808,39.5941603,0 -122.2089927,39.5942118,0 -122.2090574,39.594314499999996,0 -122.20865690000002,39.599963599999995,0 -122.20851390000001,39.6012986,0 -122.20850300000002,39.601479,0 -122.20849200000002,39.6024622,0 -122.20840840000001,39.603628099999995,0 -122.2083611,39.604005599999994,0 -122.20577290000001,39.6198334,0 -122.20572630000002,39.62022209999999,0 -122.20501490000002,39.624528299999994,0 -122.20498750000002,39.6246538,0 -122.20417500000002,39.629619999999996,0 -122.20406710000003,39.6304168,0 -122.20401440000002,39.631210499999995,0 -122.20434310000003,39.663464999999995,0 -122.20433160000002,39.66355829999999,0 -122.20455190000001,39.68564539999999,0 -122.20459320000002,39.68672439999999,0 -122.20539030000002,39.70025489999999,0 -122.20540670000003,39.70079069999999,0 -122.20546340000003,39.70141579999999,0 -122.20563310000001,39.70402889999999,0 -122.2056644,39.70501659999999,0 -122.2059581,39.7102417,0 -122.20597300000001,39.711232599999995,0 -122.20517100000002,39.761546599999996,0 -122.20415590000003,39.785201799999996,0 -122.20410690000004,39.78587829999999,0 -122.20398550000003,39.78674889999999,0 -122.20388510000002,39.78724059999999,0 -122.20373010000002,39.78784909999999,0 -122.20190450000001,39.79400939999999,0 -122.20190580000002,39.79406979999999,0 -122.20054780000001,39.79865809999999,0 -122.20051770000002,39.79878559999999,0 -122.20006180000003,39.80030379999999,0 -122.19996510000001,39.80072499999999,0 -122.1998401,39.80140539999999,0 -122.19976730000002,39.80203639999999,0 -122.19973380000003,39.802569299999995,0 -122.19987060000004,39.850191599999995,0 -122.19986500000003,39.8502649,0 -122.19997760000003,39.8867808,0 -122.19996500000002,39.887179599999996,0 -122.20004420000002,39.9143319,0 -122.20003720000003,39.9144784,0 -122.20008760000003,39.9643086,0 -122.20012160000005,39.965381099999995,0 -122.20017470000005,39.9661282,0 -122.20022330000005,39.9665777,0 -122.20226320000005,39.9791485,0 -122.20228440000005,39.979327999999995,0 -122.20511460000004,39.9966362,0 -122.20515130000004,39.996811199999996,0 -122.20668210000004,40.00625959999999,0 -122.20670670000004,40.006364899999994,0 -122.20837980000005,40.0167028,0 -122.21532600000005,40.0591234,0 -122.21540060000005,40.0596753,0 -122.21546640000005,40.060430000000004,0 -122.21842840000006,40.118952500000006,0 -122.21841600000008,40.1191371,0 -122.21886770000009,40.12764340000001,0 -122.2190070000001,40.1288819,0 -122.2191464000001,40.12989700000001,0 -122.22077420000011,40.138713700000004,0 -122.22085310000011,40.1390741,0 -122.22148330000012,40.14245840000001,0 -122.22151870000012,40.142524200000004,0 -122.22340670000013,40.152614400000004,0 -122.22350550000012,40.15335770000001,0 -122.22354250000011,40.15393400000001,0 -122.22354630000011,40.154611,0 -122.22352260000011,40.1551145,0 -122.2212563000001,40.1730819,0 -122.22122560000011,40.1734925,0 -122.2212211000001,40.17376290000001,0 -122.2212348000001,40.174151900000005,0 -122.2212661000001,40.1745603,0 -122.2213064000001,40.17483430000001,0 -122.2214457000001,40.17544630000001,0 -122.2215141000001,40.175689600000005,0 -122.2217112000001,40.176242900000005,0 -122.2218810000001,40.17662940000001,0 -122.2220166000001,40.176906800000005,0 -122.22220460000011,40.17723760000001,0 -122.2224999000001,40.17769790000001,0 -122.22248500000009,40.17778720000001,0 -122.22248630000009,40.17779320000001,0 -122.22265380000007,40.17807450000001,0 -122.22319770000006,40.17888880000001,0 -122.22328460000006,40.17910600000001,0 -122.22335210000006,40.17932350000001,0 -122.22339200000006,40.179525700000006,0 -122.22354850000005,40.18064880000001,0 -122.22357800000006,40.18076030000001,0 -122.22360670000005,40.18082810000001,0 -122.22368770000004,40.18096840000001,0 -122.22386610000005,40.18121040000001,0 -122.22050100000006,40.18264470000001,0 -122.21960950000005,40.18304710000001,0 -122.21940030000005,40.18278830000001,0 -122.21923710000004,40.18251710000001,0 -122.21907620000003,40.18219850000002,0 -122.21903100000004,40.18209100000002,0 -122.21900000000005,40.18198200000002,0 -122.21973410000004,40.18197400000002,0 </coordinates></LineString><TimeSpan><begin>2020-08-15T02:11:56.998Z</begin><end>2020-08-15T02:43:01.000Z</end></TimeSpan></Placemark><Placemark><name>McDonald's</name><address>215 Antelope Blvd, Red Bluff, CA 96080</address><ExtendedData><Data name="Email"><value>syugen.zhou@gmail.com</value></Data><Data name="Category"><value>Fast Food</value></Data><Data name="Distance"><value>0</value></Data></ExtendedData><description> Fast Food from 2020-08-15T02:43:01.000Z to 2020-08-15T03:01:36.000Z. Distance 0m </description><Point><coordinates>-122.219585,40.1821254,0</coordinates></Point><TimeSpan><begin>2020-08-15T02:43:01.000Z</begin><end>2020-08-15T03:01:36.000Z</end></TimeSpan></Placemark><Placemark><name>Driving</name><address></address><ExtendedData><Data name="Email"><value>syugen.zhou@gmail.com</value></Data><Data name="Category"><value>Driving</value></Data><Data name="Distance"><value>137715</value></Data></ExtendedData><description> Driving from 2020-08-15T03:01:36.000Z to 2020-08-15T04:18:26.999Z. Distance 137715m </description><LineString><altitudeMode>clampToGround</altitudeMode><extrude>1</extrude><tesselate>1</tesselate><coordinates>-122.21970489999998,40.1819744,0 -122.219,40.181982000000005,0 -122.2196095,40.1830471,0 -122.21972760000001,40.183120900000006,0 -122.22285650000002,40.1817389,0 -122.2235162,40.1816593,0 -122.2242129,40.1817575,0 -122.2259683,40.1824479,0 -122.2266092,40.1828444,0 -122.22716290000001,40.18339780000001,0 -122.22727150000001,40.1834148,0 -122.24272700000003,40.201902200000006,0 -122.24581280000001,40.2071958,0 -122.24859830000003,40.2138228,0 -122.25347780000001,40.2232611,0 -122.25389720000001,40.2247495,0 -122.25466770000003,40.2311608,0 -122.26028050000004,40.248426,0 -122.27008860000004,40.2741842,0 -122.27411860000004,40.282694600000006,0 -122.27760540000004,40.2869712,0 -122.27816580000002,40.28808670000001,0 -122.27860210000004,40.289778600000005,0 -122.28197940000003,40.348659700000006,0 -122.28435380000002,40.372155600000006,0 -122.28515480000003,40.39089390000001,0 -122.28502190000005,40.392087700000005,0 -122.28083750000005,40.40566470000001,0 -122.28063430000003,40.41092180000001,0 -122.28305920000003,40.426928900000014,0 -122.28736850000004,40.43925510000001,0 -122.28921630000005,40.44770720000002,0 -122.29023540000006,40.45014660000001,0 -122.29191090000005,40.45249300000001,0 -122.32558900000006,40.48704330000001,0 -122.34254950000006,40.51273300000001,0 -122.36017820000006,40.568298700000014,0 -122.36046190000008,40.60310950000001,0 -122.36087130000007,40.60531680000001,0 -122.36834460000007,40.629169300000015,0 -122.36841420000009,40.63138650000002,0 -122.36812650000009,40.63274830000002,0 -122.36188710000008,40.64930510000002,0 -122.34882580000007,40.67798350000002,0 -122.34388730000006,40.69470140000002,0 -122.32779670000008,40.72037690000002,0 -122.32427670000007,40.724280100000016,0 -122.31431990000006,40.739903200000015,0 -122.31384710000007,40.74108050000002,0 -122.31373450000007,40.74204070000002,0 -122.31431130000007,40.745307300000015,0 -122.31543080000009,40.747383800000016,0 -122.31663670000009,40.74869420000001,0 -122.3212300000001,40.752579800000014,0 -122.32178870000011,40.753708400000015,0 -122.32173180000011,40.754708500000014,0 -122.3211131000001,40.755827900000014,0 -122.31974400000011,40.757042900000016,0 -122.31916690000011,40.757853900000015,0 -122.31899300000012,40.75840690000002,0 -122.3184319000001,40.76648680000002,0 -122.31803380000012,40.76750850000002,0 -122.31761510000011,40.76795360000002,0 -122.31429750000011,40.76950420000002,0 -122.31329420000012,40.77032940000002,0 -122.3125571000001,40.771575500000026,0 -122.31232620000011,40.77294440000003,0 -122.31256020000012,40.77405090000002,0 -122.31463410000013,40.777835000000024,0 -122.31477500000013,40.77901360000002,0 -122.31453560000013,40.779816600000025,0 -122.31393800000012,40.78061960000002,0 -122.31281590000012,40.781382900000025,0 -122.31019430000012,40.78236460000003,0 -122.30907800000011,40.783196800000034,0 -122.30845200000012,40.78425950000003,0 -122.3083447000001,40.78505470000003,0 -122.3085647000001,40.78600910000003,0 -122.30918500000011,40.78689180000003,0 -122.3119951000001,40.78893940000003,0 -122.3139781000001,40.79100010000003,0 -122.3166057000001,40.79273720000003,0 -122.31973440000012,40.79403580000004,0 -122.32036690000011,40.79443820000003,0 -122.32114700000011,40.79532100000003,0 -122.32146620000012,40.79607410000003,0 -122.32262680000011,40.804049300000024,0 -122.32238990000012,40.80610890000003,0 -122.32085850000013,40.81126650000002,0 -122.32079780000014,40.81285550000002,0 -122.32111710000014,40.81443500000002,0 -122.32457530000015,40.82392870000002,0 -122.32462570000015,40.82711990000002,0 -122.32600840000016,40.83061870000002,0 -122.32782910000016,40.83828480000002,0 -122.32815980000015,40.84258110000002,0 -122.32860840000016,40.84336300000002,0 -122.32951740000017,40.84414310000002,0 -122.34025150000016,40.84868160000002,0 -122.34076780000017,40.84903340000002,0 -122.34149750000016,40.84984860000002,0 -122.34179360000016,40.85052060000002,0 -122.34190260000015,40.85345950000002,0 -122.34260460000016,40.854720000000015,0 -122.34977780000017,40.86065880000002,0 -122.35100840000015,40.86143460000002,0 -122.35353610000016,40.862590200000014,0 -122.36263030000016,40.86536830000002,0 -122.36399960000017,40.866050800000025,0 -122.36472620000018,40.86660750000002,0 -122.36575620000018,40.86785100000002,0 -122.36700140000019,40.87032980000002,0 -122.3679067000002,40.87129160000002,0 -122.37094380000019,40.87310340000002,0 -122.37235420000019,40.87439830000002,0 -122.37417980000019,40.87694440000002,0 -122.37568730000018,40.87801650000002,0 -122.3786257000002,40.879400500000024,0 -122.3809533000002,40.88112110000002,0 -122.38211290000018,40.88258950000002,0 -122.38325710000018,40.88492920000002,0 -122.38357910000018,40.88660880000002,0 -122.38280890000016,40.89872570000002,0 -122.38305570000016,40.90294760000002,0 -122.38453760000016,40.90903790000002,0 -122.38558870000017,40.910865300000026,0 -122.38747450000018,40.91259660000002,0 -122.40091960000018,40.92127930000002,0 -122.40193920000017,40.921695900000024,0 -122.40341580000018,40.921979400000026,0 -122.40692860000017,40.922022500000026,0 -122.40836630000017,40.922387200000024,0 -122.40963280000018,40.923100600000026,0 -122.41066090000017,40.92432160000002,0 -122.41166820000018,40.92858950000002,0 -122.41307170000016,40.931973300000024,0 -122.41321850000017,40.93414260000003,0 -122.41362400000015,40.93500830000003,0 -122.41447980000015,40.93585620000003,0 -122.41526570000016,40.93629220000003,0 -122.41625410000016,40.93660880000004,0 -122.42030190000017,40.93689270000004,0 -122.42126940000017,40.93723760000003,0 -122.42191360000017,40.93762420000003,0 -122.42459570000015,40.939884000000035,0 -122.42607350000016,40.94055610000004,0 -122.43411620000016,40.94158120000004,0 -122.43512340000017,40.94197100000004,0 -122.43616890000017,40.94267620000004,0 -122.43663760000017,40.943177100000035,0 -122.43724490000017,40.94441060000003,0 -122.43727720000017,40.94574550000003,0 -122.43559830000017,40.95026400000003,0 -122.43516240000017,40.95686460000003,0 -122.43559020000016,40.95793050000003,0 -122.43629650000017,40.95869180000003,0 -122.43980070000018,40.96060030000003,0 -122.44031240000017,40.96107020000004,0 -122.44083220000017,40.961892600000034,0 -122.44100710000018,40.962756100000036,0 -122.44079160000018,40.963804300000035,0 -122.43992430000017,40.96489330000003,0 -122.43925890000017,40.965330400000035,0 -122.43634580000018,40.966642600000036,0 -122.43583460000018,40.96702690000003,0 -122.43396760000017,40.96984640000003,0 -122.43251050000016,40.97132910000003,0 -122.43200120000016,40.97228580000002,0 -122.43189900000017,40.972967500000024,0 -122.43207520000018,40.97393460000002,0 -122.4329509000002,40.97601480000002,0 -122.43296200000017,40.97716310000002,0 -122.43071260000018,40.98098330000002,0 -122.42905250000018,40.98570340000002,0 -122.42732110000019,40.98866530000002,0 -122.42574170000019,40.99047660000002,0 -122.41050480000018,41.00236530000002,0 -122.4097269000002,41.00350210000002,0 -122.4092705000002,41.00502700000003,0 -122.4097240000002,41.01014240000003,0 -122.4095797000002,41.011147100000024,0 -122.4091767000002,41.012105400000024,0 -122.40839880000021,41.013139600000024,0 -122.39769390000022,41.022745900000025,0 -122.3968406000002,41.02398030000003,0 -122.3965486000002,41.024927400000024,0 -122.3965015000002,41.02571830000003,0 -122.39735770000019,41.03221910000003,0 -122.39714850000018,41.03391120000003,0 -122.39568180000018,41.03743650000003,0 -122.39533540000016,41.04122900000003,0 -122.39464670000015,41.042863000000025,0 -122.39359800000015,41.044041400000026,0 -122.38989440000016,41.04657650000003,0 -122.38822000000016,41.04729390000003,0 -122.38355900000015,41.048436900000034,0 -122.38242880000014,41.048864400000035,0 -122.38173690000015,41.04926890000004,0 -122.38083660000017,41.05006000000004,0 -122.38042520000018,41.050624100000036,0 -122.37862960000015,41.05448650000004,0 -122.37790960000017,41.05512210000004,0 -122.37737100000017,41.05542930000004,0 -122.37426590000015,41.05653730000004,0 -122.37334820000015,41.057119600000036,0 -122.37291130000015,41.057547700000036,0 -122.36919300000017,41.06308980000003,0 -122.36841140000017,41.06379930000003,0 -122.36766070000017,41.06421120000003,0 -122.36363330000016,41.065484700000034,0 -122.36249530000016,41.06613810000003,0 -122.36158660000018,41.066909200000026,0 -122.35648550000019,41.07429810000003,0 -122.35593740000019,41.07647970000003,0 -122.35598350000018,41.08075600000003,0 -122.3557642000002,41.08132450000003,0 -122.35532030000019,41.081891400000025,0 -122.35457530000019,41.08242390000003,0 -122.35309830000021,41.08309320000003,0 -122.3524471000002,41.08356370000003,0 -122.35191140000022,41.08435520000003,0 -122.35178610000021,41.08505290000003,0 -122.35278380000022,41.08917890000003,0 -122.35274050000021,41.089823700000025,0 -122.3521692000002,41.09080120000002,0 -122.3513874000002,41.09134020000002,0 -122.34744890000022,41.09282060000002,0 -122.34659520000022,41.093394100000026,0 -122.34606610000021,41.094052000000026,0 -122.34430900000022,41.098825000000026,0 -122.34363350000021,41.09961380000002,0 -122.33387000000022,41.10639150000002,0 -122.3272390000002,41.11013250000003,0 -122.3268428000002,41.11052010000002,0 -122.3263499000002,41.11155970000002,0 -122.3263982000002,41.11249590000003,0 -122.3276794000002,41.115656900000026,0 -122.32807300000019,41.11842420000002,0 -122.3279660000002,41.11937390000002,0 -122.3232560000002,41.12761320000002,0 -122.32264200000019,41.12913470000002,0 -122.32147390000019,41.13651450000002,0 -122.32102440000017,41.13757840000002,0 -122.31851510000018,41.14087670000002,0 -122.3181321000002,41.14173550000002,0 -122.31746010000018,41.146077200000015,0 -122.31710150000018,41.147001900000014,0 -122.31611420000017,41.14833770000001,0 -122.31483340000017,41.149312500000015,0 -122.31360730000016,41.149895100000016,0 -122.30739730000016,41.151499600000015,0 -122.30309930000016,41.15125600000002,0 -122.30199810000016,41.151412100000016,0 -122.29668950000016,41.153005100000016,0 -122.29581250000015,41.15342320000002,0 -122.29507600000015,41.15398540000002,0 -122.29441150000015,41.154912500000016,0 -122.29416900000015,41.15570750000001,0 -122.29417450000015,41.15637810000002,0 -122.29439940000016,41.15713980000002,0 -122.29733620000015,41.162434400000016,0 -122.29752340000014,41.16317770000001,0 -122.29766240000014,41.17168000000001,0 -122.29694870000013,41.17371210000001,0 -122.28640860000013,41.18778080000001,0 -122.28394530000013,41.19481660000001,0 -122.28308500000011,41.19596650000001,0 -122.27866410000011,41.199892300000016,0 -122.27778040000013,41.201315500000014,0 -122.27686660000012,41.20592450000001,0 -122.27527880000012,41.21039720000002,0 -122.27410520000012,41.21271390000002,0 -122.27398720000012,41.21354140000002,0 -122.27551550000013,41.223291300000014,0 -122.27538940000011,41.22900350000002,0 -122.27493460000011,41.23045050000002,0 -122.2740454000001,41.23159680000002,0 -122.27119160000012,41.23431960000002,0 -122.26486920000012,41.238101200000024,0 -122.26233640000012,41.240028100000025,0 -122.26086310000014,41.24159760000002,0 -122.25827150000013,41.24561670000002,0 -122.25779830000012,41.24704610000002,0 -122.25792650000011,41.24866100000002,0 -122.2583521000001,41.24962920000002,0 -122.25891260000009,41.25038870000002,0 -122.25999750000008,41.25133080000003,0 -122.2706200000001,41.25756930000002,0 -122.27189770000008,41.25853820000002,0 -122.2733251000001,41.26022440000002,0 -122.2773775000001,41.26837240000002,0 -122.2790306000001,41.27024320000002,0 -122.2875848000001,41.276863200000015,0 -122.3050055000001,41.28679200000002,0 -122.30502510000012,41.286904200000016,0 -122.30610510000012,41.28772770000002,0 -122.30639000000012,41.288092900000024,0 -122.30728130000013,41.29177400000002,0 -122.30625810000014,41.29580650000002,0 -122.30631980000014,41.301772200000016,0 -122.31081650000014,41.30620000000002,0 -122.31095330000015,41.30644070000002,0 -122.31102300000015,41.30693940000002,0 -122.31059170000016,41.30693280000002,0 </coordinates></LineString><TimeSpan><begin>2020-08-15T03:01:36.000Z</begin><end>2020-08-15T04:18:26.999Z</end></TimeSpan></Placemark><Placemark><name>Inn at Mount Shasta</name><address>710 S Mt Shasta Blvd, Mt Shasta, CA 96067</address><ExtendedData><Data name="Email"><value>syugen.zhou@gmail.com</value></Data><Data name="Category"><value>Hotel</value></Data><Data name="Distance"><value>0</value></Data></ExtendedData><description> Hotel from 2020-08-15T04:18:26.999Z to 2020-08-15T17:05:47.999Z. Distance 0m </description><Point><coordinates>-122.310622,41.3070835,0</coordinates></Point><TimeSpan><begin>2020-08-15T04:18:26.999Z</begin><end>2020-08-15T17:05:47.999Z</end></TimeSpan></Placemark></Document></kml>
