<?xml version="1.0" encoding="UTF-8"?><kml xmlns="http://www.opengis.net/kml/2.2" xmlns:gx="http://www.google.com/kml/ext/2.2"><Document><name> Location history from 2020-09-06 to 2020-09-06 </name><open>1</open><description></description><StyleMap id="multiTrack"><Pair><key>normal</key><styleUrl>#multiTrack_n</styleUrl></Pair><Pair><key>highlight</key><styleUrl>#multiTrack_h</styleUrl></Pair></StyleMap><Style id="multiTrack_n"><IconStyle><Icon><href>https://earth.google.com/images/kml-icons/track-directional/track-0.png</href></Icon></IconStyle><LineStyle><color>99ffac59</color><width>6</width></LineStyle></Style><Style id="multiTrack_h"><IconStyle><scale>1.2</scale><Icon><href>https://earth.google.com/images/kml-icons/track-directional/track-0.png</href></Icon></IconStyle><LineStyle><color>99ffac59</color><width>8</width></LineStyle></Style><Placemark><name>Hampton Inn Tropicana</name><address>4975 Dean Martin Dr, Las Vegas, NV 89118</address><ExtendedData><Data name="Email"><value>syugen.zhou@gmail.com</value></Data><Data name="Category"><value>Hotel</value></Data><Data name="Distance"><value>0</value></Data></ExtendedData><description> Hotel from 2020-09-06T05:15:00.000Z to 2020-09-06T17:15:14.000Z. Distance 0m </description><Point><coordinates>-115.1833771,36.0996676,0</coordinates></Point><TimeSpan><begin>2020-09-06T05:15:00.000Z</begin><end>2020-09-06T17:15:14.000Z</end></TimeSpan></Placemark><Placemark><name>Driving</name><address></address><ExtendedData><Data name="Email"><value>syugen.zhou@gmail.com</value></Data><Data name="Category"><value>Driving</value></Data><Data name="Distance"><value>44557</value></Data></ExtendedData><description> Driving from 2020-09-06T17:15:14.000Z to 2020-09-06T18:11:58.000Z. Distance 44557m </description><LineString><altitudeMode>clampToGround</altitudeMode><extrude>1</extrude><tesselate>1</tesselate><coordinates>-115.18313649999999,36.0998247,0 -115.18288329999999,36.099566800000005,0 -115.1825325,36.0997859,0 -115.18263189999999,36.099893300000005,0 -115.18263579999999,36.0999945,0 -115.18294879999998,36.1003285,0 -115.18297849999998,36.100568200000005,0 -115.18182309999996,36.100567500000004,0 -115.18151979999998,36.100461800000005,0 -115.18128149999998,36.100249100000006,0 -115.18107989999999,36.0990181,0 -115.18110279999998,36.0937508,0 -115.18104349999997,36.0936884,0 -115.18107759999998,36.0892252,0 -115.18133269999997,36.0870214,0 -115.18136229999998,36.0856025,0 -115.18112979999998,36.082752,0 -115.18117049999996,36.070389999999996,0 -115.18182579999996,36.068410199999995,0 -115.18182139999995,36.06834309999999,0 -115.18232389999994,36.066852399999995,0 -115.18253799999995,36.066416499999995,0 -115.18253869999995,36.06629269999999,0 -115.18337589999996,36.064889599999994,0 -115.18351849999995,36.0644171,0 -115.18354969999993,36.06382489999999,0 -115.18339619999992,36.063260099999994,0 -115.18314529999992,36.0627542,0 -115.18275289999993,36.06228539999999,0 -115.18237479999993,36.0619728,0 -115.18178109999995,36.061641599999994,0 -115.18135079999996,36.0614852,0 -115.18060509999995,36.0613363,0 -115.17974129999995,36.0613452,0 -115.17921439999995,36.0614408,0 -115.17875199999993,36.0615866,0 -115.17664989999994,36.0627501,0 -115.17546669999996,36.0631279,0 -115.17447699999995,36.0632669,0 -115.17279489999994,36.06335970000001,0 -115.17263619999994,36.063442200000004,0 -115.15658709999995,36.06358960000001,0 -115.15416359999995,36.0634482,0 -115.15128189999994,36.06302850000001,0 -115.14944669999994,36.0626077,0 -115.14741129999994,36.06200260000001,0 -115.14640229999995,36.06162330000001,0 -115.14506759999996,36.06100980000001,0 -115.14358039999996,36.060133900000004,0 -115.14260289999996,36.05942930000001,0 -115.14135219999996,36.05830950000001,0 -115.14045719999996,36.05725790000001,0 -115.13675289999995,36.05162550000001,0 -115.13557929999996,36.049300200000005,0 -115.13507119999996,36.047953400000004,0 -115.13447619999995,36.04574,0 -115.13430399999996,36.044649400000004,0 -115.13406459999996,36.039266100000006,0 -115.13390979999996,36.03800270000001,0 -115.13339629999994,36.035761400000005,0 -115.13179799999995,36.030595100000006,0 -115.13141639999995,36.02972400000001,0 -115.13043079999997,36.02819780000001,0 -115.12982279999996,36.02748850000001,0 -115.12900939999996,36.02670510000001,0 -115.12806399999997,36.025972,0 -115.12711969999995,36.025389200000006,0 -115.12594679999995,36.02479660000001,0 -115.12413779999994,36.0241562,0 -115.12222109999993,36.0237593,0 -115.12093669999993,36.023639900000006,0 -115.09296819999994,36.02340000000001,0 -115.09085879999994,36.0235004,0 -115.08179679999992,36.02491140000001,0 -115.03421169999994,36.030935500000005,0 -115.03404649999993,36.030993900000006,0 -115.02978719999993,36.03178450000001,0 -115.02169189999995,36.03278720000001,0 -115.02146319999994,36.03273780000001,0 -115.01828979999996,36.03287730000001,0 -115.01592139999997,36.03319020000001,0 -115.01548969999996,36.033204700000006,0 -115.01499289999994,36.033148100000005,0 -115.01432629999995,36.03293620000001,0 -115.01391719999994,36.032704200000005,0 -115.01075299999995,36.029989400000005,0 -115.01052789999994,36.02990700000001,0 -115.00818129999995,36.027762,0 -114.99207839999994,36.01434520000001,0 -114.99130479999995,36.01357000000001,0 -114.99073229999993,36.012839500000005,0 -114.98778019999995,36.00808130000001,0 -114.98604219999994,36.006054400000004,0 -114.98476719999994,36.0048967,0 -114.98352749999994,36.00395030000001,0 -114.98233039999994,36.00317450000001,0 -114.98034589999995,36.00212220000001,0 -114.97854979999994,36.00137590000001,0 -114.97747139999994,36.00101180000001,0 -114.97511929999993,36.000404900000014,0 -114.97231469999993,35.99998320000001,0 -114.97090519999993,35.999889900000014,0 -114.94870399999994,35.99990070000001,0 -114.94686239999994,35.99972190000001,0 -114.94463639999995,35.99931700000001,0 -114.94256509999997,35.99873450000001,0 -114.93311609999995,35.99491960000001,0 -114.93164569999995,35.99415440000001,0 -114.93077519999996,35.99360150000001,0 -114.92960459999995,35.99270970000001,0 -114.92096959999995,35.98497770000001,0 -114.91885429999994,35.9826223,0 -114.91779379999994,35.9811698,0 -114.91627329999994,35.97853510000001,0 -114.91532649999994,35.976345900000005,0 -114.91488389999992,35.97500440000001,0 -114.91436099999991,35.97284740000001,0 -114.91430809999991,35.97274430000001,0 -114.9135777999999,35.96985770000001,0 -114.9136239999999,35.96978810000002,0 -114.91308969999992,35.96645150000002,0 -114.91300979999993,35.96620660000002,0 -114.91140379999993,35.96651600000002,0 -114.91103979999994,35.96664360000002,0 -114.91074689999995,35.96681500000002,0 -114.91045959999995,35.96706930000001,0 -114.91025109999995,35.967403800000014,0 -114.91014049999995,35.96786310000002,0 -114.90925729999996,35.96781630000002,0 -114.90479749999996,35.967874400000014,0 -114.90468969999995,35.96791060000001,0 -114.88197829999996,35.96667430000001,0 -114.87835449999994,35.96671540000001,0 -114.86046139999993,35.968352300000014,0 -114.85909049999994,35.96860490000001,0 -114.85897899999993,35.96870540000001,0 -114.85571969999994,35.969351900000014,0 -114.85332289999994,35.970108400000015,0 -114.85162609999995,35.97082600000001,0 -114.84946069999994,35.97199940000001,0 -114.84814119999996,35.97285750000001,0 -114.84797639999996,35.97290490000001,0 -114.84604119999997,35.974195400000006,0 -114.84611979999995,35.97426120000001,0 -114.84641709999995,35.97482050000001,0 -114.84646489999994,35.97512900000001,0 -114.84641099999993,35.97542140000001,0 -114.84518549999994,35.97753680000001,0 -114.84491039999995,35.97824450000001,0 -114.84425339999994,35.98117910000001,0 -114.84378199999995,35.98209740000001,0 -114.84336889999994,35.98265010000001,0 -114.84271519999994,35.983304800000006,0 -114.84168899999995,35.98402230000001,0 -114.83125879999996,35.989401900000004,0 -114.83009909999997,35.990105400000004,0 -114.82815899999996,35.9916166,0 -114.82735119999997,35.99240590000001,0 -114.82188139999995,35.99904000000001,0 -114.82180139999994,35.99921700000001,0 -114.81742659999995,36.004536200000004,0 -114.81667939999994,36.0051836,0 -114.81614609999995,36.0055339,0 -114.81531119999997,36.0059533,0 -114.81443639999996,36.006264,0 -114.80457329999997,36.008101,0 -114.80429029999996,36.00810860000001,0 -114.80045919999996,36.008788,0 -114.80034829999995,36.0088654,0 -114.79999069999995,36.0089394,0 -114.79988489999997,36.0089887,0 -114.79984489999995,36.0090279,0 -114.79995619999995,36.0095338,0 -114.79994759999997,36.0096615,0 -114.79985379999997,36.009891599999996,0 -114.79966079999997,36.010104999999996,0 -114.79933079999996,36.010274599999995,0 -114.79913869999997,36.01031729999999,0 -114.79742209999996,36.01046169999999,0 -114.79649569999998,36.0107126,0 -114.79574199999996,36.01105749999999,0 -114.79494409999997,36.011617799999996,0 -114.79439589999997,36.012200799999995,0 -114.79385659999998,36.013096,0 -114.79365259999999,36.01368479999999,0 -114.7935481,36.01437429999999,0 -114.7936449,36.01559499999999,0 -114.79385369999999,36.01631369999999,0 -114.7957453,36.020075999999996,0 -114.79574799999999,36.02034719999999,0 -114.79618039999998,36.02126249999999,0 -114.79651239999997,36.02167209999999,0 -114.79703009999997,36.022749299999994,0 -114.79703139999997,36.02288769999999,0 -114.79690729999996,36.02303559999999,0 -114.79617999999996,36.023261399999996,0 -114.79579919999996,36.0233043,0 -114.79538399999996,36.02329039999999,0 -114.79472379999994,36.023168399999996,0 -114.79306359999994,36.0224444,0 -114.79264539999996,36.022355399999995,0 -114.79202719999995,36.0223489,0 -114.79145609999996,36.022504999999995,0 -114.78756749999997,36.024234199999995,0 -114.78328589999998,36.026334299999995,0 -114.78343309999997,36.02654989999999,0 -114.78348939999998,36.02673229999999,0 -114.78343369999999,36.02685979999999,0 -114.7832165,36.02706999999999,0 -114.7830575,36.0273626,0 -114.78303680000002,36.027621399999994,0 -114.78313820000002,36.02790159999999,0 -114.78336980000003,36.02816359999999,0 -114.78311500000004,36.0283532,0 -114.78300850000004,36.028535899999994,0 -114.78296590000004,36.028720699999994,0 -114.78295400000003,36.02919719999999,0 -114.78266560000003,36.03015669999999,0 -114.78221740000002,36.0309052,0 -114.78144540000001,36.031681899999995,0 -114.78104050000002,36.0327453,0 -114.77982610000001,36.0339017,0 -114.77940410000002,36.03416,0 -114.77925250000001,36.0343955,0 </coordinates></LineString><TimeSpan><begin>2020-09-06T17:15:14.000Z</begin><end>2020-09-06T18:11:58.000Z</end></TimeSpan></Placemark><Placemark><name>Hemenway Fishing Pier</name><address>Hemenway Rd, Boulder City, NV 89005</address><ExtendedData><Data name="Email"><value>syugen.zhou@gmail.com</value></Data><Data name="Category"><value>Fishing pier</value></Data><Data name="Distance"><value>0</value></Data></ExtendedData><description> Fishing pier from 2020-09-06T18:11:58.000Z to 2020-09-06T18:15:56.000Z. Distance 0m </description><Point><coordinates>-114.7771987,36.035266799999995,0</coordinates></Point><TimeSpan><begin>2020-09-06T18:11:58.000Z</begin><end>2020-09-06T18:15:56.000Z</end></TimeSpan></Placemark><Placemark><name>Driving</name><address></address><ExtendedData><Data name="Email"><value>syugen.zhou@gmail.com</value></Data><Data name="Category"><value>Driving</value></Data><Data name="Distance"><value>7625</value></Data></ExtendedData><description> Driving from 2020-09-06T18:15:56.000Z to 2020-09-06T18:27:38.000Z. Distance 7625m </description><LineString><altitudeMode>clampToGround</altitudeMode><extrude>1</extrude><tesselate>1</tesselate><coordinates>-114.7792525,36.034395499999995,0 -114.7794041,36.03415999999999,0 -114.77982609999998,36.03390169999999,0 -114.78104049999999,36.03274529999999,0 -114.7814454,36.03168189999998,0 -114.7822174,36.030905199999985,0 -114.7826656,36.030156699999985,0 -114.78295400000002,36.02919719999998,0 -114.78300850000001,36.02853589999998,0 -114.78311500000001,36.028353199999984,0 -114.7833698,36.02816359999998,0 -114.7831382,36.02790159999998,0 -114.78303679999999,36.02762139999998,0 -114.78305749999997,36.02736259999998,0 -114.78321649999997,36.02706999999998,0 -114.78343369999996,36.026859799999976,0 -114.78348939999995,36.02673229999998,0 -114.78328589999995,36.026334299999974,0 -114.79145609999996,36.022504999999974,0 -114.79202719999995,36.022348899999976,0 -114.79264539999996,36.022355399999974,0 -114.79306359999994,36.022444399999976,0 -114.79472379999994,36.02316839999998,0 -114.79538399999996,36.02329039999998,0 -114.79617999999994,36.023261399999974,0 -114.79723859999994,36.02293229999998,0 -114.79664479999992,36.02179169999998,0 -114.79650849999993,36.021142399999974,0 -114.79580899999992,36.02011609999998,0 -114.79574529999992,36.02007599999998,0 -114.79385369999991,36.01631369999998,0 -114.79364489999992,36.015594999999976,0 -114.79354809999991,36.01437429999998,0 -114.79385659999993,36.013095999999976,0 -114.79437179999992,36.01226889999998,0 -114.79529679999992,36.01145619999998,0 -114.79612649999993,36.01097119999997,0 -114.79746159999993,36.01054659999998,0 -114.79922499999992,36.01039049999998,0 -114.79955159999993,36.01027709999998,0 -114.79999419999993,36.009883199999976,0 -114.80007619999992,36.00957209999998,0 -114.79994069999994,36.009008199999975,0 -114.79988489999994,36.008988699999975,0 -114.79914209999994,36.009080599999976,0 -114.79903809999995,36.00905459999997,0 -114.79807029999995,36.00916149999997,0 -114.79628259999996,36.00906939999997,0 -114.79343779999995,36.00838699999998,0 -114.79167209999996,36.008199599999976,0 -114.79007929999996,36.00823759999997,0 -114.77953939999996,36.010168899999975,0 -114.77891379999997,36.010188399999976,0 -114.77730649999995,36.00991919999998,0 -114.77697219999996,36.00993759999998,0 -114.77539729999997,36.01065669999998,0 -114.77429669999997,36.01082839999997,0 -114.77425989999996,36.010752599999975,0 -114.77418449999995,36.010703399999976,0 -114.77397569999997,36.010714199999974,0 -114.77390719999995,36.01080639999997,0 -114.77389669999995,36.01091029999997,0 -114.77419529999995,36.01117479999997,0 -114.77472969999994,36.012055699999976,0 -114.77469949999993,36.01219759999997,0 -114.77456999999994,36.01230629999997,0 -114.77147299999993,36.01256469999997,0 -114.77072189999994,36.01246489999997,0 -114.76817249999995,36.01138449999997,0 -114.76790429999994,36.01133459999997,0 -114.76700169999994,36.01134979999997,0 -114.76660739999994,36.011247799999964,0 -114.76629499999994,36.01106879999996,0 -114.76566199999994,36.010507899999965,0 -114.76536559999994,36.01039729999996,0 -114.76503969999995,36.01036469999996,0 -114.76472849999995,36.01041029999996,0 -114.76439859999994,36.010590399999955,0 -114.76396549999993,36.01102429999996,0 -114.76357649999991,36.011189199999954,0 -114.76273429999992,36.01133779999996,0 -114.76244199999992,36.01154389999996,0 -114.76189209999994,36.01244319999996,0 -114.76156349999992,36.01266019999996,0 -114.76082459999992,36.01293139999995,0 -114.76053489999991,36.013123399999955,0 -114.76034179999992,36.01336099999995,0 -114.75988049999991,36.014571599999954,0 -114.76003199999991,36.01473319999996,0 -114.76003199999991,36.01479399999995,0 -114.75988519999991,36.01504449999995,0 -114.75984559999992,36.01526589999995,0 -114.75999309999993,36.01555869999995,0 -114.76012589999992,36.01563579999995,0 -114.76117059999991,36.01588309999995,0 -114.76141869999994,36.01601109999994,0 -114.76199529999992,36.01662399999994,0 -114.76203249999992,36.01671579999994,0 -114.76199709999992,36.01681179999994,0 -114.76188759999992,36.01691599999994,0 </coordinates></LineString><TimeSpan><begin>2020-09-06T18:15:56.000Z</begin><end>2020-09-06T18:27:38.000Z</end></TimeSpan></Placemark><Placemark><name>Lake Mead - Lakeview Overlook</name><address>Historic Railroad Hiking Trail, Boulder City, NV 89005</address><ExtendedData><Data name="Email"><value>syugen.zhou@gmail.com</value></Data><Data name="Category"><value>Observation deck</value></Data><Data name="Distance"><value>0</value></Data></ExtendedData><description> Observation deck from 2020-09-06T18:27:38.000Z to 2020-09-06T18:41:14.000Z. Distance 0m </description><Point><coordinates>-114.7619766,36.017014499999995,0</coordinates></Point><TimeSpan><begin>2020-09-06T18:27:38.000Z</begin><end>2020-09-06T18:41:14.000Z</end></TimeSpan></Placemark><Placemark><name>Driving</name><address></address><ExtendedData><Data name="Email"><value>syugen.zhou@gmail.com</value></Data><Data name="Category"><value>Driving</value></Data><Data name="Distance"><value>316452</value></Data></ExtendedData><description> Driving from 2020-09-06T18:41:14.000Z to 2020-09-06T22:09:00.000Z. Distance 316452m </description><LineString><altitudeMode>clampToGround</altitudeMode><extrude>1</extrude><tesselate>1</tesselate><coordinates>-114.76188760000001,36.016915999999995,0 -114.7618072,36.01698929999999,0 -114.7617533,36.01705319999999,0 -114.76173899999999,36.0170818,0 -114.7617338,36.0171116,0 -114.7617407,36.0171465,0 -114.76179760000001,36.0171677,0 -114.76185009999999,36.0171721,0 -114.7619092,36.017158,0 -114.7620759,36.0170873,0 -114.76219300000001,36.016997,0 -114.7622037,36.0169818,0 -114.76221850000002,36.016922,0 -114.76221580000002,36.0168752,0 -114.76220230000004,36.016846900000004,0 -114.76216870000005,36.0168132,0 -114.76203250000005,36.0167158,0 -114.76199530000005,36.016624,0 -114.76193900000004,36.0165524,0 -114.76141870000005,36.0160111,0 -114.76132480000007,36.015946,0 -114.76125910000007,36.0159145,0 -114.76117060000007,36.0158831,0 -114.76012590000008,36.015635800000005,0 -114.76004000000007,36.015591300000004,0 -114.75999310000006,36.01555870000001,0 -114.75995820000007,36.015524000000006,0 -114.75988850000007,36.01542210000001,0 -114.75986700000007,36.01536890000001,0 -114.75984560000008,36.01526590000001,0 -114.75984290000008,36.01520510000001,0 -114.7598496000001,36.015157400000014,0 -114.75988520000008,36.015044500000016,0 -114.76001320000009,36.01483630000002,0 -114.76003200000008,36.014794000000016,0 -114.76003600000007,36.01476900000002,0 -114.76003200000008,36.01473320000002,0 -114.75998510000008,36.014654000000014,0 -114.75988050000008,36.01457160000002,0 -114.75997030000009,36.014401300000024,0 -114.76006420000009,36.014154000000026,0 -114.76022510000008,36.01360400000003,0 -114.76034180000009,36.013361000000025,0 -114.76042760000009,36.01323840000003,0 -114.7605349000001,36.013123400000026,0 -114.76061000000009,36.01306480000002,0 -114.76082460000008,36.01293140000002,0 -114.76091850000007,36.01289020000002,0 -114.76140530000006,36.01272750000002,0 -114.76156350000008,36.01266020000002,0 -114.76173920000006,36.012561500000025,0 -114.76189210000005,36.01244320000002,0 -114.76202090000007,36.01230220000003,0 -114.76210800000008,36.012164400000025,0 -114.76228910000007,36.011753300000024,0 -114.76244200000008,36.01154390000003,0 -114.76257070000008,36.011430000000026,0 -114.76273430000008,36.01133780000003,0 -114.76284430000008,36.01129660000003,0 -114.76294620000007,36.011269500000026,0 -114.76310850000007,36.01124130000003,0 -114.76348270000007,36.011205500000024,0 -114.76357650000007,36.011189200000025,0 -114.76368780000007,36.011158800000025,0 -114.76383400000006,36.01110130000003,0 -114.76396550000005,36.01102430000003,0 -114.76403250000007,36.01097010000003,0 -114.76439860000006,36.01059040000003,0 -114.76449920000006,36.01051880000003,0 -114.76457830000007,36.01047320000003,0 -114.76472850000007,36.010410300000025,0 -114.76483420000007,36.01038440000002,0 -114.76503970000007,36.01036470000002,0 -114.76515100000007,36.010368000000014,0 -114.76536560000007,36.010397300000015,0 -114.76547290000008,36.010427700000015,0 -114.76558150000008,36.01046890000002,0 -114.76566200000009,36.01050790000002,0 -114.7658417000001,36.01062940000001,0 -114.7661555000001,36.01094840000002,0 -114.7662950000001,36.01106880000002,0 -114.7664961000001,36.01119570000002,0 -114.7666074000001,36.01124780000002,0 -114.76681400000008,36.01131500000002,0 -114.7670017000001,36.011349800000026,0 -114.7672337000001,36.01136280000002,0 -114.7677474000001,36.01132810000003,0 -114.76790430000011,36.011334600000026,0 -114.76817250000012,36.01138450000003,0 -114.76835760000012,36.011445200000026,0 -114.77046850000012,36.01237270000002,0 -114.77072190000013,36.01246490000002,0 -114.77099690000011,36.01253000000002,0 -114.77132330000012,36.01256350000002,0 -114.77147300000011,36.01256470000002,0 -114.77444030000011,36.01233060000002,0 -114.7748725000001,36.01224500000002,0 -114.77478080000012,36.01207930000002,0 -114.77465260000012,36.01189760000002,0 -114.77455860000013,36.01179690000002,0 -114.77475610000013,36.01168920000002,0 -114.77638770000014,36.011071100000024,0 -114.77693200000014,36.01082790000002,0 -114.77725350000016,36.01066080000002,0 -114.77774880000015,36.01036340000002,0 -114.77860600000015,36.00974330000001,0 -114.77872530000015,36.00961980000002,0 -114.77930810000015,36.009121600000014,0 -114.77957900000015,36.00884960000001,0 -114.77989210000014,36.00850160000002,0 -114.78009830000013,36.008242400000015,0 -114.78038000000014,36.007839100000005,0 -114.78151430000014,36.00607630000001,0 -114.78181810000015,36.00569780000001,0 -114.78228790000016,36.00519190000001,0 -114.78281440000016,36.00475680000001,0 -114.78315570000015,36.004515100000006,0 -114.78378610000014,36.004143000000006,0 -114.78464260000014,36.003758600000005,0 -114.78547040000014,36.003503300000006,0 -114.78615400000012,36.003370100000005,0 -114.78675460000011,36.0032913,0 -114.78712580000013,36.003265000000006,0 -114.79118070000013,36.0032422,0 -114.79150790000013,36.0032246,0 -114.79216000000012,36.003149400000005,0 -114.79240050000013,36.00310890000001,0 -114.79278460000012,36.00302250000001,0 -114.7938128000001,36.00272350000001,0 -114.79426590000011,36.002546900000006,0 -114.7949870000001,36.0021767,0 -114.7953996000001,36.001918200000006,0 -114.7956954000001,36.0017087,0 -114.79620410000011,36.001288300000006,0 -114.79657360000012,36.000921500000004,0 -114.79689260000009,36.000545900000006,0 -114.7989203000001,35.997658,0 -114.7991631000001,35.9972386,0 -114.79938370000009,35.9967624,0 -114.7995489000001,35.996341799999996,0 -114.79969320000012,35.9958919,0 -114.7998571000001,35.9952034,0 -114.79997710000009,35.9944081,0 -114.7999849000001,35.993646899999995,0 -114.79991210000011,35.9929594,0 -114.79976610000013,35.992301,0 -114.79960900000012,35.9918069,0 -114.79940140000012,35.991260499999996,0 -114.79923740000011,35.990904,0 -114.7987299000001,35.990036499999995,0 -114.7970799000001,35.9877693,0 -114.7963715000001,35.9867206,0 -114.79351760000011,35.98209959999999,0 -114.7931616000001,35.9814095,0 -114.7928704000001,35.9807017,0 -114.79268620000009,35.9801386,0 -114.79249180000009,35.9793057,0 -114.7924241000001,35.9788561,0 -114.7923732000001,35.978283999999995,0 -114.7923633000001,35.9776512,0 -114.7923863000001,35.9772043,0 -114.79250140000009,35.9763257,0 -114.79262360000008,35.9757809,0 -114.7928504000001,35.975038399999995,0 -114.79301530000009,35.9746088,0 -114.7932469000001,35.9740972,0 -114.81024370000011,35.9412414,0 -114.81041970000012,35.940969300000006,0 -114.81101520000013,35.940173800000004,0 -114.81143960000011,35.939657200000006,0 -114.81191690000011,35.939136600000005,0 -114.8124769000001,35.93859690000001,0 -114.8130227000001,35.93812760000001,0 -114.81373270000012,35.93758650000001,0 -114.81452390000011,35.93705640000001,0 -114.81515850000011,35.93669230000001,0 -114.81594690000011,35.936292400000006,0 -114.81639280000013,35.93608920000001,0 -114.81718300000011,35.93577240000001,0 -114.81806820000013,35.93547500000001,0 -114.81894720000011,35.93522850000001,0 -114.8196096000001,35.93507750000001,0 -114.82093270000009,35.934857400000006,0 -114.82215850000009,35.93474640000001,0 -114.85312350000008,35.93409520000001,0 -114.85516330000009,35.934132100000014,0 -114.85625070000007,35.93419260000001,0 -114.85800990000008,35.934349000000005,0 -114.85954330000007,35.934535600000004,0 -114.86124530000009,35.934838600000006,0 -114.86255250000009,35.935118200000005,0 -114.8634804000001,35.935343900000014,0 -114.8648666000001,35.935725900000016,0 -114.8658767000001,35.936039100000016,0 -114.8669199000001,35.93639440000001,0 -114.8685713000001,35.93702550000001,0 -114.86955110000011,35.93744240000001,0 -114.8965263000001,35.94983190000001,0 -114.8965852000001,35.94992280000001,0 -114.89800600000011,35.950669700000006,0 -114.8982598000001,35.95082860000001,0 -114.8986152000001,35.95110570000001,0 -114.89894110000009,35.951433300000005,0 -114.89910030000007,35.95163870000001,0 -114.89921510000008,35.95181110000001,0 -114.89958600000007,35.95246600000001,0 -114.89974130000007,35.952661000000006,0 -114.89983790000008,35.95275550000001,0 -114.89999820000007,35.95287750000001,0 -114.90009460000006,35.95293950000001,0 -114.90047940000005,35.953137700000006,0 -114.90089350000007,35.95331110000001,0 -114.90107020000006,35.953293900000006,0 -114.90232760000006,35.95090600000001,0 -114.90272100000006,35.95009990000001,0 -114.91078300000005,35.93483780000001,0 -114.91094730000005,35.93448920000001,0 -114.91095640000006,35.934440200000004,0 -114.91095240000007,35.9343189,0 -114.91570890000006,35.92522100000001,0 -114.91631030000006,35.92398360000001,0 -114.91671590000007,35.922990600000006,0 -114.91715950000008,35.921782400000005,0 -114.91737310000008,35.9211091,0 -114.91768550000008,35.919971700000005,0 -114.91804280000008,35.91824210000001,0 -114.91812860000007,35.918139700000005,0 -114.91813790000008,35.91811920000001,0 -114.91881060000007,35.91467670000001,0 -114.93666810000005,35.8324257,0 -114.93788010000006,35.8261182,0 -114.96121780000006,35.718277400000005,0 -114.96131920000008,35.71769640000001,0 -114.96151380000006,35.71609820000001,0 -114.96158120000007,35.71493510000001,0 -114.96157280000007,35.71307580000001,0 -114.95988260000006,35.672416900000016,0 -114.95980920000005,35.67146500000002,0 -114.95950360000006,35.66931690000002,0 -114.95929680000005,35.66836160000002,0 -114.95895670000006,35.66709890000002,0 -114.95831980000006,35.66523100000002,0 -114.95798990000004,35.664434000000014,0 -114.95754910000005,35.66347430000002,0 -114.95691350000004,35.662246900000014,0 -114.95640150000006,35.661361000000014,0 -114.95559610000007,35.66012300000002,0 -114.92097650000007,35.61110640000002,0 -114.92018900000006,35.609927300000024,0 -114.91947720000006,35.608669300000024,0 -114.91910560000007,35.60795650000002,0 -114.91823250000007,35.60596830000002,0 -114.91780680000006,35.60478380000002,0 -114.91760660000007,35.60414840000002,0 -114.91728420000007,35.60295420000002,0 -114.91699440000006,35.60162310000002,0 -114.91680940000008,35.600434900000025,0 -114.91328350000008,35.56051600000003,0 -114.91323820000008,35.55929160000002,0 -114.91328110000008,35.55788070000002,0 -114.91563550000008,35.51706860000002,0 -114.91558360000008,35.51680930000002,0 -114.91571590000008,35.515234100000015,0 -114.9162284000001,35.506363700000016,0 -114.9163385000001,35.50236820000002,0 -114.91642040000009,35.50131590000002,0 -114.91663590000009,35.499770300000016,0 -114.91693070000008,35.498319400000014,0 -114.91721470000009,35.49723950000002,0 -114.91765400000008,35.49588090000002,0 -114.91801270000009,35.49493550000002,0 -114.9222486000001,35.48512080000002,0 -114.92256300000011,35.48427420000002,0 -114.92271840000011,35.483763400000015,0 -114.92287440000011,35.48310890000002,0 -114.92436250000011,35.47408290000001,0 -114.9244089000001,35.47326440000002,0 -114.9243833000001,35.47270680000002,0 -114.92431150000009,35.472139300000016,0 -114.92414140000008,35.47140860000002,0 -114.92396800000009,35.470860500000015,0 -114.92379800000008,35.470458100000016,0 -114.92351430000008,35.46989360000001,0 -114.92317880000009,35.46934440000002,0 -114.92291030000008,35.46896450000002,0 -114.92230020000008,35.46823630000002,0 -114.92107810000009,35.46697110000002,0 -114.9205471000001,35.46621940000002,0 -114.92027670000012,35.465773400000025,0 -114.9198520000001,35.46491410000002,0 -114.9196931000001,35.46447750000002,0 -114.91956900000011,35.464064200000024,0 -114.9189787000001,35.460895300000026,0 -114.9187226000001,35.45999430000002,0 -114.91848410000011,35.45933230000002,0 -114.91541260000011,35.45248050000002,0 -114.91508220000011,35.45162220000002,0 -114.91485140000012,35.45086410000002,0 -114.9137568000001,35.44635320000002,0 -114.91382470000009,35.44623900000001,0 -114.91383310000009,35.446137600000014,0 -114.9136656000001,35.44523570000001,0 -114.9133043000001,35.44285010000001,0 -114.91302820000011,35.44145900000001,0 -114.88439340000012,35.321526100000014,0 -114.88419430000012,35.32082580000001,0 -114.88333780000013,35.31819100000001,0 -114.88282360000014,35.316320900000015,0 -114.88242470000013,35.31468750000001,0 -114.88236950000012,35.31456340000002,0 -114.88234870000011,35.31453710000002,0 -114.8822877000001,35.31448270000001,0 -114.88183400000011,35.31264640000001,0 -114.88174460000009,35.31216240000001,0 -114.8775568000001,35.294502500000014,0 -114.8775658000001,35.29432830000001,0 -114.87719700000012,35.29246650000001,0 -114.87692650000012,35.29071320000001,0 -114.87656230000012,35.288705700000015,0 -114.8760950000001,35.28658450000002,0 -114.8574927000001,35.20850860000002,0 -114.85701130000008,35.20685510000002,0 -114.8565553000001,35.20546130000002,0 -114.8560993000001,35.20383290000002,0 -114.85574660000009,35.202378700000025,0 -114.8556930000001,35.20232500000002,0 -114.8524551000001,35.18852250000002,0 -114.8506154000001,35.18134750000002,0 -114.8479510000001,35.170054200000024,0 -114.84771430000009,35.16919130000003,0 -114.84748260000009,35.168508800000026,0 -114.84715660000009,35.16767120000002,0 -114.8466898000001,35.16665310000002,0 -114.84646330000011,35.16622370000002,0 -114.84611160000011,35.16564630000002,0 -114.8307331000001,35.14273540000002,0 -114.8305295000001,35.14240000000002,0 -114.8302743000001,35.14186040000002,0 -114.83008630000009,35.14124940000002,0 -114.8299983000001,35.14079390000002,0 -114.82992290000008,35.13978570000002,0 -114.82784170000008,35.055621700000025,0 -114.8276884000001,35.05166110000002,0 -114.8275839000001,35.04671920000002,0 -114.8275540000001,35.04624400000002,0 -114.82748640000011,35.04577010000002,0 -114.82742250000011,35.04547010000002,0 -114.82727220000011,35.04502440000002,0 -114.82467790000011,35.03916470000002,0 -114.8244925000001,35.03867930000002,0 -114.8243929000001,35.03835190000002,0 -114.82432270000011,35.03794180000003,0 -114.8243060000001,35.03761190000002,0 -114.8243192000001,35.037214200000015,0 -114.82436030000012,35.03690720000002,0 -114.8244317000001,35.03658290000002,0 -114.8245643000001,35.036176400000016,0 -114.8246603000001,35.03595570000002,0 -114.8248029000001,35.03568620000002,0 -114.82497390000009,35.03540620000002,0 -114.8305949000001,35.02754210000002,0 -114.8309572000001,35.02696540000002,0 -114.8311687000001,35.026522200000024,0 -114.8313169000001,35.02608190000002,0 -114.8313999000001,35.02553960000002,0 -114.8328548000001,34.980250400000024,0 -114.83284330000009,34.98001370000002,0 -114.83321800000009,34.96855660000002,0 -114.83321290000009,34.96824200000002,0 -114.83317730000009,34.96793420000002,0 -114.8331153000001,34.96762990000002,0 -114.83298130000011,34.967187600000024,0 -114.8253224000001,34.94578510000002,0 -114.82441990000011,34.942231900000024,0 -114.8301662000001,34.94135190000003,0 -114.8387114000001,34.93985930000002,0 -114.8397722000001,34.93964590000002,0 -114.8512851000001,34.937022900000024,0 -114.8515265000001,34.936978700000026,0 -114.8519491000001,34.93692550000002,0 -114.85246970000011,34.93688920000002,0 -114.86212780000011,34.93651050000002,0 -114.8629074000001,34.93645220000002,0 -114.8727508000001,34.935371500000024,0 -114.8733239000001,34.93526690000002,0 -114.87420440000011,34.93504230000002,0 -114.8747766000001,34.93485930000002,0 -114.8789953000001,34.93325240000002,0 -114.87988850000008,34.93297600000002,0 -114.8806755000001,34.93279450000002,0 -114.8811760000001,34.932715700000024,0 -114.88948320000009,34.931920600000026,0 -114.89003180000009,34.931838900000024,0 -114.89078530000008,34.93168000000002,0 -114.89605260000008,34.93009000000002,0 -114.89686390000007,34.92982320000002,0 -114.89793640000008,34.92942620000002,0 -114.91479130000009,34.92225880000003,0 -114.9167172000001,34.921485500000024,0 -114.91763290000009,34.921161500000025,0 -114.92352440000009,34.91928250000002,0 -114.92413940000007,34.919109400000025,0 -114.92483480000007,34.91894940000002,0 -114.92538110000005,34.91885880000002,0 -114.92611120000007,34.91879570000002,0 -114.95911080000008,34.91748480000002,0 -114.95965510000008,34.91742540000001,0 -114.95991690000008,34.917374500000015,0 -114.96037730000009,34.91724290000001,0 -114.96089050000008,34.91705440000001,0 -114.96455680000008,34.91553440000001,0 -114.96482620000009,34.915445300000016,0 -114.96528730000009,34.91533420000002,0 -114.9657379000001,34.915270600000014,0 -114.98993790000009,34.91361400000001,0 -114.9905294000001,34.91360640000001,0 -114.9909137000001,34.91363010000001,0 -115.02207800000009,34.91654890000001,0 -115.0227541000001,34.91658910000001,0 -115.0387236000001,34.91629740000002,0 -115.0477965000001,34.91578160000001,0 -115.0485295000001,34.91578660000001,0 -115.04909240000008,34.91583820000001,0 -115.0607283000001,34.91805030000001,0 -115.0609291000001,34.918115600000014,0 -115.06157260000012,34.918380700000014,0 -115.06193270000011,34.918566900000016,0 -115.06225810000012,34.918768100000015,0 -115.0626775000001,34.91905640000002,0 -115.0628283000001,34.919213800000016,0 -115.06314280000011,34.91963720000001,0 -115.06330830000012,34.91982650000002,0 -115.06335900000012,34.91986290000002,0 -115.06342020000012,34.919890600000016,0 -115.06348360000014,34.91990960000002,0 -115.06354910000013,34.919916500000014,0 -115.06372400000014,34.91990710000002,0 -115.06704910000013,34.91935550000001,0 -115.06768430000011,34.91923040000001,0 -115.06915830000011,34.91886810000001,0 -115.07062180000011,34.91842280000001,0 -115.0711964000001,34.91819030000001,0 -115.0715634000001,34.91800410000002,0 -115.0719606000001,34.917758200000016,0 -115.0735291000001,34.916705100000016,0 -115.07426860000011,34.91607740000001,0 -115.09244050000011,34.89852060000001,0 -115.0929407000001,34.89795610000001,0 -115.0932743000001,34.89747970000001,0 -115.0987908000001,34.887406300000016,0 -115.09896050000009,34.887145900000014,0 -115.0994158000001,34.88653040000002,0 -115.11126690000009,34.87292820000002,0 -115.11757450000007,34.86486690000002,0 -115.11834000000009,34.864061800000016,0 -115.13056510000008,34.852339700000016,0 -115.13336090000007,34.85011050000002,0 -115.13436810000009,34.84935590000002,0 -115.16561990000007,34.82756050000002,0 -115.16850420000007,34.825492400000016,0 -115.16990020000007,34.82454720000002,0 -115.17689480000008,34.819394100000025,0 -115.17723430000008,34.819176300000024,0 -115.17759510000009,34.81897090000002,0 -115.1779453000001,34.81880430000002,0 -115.17855430000009,34.818580900000015,0 -115.17914600000009,34.81841000000002,0 -115.1795730000001,34.818332400000024,0 -115.1827854000001,34.817865500000025,0 -115.18531110000009,34.81754060000002,0 -115.1858427000001,34.817439900000025,0 -115.1865591000001,34.817220900000024,0 -115.18688120000009,34.81709110000002,0 -115.1871247000001,34.81697590000002,0 -115.1875714000001,34.81672830000002,0 -115.18809290000009,34.81637430000002,0 -115.18840400000009,34.81612250000002,0 -115.18889420000009,34.81562540000002,0 -115.1891912000001,34.81524130000002,0 -115.18946030000008,34.81482010000002,0 -115.18954210000008,34.814666700000025,0 -115.18975290000007,34.81419110000002,0 -115.18987350000008,34.813822800000025,0 -115.19002490000008,34.81312610000002,0 -115.19016820000009,34.813102900000025,0 -115.19410000000009,34.81217210000002,0 -115.19485280000009,34.812024900000026,0 -115.1949285000001,34.811993200000025,0 -115.19497140000009,34.811968300000025,0 -115.1949934000001,34.81194490000002,0 -115.2006282000001,34.81128260000002,0 -115.20509680000009,34.81084240000002,0 -115.3159770000001,34.80147540000002,0 -115.3180083000001,34.80138210000002,0 -115.3202454000001,34.80137430000002,0 -115.3221751000001,34.80145150000003,0 -115.32362490000011,34.80156160000003,0 -115.3431481000001,34.80358020000003,0 -115.34474600000011,34.803714300000024,0 -115.34905280000012,34.80396940000003,0 -115.35178260000013,34.80404590000003,0 -115.35465870000013,34.80407390000003,0 -115.36570410000013,34.804033700000026,0 -115.36681750000012,34.80398280000003,0 -115.36842160000013,34.80385570000003,0 -115.36910370000012,34.80376690000003,0 -115.37106290000013,34.80342380000003,0 -115.37259030000013,34.80308900000003,0 -115.37354390000012,34.802839700000035,0 -115.37455690000013,34.802533900000036,0 -115.38170940000013,34.80009960000003,0 -115.38396450000015,34.799413500000036,0 -115.38659260000014,34.79874250000003,0 -115.40869220000013,34.79418910000003,0 -115.41004730000014,34.79381280000003,0 -115.41050260000016,34.793661000000036,0 -115.41168110000015,34.79321420000004,0 -115.41210720000015,34.793030400000035,0 -115.41334520000017,34.79242050000004,0 -115.41398300000017,34.79204790000004,0 -115.41769410000016,34.78963560000004,0 -115.41941800000016,34.78863760000004,0 -115.42065340000015,34.78800370000003,0 -115.42193670000016,34.78740480000003,0 -115.42337790000015,34.78680330000004,0 -115.42515370000015,34.786158000000036,0 -115.43231540000016,34.783692500000036,0 -115.43351200000016,34.78331000000004,0 -115.46297420000018,34.77322310000004,0 -115.46392380000017,34.77285050000004,0 -115.46492540000017,34.77242470000004,0 -115.46618630000017,34.77183450000003,0 -115.46742190000019,34.77119900000003,0 -115.46862650000017,34.77051730000004,0 -115.48051790000018,34.76323580000003,0 -115.4811438000002,34.762886500000036,0 -115.4823252000002,34.76227370000004,0 -115.4832569000002,34.76183050000004,0 -115.4847239000002,34.761196600000034,0 -115.5554491000002,34.734458200000034,0 -115.55720450000022,34.733871600000036,0 -115.5585714000002,34.73348510000003,0 -115.55998100000022,34.73315060000004,0 -115.56105190000021,34.73293800000003,0 -115.5624540000002,34.73271050000003,0 -115.56355910000019,34.73256990000003,0 -115.56504900000019,34.73243910000003,0 -115.57897280000017,34.73181360000003,0 -115.58040670000018,34.73172500000003,0 -115.58199450000018,34.73158680000004,0 -115.58317430000017,34.73145670000003,0 -115.63759960000017,34.72388390000003,0 -115.63840820000017,34.72380580000003,0 -115.63983400000016,34.72370740000004,0 -115.64156610000016,34.723659200000036,0 -115.64273770000018,34.72366940000003,0 -115.65267170000017,34.72404150000003,0 -115.65322210000018,34.72404540000003,0 -115.65416180000018,34.724016400000025,0 -115.65495540000018,34.72395760000003,0 -115.65559020000018,34.72388650000003,0 -115.65635670000016,34.72377240000003,0 -115.66087260000016,34.72292030000003,0 -115.66254250000014,34.72268910000003,0 -115.66351440000015,34.72258650000003,0 -115.67338930000014,34.721771600000025,0 -115.67345250000014,34.72180280000003,0 -115.67347850000013,34.721809200000024,0 -115.67431980000015,34.721797800000026,0 -115.67588600000015,34.721849300000024,0 -115.67828360000016,34.72201160000002,0 -115.67849930000014,34.722016000000025,0 -115.67818980000015,34.71402310000003,0 -115.67789170000015,34.70067650000003,0 -115.67498750000014,34.643533400000024,0 -115.67488870000015,34.64285040000003,0 -115.67479380000016,34.64245200000003,0 -115.67431960000015,34.64094850000003,0 -115.67274780000014,34.63654710000003,0 -115.66966160000013,34.62909890000003,0 -115.66908000000014,34.627847800000026,0 -115.66784410000012,34.62541110000003,0 -115.66690500000013,34.62371020000003,0 -115.66589770000013,34.622002900000034,0 -115.66160190000014,34.61533860000003,0 -115.66119360000013,34.61465600000003,0 -115.64580350000011,34.58577210000003,0 -115.64567770000012,34.585481200000025,0 -115.64559660000013,34.58522810000002,0 -115.64555480000014,34.58504830000003,0 -115.64233840000013,34.560192900000025,0 -115.74801570000012,34.55824310000003,0 -115.74837170000013,34.55821300000003,0 -115.74867490000014,34.55815860000003,0 -115.74895120000012,34.558093900000024,0 -115.74916710000011,34.55802550000002,0 -115.74949550000011,34.55789970000002,0 -115.7496971000001,34.55780320000002,0 -115.74993070000009,34.557665800000024,0 -115.75007400000008,34.55756540000002,0 -115.75034190000008,34.55734450000003,0 -115.75187370000009,34.55580750000003,0 -115.75204660000009,34.55565420000003,0 -115.75239550000009,34.55539600000003,0 -115.7526525000001,34.55525320000003,0 -115.75287080000008,34.55515870000003,0 -115.7530527000001,34.55509600000003,0 -115.75327370000011,34.55503590000003,0 -115.7536068000001,34.554977500000035,0 -115.75384890000008,34.55495400000004,0 -115.75417770000008,34.554954900000034,0 -115.7544226000001,34.55498400000003,0 -115.75470270000011,34.555042000000036,0 -115.7562363000001,34.555449800000034,0 -115.75632550000009,34.55518140000003,0 -115.75635550000008,34.55505090000003,0 -115.75636580000008,34.554924100000036,0 -115.75634450000008,34.554719100000035,0 -115.75632020000008,34.55463890000003,0 -115.75628030000007,34.554552900000026,0 -115.75624050000006,34.55449120000003,0 -115.75612880000007,34.55435940000003,0 -115.75600520000008,34.55425590000003,0 -115.75584710000007,34.55417130000003,0 -115.75576840000008,34.55413970000003,0 -115.74770360000007,34.551948300000035,0 -115.74731080000007,34.551812700000035,0 -115.74703950000006,34.55168960000003,0 -115.74676620000005,34.551536000000034,0 -115.74659770000007,34.55142420000003,0 -115.74629260000006,34.55117500000003,0 -115.74609110000006,34.55096400000003,0 -115.74591440000007,34.55073860000003,0 -115.74577430000008,34.55051930000003,0 -115.74568780000008,34.550355700000026,0 -115.74555170000008,34.550023700000025,0 -115.74551610000007,34.549879500000024,0 -115.74547090000009,34.549572000000026,0 -115.7452113000001,34.54657940000003,0 -115.74423710000009,34.539321900000026,0 -115.74405490000008,34.536530500000026,0 -115.74407960000009,34.53148310000003,0 -115.74457320000009,34.526200900000035,0 -115.7445255000001,34.522999000000034,0 -115.7445004000001,34.52259740000003,0 -115.74386650000011,34.51728640000003,0 -115.74340620000011,34.47647520000003,0 -115.7433433000001,34.47609160000003,0 -115.7432631000001,34.47584090000003,0 -115.74209860000009,34.47333940000003,0 -115.74199490000008,34.47308180000003,0 -115.74186010000008,34.472656600000036,0 -115.74182490000007,34.47247830000004,0 -115.74178710000007,34.47216390000004,0 -115.74177800000005,34.47178810000004,0 -115.74229860000007,34.46205850000003,0 -115.74228510000007,34.46178230000004,0 -115.74106320000008,34.45514570000004,0 -115.74093380000008,34.454137300000035,0 -115.74094740000007,34.450827800000035,0 -115.74092430000006,34.45043420000003,0 -115.74085360000005,34.449876900000035,0 -115.74070050000006,34.449142400000035,0 -115.74024280000005,34.44750780000004,0 -115.74012890000006,34.447179000000034,0 -115.73999380000006,34.446876400000036,0 -115.73991090000005,34.44672700000004,0 -115.73981030000006,34.446576600000036,0 -115.73966880000005,34.44639730000004,0 -115.73941680000004,34.44614260000004,0 -115.73919110000003,34.44595790000004,0 -115.73882870000003,34.445716200000035,0 -115.73074680000003,34.44157410000003,0 -115.72524160000003,34.438961600000034,0 -115.72239700000002,34.437521900000036,0 -115.72143550000001,34.43696220000003,0 -115.72102600000001,34.43668800000003,0 -115.72075310000002,34.43647380000003,0 -115.72030920000003,34.43606130000003,0 -115.71981370000002,34.43552730000003,0 -115.71950540000002,34.43514890000003,0 -115.71932770000002,34.43488890000003,0 -115.71917000000003,34.434622300000036,0 -115.70899160000002,34.41521190000004,0 -115.70771990000003,34.41253910000003,0 -115.70746620000003,34.41206430000003,0 -115.70491240000003,34.40788660000003,0 -115.70433080000004,34.40667050000004,0 -115.70217060000002,34.40254910000004,0 -115.70195780000002,34.40210410000004,0 -115.69967240000003,34.39656800000004,0 -115.69937240000003,34.39594750000004,0 -115.69826410000003,34.39384430000005,0 -115.69522870000003,34.38744980000005,0 -115.69504350000004,34.38700850000004,0 -115.69479700000004,34.38633170000004,0 -115.69434520000003,34.384858700000045,0 -115.69303840000002,34.379446000000044,0 -115.69290630000002,34.37876310000005,0 -115.69251450000002,34.37594530000005,0 -115.6915134,34.36706230000005,0 -115.6903221,34.35872180000005,0 -115.6902762,34.35817850000005,0 -115.6902334,34.35501150000005,0 -115.6902892,34.35318440000005,0 -115.6905459,34.34918190000005,0 -115.6905484,34.34786740000005,0 -115.69049089999999,34.34614390000005,0 -115.6905262,34.343181100000045,0 -115.6905885,34.34229930000004,0 -115.6909179,34.340361800000046,0 -115.691227,34.33914530000004,0 -115.6916898,34.33766570000004,0 -115.6918033,34.337167000000036,0 -115.69194720000002,34.336286600000044,0 -115.69240560000001,34.33398180000004,0 -115.6927388,34.33267100000004,0 -115.6933012,34.33074380000004,0 -115.69346440000001,34.33006960000004,0 -115.69412030000001,34.32635640000004,0 -115.69423110000001,34.32593630000004,0 -115.69440350000002,34.32550550000004,0 -115.69553090000002,34.32328450000004,0 -115.69680680000003,34.320629500000045,0 -115.69822170000003,34.31742100000004,0 -115.69875080000003,34.31629940000004,0 -115.70022130000004,34.31348050000005,0 -115.70347680000005,34.30791410000004,0 -115.70445040000003,34.306123800000044,0 -115.70538850000003,34.30450870000005,0 -115.70613260000002,34.30330520000005,0 -115.707035,34.301555800000045,0 -115.7071633,34.301248000000044,0 -115.70731409999999,34.300771500000046,0 -115.70767120000001,34.29929010000004,0 -115.70787419999999,34.29861870000005,0 -115.71358229999998,34.27630250000005,0 -115.7184562,34.25784270000005,0 -115.7185143,34.25768720000005,0 -115.7186426,34.257429700000046,0 -115.71882489999999,34.25715160000004,0 -115.71970729999998,34.25612330000005,0 -115.71990289999998,34.255852400000045,0 -115.72090849999996,34.254313000000046,0 -115.72143489999998,34.25342730000005,0 -115.72239369999998,34.251500800000045,0 -115.7225318,34.251114800000046,0 -115.72276429999998,34.25000470000005,0 -115.72283379999999,34.24980960000005,0 -115.7234526,34.248509300000045,0 -115.7236851,34.247928700000045,0 -115.72374889999999,34.24771570000004,0 -115.72379439999999,34.24750800000004,0 -115.72383509999997,34.24721610000004,0 -115.72388909999998,34.24632680000004,0 -115.723884,34.245946400000044,0 -115.72385419999999,34.24574790000004,0 -115.72378349999998,34.24549790000004,0 -115.72336809999999,34.244347200000036,0 -115.72289339999999,34.24220160000004,0 -115.7227686,34.24116270000003,0 -115.72276289999999,34.24085690000003,0 -115.72284959999999,34.23910800000003,0 -115.72282999999997,34.23885370000003,0 -115.72274459999997,34.238458900000026,0 -115.72254989999999,34.237771100000025,0 -115.7224073,34.23690260000003,0 -115.72152209999999,34.23293170000003,0 -115.72128189999998,34.231691600000026,0 -115.72107539999999,34.230343000000026,0 -115.72064499999998,34.22853080000003,0 -115.72058429999998,34.22809070000003,0 -115.72055689999999,34.22711450000003,0 -115.7204901,34.226735200000036,0 -115.72039490000002,34.22633240000003,0 -115.72030980000001,34.225767800000035,0 -115.72028800000002,34.225221200000036,0 -115.72029980000002,34.22487870000003,0 -115.72037430000003,34.224338200000034,0 -115.72043820000003,34.22181420000003,0 -115.72039980000004,34.221384500000035,0 -115.71979410000003,34.21703800000003,0 -115.71971050000002,34.21621610000003,0 -115.71971080000002,34.21502500000003,0 -115.72001540000001,34.21111330000004,0 -115.72013330000001,34.20766900000004,0 -115.72017090000001,34.204248600000035,0 -115.72043150000002,34.201857200000035,0 -115.72050710000002,34.20149750000004,0 -115.72055300000002,34.201361800000036,0 -115.72071940000004,34.201021100000034,0 -115.72162930000005,34.199633000000034,0 -115.72231500000005,34.19868960000004,0 -115.72244610000006,34.198469800000034,0 -115.72254520000006,34.198270500000035,0 -115.72263450000005,34.198045600000036,0 -115.72268050000005,34.19789140000003,0 -115.72273540000005,34.197612500000034,0 -115.72315160000005,34.19321800000004,0 -115.72324780000005,34.19272950000004,0 -115.72342640000005,34.19221540000004,0 -115.72352770000006,34.191987200000035,0 -115.72371030000006,34.19165330000004,0 -115.72382040000006,34.19148890000004,0 -115.72423620000005,34.19095300000004,0 -115.72493610000005,34.189916600000046,0 -115.72673140000005,34.18682620000005,0 -115.72753530000004,34.18528250000005,0 -115.73165000000004,34.17820090000004,0 -115.73403480000003,34.17390010000004,0 -115.73797070000002,34.16740390000004,0 -115.73817850000003,34.16709680000004,0 -115.73826990000003,34.166981500000034,0 -115.73843970000003,34.16680320000004,0 -115.73861430000001,34.16665330000004,0 -115.73881790000002,34.16651190000004,0 -115.73911170000001,34.166350400000034,0 -115.7395432,34.16615970000004,0 -115.74000669999998,34.16599370000004,0 -115.74085919999999,34.16572420000004,0 -115.74158079999997,34.16554390000004,0 -115.74198699999997,34.16547400000004,0 -115.74228649999998,34.16544870000004,0 -115.91383399999997,34.165546800000044,0 -115.93129769999996,34.165690900000044,0 -115.93124319999997,34.13665740000005,0 -116.03669659999996,34.13587440000005,0 -116.04895859999998,34.13568610000004,0 </coordinates></LineString><TimeSpan><begin>2020-09-06T18:41:14.000Z</begin><end>2020-09-06T22:09:00.000Z</end></TimeSpan></Placemark><Placemark><name>Circle K</name><address>73943 Twentynine Palms Highway, Twentynine Palms, CA 92277</address><ExtendedData><Data name="Email"><value>syugen.zhou@gmail.com</value></Data><Data name="Category"><value>Convenience store</value></Data><Data name="Distance"><value>0</value></Data></ExtendedData><description> Convenience store from 2020-09-06T22:09:00.000Z to 2020-09-06T22:37:21.000Z. Distance 0m </description><Point><coordinates>-116.04887889999999,34.1354632,0</coordinates></Point><TimeSpan><begin>2020-09-06T22:09:00.000Z</begin><end>2020-09-06T22:37:21.000Z</end></TimeSpan></Placemark><Placemark><name>Driving</name><address></address><ExtendedData><Data name="Email"><value>syugen.zhou@gmail.com</value></Data><Data name="Category"><value>Driving</value></Data><Data name="Distance"><value>49652</value></Data></ExtendedData><description> Driving from 2020-09-06T22:37:21.000Z to 2020-09-07T00:04:59.000Z. Distance 49652m </description><LineString><altitudeMode>clampToGround</altitudeMode><extrude>1</extrude><tesselate>1</tesselate><coordinates>-116.04895859999999,34.1356861,0 -116.03669659999998,34.1358744,0 -116.03669329999998,34.1226881,0 -116.03671679999998,34.122625500000005,0 -116.03649449999998,34.074983200000005,0 -116.03629319999997,34.0744806,0 -116.03592269999997,34.07402820000001,0 -116.03558009999999,34.073769600000006,0 -116.02528629999999,34.069246,0 -116.0248549,34.068871699999995,0 -116.0246192,34.0685425,0 -116.02442079999999,34.0679554,0 -116.02399949999999,34.061528,0 -116.02404779999999,34.061247400000006,0 -116.0242154,34.0608324,0 -116.0252182,34.0596334,0 -116.02538809999999,34.0592931,0 -116.02547019999999,34.058937900000004,0 -116.02546249999997,34.058566000000006,0 -116.02514769999996,34.0572997,0 -116.02519899999996,34.0569331,0 -116.02546299999996,34.0564231,0 -116.02649549999995,34.05542870000001,0 -116.02670559999994,34.05508760000001,0 -116.02687459999996,34.05453680000001,0 -116.02686859999996,34.054078000000004,0 -116.02661119999996,34.0525949,0 -116.02662189999997,34.0522253,0 -116.02679859999995,34.0513107,0 -116.02759389999996,34.0496403,0 -116.02770439999995,34.0491614,0 -116.02772319999995,34.0487172,0 -116.02767019999995,34.048392299999996,0 -116.02722009999995,34.0472391,0 -116.02710799999994,34.0467237,0 -116.02702759999994,34.045350299999996,0 -116.02668529999995,34.0442988,0 -116.02647489999994,34.0429803,0 -116.02629719999995,34.042422200000004,0 -116.02593539999994,34.04186440000001,0 -116.02525269999992,34.04114510000001,0 -116.02371229999993,34.04019570000001,0 -116.02273069999993,34.03931290000001,0 -116.02244429999992,34.03888540000002,0 -116.02218059999991,34.03800250000002,0 -116.02213349999991,34.03689270000002,0 -116.0218602999999,34.035073900000015,0 -116.0219892999999,34.032962900000015,0 -116.02190599999992,34.03229180000002,0 -116.02054279999992,34.029689800000014,0 -116.02039159999991,34.02913340000001,0 -116.02037859999992,34.028799700000015,0 -116.0204225999999,34.028600400000016,0 -116.0210517999999,34.027187900000015,0 -116.0210690999999,34.02614970000002,0 -116.02097159999991,34.025616700000015,0 -116.0208002999999,34.02521410000002,0 -116.02051579999991,34.02485630000002,0 -116.01943889999991,34.02394800000002,0 -116.0191882999999,34.023567000000014,0 -116.01879989999989,34.022145600000016,0 -116.0188518999999,34.021727200000015,0 -116.01918239999989,34.02106170000002,0 -116.02051599999989,34.019706100000015,0 -116.0209689999999,34.019394900000016,0 -116.02149279999989,34.019180100000014,0 -116.02580769999987,34.01833550000002,0 -116.02629989999988,34.018170300000016,0 -116.02667129999989,34.01797180000001,0 -116.0272643999999,34.017469900000016,0 -116.02830329999988,34.01617140000001,0 -116.02892069999987,34.01570450000001,0 -116.03047839999988,34.01507000000001,0 -116.03552139999987,34.012030400000015,0 -116.03666979999987,34.01106840000001,0 -116.04123059999988,34.00845670000002,0 -116.04333259999986,34.00751560000002,0 -116.04812449999986,34.00476190000002,0 -116.04931019999985,34.00391120000002,0 -116.05021089999985,34.003404500000016,0 -116.05238349999985,34.00251090000002,0 -116.05651149999987,34.00012760000001,0 -116.06047389999988,33.997563600000014,0 -116.06236089999987,33.995992700000016,0 -116.06405209999987,33.99494350000001,0 -116.06536199999987,33.99394250000002,0 -116.06830719999988,33.99213150000001,0 -116.06994599999987,33.99127240000002,0 -116.07261019999986,33.990868200000016,0 -116.07310779999986,33.990924200000016,0 -116.07339219999986,33.99100960000002,0 -116.07377159999984,33.99120350000002,0 -116.07399289999984,33.991369100000014,0 -116.07534509999984,33.992916600000015,0 -116.07574659999983,33.993527700000016,0 -116.07605859999985,33.99425390000001,0 -116.07651179999986,33.99669930000002,0 -116.07668719999985,33.99713460000002,0 -116.07748669999985,33.998432000000015,0 -116.07783949999985,33.998830800000015,0 -116.07930209999984,33.99981670000002,0 -116.07968169999985,34.000365000000016,0 -116.08002119999986,34.00131310000001,0 -116.08033219999986,34.00188100000002,0 -116.08178009999986,34.003802600000014,0 -116.08322319999986,34.00521170000002,0 -116.08408889999987,34.005818400000024,0 -116.08538809999986,34.006418600000025,0 -116.08827679999986,34.007218200000025,0 -116.09121719999985,34.00841240000002,0 -116.09268699999984,34.008793400000016,0 -116.09492939999984,34.00966610000002,0 -116.09584549999985,34.00988920000002,0 -116.09802249999986,34.01012750000002,0 -116.10035279999985,34.01017140000002,0 -116.10216379999986,34.01033440000002,0 -116.10433259999986,34.01024250000002,0 -116.10553729999985,34.010028900000016,0 -116.11135839999987,34.00778340000002,0 -116.11316259999987,34.00683910000002,0 -116.11718199999987,34.00544200000002,0 -116.11810279999989,34.00502500000002,0 -116.11973139999989,34.00409850000002,0 -116.1214545999999,34.00274580000002,0 -116.12186929999989,34.00252090000002,0 -116.12293829999989,34.00214340000002,0 -116.12353959999989,34.002022000000025,0 -116.12426699999988,34.00202660000002,0 -116.12588899999987,34.00244050000002,0 -116.12712549999988,34.002502900000025,0 -116.12847609999987,34.00276540000002,0 -116.13051679999988,34.00259090000002,0 -116.1330466999999,34.00283490000002,0 -116.13466509999989,34.00317700000002,0 -116.1361756999999,34.00330210000002,0 -116.13663919999989,34.00327120000003,0 -116.13784949999989,34.00304880000003,0 -116.13829239999988,34.00289750000003,0 -116.13938209999988,34.002336500000034,0 -116.14080499999987,34.00206200000003,0 -116.14132819999988,34.00182910000003,0 -116.14175099999987,34.00146130000003,0 -116.14235539999987,34.00067670000003,0 -116.14616619999987,33.99713630000003,0 -116.14931439999988,33.99346990000002,0 -116.15015559999986,33.992664500000025,0 -116.15186319999985,33.99046550000003,0 -116.15343649999986,33.989193300000025,0 -116.15404029999986,33.98888410000002,0 -116.15458689999987,33.98875160000002,0 -116.15624139999986,33.98853930000002,0 -116.15694709999985,33.98860570000002,0 -116.15770449999987,33.98890230000002,0 -116.15898209999986,33.98968900000002,0 -116.16010049999987,33.99012950000002,0 -116.16140039999988,33.99042820000002,0 -116.16191919999987,33.99061130000002,0 -116.16277649999988,33.991201700000026,0 -116.16327529999987,33.99177960000002,0 -116.16395289999986,33.99143810000002,0 -116.16423639999985,33.99120430000002,0 -116.16452539999985,33.99067590000002,0 -116.16458339999984,33.99027780000002,0 -116.16417459999985,33.98857200000002,0 -116.16418789999985,33.988022200000024,0 -116.16456099999984,33.98615490000002,0 -116.16504979999985,33.98507920000002,0 -116.16536199999986,33.98271960000002,0 -116.16537219999987,33.98203830000001,0 -116.16459849999988,33.97618460000002,0 -116.16459989999987,33.97502230000001,0 -116.16649939999986,33.97142930000001,0 -116.16901449999986,33.968186400000015,0 -116.17072849999987,33.966318600000015,0 -116.17226209999986,33.964969400000015,0 -116.17299639999986,33.96400300000001,0 -116.17312539999986,33.963477300000015,0 -116.17307179999986,33.96320150000001,0 -116.17252189999988,33.961751000000014,0 -116.17239139999988,33.961001500000016,0 -116.17257819999989,33.959438900000016,0 -116.17321189999988,33.95636000000002,0 -116.17308429999987,33.95497790000002,0 -116.17317419999988,33.95373760000002,0 -116.17295819999988,33.95222020000002,0 -116.17326999999987,33.95035920000002,0 -116.17319329999987,33.94972970000002,0 -116.17259509999988,33.948502400000024,0 -116.17230079999986,33.94564340000002,0 -116.17232859999986,33.94532380000002,0 -116.17304169999984,33.942857500000024,0 -116.17355639999985,33.94203650000002,0 -116.17380429999984,33.941429800000016,0 -116.17412839999984,33.93975140000002,0 -116.17413449999985,33.938365300000015,0 -116.17381829999985,33.93754440000002,0 -116.17374099999985,33.93687680000002,0 -116.17380019999986,33.93651190000002,0 -116.17429449999985,33.935257200000024,0 -116.17439079999984,33.934745800000016,0 -116.17413979999984,33.933140000000016,0 -116.17420179999982,33.932527200000024,0 -116.17470919999984,33.93120810000002,0 -116.17474349999983,33.93077710000002,0 -116.17467769999983,33.93052110000002,0 -116.17439049999982,33.93007770000003,0 -116.17396049999982,33.92968940000002,0 -116.17346659999983,33.92911260000002,0 -116.17338349999983,33.928787700000015,0 -116.17339709999982,33.92865420000002,0 -116.17349629999983,33.928440600000016,0 -116.17426279999981,33.92735740000002,0 -116.1748456999998,33.92691400000002,0 -116.17524049999979,33.92677410000002,0 -116.17743609999978,33.92643360000002,0 -116.17827139999977,33.92640660000002,0 -116.17900169999977,33.926585600000024,0 -116.17926869999978,33.92659560000002,0 -116.18019249999978,33.92649370000002,0 -116.18112219999978,33.92658350000002,0 -116.18145819999978,33.92674020000002,0 -116.18198549999977,33.92709970000002,0 -116.18229209999977,33.92724510000002,0 -116.18312279999978,33.92743370000002,0 -116.18388169999979,33.92743710000002,0 -116.18453059999977,33.92717610000002,0 -116.18528019999978,33.926964200000015,0 -116.18559429999978,33.92693730000001,0 -116.18604569999977,33.927002000000016,0 -116.18670219999976,33.92722670000002,0 -116.18731639999976,33.927222100000016,0 -116.18741949999976,33.92717560000001,0 -116.18744689999976,33.92708620000001,0 -116.18738639999975,33.92699130000001,0 -116.18721469999976,33.92694620000002,0 -116.18643299999977,33.92703680000001,0 -116.18637699999977,33.92709640000001,0 -116.18559429999978,33.926937300000006,0 -116.18528019999978,33.92696420000001,0 -116.18453059999977,33.92717610000001,0 -116.18388169999979,33.92743710000001,0 -116.18312279999978,33.927433700000016,0 -116.18229209999977,33.927245100000015,0 -116.18198549999977,33.927099700000014,0 -116.18145819999978,33.92674020000001,0 -116.18112219999978,33.926583500000014,0 -116.18019249999978,33.926493700000016,0 -116.17926869999978,33.92659560000002,0 -116.17900169999977,33.92658560000002,0 -116.17827139999977,33.926406600000014,0 -116.17743609999978,33.92643360000001,0 -116.17524049999979,33.92677410000001,0 -116.1748456999998,33.92691400000001,0 -116.17426279999981,33.92735740000001,0 -116.17349629999983,33.92844060000001,0 -116.17339709999982,33.92865420000001,0 -116.17338349999983,33.928787700000015,0 -116.17346659999983,33.92911260000002,0 -116.17396049999982,33.929689400000015,0 -116.17439049999982,33.93007770000002,0 -116.17467769999983,33.930521100000014,0 -116.17474349999983,33.93077710000002,0 -116.17470919999984,33.93120810000002,0 -116.17420179999982,33.93252720000002,0 -116.17413979999984,33.933140000000016,0 -116.17439079999984,33.934745800000016,0 -116.17429449999985,33.93525720000002,0 -116.17380019999986,33.93651190000001,0 -116.17374099999985,33.936876800000014,0 -116.17381829999985,33.937544400000014,0 -116.17413449999985,33.93836530000001,0 -116.17412839999984,33.93975140000001,0 -116.17380429999984,33.94142980000001,0 -116.17355639999985,33.942036500000015,0 -116.17304169999984,33.94285750000002,0 -116.17232859999986,33.94532380000001,0 -116.17230079999986,33.945643400000016,0 -116.17259509999988,33.94850240000002,0 -116.17319329999987,33.94972970000001,0 -116.17326999999987,33.950359200000015,0 -116.17295819999988,33.95222020000001,0 -116.17317419999988,33.95373760000001,0 -116.17308429999987,33.95497790000001,0 -116.17321189999988,33.95636000000001,0 -116.17257819999989,33.95943890000001,0 -116.17239139999988,33.96100150000001,0 -116.17252189999988,33.96175100000001,0 -116.17307179999986,33.963201500000004,0 -116.17312539999986,33.96347730000001,0 -116.17299639999986,33.964003000000005,0 -116.17226209999986,33.96496940000001,0 -116.17072849999987,33.96631860000001,0 -116.16901449999986,33.96818640000001,0 -116.16649939999986,33.971429300000004,0 -116.16459989999987,33.975022300000006,0 -116.16459849999988,33.97618460000001,0 -116.16537219999987,33.982038300000006,0 -116.16536199999986,33.98271960000001,0 -116.16504979999985,33.985079200000015,0 -116.16456099999984,33.98615490000001,0 -116.16418789999985,33.98802220000002,0 -116.16417459999985,33.98857200000001,0 -116.16458339999984,33.990277800000015,0 -116.16452539999985,33.990675900000014,0 -116.16423639999985,33.991204300000014,0 -116.16395289999986,33.99143810000001,0 -116.16327529999987,33.991779600000015,0 -116.16367659999986,33.992635000000014,0 -116.16370529999986,33.99326000000002,0 -116.16313999999987,33.996353800000016,0 -116.16311009999988,33.996992700000014,0 -116.16360789999987,33.99970480000002,0 -116.16390889999987,34.00361600000002,0 -116.16375579999988,34.00565250000002,0 -116.16334309999986,34.00685810000002,0 -116.16311499999985,34.00820310000002,0 -116.16274379999983,34.00907360000002,0 -116.16203709999984,34.01012350000002,0 -116.16184389999984,34.01054030000002,0 -116.16151949999984,34.01171760000002,0 -116.16152749999985,34.01217710000002,0 -116.16168889999983,34.01275310000001,0 -116.16207809999985,34.01335850000001,0 -116.16262659999984,34.01383400000001,0 -116.16232729999983,34.01412680000001,0 -116.16142959999983,34.01467190000001,0 -116.16122029999983,34.014876000000015,0 -116.16042779999984,34.016174800000016,0 -116.15944059999984,34.017241200000015,0 -116.15926489999984,34.01751560000002,0 -116.15892469999986,34.01832590000002,0 -116.15691679999985,34.02111850000002,0 -116.15629919999984,34.02152650000002,0 -116.15575449999984,34.021732400000026,0 -116.15533479999985,34.02178490000002,0 -116.15455679999985,34.02168160000002,0 -116.15221319999986,34.02116390000002,0 -116.15165059999987,34.02111450000002,0 -116.14997049999987,34.02117870000002,0 -116.14909429999987,34.021049200000014,0 -116.14848629999986,34.021116100000015,0 -116.14694939999987,34.02175740000002,0 -116.14276799999985,34.02404190000002,0 -116.14253069999987,34.02457000000002,0 -116.14233599999987,34.02474530000002,0 -116.1423602999999,34.024894300000014,0 -116.1422945999999,34.02497500000002,0 -116.14181469999991,34.02507330000002,0 </coordinates></LineString><TimeSpan><begin>2020-09-06T22:37:21.000Z</begin><end>2020-09-07T00:04:59.000Z</end></TimeSpan></Placemark><Placemark><name>Walking</name><address></address><ExtendedData><Data name="Email"><value>syugen.zhou@gmail.com</value></Data><Data name="Category"><value>Walking</value></Data><Data name="Distance"><value>0</value></Data></ExtendedData><description> Walking from 2020-09-07T00:04:59.000Z to 2020-09-07T00:39:00.000Z. Distance 0m </description><LineString><altitudeMode>clampToGround</altitudeMode><extrude>1</extrude><tesselate>1</tesselate><coordinates>-116.14181470000001,34.025073299999995,0 -116.1419679,34.0250572,0 -116.14210459999998,34.0252899,0 -116.14220919999998,34.025407799999996,0 -116.14226009999997,34.02552779999999,0 -116.14230039999998,34.02556779999999,0 -116.14254709999997,34.02614799999999,0 -116.14264499999997,34.02618689999999,0 -116.14292129999997,34.02653259999999,0 -116.14315059999997,34.02702269999999,0 -116.14322979999999,34.027100499999996,0 -116.14323109999998,34.02716279999999,0 -116.14329009999999,34.02723839999999,0 -116.14330749999999,34.02728729999998,0 -116.14337189999998,34.027329499999986,0 -116.14335579999997,34.02740949999999,0 -116.14340949999996,34.02752619999998,0 -116.14340809999996,34.027557399999985,0 -116.14344429999997,34.027641799999984,0 -116.14343089999998,34.027694099999984,0 -116.14353019999999,34.02783189999999,0 -116.14354489999998,34.027918599999985,0 -116.14361329999998,34.02799189999999,0 -116.14366429999998,34.028086399999985,0 -116.14371659999998,34.02831649999999,0 -116.14379439999998,34.02841209999998,0 -116.14398609999998,34.02887779999998,0 -116.1440009,34.02899999999998,0 -116.1441216,34.02918229999999,0 -116.14410679999999,34.029295699999984,0 -116.14429859999998,34.029617999999985,0 -116.14430259999997,34.02967249999998,0 -116.14437639999997,34.029817999999985,0 -116.14441659999997,34.02985359999999,0 -116.14445419999997,34.02997809999999,0 -116.14460169999998,34.030212599999984,0 -116.14474519999999,34.03026599999998,0 -116.14496919999998,34.03027369999999,0 -116.14510879999997,34.03022389999999,0 -116.14536509999996,34.03029519999998,0 -116.14557599999996,34.03022589999999,0 -116.14565529999996,34.03022529999999,0 -116.14577649999995,34.03030929999999,0 -116.14585409999997,34.03042199999999,0 -116.14587149999997,34.03047699999999,0 -116.14597569999998,34.030598899999994,0 -116.14607379999998,34.0306642,0 -116.14613209999997,34.03067,0 -116.14618229999996,34.0306523,0 -116.14622799999997,34.030655599999996,0 -116.14629649999998,34.03068439999999,0 -116.14635479999997,34.030670099999995,0 -116.14653259999997,34.0306819,0 -116.14656629999995,34.0306658,0 -116.14658449999995,34.0305818,0 -116.14668229999995,34.0305215,0 -116.14694469999996,34.0301538,0 -116.14711899999996,34.0300114,0 -116.14732889999995,34.029666299999995,0 -116.14740109999995,34.029457,0 -116.14766659999995,34.0292204,0 -116.14775329999993,34.0291756,0 -116.14777809999994,34.029133200000004,0 -116.14780149999994,34.028943500000004,0 -116.14778799999996,34.0288711,0 -116.14765439999995,34.028753,0 -116.14723499999995,34.0281862,0 -116.14697489999995,34.027475599999995,0 -116.14678989999996,34.0271311,0 -116.14680919999995,34.02693489999999,0 -116.14692789999994,34.026568299999994,0 -116.14693119999995,34.02651069999999,0 -116.14691289999996,34.02646249999999,0 -116.14666969999998,34.02673039999999,0 -116.14648459999998,34.02686159999999,0 -116.14606889999997,34.02699719999999,0 -116.14592939999997,34.02696609999999,0 -116.14583549999999,34.02699719999999,0 -116.14557269999999,34.02691489999999,0 -116.14542509999997,34.02681269999999,0 -116.14525079999999,34.026788199999984,0 -116.14467409999999,34.02652149999999,0 -116.14458559999997,34.02651259999999,0 -116.14447559999998,34.02659259999999,0 -116.14428789999997,34.026619299999986,0 -116.14404919999996,34.02673259999999,0 -116.14382649999996,34.02688269999999,0 -116.14373529999996,34.02688049999999,0 -116.14366429999995,34.02698609999999,0 -116.14357169999995,34.02703939999999,0 -116.14330079999995,34.02710609999999,0 -116.14322979999996,34.02710049999999,0 -116.14315059999996,34.02702269999999,0 -116.14292129999994,34.02653259999998,0 -116.14264499999994,34.026186899999985,0 -116.14254709999994,34.026147999999985,0 -116.14230039999995,34.02556779999999,0 -116.14226009999996,34.025527799999985,0 -116.14220919999995,34.02540779999999,0 -116.14211129999994,34.02529739999999,0 </coordinates></LineString><TimeSpan><begin>2020-09-07T00:04:59.000Z</begin><end>2020-09-07T00:39:00.000Z</end></TimeSpan></Placemark><Placemark><name>Driving</name><address></address><ExtendedData><Data name="Email"><value>syugen.zhou@gmail.com</value></Data><Data name="Category"><value>Driving</value></Data><Data name="Distance"><value>32802</value></Data></ExtendedData><description> Driving from 2020-09-07T00:39:00.000Z to 2020-09-07T01:15:00.000Z. Distance 32802m </description><LineString><altitudeMode>clampToGround</altitudeMode><extrude>1</extrude><tesselate>1</tesselate><coordinates>-116.14179999999999,34.025074499999995,0 -116.1422946,34.024975,0 -116.14236029999999,34.02489429999999,0 -116.14233599999997,34.0247453,0 -116.14253069999997,34.02457,0 -116.14276799999996,34.0240419,0 -116.14694939999997,34.0217574,0 -116.14848629999996,34.0211161,0 -116.14909429999997,34.0210492,0 -116.14997049999998,34.0211787,0 -116.15165059999997,34.0211145,0 -116.15533479999998,34.0217849,0 -116.15575449999997,34.021732400000005,0 -116.15629919999996,34.0215265,0 -116.15691679999998,34.02111850000001,0 -116.15892469999999,34.0183259,0 -116.15944059999998,34.0172412,0 -116.1604278,34.016174799999995,0 -116.16122029999998,34.014875999999994,0 -116.1626266,34.013833999999996,0 -116.16616669999999,34.0158982,0 -116.1669003,34.016505200000005,0 -116.1676845,34.0174583,0 -116.1684813,34.0189454,0 -116.1693428,34.0197701,0 -116.1726436,34.021671999999995,0 -116.17316420000002,34.0222998,0 -116.17380470000002,34.0242568,0 -116.1754853,34.0269353,0 -116.17643310000001,34.0277923,0 -116.17771990000001,34.0286572,0 -116.18022180000001,34.0296192,0 -116.1807788,34.0299607,0 -116.1812027,34.0305726,0 -116.18257360000001,34.0363663,0 -116.18299370000001,34.037325599999996,0 -116.18500270000001,34.0397907,0 -116.18546500000001,34.04010509999999,0 -116.186106,34.04037009999999,0 -116.1872993,34.040457999999994,0 -116.19303009999999,34.03899919999999,0 -116.1944805,34.038928199999994,0 -116.1952379,34.0390465,0 -116.1957743,34.0393155,0 -116.19625889999999,34.0397967,0 -116.19669959999999,34.040868700000004,0 -116.19764799999999,34.0419623,0 -116.19808359999999,34.04317030000001,0 -116.19910309999999,34.04482420000001,0 -116.19947259999998,34.04513980000001,0 -116.2003625,34.04548700000001,0 -116.2006867,34.0457547,0 -116.201205,34.046928900000005,0 -116.2018764,34.0476138,0 -116.2049529,34.0494189,0 -116.2087359,34.052369600000006,0 -116.21084309999999,34.05339430000001,0 -116.2135399,34.0541649,0 -116.21506200000002,34.0543277,0 -116.21668950000003,34.0540863,0 -116.21712760000003,34.0541451,0 -116.22373240000002,34.0575646,0 -116.22478480000002,34.0588134,0 -116.22523140000001,34.0597966,0 -116.22789010000002,34.0620435,0 -116.22871650000002,34.0631844,0 -116.22915870000001,34.0649772,0 -116.2305491,34.06672519999999,0 -116.2313899,34.0673001,0 -116.2329269,34.069007199999994,0 -116.23412289999999,34.069744099999994,0 -116.23510219999999,34.0701415,0 -116.235751,34.0706446,0 -116.2374674,34.073061100000004,0 -116.2380971,34.0748656,0 -116.2396486,34.0766498,0 -116.2403171,34.07713450000001,0 -116.2416859,34.0792468,0 -116.2418871,34.0802454,0 -116.2422168,34.08075410000001,0 -116.24265,34.081088900000005,0 -116.2433565,34.08134870000001,0 -116.2454069,34.08160460000001,0 -116.2471306,34.08141860000001,0 -116.24941660000002,34.08091790000001,0 -116.25009630000001,34.08095800000001,0 -116.25063720000001,34.081104800000006,0 -116.25156520000002,34.081630200000006,0 -116.25195250000002,34.08173730000001,0 -116.2529118,34.08173120000001,0 -116.2549462,34.082484300000004,0 -116.25525390000001,34.082721500000005,0 -116.25678540000003,34.0851685,0 -116.25748220000003,34.0870772,0 -116.25959380000002,34.0910659,0 -116.26000180000003,34.0913819,0 -116.26534740000004,34.0936833,0 -116.26623740000004,34.0937531,0 -116.26763820000004,34.0934759,0 -116.26926070000003,34.093400700000004,0 -116.27064310000004,34.093001400000006,0 -116.27219910000004,34.0931341,0 -116.27403040000004,34.0930728,0 -116.27553390000004,34.0927367,0 -116.27588710000003,34.092762,0 -116.27873420000005,34.0937409,0 -116.27924020000003,34.0937749,0 -116.28097690000004,34.0935634,0 -116.28551320000004,34.0935861,0 -116.28651640000002,34.0938277,0 -116.28762670000003,34.0938116,0 -116.28799110000004,34.093722,0 -116.28962130000004,34.0928779,0 -116.28998770000003,34.092854599999995,0 -116.29073580000004,34.093054699999996,0 -116.29166020000004,34.0930156,0 -116.29235260000004,34.0931579,0 -116.29282250000004,34.093368999999996,0 -116.29367110000005,34.094129,0 -116.29405240000006,34.0943265,0 -116.29623820000005,34.0945669,0 -116.29813650000004,34.095507500000004,0 -116.30069730000004,34.097419,0 -116.30213420000005,34.0989992,0 -116.30345970000006,34.1010343,0 -116.30361390000006,34.10154120000001,0 -116.30357280000005,34.10290950000001,0 -116.30373320000004,34.10339520000001,0 -116.30449920000004,34.10465870000001,0 -116.30579610000004,34.10901050000001,0 -116.30633020000003,34.10993240000001,0 -116.30751850000004,34.111205200000015,0 -116.30805900000006,34.11255790000001,0 -116.30842660000005,34.112998800000014,0 -116.30901620000004,34.11336810000002,0 -116.30966790000004,34.11360240000002,0 -116.31232620000003,34.11407430000002,0 -116.31363910000003,34.11491270000001,0 -116.31426820000001,34.11556690000001,0 -116.31498920000001,34.11689590000002,0 -116.31517640000001,34.13496530000002,0 -116.24720580000002,34.13515460000002,0 -116.24723000000002,34.16416100000002,0 -116.261854,34.164355800000024,0 </coordinates></LineString><TimeSpan><begin>2020-09-07T00:39:00.000Z</begin><end>2020-09-07T01:15:00.000Z</end></TimeSpan></Placemark><Placemark><name>The Castle House - Estate</name><address>64278 E Broadway, Joshua Tree, CA 92252</address><ExtendedData><Data name="Email"><value>syugen.zhou@gmail.com</value></Data><Data name="Category"><value>Hotel</value></Data><Data name="Distance"><value>0</value></Data></ExtendedData><description> Hotel from 2020-09-07T01:15:00.000Z to 2020-09-07T01:30:00.000Z. Distance 0m </description><Point><coordinates>-116.26176559999999,34.1653291,0</coordinates></Point><TimeSpan><begin>2020-09-07T01:15:00.000Z</begin><end>2020-09-07T01:30:00.000Z</end></TimeSpan></Placemark><Placemark><name>Driving</name><address></address><ExtendedData><Data name="Email"><value>syugen.zhou@gmail.com</value></Data><Data name="Category"><value>Driving</value></Data><Data name="Distance"><value>9749</value></Data></ExtendedData><description> Driving from 2020-09-07T01:30:45.000Z to 2020-09-07T01:38:12.000Z. Distance 9749m </description><LineString><altitudeMode>clampToGround</altitudeMode><extrude>1</extrude><tesselate>1</tesselate><coordinates>-116.2617922,34.164354599999996,0 -116.26017519999999,34.1643244,0 -116.25801849999998,34.164307199999996,0 -116.25758379999999,34.1643015,0 -116.25736649999997,34.1642987,0 -116.25714909999996,34.1642958,0 -116.25585669999995,34.164278800000005,0 -116.25159169999996,34.164223400000004,0 -116.24841309999995,34.1641771,0 -116.24722999999996,34.16416100000001,0 -116.24723449999996,34.16298460000001,0 -116.24723269999996,34.16182700000001,0 -116.24722629999997,34.16053070000001,0 -116.24723069999997,34.159634900000015,0 -116.24722519999996,34.158726000000016,0 -116.24721739999995,34.15692300000001,0 -116.24721889999994,34.15620350000001,0 -116.24722129999994,34.15512440000001,0 -116.24722359999994,34.15403160000001,0 -116.24722279999993,34.15327830000001,0 -116.24721609999993,34.15201440000001,0 -116.24720139999994,34.15145470000001,0 -116.24720529999993,34.14968170000001,0 -116.24721519999991,34.14890470000001,0 -116.24720479999992,34.148285300000005,0 -116.2472038999999,34.14805110000001,0 -116.2471966999999,34.14607260000001,0 -116.24718799999992,34.142108400000005,0 -116.24718729999991,34.1403547,0 -116.2471722999999,34.1393342,0 -116.24717519999989,34.13805980000001,0 -116.24718149999988,34.13696470000001,0 -116.24718009999988,34.1366809,0 -116.24719599999987,34.136419800000006,0 -116.24720249999986,34.136197700000004,0 -116.24720579999986,34.13515460000001,0 -116.24763659999986,34.135149000000006,0 -116.25154199999989,34.13514210000001,0 -116.25588019999988,34.1351342,0 -116.25635249999989,34.135132500000005,0 -116.2570043999999,34.13513030000001,0 -116.2572216999999,34.135129500000005,0 -116.25743899999992,34.135128800000004,0 -116.25852549999993,34.13512500000001,0 -116.25874279999994,34.13512420000001,0 -116.26026389999994,34.1351189,0 -116.26160739999996,34.135116700000005,0 -116.26465549999995,34.135102,0 -116.26683419999993,34.135102,0 -116.26858919999994,34.13509690000001,0 -116.26905479999992,34.1350994,0 -116.27347279999991,34.135085000000004,0 -116.2739371999999,34.1350852,0 -116.2762192999999,34.1350859,0 -116.2767257999999,34.135080699999996,0 -116.2772291999999,34.1350772,0 -116.2779569999999,34.135073999999996,0 -116.27971039999991,34.135066099999996,0 -116.28221029999989,34.1350571,0 -116.2825686999999,34.13505919999999,0 -116.2877344999999,34.13504009999999,0 -116.2908616999999,34.13503599999999,0 -116.2910296999999,34.13503599999999,0 -116.2911541999999,34.135033799999995,0 -116.29211619999991,34.13503009999999,0 -116.29233349999991,34.13502929999999,0 -116.29320169999991,34.135025899999995,0 -116.2942815999999,34.135022899999996,0 -116.2947457999999,34.135027099999995,0 -116.29501049999992,34.135023999999994,0 -116.29839509999992,34.13501199999999,0 -116.29982169999992,34.13501439999999,0 -116.30108099999994,34.135009799999985,0 -116.30405869999994,34.13499929999999,0 -116.30501569999993,34.13499609999999,0 -116.30551999999993,34.13499429999999,0 -116.30581719999994,34.13499389999999,0 -116.30630889999993,34.13499229999999,0 -116.30699629999994,34.134987599999995,0 -116.30746409999993,34.134988099999994,0 -116.30795209999994,34.1349868,0 -116.30843939999994,34.1349836,0 -116.30856999999993,34.13498609999999,0 -116.30890369999995,34.134986,0 -116.30923039999995,34.1349854,0 -116.30965909999993,34.1349865,0 -116.31005839999993,34.1349834,0 -116.31033169999994,34.1349846,0 -116.31075089999993,34.1349828,0 -116.31115099999994,34.134983000000005,0 -116.31145419999993,34.134980600000006,0 -116.31184429999992,34.1349771,0 -116.31294479999991,34.1349766,0 -116.3132053999999,34.134973800000004,0 -116.31348819999991,34.1349742,0 -116.31406749999991,34.1349722,0 -116.31435229999991,34.1349692,0 -116.31476139999992,34.1349698,0 -116.31517639999994,34.134965300000005,0 -116.31519199999994,34.135427400000005,0 </coordinates></LineString><TimeSpan><begin>2020-09-07T01:30:45.000Z</begin><end>2020-09-07T01:38:12.000Z</end></TimeSpan></Placemark><Placemark><name>Subway</name><address>61794 Twentynine Palms Highway, Joshua Tree, CA 92252</address><ExtendedData><Data name="Email"><value>syugen.zhou@gmail.com</value></Data><Data name="Category"><value>Sandwich</value></Data><Data name="Distance"><value>0</value></Data></ExtendedData><description> Sandwich from 2020-09-07T01:38:12.000Z to 2020-09-07T01:45:26.000Z. Distance 0m </description><Point><coordinates>-116.31547839999999,34.1355532,0</coordinates></Point><TimeSpan><begin>2020-09-07T01:38:12.000Z</begin><end>2020-09-07T01:45:26.000Z</end></TimeSpan></Placemark><Placemark><name>Driving</name><address></address><ExtendedData><Data name="Email"><value>syugen.zhou@gmail.com</value></Data><Data name="Category"><value>Driving</value></Data><Data name="Distance"><value>10014</value></Data></ExtendedData><description> Driving from 2020-09-07T01:45:26.000Z to 2020-09-07T01:59:53.000Z. Distance 10014m </description><LineString><altitudeMode>clampToGround</altitudeMode><extrude>1</extrude><tesselate>1</tesselate><coordinates>-116.31519199999998,34.1354274,0 -116.3151764,34.1349653,0 -116.31476139999998,34.13496979999999,0 -116.31435229999997,34.13496919999999,0 -116.31406749999995,34.13497219999999,0 -116.31348819999997,34.134974199999995,0 -116.31320539999996,34.1349738,0 -116.31294479999997,34.134976599999995,0 -116.31184429999998,34.1349771,0 -116.31145419999999,34.1349806,0 -116.31115099999998,34.134983,0 -116.31075089999999,34.134982799999996,0 -116.31033169999999,34.134984599999996,0 -116.31005839999999,34.134983399999996,0 -116.30965909999999,34.13498649999999,0 -116.30923039999999,34.13498539999999,0 -116.30890369999999,34.13498599999999,0 -116.30856999999999,34.13498609999999,0 -116.3084394,34.13498359999999,0 -116.30795209999998,34.13498679999999,0 -116.30746409999999,34.13498809999999,0 -116.3069963,34.13498759999999,0 -116.30630889999998,34.134992299999986,0 -116.30581719999999,34.134993899999984,0 -116.30551999999999,34.13499429999998,0 -116.30501569999998,34.13499609999998,0 -116.3040587,34.13499929999998,0 -116.301081,34.135009799999985,0 -116.29982169999998,34.13501439999998,0 -116.29839509999998,34.13501199999998,0 -116.29501049999998,34.13502399999999,0 -116.29474579999996,34.13502709999999,0 -116.29428159999996,34.13502289999999,0 -116.29320169999997,34.13502589999999,0 -116.29233349999997,34.135029299999985,0 -116.29211619999995,34.13503009999999,0 -116.29115419999995,34.13503379999999,0 -116.29102969999995,34.135035999999985,0 -116.29086169999995,34.135035999999985,0 -116.28773449999996,34.13504009999998,0 -116.28256869999996,34.135059199999986,0 -116.28221029999995,34.13505709999999,0 -116.27971039999996,34.13506609999999,0 -116.27795699999996,34.13507399999999,0 -116.27722919999995,34.13507719999999,0 -116.27672579999995,34.13508069999999,0 -116.27621929999995,34.13508589999999,0 -116.27393719999996,34.1350852,0 -116.27347279999996,34.135085,0 -116.26905479999998,34.135099399999994,0 -116.26858919999998,34.1350969,0 -116.26683419999999,34.135101999999996,0 -116.26465549999999,34.135101999999996,0 -116.2616074,34.1351167,0 -116.2602639,34.135118899999995,0 -116.2587428,34.1351242,0 -116.25852549999998,34.135125,0 -116.25743899999998,34.135128800000004,0 -116.25722169999996,34.1351295,0 -116.25700439999994,34.1351303,0 -116.25635249999993,34.1351325,0 -116.25588019999994,34.135134199999996,0 -116.25154199999993,34.1351421,0 -116.24763659999992,34.135149,0 -116.24720579999992,34.1351546,0 -116.24720249999991,34.1361977,0 -116.24719599999993,34.1364198,0 -116.24718009999994,34.136680899999995,0 -116.24718149999993,34.1369647,0 -116.24717519999994,34.1380598,0 -116.24717229999995,34.1393342,0 -116.24718729999996,34.140354699999996,0 -116.24718799999997,34.1421084,0 -116.24719669999996,34.146072600000004,0 -116.24720389999996,34.1480511,0 -116.24720479999996,34.1482853,0 -116.24721519999997,34.1489047,0 -116.24720529999998,34.1496817,0 -116.2472014,34.1514547,0 -116.24721609999997,34.152014400000006,0 -116.24722279999999,34.153278300000004,0 -116.2472236,34.1540316,0 -116.24722129999999,34.155124400000005,0 -116.2472189,34.156203500000004,0 -116.2472174,34.156923000000006,0 -116.24722520000002,34.15872600000001,0 -116.24723070000002,34.15963490000001,0 -116.24722630000001,34.16053070000001,0 -116.2472327,34.161827,0 -116.24723450000002,34.1629846,0 -116.24723000000002,34.164161,0 -116.24841310000001,34.1641771,0 -116.2515917,34.1642234,0 -116.25585670000001,34.1642788,0 -116.25714910000002,34.16429579999999,0 -116.25736650000003,34.164298699999996,0 -116.25758380000003,34.16430149999999,0 -116.25801850000003,34.16430719999999,0 -116.26017520000005,34.16432439999999,0 -116.26179220000006,34.16435459999999,0 </coordinates></LineString><TimeSpan><begin>2020-09-07T01:45:26.000Z</begin><end>2020-09-07T01:59:53.000Z</end></TimeSpan></Placemark><Placemark><name>The Castle House - Estate</name><address>64278 E Broadway, Joshua Tree, CA 92252</address><ExtendedData><Data name="Email"><value>syugen.zhou@gmail.com</value></Data><Data name="Category"><value>Hotel</value></Data><Data name="Distance"><value>0</value></Data></ExtendedData><description> Hotel from 2020-09-07T01:59:53.000Z to 2020-09-07T15:16:22.310Z. Distance 0m </description><Point><coordinates>-116.26176559999999,34.1653291,0</coordinates></Point><TimeSpan><begin>2020-09-07T01:59:53.000Z</begin><end>2020-09-07T15:16:22.310Z</end></TimeSpan></Placemark></Document></kml>