<?xml version="1.0" encoding="UTF-8"?><kml xmlns="http://www.opengis.net/kml/2.2" xmlns:gx="http://www.google.com/kml/ext/2.2"><Document><name> Location history from 2020-09-04 to 2020-09-04 </name><open>1</open><description></description><StyleMap id="multiTrack"><Pair><key>normal</key><styleUrl>#multiTrack_n</styleUrl></Pair><Pair><key>highlight</key><styleUrl>#multiTrack_h</styleUrl></Pair></StyleMap><Style id="multiTrack_n"><IconStyle><Icon><href>https://earth.google.com/images/kml-icons/track-directional/track-0.png</href></Icon></IconStyle><LineStyle><color>99ffac59</color><width>6</width></LineStyle></Style><Style id="multiTrack_h"><IconStyle><scale>1.2</scale><Icon><href>https://earth.google.com/images/kml-icons/track-directional/track-0.png</href></Icon></IconStyle><LineStyle><color>99ffac59</color><width>8</width></LineStyle></Style><Placemark><name>702 Marlin Ave</name><address>702 Marlin Ave, Foster City, CA 94404</address><ExtendedData><Data name="Email"><value>syugen.zhou@gmail.com</value></Data><Data name="Category"><value></value></Data><Data name="Distance"><value>0</value></Data></ExtendedData><description>  from 2020-09-04T07:00:00.000Z to 2020-09-04T23:08:52.000Z. Distance 0m </description><Point><coordinates>-122.25498479999999,37.5541321,0</coordinates></Point><TimeSpan><begin>2020-09-04T07:00:00.000Z</begin><end>2020-09-04T23:08:52.000Z</end></TimeSpan></Placemark><Placemark><name>Driving</name><address></address><ExtendedData><Data name="Email"><value>syugen.zhou@gmail.com</value></Data><Data name="Category"><value>Driving</value></Data><Data name="Distance"><value>15792</value></Data></ExtendedData><description> Driving from 2020-09-04T23:08:52.355Z to 2020-09-05T00:05:06.000Z. Distance 15792m </description><LineString><altitudeMode>clampToGround</altitudeMode><extrude>1</extrude><tesselate>1</tesselate><coordinates>-122.2551804,37.554275499999996,0 -122.2555829,37.55380819999999,0 -122.256461,37.5543048,0 -122.2569521,37.5545706,0 -122.257991,37.555179499999994,0 -122.2589452,37.5556953,0 -122.2601135,37.5563819,0 -122.2605947,37.556653000000004,0 -122.26070299999998,37.5567215,0 -122.2675732,37.5605833,0 -122.26799609999999,37.5608486,0 -122.2689335,37.5613903,0 -122.2690494,37.561452499999994,0 -122.2696225,37.5617861,0 -122.2701745,37.5621619,0 -122.270287,37.562232800000004,0 -122.2703576,37.5622835,0 -122.27036039999999,37.56228720000001,0 -122.2719767,37.563204500000005,0 -122.27306629999998,37.5638507,0 -122.27481599999999,37.5648166,0 -122.27488559999999,37.564721,0 -122.27510349999999,37.5644854,0 -122.27542939999998,37.5641616,0 -122.27569349999999,37.563924,0 -122.27582349999999,37.5638862,0 -122.27576579999999,37.5638275,0 -122.27576669999999,37.563736500000005,0 -122.27575399999998,37.563697100000006,0 -122.27574019999997,37.5636737,0 -122.27571299999997,37.5636382,0 -122.27565309999996,37.5635849,0 -122.27554159999997,37.563435000000005,0 -122.27548809999998,37.563346300000006,0 -122.27546279999999,37.5632883,0 -122.27543359999997,37.563188800000006,0 -122.27542599999998,37.56313290000001,0 -122.27542489999998,37.5630669,0 -122.27543499999999,37.5629874,0 -122.27546389999998,37.562883,0 -122.27550089999997,37.5627948,0 -122.27553849999998,37.5627232,0 -122.27558839999998,37.562650999999995,0 -122.27568899999997,37.5625396,0 -122.27574309999999,37.5624882,0 -122.27614699999998,37.5621781,0 -122.27626279999998,37.56208229999999,0 -122.27664739999999,37.56179529999999,0 -122.2766518,37.561790399999985,0 -122.27665449999999,37.561783799999986,0 -122.2766566,37.56170129999999,0 -122.2807803,37.55910689999999,0 -122.2810644,37.55891819999999,0 -122.282531,37.55798819999998,0 -122.28328710000002,37.55754069999998,0 -122.28336410000001,37.557502699999986,0 -122.28436130000001,37.556953599999986,0 -122.28542230000001,37.55642319999998,0 -122.28688200000002,37.55579809999998,0 -122.28796740000001,37.555362999999986,0 -122.28888770000002,37.55502109999998,0 -122.28947240000002,37.55481719999998,0 -122.29049520000002,37.554485599999985,0 -122.29129290000003,37.55425659999998,0 -122.29168510000002,37.554157899999986,0 -122.29210630000003,37.554062299999984,0 -122.29225660000003,37.554093899999984,0 -122.29360760000003,37.55393879999999,0 -122.29425110000004,37.55387839999999,0 -122.29453140000004,37.55385829999999,0 -122.29477220000004,37.553858699999985,0 -122.29492380000003,37.553865899999984,0 -122.29523280000004,37.553903699999985,0 -122.29547060000004,37.55394939999998,0 -122.29559440000006,37.553979799999986,0 -122.29581530000006,37.55404249999999,0 -122.29603580000006,37.55412219999998,0 -122.29621460000006,37.554197399999985,0 -122.29643580000005,37.554310999999984,0 -122.29654590000005,37.554375599999986,0 -122.29673830000007,37.554507499999985,0 -122.29681220000006,37.55456559999998,0 -122.29728520000005,37.55498659999998,0 -122.29766280000005,37.55534249999998,0 -122.29831420000005,37.55600539999998,0 -122.29831700000004,37.556007299999976,0 -122.29855090000005,37.55609659999998,0 -122.29976720000005,37.557407199999986,0 -122.30198820000004,37.55990269999998,0 -122.30306200000005,37.560977399999985,0 -122.30451040000004,37.56234269999999,0 -122.30872660000004,37.56621459999999,0 -122.31076600000003,37.56803519999999,0 -122.32516200000003,37.58128679999999,0 -122.32587270000002,37.58192309999999,0 -122.32657980000002,37.58258979999999,0 -122.3292478,37.58503799999999,0 -122.32958339999999,37.58531349999999,0 -122.3298547,37.58551049999999,0 -122.3299886,37.58559989999999,0 -122.33032999999998,37.58580689999999,0 -122.33051689999998,37.58590909999999,0 -122.33075989999998,37.586032299999985,0 -122.33102679999996,37.58615499999999,0 -122.33141329999995,37.58631219999999,0 -122.33163809999996,37.58639439999999,0 -122.33201089999996,37.58651309999999,0 -122.33235009999996,37.58660209999999,0 -122.33266259999995,37.586673399999995,0 -122.33296649999996,37.58672919999999,0 -122.33345839999996,37.5867891,0 -122.33422789999995,37.58684309999999,0 -122.34937309999997,37.587240599999994,0 -122.35012879999995,37.587244899999995,0 -122.35245929999995,37.587300899999995,0 -122.35326499999994,37.58733599999999,0 -122.35386109999992,37.587388,0 -122.35421479999992,37.587429,0 -122.35481839999993,37.587515700000004,0 -122.35520359999992,37.587584400000004,0 -122.35577469999991,37.5877031,0 -122.35654519999991,37.5879062,0 -122.35717519999992,37.5880961,0 -122.35767429999993,37.58827000000001,0 -122.35806899999992,37.58842390000001,0 -122.35850669999992,37.58861400000001,0 -122.35903669999993,37.58886050000001,0 -122.35946399999993,37.589078400000005,0 -122.35997759999995,37.58936130000001,0 -122.36061319999995,37.58974420000001,0 -122.36473219999995,37.59243400000001,0 -122.36509679999995,37.592657900000006,0 -122.36564049999994,37.593012900000005,0 -122.36623189999993,37.593439800000006,0 -122.36765389999994,37.59436790000001,0 -122.36812589999994,37.59470110000001,0 -122.36979109999993,37.59578790000001,0 -122.37145459999994,37.59690150000001,0 -122.37644449999992,37.60016070000001,0 -122.37674999999992,37.60033980000001,0 -122.38665039999992,37.606761000000006,0 -122.38743649999992,37.607291200000006,0 -122.39258849999992,37.61062580000001,0 -122.39270799999991,37.61072360000001,0 -122.39360489999993,37.6112887,0 -122.39432239999992,37.61176280000001,0 -122.39479459999993,37.612110200000004,0 -122.39525249999994,37.6124829,0 -122.39564709999993,37.61282560000001,0 -122.39585379999994,37.61301800000001,0 -122.39627169999994,37.613436500000006,0 -122.39652879999994,37.6137178,0 -122.39688839999995,37.614144700000004,0 -122.39723689999994,37.6146089,0 -122.39769669999993,37.6152883,0 -122.39780909999993,37.615476699999995,0 -122.39795829999993,37.615758799999995,0 -122.39810969999994,37.6160749,0 -122.39822509999992,37.6163368,0 -122.39863099999992,37.6174734,0 -122.39898229999993,37.618568200000006,0 -122.40080049999995,37.6239492,0 -122.40075489999992,37.624194800000005,0 -122.40089969999993,37.6246165,0 -122.40103879999991,37.6250748,0 -122.4010730999999,37.62521,0 -122.4015537999999,37.6276091,0 -122.40161009999991,37.6278371,0 -122.40172959999992,37.62853080000001,0 -122.40180339999992,37.62911880000001,0 -122.40182079999992,37.62935050000001,0 -122.40181359999993,37.629514900000004,0 -122.40177369999992,37.629756400000005,0 -122.40172669999991,37.62991100000001,0 -122.40166929999992,37.630030000000005,0 -122.40148349999991,37.63036590000001,0 -122.4007259999999,37.6315431,0 -122.40066039999992,37.631603500000004,0 -122.40045029999993,37.6319158,0 -122.40030399999992,37.63209810000001,0 -122.40019389999992,37.63221120000001,0 -122.40013089999992,37.63226770000001,0 -122.39997489999992,37.63238380000001,0 -122.39983659999992,37.63246600000001,0 -122.39959439999991,37.632586200000006,0 -122.39948429999991,37.632674800000004,0 -122.39837679999992,37.63309890000001,0 -122.39817239999991,37.633091900000004,0 -122.39810719999991,37.6330778,0 -122.3980460999999,37.6330568,0 -122.3980092999999,37.6330388,0 -122.3979618999999,37.6330047,0 -122.3979144999999,37.6329633,0 -122.39780419999991,37.6328494,0 -122.39780209999991,37.632799799999994,0 -122.39780759999991,37.63275659999999,0 -122.39782169999991,37.6327065,0 -122.3978433999999,37.63265859999999,0 -122.39787499999991,37.63261779999999,0 -122.39793599999993,37.63257039999999,0 -122.39800999999994,37.6325321,0 -122.39810659999995,37.632497199999996,0 -122.39874509999994,37.632303699999994,0 -122.39936499999995,37.6321316,0 -122.39956099999996,37.6320834,0 -122.39987759999995,37.6319818,0 -122.40001139999995,37.6319178,0 -122.40011919999995,37.631852,0 -122.40020629999997,37.6317901,0 -122.40029619999997,37.6317112,0 -122.40039889999997,37.6315868,0 -122.40046429999997,37.6314972,0 -122.40131029999998,37.6302104,0 -122.40144059999997,37.6299869,0 -122.4015087,37.6298557,0 -122.4015543,37.6297262,0 -122.40158240000001,37.6296263,0 -122.4015959,37.629557299999995,0 -122.401616,37.629348,0 -122.401616,37.6291983,0 -122.40160929999999,37.6291526,0 -122.40156369999998,37.6290581,0 -122.40119469999996,37.626846799999996,0 -122.39909289999997,37.6273785,0 </coordinates></LineString><TimeSpan><begin>2020-09-04T23:08:52.355Z</begin><end>2020-09-05T00:05:06.000Z</end></TimeSpan></Placemark><Placemark><name>Rental Car Center</name><address>780 N McDonnell Rd, San Francisco, CA 94128</address><ExtendedData><Data name="Email"><value>syugen.zhou@gmail.com</value></Data><Data name="Category"><value>Building</value></Data><Data name="Distance"><value>0</value></Data></ExtendedData><description> Building from 2020-09-05T00:05:06.000Z to 2020-09-05T00:15:19.000Z. Distance 0m </description><Point><coordinates>-122.40036169999999,37.6283531,0</coordinates></Point><TimeSpan><begin>2020-09-05T00:05:06.000Z</begin><end>2020-09-05T00:15:19.000Z</end></TimeSpan></Placemark><Placemark><name>Driving</name><address></address><ExtendedData><Data name="Email"><value>syugen.zhou@gmail.com</value></Data><Data name="Category"><value>Driving</value></Data><Data name="Distance"><value>4621</value></Data></ExtendedData><description> Driving from 2020-09-05T00:15:19.999Z to 2020-09-05T00:55:44.000Z. Distance 4621m </description><LineString><altitudeMode>clampToGround</altitudeMode><extrude>1</extrude><tesselate>1</tesselate><coordinates>-122.3997229,37.6272169,0 -122.4007596,37.6269563,0 -122.4009477,37.6270189,0 -122.4012454,37.6271381,0 -122.4015637,37.62905810000001,0 -122.40153219999999,37.62910550000001,0 -122.40151469999999,37.629147200000006,0 -122.4014871,37.629444500000005,0 -122.40144959999999,37.6295931,0 -122.4013653,37.6297957,0 -122.4012516,37.6300009,0 -122.4002307,37.631568,0 -122.4001286,37.6316831,0 -122.39994600000001,37.6318134,0 -122.39977650000002,37.631898699999994,0 -122.39968960000003,37.6319288,0 -122.39793820000003,37.6324041,0 -122.39784910000003,37.6324519,0 -122.39778810000003,37.6324931,0 -122.39770410000003,37.63259089999999,0 -122.39766940000003,37.632657099999996,0 -122.39764900000003,37.6327163,0 -122.39763620000004,37.63282919999999,0 -122.39764960000002,37.632917899999995,0 -122.39781270000003,37.63326879999999,0 -122.39786240000004,37.63334989999999,0 -122.39970850000003,37.63271059999999,0 -122.3998973,37.632626099999996,0 -122.40119220000003,37.63196189999999,0 -122.40150820000002,37.631828,0 -122.40311680000003,37.6312362,0 -122.40340580000003,37.6311414,0 -122.40366660000002,37.6310742,0 -122.40398200000001,37.6310188,0 -122.40406490000001,37.6310184,0 -122.40434710000001,37.6309951,0 -122.4056583,37.6309544,0 -122.40578309999998,37.63092819999999,0 -122.41022679999998,37.630868099999994,0 -122.41025549999998,37.63088359999999,0 -122.41028369999998,37.63089119999999,0 -122.41035299999999,37.63090009999999,0 -122.41140589999998,37.630858599999996,0 -122.41152999999998,37.630831099999995,0 -122.41197799999998,37.6306606,0 -122.41204559999997,37.6308017,0 -122.41381219999997,37.6339415,0 -122.41432039999997,37.634760400000005,0 -122.41449039999998,37.635073600000005,0 -122.41465409999998,37.63543370000001,0 -122.41480229999996,37.635854200000004,0 -122.41495729999997,37.63621390000001,0 -122.41682229999996,37.63945230000001,0 -122.41693289999995,37.63957800000001,0 -122.41707419999994,37.63968530000001,0 -122.41718779999995,37.639746400000014,0 -122.41732779999994,37.639796300000015,0 -122.41742229999994,37.63982070000001,0 -122.41758799999995,37.639833300000014,0 -122.41785499999996,37.63980990000002,0 -122.41803989999995,37.63975470000002,0 -122.41809659999996,37.639725300000016,0 -122.41842029999995,37.63951260000002,0 -122.41913579999994,37.63882400000002,0 -122.41938969999993,37.638531600000015,0 -122.41961569999994,37.63866020000002,0 -122.41997159999994,37.63833200000001,0 -122.41993259999994,37.63830610000001,0 -122.41992109999994,37.63829480000001,0 -122.41991229999995,37.63827820000001,0 -122.41991119999994,37.63825820000001,0 -122.41991439999995,37.63824990000001,0 -122.42008399999995,37.63808640000001,0 -122.42009539999995,37.63808240000001,0 -122.42010959999995,37.63808080000001,0 -122.42014129999995,37.63808360000001,0 -122.42016969999996,37.63809690000001,0 -122.42029379999997,37.6381938,0 -122.42033729999997,37.6382617,0 -122.42034499999998,37.6382689,0 -122.42041569999999,37.638306400000005,0 -122.4202224,37.6384887,0 -122.4199716,37.638332000000005,0 -122.41961569999998,37.63866020000001,0 -122.41925489999997,37.63846130000001,0 -122.41823339999996,37.63950680000001,0 -122.41808109999997,37.63960050000001,0 -122.41792059999995,37.63966690000001,0 -122.41784939999995,37.639684800000005,0 -122.41772429999995,37.639701300000006,0 -122.41764349999995,37.63970360000001,0 -122.41733139999994,37.63965360000001,0 -122.41721189999994,37.639605100000004,0 -122.41714789999995,37.639570000000006,0 -122.41708129999995,37.639523700000005,0 -122.41701389999994,37.639464600000004,0 -122.41695819999994,37.6394031,0 -122.41690229999995,37.6393227,0 -122.41528389999995,37.6365439,0 -122.41506189999994,37.636054,0 -122.41488159999994,37.6355402,0 -122.41461959999995,37.634951599999994,0 -122.41421049999994,37.634299199999994,0 -122.41395319999995,37.633935,0 -122.41203519999995,37.6305306,0 -122.41160349999994,37.6307065,0 -122.41140239999993,37.6307666,0 -122.41027299999993,37.6308456,0 -122.41025939999994,37.6308494,0 -122.41022679999993,37.6308681,0 -122.40578309999994,37.6309282,0 -122.40563989999993,37.6309046,0 -122.40546179999994,37.6308976,0 -122.40395889999995,37.6309128,0 -122.40352859999996,37.631003099999994,0 -122.40317159999995,37.63109909999999,0 -122.40154239999995,37.63168219999999,0 -122.40107409999995,37.63188799999999,0 -122.40083549999993,37.63201759999999,0 -122.40073669999994,37.63203909999999,0 -122.39979899999993,37.6325608,0 -122.39961849999995,37.632638699999994,0 -122.39948429999995,37.6326748,0 -122.39837679999997,37.6330989,0 -122.39817239999996,37.6330919,0 -122.39810719999996,37.633077799999995,0 -122.39804609999995,37.63305679999999,0 -122.39800929999996,37.633038799999994,0 -122.39791449999996,37.63296329999999,0 -122.39780419999995,37.63284939999999,0 -122.39780209999995,37.63279979999999,0 -122.39782169999997,37.63270649999999,0 -122.39784339999996,37.63265859999999,0 -122.39787499999996,37.632617799999984,0 -122.39793599999997,37.63257039999999,0 -122.39800999999999,37.63253209999999,0 -122.39874509999999,37.63230369999999,0 -122.39956099999999,37.63208339999999,0 -122.39987759999998,37.63198179999999,0 -122.40001139999998,37.6319178,0 -122.4002063,37.631790099999996,0 -122.40029619999999,37.63171119999999,0 -122.4004643,37.63149719999999,0 -122.4013103,37.630210399999996,0 -122.40150870000001,37.6298557,0 -122.40158240000001,37.6296263,0 -122.401616,37.629348,0 -122.401616,37.6291983,0 -122.40160929999999,37.6291526,0 -122.40156369999998,37.6290581,0 -122.40119469999996,37.626846799999996,0 -122.40013099999997,37.6271128,0 </coordinates></LineString><TimeSpan><begin>2020-09-05T00:15:19.999Z</begin><end>2020-09-05T00:55:44.000Z</end></TimeSpan></Placemark><Placemark><name>Rental Car Center</name><address>780 N McDonnell Rd, San Francisco, CA 94128</address><ExtendedData><Data name="Email"><value>syugen.zhou@gmail.com</value></Data><Data name="Category"><value>Building</value></Data><Data name="Distance"><value>0</value></Data></ExtendedData><description> Building from 2020-09-05T00:55:44.000Z to 2020-09-05T02:03:39.000Z. Distance 0m </description><Point><coordinates>-122.40036169999999,37.6283531,0</coordinates></Point><TimeSpan><begin>2020-09-05T00:55:44.000Z</begin><end>2020-09-05T02:03:39.000Z</end></TimeSpan></Placemark><Placemark><name>Driving</name><address></address><ExtendedData><Data name="Email"><value>syugen.zhou@gmail.com</value></Data><Data name="Category"><value>Driving</value></Data><Data name="Distance"><value>19057</value></Data></ExtendedData><description> Driving from 2020-09-05T02:03:39.978Z to 2020-09-05T02:27:04.572Z. Distance 19057m </description><LineString><altitudeMode>clampToGround</altitudeMode><extrude>1</extrude><tesselate>1</tesselate><coordinates>-122.40058879999998,37.627246899999996,0 -122.40130529999998,37.6274884,0 -122.40156369999998,37.629058099999995,0 -122.40151469999999,37.62914719999999,0 -122.4014871,37.62944449999999,0 -122.4013653,37.62979569999999,0 -122.3994112,37.62903499999999,0 -122.4013653,37.62979569999999,0 -122.4002307,37.631567999999994,0 -122.4001286,37.63168309999999,0 -122.39994600000001,37.63181339999999,0 -122.39977650000002,37.631898699999994,0 -122.3979382,37.63240409999999,0 -122.3977881,37.63249309999999,0 -122.3977041,37.63259089999999,0 -122.39764899999999,37.63271629999999,0 -122.39763619999998,37.63282919999999,0 -122.39764959999998,37.63291789999999,0 -122.39786239999998,37.633349899999985,0 -122.39970849999997,37.63271059999998,0 -122.40119219999997,37.631961899999986,0 -122.40340579999999,37.63114139999999,0 -122.40398199999998,37.631018799999985,0 -122.40395889999998,37.63091279999999,0 -122.40345199999997,37.629958899999984,0 -122.40314679999997,37.62916329999999,0 -122.40291609999997,37.62802819999998,0 -122.40283059999997,37.627928699999984,0 -122.40249589999996,37.626468899999985,0 -122.40134609999997,37.62365759999998,0 -122.40032019999998,37.620719399999984,0 -122.39992989999998,37.61935739999999,0 -122.39982969999997,37.61923029999999,0 -122.39877499999996,37.61664659999999,0 -122.39871239999995,37.61656389999999,0 -122.39863449999996,37.616512699999994,0 -122.39811999999993,37.615418199999986,0 -122.39766689999993,37.61468919999999,0 -122.39714509999992,37.61397689999999,0 -122.39637829999991,37.613123099999996,0 -122.39579889999993,37.612575199999995,0 -122.39469769999992,37.61169819999999,0 -122.37644789999992,37.59981379999999,0 -122.37632579999992,37.59971469999999,0 -122.35996559999992,37.5891072,0 -122.35919069999993,37.588696,0 -122.35791039999994,37.588171100000004,0 -122.35612269999994,37.587593,0 -122.35523079999994,37.5874011,0 -122.35433719999995,37.5872572,0 -122.35292679999995,37.587131400000004,0 -122.33409249999995,37.58662660000001,0 -122.33326689999997,37.5865542,0 -122.33238389999997,37.586393,0 -122.33167359999996,37.5861796,0 -122.33111769999995,37.5859565,0 -122.33061049999996,37.585707,0 -122.32992759999995,37.5852837,0 -122.32954919999995,37.584990499999996,0 -122.30489759999993,37.5623336,0 -122.30135799999992,37.558823600000004,0 -122.30137859999992,37.5586576,0 -122.30107859999993,37.558239,0 -122.30059469999992,37.5576682,0 -122.30052379999991,37.55762810000001,0 -122.29781119999991,37.55454430000001,0 -122.29757989999993,37.554333700000015,0 -122.29740829999993,37.55421440000001,0 -122.29711919999993,37.55406300000001,0 -122.29691759999993,37.553987700000015,0 -122.29448509999995,37.553296900000014,0 -122.29397499999995,37.55322680000001,0 -122.29348209999995,37.55323950000002,0 -122.29322429999995,37.553278800000015,0 -122.29281599999995,37.553393100000015,0 -122.28806379999993,37.55505280000001,0 -122.28500029999995,37.55640120000001,0 -122.28270899999995,37.557677100000014,0 -122.27613629999996,37.561803900000015,0 -122.27595619999997,37.56181800000002,0 -122.27444099999995,37.56256830000002,0 -122.27424239999995,37.56264210000002,0 -122.27409289999996,37.56267630000002,0 -122.27381649999997,37.56269090000002,0 -122.27369429999997,37.56267480000002,0 -122.27347409999997,37.56261150000002,0 -122.27329599999999,37.56252050000002,0 -122.27291579999998,37.56220870000003,0 -122.27250079999997,37.56180440000002,0 -122.27216059999998,37.56202350000002,0 -122.27167929999997,37.56254270000002,0 -122.27146519999997,37.562611600000025,0 -122.27128049999996,37.562634000000024,0 -122.27058349999996,37.56225570000002,0 -122.26945979999996,37.56148630000003,0 -122.26593459999997,37.55952010000003,0 -122.25567049999997,37.55372120000003,0 -122.25488939999997,37.55461320000003,0 -122.25477899999997,37.554787100000034,0 -122.25455449999995,37.55468780000003,0 </coordinates></LineString><TimeSpan><begin>2020-09-05T02:03:39.978Z</begin><end>2020-09-05T02:27:04.572Z</end></TimeSpan></Placemark><Placemark><name>702 Marlin Ave</name><address>702 Marlin Ave, Foster City, CA 94404</address><ExtendedData><Data name="Email"><value>syugen.zhou@gmail.com</value></Data><Data name="Category"><value></value></Data><Data name="Distance"><value>0</value></Data></ExtendedData><description>  from 2020-09-05T02:27:04.572Z to 2020-09-05T02:32:56.427Z. Distance 0m </description><Point><coordinates>-122.25498479999999,37.5541321,0</coordinates></Point><TimeSpan><begin>2020-09-05T02:27:04.572Z</begin><end>2020-09-05T02:32:56.427Z</end></TimeSpan></Placemark><Placemark><name>Driving</name><address></address><ExtendedData><Data name="Email"><value>syugen.zhou@gmail.com</value></Data><Data name="Category"><value>Driving</value></Data><Data name="Distance"><value>432444</value></Data></ExtendedData><description> Driving from 2020-09-05T02:32:56.427Z to 2020-09-05T06:38:57.358Z. Distance 432444m </description><LineString><altitudeMode>clampToGround</altitudeMode><extrude>1</extrude><tesselate>1</tesselate><coordinates>-122.2556609,37.5538521,0 -122.2569521,37.5545706,0 -122.257991,37.555179499999994,0 -122.2589452,37.5556953,0 -122.2605947,37.556653000000004,0 -122.26070299999998,37.5567215,0 -122.2675732,37.5605833,0 -122.26799609999999,37.5608486,0 -122.2696225,37.5617861,0 -122.2703576,37.56228349999999,0 -122.27036039999999,37.5622872,0 -122.27150939999999,37.562941099999996,0 -122.27201249999999,37.56241849999999,0 -122.2721375,37.562303899999996,0 -122.2725221,37.56198049999999,0 -122.2730797,37.562512899999994,0 -122.27314039999999,37.562585299999995,0 -122.2731804,37.562642999999994,0 -122.27323009999999,37.5627332,0 -122.27327179999999,37.5628349,0 -122.27328299999998,37.562875500000004,0 -122.27329859999998,37.5629637,0 -122.27330499999997,37.563085900000004,0 -122.27329699999996,37.5632007,0 -122.27327789999997,37.563292100000005,0 -122.27322139999995,37.563444800000006,0 -122.27317389999996,37.56353020000001,0 -122.27313919999997,37.56358190000001,0 -122.27310669999999,37.563621100000006,0 -122.27250379999998,37.56421360000001,0 -122.2723896,37.56431350000001,0 -122.2723848,37.564320400000014,0 -122.2723826,37.564326500000014,0 -122.272368,37.564467700000016,0 -122.26922040000001,37.56731700000001,0 -122.26913140000002,37.56738590000001,0 -122.26817070000003,37.568269100000016,0 -122.26808200000002,37.568358900000014,0 -122.24506950000004,37.589365700000016,0 -122.24493910000004,37.58947650000001,0 -122.24458720000004,37.589751600000014,0 -122.24403820000003,37.59012750000001,0 -122.24355310000003,37.59040090000001,0 -122.24314030000002,37.590606500000014,0 -122.24299530000003,37.59067180000002,0 -122.24250640000004,37.590870600000024,0 -122.24212700000004,37.59100140000002,0 -122.22001830000005,37.59759760000002,0 -122.21959940000004,37.597734700000025,0 -122.17480710000004,37.61104300000002,0 -122.17466990000003,37.61107810000003,0 -122.15556860000002,37.61674900000003,0 -122.15480700000003,37.616947600000024,0 -122.15300480000003,37.617361100000025,0 -122.15242060000006,37.61751840000002,0 -122.15144450000005,37.61782460000002,0 -122.14985820000005,37.61841490000002,0 -122.14810310000006,37.619022800000025,0 -122.12134580000007,37.62801040000002,0 -122.12079420000006,37.62817640000002,0 -122.11285300000007,37.63084190000002,0 -122.11242780000008,37.631000200000024,0 -122.11194810000008,37.631201000000026,0 -122.11167360000007,37.63132830000002,0 -122.10951720000008,37.632437000000024,0 -122.1088516000001,37.632744800000026,0 -122.10812520000007,37.63305280000003,0 -122.10480320000006,37.63437890000003,0 -122.10448320000008,37.634497000000025,0 -122.10439810000007,37.63453340000003,0 -122.10423260000007,37.63462160000003,0 -122.10405530000006,37.63461400000003,0 -122.10291080000005,37.634961500000024,0 -122.10260180000004,37.63506570000003,0 -122.10031110000004,37.635929000000026,0 -122.10005100000004,37.63604680000003,0 -122.09972990000004,37.636205500000024,0 -122.09949490000005,37.63633150000003,0 -122.09903890000005,37.63661280000003,0 -122.09869230000005,37.63685950000002,0 -122.09843790000005,37.637064800000026,0 -122.09806460000006,37.637405200000025,0 -122.09794630000005,37.63752560000003,0 -122.09761680000005,37.63789980000003,0 -122.09731260000005,37.638306900000025,0 -122.09713520000005,37.63859410000002,0 -122.09635070000004,37.640019000000024,0 -122.09529620000004,37.641733100000025,0 -122.09512580000003,37.641953200000025,0 -122.09502330000002,37.642064600000026,0 -122.09482390000004,37.64225160000002,0 -122.09470220000003,37.642352200000026,0 -122.09457800000003,37.64244370000003,0 -122.09396600000002,37.64285700000003,0 -122.09382610000003,37.642960800000026,0 -122.09370720000004,37.64306190000003,0 -122.09360380000004,37.64316350000003,0 -122.09351160000004,37.64326870000002,0 -122.09342810000003,37.64337570000002,0 -122.09334310000003,37.64350080000003,0 -122.09324950000003,37.643673900000024,0 -122.09319350000003,37.643803500000026,0 -122.09315170000004,37.643929300000025,0 -122.09311950000004,37.64405670000002,0 -122.09309130000004,37.64425300000002,0 -122.09308510000005,37.64437700000002,0 -122.09309840000004,37.64458610000002,0 -122.09313220000006,37.64477250000002,0 -122.09318290000006,37.64494080000002,0 -122.09323160000005,37.64506410000003,0 -122.09331460000006,37.64522520000003,0 -122.09350100000005,37.64549350000002,0 -122.09357520000005,37.64557860000003,0 -122.09370610000006,37.64570930000003,0 -122.09436440000006,37.64629140000003,0 -122.09487020000006,37.646719700000034,0 -122.09502490000007,37.64689750000004,0 -122.09535990000006,37.647310800000035,0 -122.09537760000006,37.64732820000003,0 -122.09541570000006,37.647356300000034,0 -122.09543710000005,37.64736640000003,0 -122.09554240000006,37.64739970000004,0 -122.09657710000006,37.64883770000004,0 -122.09714560000006,37.64967260000004,0 -122.09773790000006,37.650591100000035,0 -122.10267570000003,37.658566500000035,0 -122.10299600000005,37.65904620000004,0 -122.10703150000005,37.66560400000004,0 -122.10706220000004,37.665668300000036,0 -122.10832540000004,37.66772140000003,0 -122.10890390000006,37.668618900000034,0 -122.10933480000006,37.669352900000035,0 -122.11007610000006,37.67054170000004,0 -122.11025670000006,37.67080570000004,0 -122.11065440000007,37.67134020000004,0 -122.11091710000008,37.67165300000004,0 -122.11128230000006,37.67205880000004,0 -122.11178250000005,37.67255880000004,0 -122.11219320000005,37.672930000000036,0 -122.11262030000006,37.67328190000004,0 -122.11308000000005,37.67362720000004,0 -122.11427190000006,37.67445470000004,0 -122.11472430000006,37.67478420000004,0 -122.11680500000006,37.676364200000044,0 -122.11744640000006,37.67681570000004,0 -122.11802470000005,37.67719290000004,0 -122.11978120000006,37.67827730000004,0 -122.12040250000007,37.67868430000004,0 -122.12328620000008,37.680677500000044,0 -122.12355280000007,37.68087430000004,0 -122.12784370000007,37.683840400000044,0 -122.13013950000007,37.685378700000044,0 -122.13050830000006,37.685639700000046,0 -122.13052020000005,37.68578550000005,0 -122.13052190000005,37.68578900000005,0 -122.13216380000004,37.68709120000005,0 -122.13289730000007,37.68765120000005,0 -122.13299620000008,37.68771810000005,0 -122.13335450000008,37.687988400000044,0 -122.13351680000008,37.68812680000005,0 -122.13360960000007,37.68822160000005,0 -122.13367950000007,37.68831060000005,0 -122.13376920000007,37.68845110000005,0 -122.13384630000007,37.68861950000005,0 -122.13387020000006,37.68868380000005,0 -122.13390500000006,37.68881820000005,0 -122.13392130000007,37.68892600000005,0 -122.13392780000005,37.68904140000005,0 -122.13391960000006,37.689171200000054,0 -122.13389990000005,37.68928730000005,0 -122.13384940000003,37.68946040000005,0 -122.13380690000002,37.689560500000056,0 -122.13372840000004,37.68970110000005,0 -122.13365890000003,37.68980160000005,0 -122.13356320000003,37.68991350000005,0 -122.13345770000002,37.69001560000005,0 -122.13333270000001,37.690115600000055,0 -122.13321150000003,37.69019720000006,0 -122.13307900000002,37.69026980000006,0 -122.13288290000001,37.69035600000006,0 -122.13275720000001,37.69040270000006,0 -122.13255260000001,37.69045450000006,0 -122.13196900000001,37.69054650000006,0 -122.13187180000001,37.69057330000006,0 -122.13179850000002,37.69060370000006,0 -122.1309083,37.690729800000064,0 -122.1303523,37.69077430000006,0 -122.1298513,37.690788400000066,0 -122.12963869999999,37.690788300000065,0 -122.12919,37.690767000000065,0 -122.1291045,37.690775600000066,0 -122.12744339999999,37.690654600000066,0 -122.1265774,37.690578500000065,0 -122.1259668,37.69050840000006,0 -122.12468269999998,37.690336400000064,0 -122.11756139999997,37.68921250000006,0 -122.11461229999998,37.68866150000006,0 -122.11369309999998,37.68853250000006,0 -122.11328359999997,37.68849080000006,0 -122.11289679999997,37.688466600000055,0 -122.11196789999995,37.68843180000005,0 -122.11069159999995,37.68847060000005,0 -122.11024059999995,37.68850100000005,0 -122.09510249999995,37.690180100000056,0 -122.09249719999995,37.690384900000055,0 -122.08989659999997,37.69048400000006,0 -122.08391659999997,37.69052570000006,0 -122.07811509999996,37.690512700000056,0 -122.07654279999996,37.69054440000006,0 -122.07299489999996,37.69057320000006,0 -122.07177859999996,37.69061700000006,0 -122.07069509999997,37.690693200000055,0 -122.06900059999997,37.69088630000005,0 -122.06803429999997,37.691075100000056,0 -122.06786889999997,37.69111860000005,0 -122.06673329999997,37.691359500000054,0 -122.06639509999995,37.69144850000006,0 -122.06622689999996,37.691500700000056,0 -122.05990029999997,37.693266400000056,0 -122.05947719999998,37.69337300000005,0 -122.05925479999998,37.69341780000005,0 -122.05810059999997,37.69354440000005,0 -122.05744199999998,37.69359070000005,0 -122.05701929999998,37.69360460000005,0 -122.05648569999997,37.69359240000005,0 -122.05595389999998,37.69356190000005,0 -122.05322539999999,37.69326630000005,0 -122.05285759999998,37.693241900000054,0 -122.05236929999998,37.693225500000054,0 -122.05177999999998,37.69322790000005,0 -122.05115079999999,37.693255900000054,0 -122.05046289999999,37.69332770000006,0 -122.05012319999999,37.69337370000005,0 -122.04934919999998,37.693513200000055,0 -122.04902009999998,37.69358900000005,0 -122.04840219999998,37.69375250000005,0 -122.04780349999997,37.69394840000005,0 -122.04718979999998,37.69418100000005,0 -122.04669119999998,37.69440110000006,0 -122.04635569999999,37.69456790000006,0 -122.04593779999999,37.69479370000006,0 -122.045703,37.69492980000006,0 -122.0451898,37.69525430000006,0 -122.0448454,37.695497900000056,0 -122.0436614,37.69651000000006,0 -122.04106320000001,37.69893440000006,0 -122.04049800000003,37.69943380000006,0 -122.03999400000002,37.69982780000006,0 -122.03975190000003,37.699997300000064,0 -122.03912340000002,37.70040130000006,0 -122.03845200000004,37.70076370000006,0 -122.03817580000003,37.70089600000006,0 -122.03745760000002,37.701190800000056,0 -122.03691710000001,37.701382500000065,0 -122.03632810000002,37.70155410000007,0 -122.03585170000004,37.70167410000006,0 -122.03520350000005,37.70180600000006,0 -122.03495420000003,37.701846500000066,0 -122.03380320000004,37.70196480000007,0 -122.03317630000005,37.70199200000007,0 -122.03285240000004,37.70198950000007,0 -122.03227710000003,37.701968000000065,0 -122.03180750000003,37.70192970000007,0 -122.03124010000003,37.70186330000007,0 -122.03072540000002,37.70178240000008,0 -122.03036990000004,37.70171250000008,0 -122.03003420000002,37.70163710000007,0 -122.02774430000002,37.70101030000007,0 -122.02748980000003,37.70095060000007,0 -122.0269267,37.70084540000007,0 -122.02624890000003,37.70074990000007,0 -122.02584050000002,37.70070950000007,0 -122.02519600000002,37.70067050000007,0 -122.02486790000003,37.70066250000007,0 -122.02431880000003,37.70066680000007,0 -122.02375490000003,37.700693900000076,0 -122.02317820000003,37.70074840000007,0 -122.02254330000004,37.70083570000008,0 -122.02209030000003,37.700917600000075,0 -122.02161250000002,37.70102270000008,0 -122.02112110000002,37.70115050000008,0 -122.02059540000002,37.70131230000008,0 -122.02026060000001,37.701428000000085,0 -122.0185593,37.70206600000008,0 -122.01810330000002,37.70221740000008,0 -122.01779400000002,37.702309300000074,0 -122.01720830000002,37.702457000000074,0 -122.01649990000003,37.70259800000007,0 -122.01618280000002,37.70264850000007,0 -122.01555990000003,37.702721500000074,0 -122.01528630000003,37.702742400000076,0 -122.00275960000002,37.70333720000008,0 -122.00149060000003,37.70335980000007,0 -122.00034300000003,37.70332580000007,0 -121.99919250000002,37.70322890000008,0 -121.99837660000003,37.70313490000007,0 -121.99763010000004,37.70302060000007,0 -121.99657040000004,37.70280230000007,0 -121.99576930000002,37.702616200000065,0 -121.99498580000002,37.70239420000007,0 -121.99404480000001,37.70208840000007,0 -121.99326760000002,37.70179850000007,0 -121.99282140000003,37.70161730000007,0 -121.98989180000002,37.700339400000075,0 -121.98942750000003,37.70015730000008,0 -121.98893670000002,37.69998720000007,0 -121.98849650000001,37.69985510000008,0 -121.98787000000002,37.69969570000007,0 -121.98740450000003,37.69959780000007,0 -121.98692900000002,37.69951670000007,0 -121.9865671,37.69946680000007,0 -121.9834618,37.69911930000007,0 -121.9818825,37.69889160000007,0 -121.9733422,37.69742710000007,0 -121.97232919999999,37.697290600000066,0 -121.9710834,37.69716420000007,0 -121.97016579999999,37.69710110000007,0 -121.9692896,37.69706350000007,0 -121.96822759999999,37.69704820000007,0 -121.96736259999999,37.69705720000007,0 -121.966079,37.697108700000065,0 -121.96565619999998,37.69713820000007,0 -121.964254,37.697267300000064,0 -121.96296029999999,37.69743730000007,0 -121.9610075,37.69777340000006,0 -121.9608265,37.69781060000006,0 -121.9589449,37.69813730000006,0 -121.9581031,37.69822230000006,0 -121.95754579999999,37.698260400000066,0 -121.9571333,37.698267700000066,0 -121.93703799999999,37.698110200000066,0 -121.93615039999999,37.69811910000007,0 -121.93563519999998,37.69813610000006,0 -121.93494779999997,37.69817960000007,0 -121.93427989999998,37.69825050000007,0 -121.93380399999998,37.69831290000007,0 -121.93300539999998,37.69845730000007,0 -121.9321681,37.69864160000007,0 -121.92999219999999,37.69916420000008,0 -121.926543,37.69993180000007,0 -121.9231245,37.700731000000076,0 -121.9201575,37.70138440000007,0 -121.9193502,37.70152580000008,0 -121.9182503,37.701663100000076,0 -121.9176854,37.70170340000007,0 -121.9170439,37.701729300000075,0 -121.91253889999999,37.701689300000076,0 -121.90990469999998,37.70160360000008,0 -121.90047219999998,37.701435600000075,0 -121.89477389999998,37.70138840000008,0 -121.89233989999997,37.70140440000007,0 -121.88409589999996,37.70135330000007,0 -121.88342369999995,37.701362700000075,0 -121.88061739999996,37.70135660000007,0 -121.88046699999997,37.701362100000075,0 -121.87940569999998,37.70136590000008,0 -121.87929259999996,37.70137150000008,0 -121.87438109999997,37.70135490000008,0 -121.87017449999996,37.70130270000008,0 -121.86895639999996,37.70130670000008,0 -121.85614699999996,37.70116970000008,0 -121.85600899999994,37.70117290000008,0 -121.85503779999995,37.70116470000008,0 -121.85460899999995,37.70117180000008,0 -121.84793119999996,37.70113950000008,0 -121.84168509999998,37.70106710000008,0 -121.84066079999998,37.701067900000076,0 -121.83957629999998,37.70105050000008,0 -121.83928159999998,37.70105420000008,0 -121.83813779999997,37.70103660000009,0 -121.83735589999998,37.70103740000009,0 -121.83670219999999,37.70102390000008,0 -121.83618279999997,37.70102500000009,0 -121.83506809999999,37.70099310000008,0 -121.8233051,37.70089250000008,0 -121.82204819999998,37.70089970000008,0 -121.81073139999998,37.70080480000008,0 -121.8102846,37.70079290000008,0 -121.80883809999999,37.70079500000008,0 -121.79516989999999,37.70066080000008,0 -121.7944821,37.700619300000085,0 -121.79431199999998,37.70060030000008,0 -121.7939979,37.70055460000009,0 -121.79366179999998,37.700491100000086,0 -121.79213249999998,37.70013690000008,0 -121.78999769999999,37.699683600000085,0 -121.78951259999997,37.699594200000085,0 -121.78881669999997,37.699500000000086,0 -121.78833819999997,37.69945550000009,0 -121.78798599999998,37.69943330000009,0 -121.78790989999999,37.69944300000009,0 -121.7872063,37.69943670000009,0 -121.7864433,37.69947010000009,0 -121.7768829,37.700309500000095,0 -121.77574960000001,37.700449400000096,0 -121.77110430000002,37.7011831000001,0 -121.76422890000002,37.7023234000001,0 -121.76311020000001,37.70249390000009,0 -121.76174209999999,37.702653500000096,0 -121.76090439999999,37.702725200000096,0 -121.7593426,37.702797000000096,0 -121.75830109999998,37.7028064000001,0 -121.75667689999997,37.7027685000001,0 -121.74448359999998,37.702252600000094,0 -121.7434897,37.702233300000096,0 -121.7424222,37.7022706000001,0 -121.74073989999998,37.702437600000096,0 -121.74000989999998,37.702554200000094,0 -121.73920969999998,37.7027166000001,0 -121.73879129999997,37.7028187000001,0 -121.73786559999998,37.7030774000001,0 -121.73708079999997,37.7033335000001,0 -121.73659559999997,37.703510600000094,0 -121.72841239999995,37.706957100000096,0 -121.72832769999995,37.7069784000001,0 -121.72653969999995,37.7077424000001,0 -121.72590629999995,37.7080280000001,0 -121.71958309999994,37.7107045000001,0 -121.71645299999993,37.7119947000001,0 -121.71600499999994,37.7121994000001,0 -121.71275149999994,37.7135717000001,0 -121.70720879999995,37.7159636000001,0 -121.70672939999994,37.7161549000001,0 -121.70619579999993,37.7163426000001,0 -121.70509249999994,37.7166953000001,0 -121.70408849999993,37.716964600000104,0 -121.70366169999994,37.7170633000001,0 -121.68746669999996,37.7204041000001,0 -121.68619079999995,37.7206954000001,0 -121.68281059999994,37.721533800000095,0 -121.68238169999995,37.721617000000094,0 -121.68194569999996,37.721682200000096,0 -121.68141439999995,37.72172810000009,0 -121.68099649999995,37.721746600000095,0 -121.68035299999994,37.7217421000001,0 -121.67993939999994,37.7217116000001,0 -121.67684049999995,37.7213878000001,0 -121.67642489999996,37.7213311000001,0 -121.67619259999995,37.72129030000009,0 -121.67579769999995,37.7212082000001,0 -121.67558939999994,37.7211554000001,0 -121.67520099999994,37.7210435000001,0 -121.67471379999995,37.7208761000001,0 -121.67444039999995,37.7207663000001,0 -121.67399899999995,37.720563900000094,0 -121.67362599999996,37.7203659000001,0 -121.67334509999996,37.7201999000001,0 -121.67208689999995,37.71935230000009,0 -121.67161559999995,37.719065100000094,0 -121.67134999999996,37.71891970000009,0 -121.67098099999995,37.718742300000095,0 -121.67058139999993,37.7185692000001,0 -121.67004189999993,37.718367900000096,0 -121.66976239999993,37.71827880000009,0 -121.66943529999993,37.71818570000009,0 -121.66897209999995,37.71807330000009,0 -121.66855469999993,37.71799300000009,0 -121.66824429999994,37.71794420000009,0 -121.66759979999995,37.71787120000009,0 -121.66710199999996,37.71784130000009,0 -121.66676809999996,37.71783540000009,0 -121.66631899999996,37.717843600000094,0 -121.66577859999997,37.71787970000009,0 -121.66529029999998,37.71793660000009,0 -121.66494379999997,37.71799090000009,0 -121.66428429999998,37.71812370000009,0 -121.65774069999996,37.71996450000009,0 -121.65697179999998,37.720200900000094,0 -121.64695009999998,37.72342990000009,0 -121.6465451,37.72358300000009,0 -121.63721919999998,37.726666000000094,0 -121.63692899999998,37.726770100000095,0 -121.63660019999998,37.7268991000001,0 -121.63628549999997,37.727038800000095,0 -121.63595499999998,37.7272003000001,0 -121.63555289999996,37.7274193000001,0 -121.63513279999997,37.7276929000001,0 -121.63499679999995,37.727793900000094,0 -121.63473779999995,37.7280076000001,0 -121.63433729999996,37.7284083000001,0 -121.63404689999996,37.7287332000001,0 -121.63281969999998,37.7302332000001,0 -121.63260859999998,37.7304700000001,0 -121.63240099999999,37.7306839000001,0 -121.6319484,37.7311169000001,0 -121.63162559999999,37.73140480000011,0 -121.6313778,37.731609200000115,0 -121.6309997,37.731888300000115,0 -121.6307386,37.732067000000114,0 -121.6302157,37.73240350000012,0 -121.62994269999997,37.73256550000011,0 -121.62956209999999,37.73277260000012,0 -121.62920129999998,37.73295020000012,0 -121.62890639999998,37.733078200000115,0 -121.62862369999998,37.73318550000012,0 -121.62829539999998,37.73329570000011,0 -121.6279718,37.73339040000011,0 -121.62764619999999,37.733471000000115,0 -121.62731159999998,37.73353880000011,0 -121.62697999999999,37.73359280000011,0 -121.62664139999998,37.73363410000011,0 -121.62629399999999,37.73366480000011,0 -121.62302609999999,37.73386770000011,0 -121.61425039999999,37.73448350000011,0 -121.61217599999999,37.73465300000011,0 -121.61099809999999,37.73481500000011,0 -121.6091627,37.73516650000011,0 -121.60797480000001,37.73543700000011,0 -121.60719160000002,37.73564060000011,0 -121.6013207,37.73727150000011,0 -121.6001191,37.737562400000115,0 -121.59894369999999,37.737810400000114,0 -121.5892479,37.73964570000011,0 -121.58347,37.740700400000115,0 -121.57922620000001,37.74129890000011,0 -121.57750930000002,37.74147700000012,0 -121.57391300000002,37.74175130000012,0 -121.57381120000002,37.74168940000012,0 -121.57380700000002,37.74168840000012,0 -121.57011840000003,37.74182830000012,0 -121.56941120000003,37.741831500000124,0 -121.56895270000004,37.74181650000012,0 -121.56805280000003,37.741763900000116,0 -121.56730360000003,37.741680500000115,0 -121.56437230000003,37.74127940000012,0 -121.56275520000003,37.74109950000012,0 -121.56208610000002,37.74100480000012,0 -121.56157930000002,37.74090430000011,0 -121.56109120000004,37.74078520000012,0 -121.56077010000004,37.74068900000012,0 -121.56043120000004,37.74057130000011,0 -121.55994050000005,37.74037800000011,0 -121.55939950000005,37.74012410000011,0 -121.55881640000007,37.739801100000115,0 -121.55800970000007,37.73927940000011,0 -121.55761820000006,37.73899860000011,0 -121.55724180000006,37.73871090000011,0 -121.55259260000005,37.73484000000011,0 -121.55118880000005,37.73358430000011,0 -121.55021320000004,37.732677600000116,0 -121.53793060000004,37.721624200000115,0 -121.53762990000004,37.72136730000011,0 -121.53741990000005,37.72117400000011,0 -121.53696470000007,37.72078040000011,0 -121.53627120000006,37.72020920000011,0 -121.53532190000006,37.71947690000011,0 -121.53433790000005,37.718779400000116,0 -121.53354310000006,37.718249800000116,0 -121.53300460000006,37.71790770000011,0 -121.52495920000005,37.71303860000011,0 -121.52491320000006,37.71301510000011,0 -121.52305370000005,37.71188570000011,0 -121.52266290000004,37.71163240000011,0 -121.52108710000005,37.71070130000011,0 -121.48703590000004,37.69009690000011,0 -121.48637150000005,37.689708100000104,0 -121.41666220000003,37.647438400000105,0 -121.41456100000002,37.64618570000011,0 -121.41394410000002,37.645777900000105,0 -121.41360860000003,37.64561940000011,0 -121.41325700000003,37.64539090000011,0 -121.41063970000002,37.643781700000105,0 -121.41013500000003,37.64349190000011,0 -121.37476250000002,37.62201810000011,0 -121.37306030000002,37.62091580000011,0 -121.371396,37.619749000000105,0 -121.3708218,37.61932370000011,0 -121.2785999,37.548295100000104,0 -121.2784871,37.54820000000011,0 -121.2783795,37.548126900000106,0 -121.2626327,37.53598010000011,0 -121.26260839999999,37.535965100000105,0 -121.26036789999999,37.534232200000105,0 -121.2589846,37.53311270000011,0 -121.22594190000001,37.50504130000011,0 -121.22397339999999,37.503470500000105,0 -121.21272850000001,37.495220100000104,0 -121.21223800000001,37.49484180000011,0 -121.21121490000002,37.49399840000011,0 -121.21022620000002,37.49310660000011,0 -121.2044618,37.48743230000011,0 -121.20357419999999,37.48650870000011,0 -121.19894190000001,37.48192210000011,0 -121.1985209,37.48148740000011,0 -121.1811401,37.46421360000011,0 -121.1803629,37.46339820000011,0 -121.17985680000002,37.46282800000011,0 -121.17925870000002,37.46211950000011,0 -121.1782646,37.46081650000011,0 -121.17074960000002,37.45015810000011,0 -121.16891820000001,37.44764120000011,0 -121.16316760000001,37.43990680000012,0 -121.1630119,37.43968490000011,0 -121.16216709999999,37.43840070000011,0 -121.1615832,37.43757770000011,0 -121.16143149999999,37.437346800000114,0 -121.1609009,37.43637770000011,0 -121.16055329999999,37.43563980000011,0 -121.1503943,37.41528060000011,0 -121.1495733,37.413701300000106,0 -121.14910090000001,37.41286660000011,0 -121.14858000000001,37.412006700000106,0 -121.1478322,37.410852600000105,0 -121.13074189999998,37.38631850000011,0 -121.13051239999997,37.38595850000011,0 -121.13008429999996,37.38523770000011,0 -121.12962199999998,37.38437640000011,0 -121.12929329999997,37.38369520000011,0 -121.12899689999998,37.38301570000011,0 -121.12866459999996,37.382139300000105,0 -121.10711759999997,37.31600610000011,0 -121.10667909999997,37.31459440000011,0 -121.10611479999996,37.31256720000011,0 -121.10234419999995,37.297856200000105,0 -121.10228329999997,37.29764890000011,0 -121.10161959999995,37.29499580000011,0 -121.10150839999994,37.29460990000011,0 -121.09865079999993,37.28346030000011,0 -121.09859869999994,37.28332080000011,0 -121.09854229999992,37.283119100000114,0 -121.09790759999993,37.28048100000011,0 -121.09772529999992,37.279838900000115,0 -121.08513589999993,37.230682000000115,0 -121.08498879999993,37.230050300000116,0 -121.07740859999994,37.20043590000011,0 -121.07711519999994,37.19946710000011,0 -121.07653719999995,37.197993500000116,0 -121.07614449999993,37.19708660000011,0 -121.07593189999992,37.19666390000011,0 -121.07562919999991,37.19610370000011,0 -121.07534039999992,37.19560480000011,0 -121.0747654999999,37.19468830000012,0 -121.03107669999989,37.127820700000115,0 -121.0309471999999,37.127608500000115,0 -121.02745179999991,37.12224700000012,0 -121.02722509999992,37.121916800000115,0 -121.02352099999993,37.11623570000012,0 -121.02311839999993,37.115642700000116,0 -121.02237659999992,37.11448680000012,0 -121.02130609999992,37.112919900000115,0 -121.02062219999992,37.11199060000011,0 -121.0200091999999,37.111193000000114,0 -121.01058679999991,37.09962270000011,0 -121.0105419999999,37.099559700000114,0 -121.0060619999999,37.09407550000011,0 -121.0049433999999,37.092783400000116,0 -121.00377409999989,37.09151110000012,0 -120.99370009999987,37.08111210000012,0 -120.99330829999987,37.080723900000116,0 -120.97052129999987,37.057203500000114,0 -120.97030319999988,37.056966600000116,0 -120.96804709999986,37.05464660000012,0 -120.96747049999986,37.054077200000116,0 -120.94291139999986,37.02869840000012,0 -120.94257219999987,37.028368800000116,0 -120.92551699999987,37.01071500000011,0 -120.92533519999985,37.01053790000012,0 -120.92099869999984,37.006067700000116,0 -120.91980989999985,37.00478310000011,0 -120.91708989999985,37.001958600000115,0 -120.91631309999985,37.00110140000012,0 -120.90962389999984,36.993468800000116,0 -120.90882539999986,36.99259330000012,0 -120.88987879999986,36.97092480000011,0 -120.88906679999987,36.970079900000115,0 -120.88844529999986,36.96948220000012,0 -120.88763909999986,36.96875160000012,0 -120.88724119999986,36.968411100000125,0 -120.84259139999988,36.931848100000124,0 -120.84100369999987,36.93050140000012,0 -120.83957139999987,36.92922620000012,0 -120.83816829999986,36.927927500000116,0 -120.83257069999986,36.92239090000012,0 -120.82857159999985,36.91849590000012,0 -120.82610239999985,36.91617450000012,0 -120.81984319999985,36.910516500000114,0 -120.81931079999984,36.91000260000012,0 -120.81869119999985,36.90937470000012,0 -120.81762199999984,36.90822120000012,0 -120.80171419999985,36.889956200000114,0 -120.80126319999984,36.889412200000116,0 -120.80037539999984,36.88828560000012,0 -120.79952759999983,36.88713050000012,0 -120.77083129999984,36.84545290000012,0 -120.76911349999983,36.84300230000012,0 -120.72935259999984,36.785181100000116,0 -120.72751929999986,36.782465000000116,0 -120.71518529999986,36.76457540000012,0 -120.71459249999985,36.76367060000012,0 -120.69816499999985,36.739714800000115,0 -120.69791529999983,36.73937280000012,0 -120.68375069999985,36.718741000000115,0 -120.68264989999984,36.71724750000011,0 -120.68143699999986,36.71568310000011,0 -120.68052069999985,36.714425900000116,0 -120.64285899999986,36.66532880000012,0 -120.63977949999986,36.66138040000012,0 -120.61192579999987,36.62504000000012,0 -120.61158889999984,36.62463390000012,0 -120.61115929999984,36.62414400000012,0 -120.61046449999985,36.62340850000012,0 -120.60984159999984,36.62280160000012,0 -120.60948879999985,36.62247580000012,0 -120.60875149999984,36.62183940000012,0 -120.60828369999984,36.621457700000114,0 -120.58946259999985,36.60725350000011,0 -120.58944479999985,36.60723710000011,0 -120.55092899999984,36.57817150000011,0 -120.55091859999983,36.57816570000011,0 -120.47594269999983,36.521481400000106,0 -120.47506429999983,36.52077930000011,0 -120.47397349999983,36.51983730000011,0 -120.47329649999983,36.51920110000012,0 -120.44971379999983,36.49582760000011,0 -120.44898539999983,36.495081900000116,0 -120.44812959999983,36.494172900000116,0 -120.44692059999983,36.49282770000011,0 -120.43775239999985,36.482258700000116,0 -120.43429809999984,36.478440300000116,0 -120.40797869999984,36.45088530000012,0 -120.38200289999985,36.421897100000116,0 -120.38124889999985,36.421026400000116,0 -120.37692499999984,36.41623740000012,0 -120.37268389999984,36.41145720000012,0 -120.37199839999984,36.41071980000012,0 -120.35454659999984,36.39121810000012,0 -120.35340999999984,36.38991100000012,0 -120.35085989999983,36.38710280000012,0 -120.29970729999982,36.32984350000012,0 -120.29829459999983,36.32822530000012,0 -120.28408329999982,36.311230100000124,0 -120.28272459999981,36.309675400000124,0 -120.27376219999981,36.299878500000126,0 -120.2728793999998,36.29886400000013,0 -120.2719293999998,36.297824500000125,0 -120.2713353999998,36.297113100000125,0 -120.27103789999981,36.296733700000125,0 -120.27062839999981,36.296181000000125,0 -120.27012669999979,36.29544680000013,0 -120.20432559999979,36.19104890000013,0 -120.2030867999998,36.18903110000013,0 -120.1974507999998,36.18009900000013,0 -120.19695399999979,36.17936670000013,0 -120.19637079999978,36.17858560000013,0 -120.19580709999978,36.17789180000013,0 -120.19150179999978,36.173200400000134,0 -120.18971059999978,36.17118870000014,0 -120.13933159999979,36.11610140000014,0 -120.13801309999978,36.114627700000135,0 -120.13583669999979,36.11229620000014,0 -120.1072798999998,36.08101570000014,0 -120.10648709999978,36.080180100000135,0 -120.10607409999977,36.079773400000136,0 -120.10518099999979,36.07895130000014,0 -120.10454669999977,36.07841940000014,0 -120.10408509999978,36.07805190000014,0 -120.10348579999977,36.07759760000014,0 -120.10268619999978,36.07703950000014,0 -120.10229449999979,36.07678030000014,0 -120.10137789999979,36.07620280000014,0 -120.07296029999978,36.05905680000014,0 -120.07072719999978,36.05773720000014,0 -120.05356329999977,36.04738800000014,0 -120.05239619999976,36.04670750000014,0 -120.05066149999976,36.04572990000014,0 -120.02452689999977,36.03135780000014,0 -120.02374909999978,36.030905800000134,0 -120.02245419999977,36.03011510000014,0 -119.99558389999976,36.012836100000136,0 -119.99472949999975,36.012255400000136,0 -119.98847109999974,36.008240500000134,0 -119.98760109999974,36.00764390000013,0 -119.98675969999974,36.00700890000013,0 -119.98607899999973,36.006454200000135,0 -119.98528699999973,36.00575830000013,0 -119.98489629999973,36.00539170000013,0 -119.96070329999974,35.981802900000126,0 -119.96052859999973,35.981619200000125,0 -119.89425719999973,35.916921200000125,0 -119.89420809999974,35.91687820000013,0 -119.86624439999974,35.88952470000013,0 -119.86412039999975,35.88736320000014,0 -119.86264809999973,35.88581290000013,0 -119.86257309999974,35.88574360000013,0 -119.86243959999973,35.885591800000135,0 -119.83214659999972,35.85361850000013,0 -119.83207689999972,35.853537900000134,0 -119.83029689999972,35.851647700000136,0 -119.82925949999974,35.850468700000135,0 -119.82450849999972,35.84466600000013,0 -119.82432279999972,35.844420600000134,0 -119.82257269999972,35.84230820000013,0 -119.82225959999974,35.84190430000013,0 -119.81689999999973,35.83532960000013,0 -119.81341209999972,35.83085500000013,0 -119.81064949999974,35.82716680000013,0 -119.81007879999973,35.82635560000013,0 -119.78479469999974,35.79256220000013,0 -119.78438289999973,35.79204860000013,0 -119.78414449999974,35.79177430000013,0 -119.78348329999974,35.791064400000124,0 -119.78294339999975,35.79044080000013,0 -119.78256069999975,35.78995050000013,0 -119.77963209999974,35.78599560000013,0 -119.77910559999974,35.78531970000013,0 -119.77578009999972,35.780774600000136,0 -119.77480439999972,35.779507500000136,0 -119.77317449999973,35.777322200000135,0 -119.77242649999971,35.776286000000134,0 -119.7720430999997,35.77578610000013,0 -119.77139189999971,35.774860000000125,0 -119.7704579999997,35.773658700000134,0 -119.76999339999972,35.77300240000013,0 -119.76680759999971,35.768719200000135,0 -119.7657506999997,35.76725590000013,0 -119.76483719999969,35.766101800000136,0 -119.7622769999997,35.76257610000013,0 -119.76120399999971,35.76118390000014,0 -119.76015929999971,35.75971820000014,0 -119.75760289999971,35.75632030000014,0 -119.75702229999972,35.755356800000136,0 -119.75659489999973,35.75479750000014,0 -119.75654639999972,35.75472150000014,0 -119.75555379999973,35.753360600000136,0 -119.75404809999972,35.75137030000013,0 -119.75374979999972,35.750955200000135,0 -119.75312459999972,35.750148300000134,0 -119.75296489999972,35.74992110000014,0 -119.75242599999973,35.74922020000013,0 -119.75012729999973,35.74612600000014,0 -119.74997219999973,35.745899500000135,0 -119.74697679999974,35.741890900000136,0 -119.74689339999975,35.74176570000014,0 -119.73953919999975,35.73190290000013,0 -119.73945379999977,35.73180000000013,0 -119.73938359999977,35.731701000000136,0 -119.73906739999977,35.73129700000013,0 -119.73871799999978,35.73081170000013,0 -119.73871059999978,35.73079570000013,0 -119.73718909999978,35.72876850000013,0 -119.73698189999978,35.72846370000013,0 -119.7368417999998,35.72829430000013,0 -119.73646799999977,35.72778790000013,0 -119.73640439999977,35.72769060000012,0 -119.73401269999978,35.72447950000013,0 -119.73394739999978,35.724380800000134,0 -119.73353959999979,35.723825100000134,0 -119.73325549999979,35.723464600000135,0 -119.6886119999998,35.66350990000013,0 -119.68602519999979,35.65997190000013,0 -119.65703479999979,35.62103650000013,0 -119.65699859999978,35.62098130000013,0 -119.64684039999977,35.607303900000126,0 -119.64587289999977,35.606109800000134,0 -119.64534279999977,35.60549220000013,0 -119.64450839999976,35.604573200000125,0 -119.61333129999977,35.57204300000013,0 -119.61212989999976,35.570831600000126,0 -119.61037309999976,35.56915410000013,0 -119.58202049999974,35.54313140000013,0 -119.58197679999975,35.54308670000013,0 -119.53855219999973,35.503179800000126,0 -119.53822619999974,35.50290080000013,0 -119.53792279999975,35.502608100000124,0 -119.53060989999976,35.49589880000012,0 -119.52936499999977,35.49484830000012,0 -119.52821179999978,35.49394590000012,0 -119.51042329999979,35.48102160000012,0 -119.51016929999977,35.480846200000116,0 -119.47757959999977,35.45718670000012,0 -119.47757519999976,35.45714460000012,0 -119.47756969999976,35.457130900000124,0 -119.47755899999976,35.457114600000125,0 -119.47753459999976,35.45708600000012,0 -119.47645309999976,35.45616040000012,0 -119.47631749999975,35.45602520000012,0 -119.47607939999975,35.45572320000012,0 -119.47595039999975,35.455510600000125,0 -119.47585459999975,35.45531570000013,0 -119.47577469999976,35.45511070000012,0 -119.47573339999975,35.45502020000012,0 -119.47547249999977,35.45432960000012,0 -119.47520139999976,35.453663500000125,0 -119.47513699999978,35.45364260000012,0 -119.47505689999977,35.453633000000124,0 -119.47503119999976,35.45363460000012,0 -119.47496619999976,35.45364710000012,0 -119.47493549999976,35.45365720000012,0 -119.47484209999975,35.45369910000012,0 -119.47473859999977,35.453732200000125,0 -119.47461779999976,35.45373780000013,0 -119.47362649999977,35.45374150000013,0 -119.47346609999978,35.45372650000012,0 -119.47336179999978,35.45371060000012,0 -119.47328389999979,35.45369170000012,0 -119.47311919999979,35.45363840000012,0 -119.4729411999998,35.45355360000013,0 -119.4727350999998,35.45342160000013,0 -119.46298289999979,35.44634800000012,0 -119.4620841999998,35.44563840000013,0 -119.46074329999978,35.44469490000012,0 -119.45919039999977,35.44353420000012,0 -119.45904429999977,35.44338680000013,0 -119.45887699999979,35.44317770000013,0 -119.45881199999978,35.44299240000013,0 -119.45879579999978,35.44284890000012,0 -119.45880839999978,35.44255200000013,0 -119.45886449999978,35.44231880000012,0 -119.45823099999977,35.442289700000124,0 -119.45555159999978,35.44228520000013,0 -119.45379389999977,35.44234800000012,0 -119.25183509999977,35.441671400000125,0 -119.20758339999976,35.44163700000013,0 -119.20574549999976,35.44160710000013,0 -119.20505999999978,35.44155400000013,0 -119.20492269999977,35.44149360000013,0 -119.20478189999976,35.44147730000013,0 -119.20394969999977,35.44132700000013,0 -119.20272849999978,35.44114560000013,0 -119.20217909999977,35.441085300000125,0 -119.20186039999977,35.441065800000125,0 -119.20149849999977,35.44106120000012,0 -119.20112729999975,35.44106860000012,0 -119.20091009999977,35.441081000000125,0 -119.20063519999978,35.441107200000125,0 -119.20026269999977,35.44115730000013,0 -119.19984609999976,35.44123020000012,0 -119.19833389999977,35.441572900000125,0 -119.19783449999976,35.44165180000013,0 -119.19750949999977,35.44168780000013,0 -119.19717149999978,35.44171080000013,0 -119.19608749999978,35.44171670000013,0 -119.19244959999976,35.441612700000135,0 -119.17530949999976,35.44157950000014,0 -119.17379139999976,35.44156010000013,0 -119.15747739999975,35.44153760000013,0 -119.15435189999975,35.44151090000013,0 -119.15406049999974,35.44151820000013,0 -119.13663099999975,35.441484500000136,0 -119.13637999999975,35.441491100000135,0 -119.12208189999976,35.44147540000014,0 -119.12051509999976,35.441455100000134,0 -119.11367019999977,35.441456300000134,0 -119.11316699999978,35.44143830000013,0 -119.11196339999977,35.441340200000134,0 -119.10992999999976,35.44129820000013,0 -119.10771579999977,35.441291500000126,0 -119.10682679999977,35.44130180000013,0 -119.10224339999978,35.441290900000126,0 -119.10199719999977,35.44130180000013,0 -119.10189209999976,35.44131360000013,0 -119.10172409999976,35.44135620000013,0 -119.10029379999976,35.44135200000013,0 -119.10013029999976,35.441295400000136,0 -119.10003699999976,35.44128580000014,0 -119.09482239999977,35.44127840000014,0 -119.09356709999977,35.44125000000014,0 -119.09256399999978,35.44125000000014,0 -119.09191139999979,35.44122070000014,0 -119.09065979999978,35.44108510000014,0 -119.08981939999978,35.44101250000014,0 -119.08918749999977,35.44094550000014,0 -119.08872869999976,35.440920300000144,0 -119.08849019999977,35.44091720000014,0 -119.08830769999977,35.44092200000014,0 -119.08779559999977,35.44096620000014,0 -119.08658879999977,35.44113860000014,0 -119.08627669999976,35.44119560000014,0 -119.08585959999976,35.441258200000135,0 -119.08554009999976,35.44129310000014,0 -119.08521109999975,35.441313100000144,0 -119.08488109999975,35.44132120000014,0 -119.08189089999973,35.44131950000014,0 -119.08172339999976,35.44128470000013,0 -119.08172439999976,35.44181010000013,0 -119.08174479999975,35.44200280000013,0 -119.08177869999976,35.44213480000013,0 -119.08182689999977,35.44225270000013,0 -119.08169489999977,35.44228730000013,0 -119.08161499999979,35.442345900000134,0 -119.0816204999998,35.44240630000014,0 -119.0815901999998,35.442462600000134,0 -119.08160119999978,35.44262930000013,0 -119.08151689999978,35.44272370000013,0 </coordinates></LineString><TimeSpan><begin>2020-09-05T02:32:56.427Z</begin><end>2020-09-05T06:38:57.358Z</end></TimeSpan></Placemark><Placemark><name>Holiday Inn Express &amp; Suites Bakersfield Airport, an IHG Hotel</name><address>19480 Quinn Rd, Bakersfield, CA 93308</address><ExtendedData><Data name="Email"><value>syugen.zhou@gmail.com</value></Data><Data name="Category"><value>Hotel</value></Data><Data name="Distance"><value>0</value></Data></ExtendedData><description> Hotel from 2020-09-05T06:38:57.358Z to 2020-09-05T17:01:02.998Z. Distance 0m </description><Point><coordinates>-119.08171979999999,35.442972,0</coordinates></Point><TimeSpan><begin>2020-09-05T06:38:57.358Z</begin><end>2020-09-05T17:01:02.998Z</end></TimeSpan></Placemark></Document></kml>
