<?xml version="1.0" encoding="UTF-8"?><kml xmlns="http://www.opengis.net/kml/2.2" xmlns:gx="http://www.google.com/kml/ext/2.2"><Document><name> Location history from 2020-09-05 to 2020-09-05 </name><open>1</open><description></description><StyleMap id="multiTrack"><Pair><key>normal</key><styleUrl>#multiTrack_n</styleUrl></Pair><Pair><key>highlight</key><styleUrl>#multiTrack_h</styleUrl></Pair></StyleMap><Style id="multiTrack_n"><IconStyle><Icon><href>https://earth.google.com/images/kml-icons/track-directional/track-0.png</href></Icon></IconStyle><LineStyle><color>99ffac59</color><width>6</width></LineStyle></Style><Style id="multiTrack_h"><IconStyle><scale>1.2</scale><Icon><href>https://earth.google.com/images/kml-icons/track-directional/track-0.png</href></Icon></IconStyle><LineStyle><color>99ffac59</color><width>8</width></LineStyle></Style><Placemark><name>Holiday Inn Express &amp; Suites Bakersfield Airport, an IHG Hotel</name><address>19480 Quinn Rd, Bakersfield, CA 93308</address><ExtendedData><Data name="Email"><value>syugen.zhou@gmail.com</value></Data><Data name="Category"><value>Hotel</value></Data><Data name="Distance"><value>0</value></Data></ExtendedData><description> Hotel from 2020-09-05T06:38:57.358Z to 2020-09-05T17:01:02.998Z. Distance 0m </description><Point><coordinates>-119.08171979999999,35.442972,0</coordinates></Point><TimeSpan><begin>2020-09-05T06:38:57.358Z</begin><end>2020-09-05T17:01:02.998Z</end></TimeSpan></Placemark><Placemark><name>Driving</name><address></address><ExtendedData><Data name="Email"><value>syugen.zhou@gmail.com</value></Data><Data name="Category"><value>Driving</value></Data><Data name="Distance"><value>14373</value></Data></ExtendedData><description> Driving from 2020-09-05T17:01:02.998Z to 2020-09-05T17:12:53.000Z. Distance 14373m </description><LineString><altitudeMode>clampToGround</altitudeMode><extrude>1</extrude><tesselate>1</tesselate><coordinates>-119.0823064,35.4431617,0 -119.0826654,35.4429826,0 -119.08226649999999,35.442626100000005,0 -119.08214079999999,35.4424744,0 -119.08205019999998,35.4423284,0 -119.0819384,35.4420391,0 -119.0819181,35.4419501,0 -119.08189089999999,35.441319500000006,0 -119.0817234,35.441284700000004,0 -119.07974240000001,35.4413147,0 -119.07479780000001,35.4412738,0 -119.0748291,35.439835800000004,0 -119.07487970000001,35.4391266,0 -119.07488230000001,35.4380626,0 -119.07491280000002,35.4375792,0 -119.07496870000001,35.4372567,0 -119.0751006,35.436794199999994,0 -119.07595949999998,35.43505509999999,0 -119.07605779999999,35.4345496,0 -119.07605219999998,35.434115799999994,0 -119.07601189999998,35.433877499999994,0 -119.07592829999997,35.43358039999999,0 -119.07569789999997,35.433119399999995,0 -119.07549749999997,35.4328351,0 -119.07522629999997,35.4325387,0 -119.07497719999998,35.4323219,0 -119.07470619999998,35.432132599999996,0 -119.07318309999998,35.4312456,0 -119.07299519999998,35.4311061,0 -119.07271679999998,35.4308604,0 -119.07214059999997,35.4302882,0 -119.07200629999998,35.4301772,0 -119.07184279999998,35.430127899999995,0 -119.07098919999999,35.4293218,0 -119.0702204,35.4286836,0 -119.06955359999999,35.428195599999995,0 -119.06837660000001,35.42745239999999,0 -119.0675077,35.4269835,0 -119.0649232,35.425812799999996,0 -119.0640916,35.4253387,0 -119.0636396,35.425021799999996,0 -119.06329539999999,35.42474789999999,0 -119.0628158,35.424301299999996,0 -119.0624522,35.423899199999994,0 -119.0619911,35.4232908,0 -119.06181440000002,35.4230168,0 -119.0614999,35.4224192,0 -119.0613189,35.4219782,0 -119.06038869999999,35.4185628,0 -119.06014629999999,35.41789599999999,0 -119.05995079999998,35.41744469999999,0 -119.0596073,35.41679599999999,0 -119.05911519999998,35.41606619999998,0 -119.05862879999998,35.41547809999999,0 -119.05818089999998,35.41501809999998,0 -119.05056569999998,35.408287499999986,0 -119.04744759999997,35.40543189999998,0 -119.04708399999997,35.405049799999986,0 -119.04663179999997,35.40450949999999,0 -119.04632629999998,35.40408999999999,0 -119.04575789999997,35.40312649999999,0 -119.04563049999996,35.402852999999986,0 -119.04534519999996,35.40210739999999,0 -119.04513099999996,35.40132089999999,0 -119.04499599999995,35.40039969999999,0 -119.04473159999996,35.39256639999999,0 -119.04452479999996,35.376089099999994,0 -119.04439679999996,35.37483319999999,0 -119.04428299999996,35.37422139999999,0 -119.04404269999996,35.37328359999999,0 -119.04371539999997,35.372350899999994,0 -119.04043509999997,35.36484589999999,0 -119.04021449999998,35.36426439999999,0 -119.03985699999997,35.36300109999999,0 -119.03967559999998,35.36198879999999,0 -119.03958619999996,35.36111969999999,0 -119.03964349999995,35.34862069999999,0 -119.03967629999995,35.348472599999994,0 -119.03974839999997,35.33199599999999,0 -119.03971589999998,35.33133459999999,0 -119.03956299999997,35.33017849999999,0 -119.03944109999998,35.32959449999999,0 -119.03724119999998,35.32116919999999,0 -119.03733499999997,35.321078199999995,0 -119.03713779999995,35.319773299999994,0 -119.03713259999996,35.3196225,0 -119.03717359999997,35.3193547,0 -119.0372585,35.3190999,0 -119.0376842,35.3183906,0 -119.03774320000001,35.318231,0 -119.0377965,35.3177645,0 -119.0388802,35.3177694,0 -119.03888889999999,35.318542300000004,0 -119.03891379999999,35.3186184,0 -119.03897839999999,35.3187311,0 -119.038969,35.3247541,0 -119.0388969,35.32483,0 -119.03888409999999,35.3249434,0 -119.03928119999998,35.3249472,0 -119.03928429999999,35.325194499999995,0 </coordinates></LineString><TimeSpan><begin>2020-09-05T17:01:02.998Z</begin><end>2020-09-05T17:12:53.000Z</end></TimeSpan></Placemark><Placemark><name>Bakersfield</name><address>California</address><ExtendedData><Data name="Email"><value>syugen.zhou@gmail.com</value></Data><Data name="Category"><value></value></Data><Data name="Distance"><value>0</value></Data></ExtendedData><description>  from 2020-09-05T17:12:53.000Z to 2020-09-05T17:17:47.001Z. Distance 0m </description><Point><coordinates>-119.01871249999999,35.3732921,0</coordinates></Point><TimeSpan><begin>2020-09-05T17:12:53.000Z</begin><end>2020-09-05T17:17:47.001Z</end></TimeSpan></Placemark><Placemark><name>Driving</name><address></address><ExtendedData><Data name="Email"><value>syugen.zhou@gmail.com</value></Data><Data name="Category"><value>Driving</value></Data><Data name="Distance"><value>174664</value></Data></ExtendedData><description> Driving from 2020-09-05T17:17:47.001Z to 2020-09-05T18:58:08.000Z. Distance 174664m </description><LineString><altitudeMode>clampToGround</altitudeMode><extrude>1</extrude><tesselate>1</tesselate><coordinates>-119.03928429999999,35.325194499999995,0 -119.03903509999999,35.325190899999996,0 -119.03902670000001,35.3248338,0 -119.038969,35.3247541,0 -119.03897839999999,35.3187311,0 -119.0390634,35.3186614,0 -119.03905999999999,35.317632200000006,0 -119.03888389999999,35.31760280000001,0 -119.03549669999998,35.317614600000006,0 -119.0354089,35.31755510000001,0 -119.03504919999999,35.317431500000005,0 -119.0349079,35.317320300000006,0 -119.0348535,35.317208400000005,0 -119.0348418,35.317098400000006,0 -119.03487249999999,35.316991400000006,0 -119.0349348,35.3168986,0 -119.0350177,35.316830800000005,0 -119.03516090000001,35.3167661,0 -119.03531960000001,35.3167555,0 -119.03544570000001,35.3167766,0 -119.0355775,35.3168374,0 -119.0356879,35.316947899999995,0 -119.03590530000001,35.317452499999995,0 -119.03604490000001,35.31752069999999,0 -119.03929930000002,35.330029399999994,0 -119.03950120000003,35.331596999999995,0 -119.03943860000003,35.346827499999996,0 -119.03937700000003,35.34689829999999,0 -119.03917160000005,35.349955599999994,0 -119.03889870000006,35.3507064,0 -119.03868830000005,35.3510103,0 -119.03837010000004,35.3513521,0 -119.03802630000006,35.35159590000001,0 -119.03763010000004,35.35180210000001,0 -119.03731880000004,35.3519093,0 -119.03695420000004,35.35198330000001,0 -119.03124040000003,35.3524315,0 -118.97511890000004,35.35230920000001,0 -118.96842850000003,35.35283420000001,0 -118.96570020000004,35.35289510000001,0 -118.95039210000006,35.35209890000001,0 -118.91428560000004,35.35214230000001,0 -118.89922370000005,35.351041300000006,0 -118.89712380000005,35.35062060000001,0 -118.88062220000005,35.34583480000001,0 -118.87954270000004,35.345593500000014,0 -118.86261040000004,35.34286080000002,0 -118.80607960000005,35.32922590000002,0 -118.80384830000003,35.328468100000016,0 -118.80263870000002,35.32789590000002,0 -118.80116930000003,35.32705540000001,0 -118.79977630000002,35.326088700000014,0 -118.76935460000001,35.29981650000002,0 -118.76783460000001,35.298752700000016,0 -118.76639580000003,35.29795340000002,0 -118.73435610000001,35.28505500000002,0 -118.7331181,35.284461800000024,0 -118.7253185,35.27997320000002,0 -118.7237723,35.279277200000024,0 -118.72185229999998,35.27863360000003,0 -118.72031649999998,35.27827570000003,0 -118.71572409999997,35.27756230000003,0 -118.71344639999997,35.27691200000003,0 -118.71173599999996,35.27620640000003,0 -118.69975229999997,35.26925630000003,0 -118.69884539999997,35.26885790000003,0 -118.69750489999998,35.26846130000003,0 -118.69643929999998,35.26828260000003,0 -118.69547749999998,35.26822730000003,0 -118.69436909999999,35.268269700000026,0 -118.69311309999999,35.26846690000002,0 -118.6888656,35.26974430000003,0 -118.68767050000001,35.26994390000002,0 -118.68576890000001,35.27006650000002,0 -118.68016970000001,35.26979010000002,0 -118.67822520000003,35.26952220000002,0 -118.6768571,35.26920700000002,0 -118.66092750000001,35.26455740000002,0 -118.65840070000002,35.26417230000002,0 -118.64659340000003,35.26372070000002,0 -118.64538810000003,35.26359550000002,0 -118.64188110000003,35.26283050000002,0 -118.64117900000004,35.26274740000002,0 -118.63975090000004,35.262726900000025,0 -118.63880050000003,35.26282560000002,0 -118.63572750000004,35.26346900000002,0 -118.63415360000005,35.26363220000002,0 -118.62811700000003,35.26372900000002,0 -118.62714940000004,35.26357410000002,0 -118.62387290000005,35.262642900000024,0 -118.62151340000004,35.26223360000002,0 -118.62069140000006,35.26193060000002,0 -118.62030780000005,35.26172660000002,0 -118.61813570000004,35.26022940000002,0 -118.61575660000005,35.25894590000002,0 -118.61504180000004,35.25846790000002,0 -118.61299490000003,35.25682440000002,0 -118.61242430000004,35.256500000000024,0 -118.61150470000003,35.25618350000003,0 -118.60975050000002,35.255817300000025,0 -118.60903400000002,35.25555540000003,0 -118.60835480000001,35.25515550000002,0 -118.6036916,35.25124900000002,0 -118.602025,35.25010570000002,0 -118.60148319999999,35.249828700000016,0 -118.60102479999999,35.24966050000002,0 -118.59601289999999,35.248432100000024,0 -118.59539219999999,35.24820180000002,0 -118.59472410000001,35.24781410000002,0 -118.5943643,35.24752050000002,0 -118.5929664,35.24590610000002,0 -118.59237609999998,35.245376100000016,0 -118.59042219999999,35.24411740000002,0 -118.58990039999998,35.24361060000002,0 -118.58869469999999,35.241847200000024,0 -118.58832429999998,35.24146430000002,0 -118.58754579999997,35.24092810000002,0 -118.58704959999997,35.240703600000025,0 -118.58652479999998,35.24053810000002,0 -118.57995319999999,35.23949940000002,0 -118.57929759999999,35.239332500000025,0 -118.57889709999999,35.23917450000002,0 -118.57808519999999,35.238689300000026,0 -118.57759909999997,35.238230700000024,0 -118.57735619999998,35.237919000000026,0 -118.57546309999998,35.234495200000026,0 -118.57518889999996,35.23410740000003,0 -118.57472349999996,35.23363270000002,0 -118.57427149999997,35.23330740000002,0 -118.57038019999995,35.23128920000003,0 -118.57000439999996,35.23104790000003,0 -118.56956619999997,35.23066900000003,0 -118.56908819999995,35.23004540000002,0 -118.56884619999997,35.22952610000003,0 -118.56872159999998,35.22901150000003,0 -118.56853139999997,35.225926300000026,0 -118.56836949999996,35.22524310000003,0 -118.56818939999995,35.22484660000002,0 -118.56785529999996,35.224350100000024,0 -118.56743769999996,35.22391710000002,0 -118.56673769999996,35.223430800000024,0 -118.56613599999997,35.223157900000025,0 -118.56554499999997,35.22298000000003,0 -118.56074109999999,35.22236090000002,0 -118.55958909999998,35.22202490000002,0 -118.55879029999997,35.22162670000002,0 -118.55419099999996,35.218409300000026,0 -118.55377909999996,35.21805930000003,0 -118.55335859999997,35.217601700000024,0 -118.55178579999998,35.215510800000025,0 -118.55153259999997,35.215256000000025,0 -118.55085139999997,35.21475770000003,0 -118.54042899999997,35.209469500000026,0 -118.53569499999998,35.20773020000003,0 -118.53516889999999,35.20743520000002,0 -118.53048759999999,35.20380240000002,0 -118.5296243,35.20330560000003,0 -118.5202905,35.199242400000024,0 -118.5192367,35.19867460000003,0 -118.50635059999999,35.18985360000003,0 -118.50574519999999,35.18932060000002,0 -118.505339,35.18886610000003,0 -118.50410590000001,35.18707260000003,0 -118.5036074,35.18652250000003,0 -118.50319290000002,35.18615700000003,0 -118.4999978,35.18409120000003,0 -118.49590310000002,35.18218670000003,0 -118.49524580000002,35.18200180000003,0 -118.48996370000002,35.181355200000034,0 -118.48930200000002,35.18119390000003,0 -118.48851850000001,35.180842700000035,0 -118.48699210000002,35.17975150000004,0 -118.48591630000001,35.179146200000034,0 -118.4833389,35.17813000000004,0 -118.4825224,35.177704800000036,0 -118.48206219999999,35.17739050000004,0 -118.481413,35.176810400000036,0 -118.48103950000001,35.17637410000004,0 -118.4794854,35.17395660000004,0 -118.4788828,35.17333080000004,0 -118.4773423,35.17200200000004,0 -118.47444669999999,35.16903380000004,0 -118.4740442,35.16846270000004,0 -118.4737988,35.16786560000004,0 -118.4733704,35.16390300000005,0 -118.47343949999998,35.163255200000044,0 -118.4739232,35.16132660000004,0 -118.47397649999999,35.160810300000044,0 -118.47389969999999,35.157131900000046,0 -118.47379129999999,35.15648570000005,0 -118.47352479999998,35.155843400000045,0 -118.46982739999999,35.150316400000044,0 -118.46952419999998,35.14942330000005,0 -118.46943409999999,35.14863860000005,0 -118.46947689999998,35.14797550000005,0 -118.4698919,35.14616730000005,0 -118.46999069999998,35.14534290000005,0 -118.46989509999997,35.14441620000005,0 -118.46948699999997,35.14333530000005,0 -118.46883589999996,35.14242120000005,0 -118.46842789999995,35.14201310000005,0 -118.46758709999996,35.14139360000004,0 -118.46697909999995,35.141063600000045,0 -118.46613529999993,35.140737700000045,0 -118.46567829999994,35.14061650000005,0 -118.46049689999994,35.13974980000005,0 -118.45915229999993,35.13965250000005,0 -118.43633709999993,35.13961140000005,0 -118.43535249999992,35.13954410000005,0 -118.43415229999991,35.13931610000005,0 -118.43339469999991,35.13908940000005,0 -118.41437279999991,35.13083750000005,0 -118.41385129999992,35.130534600000054,0 -118.41302549999993,35.12989850000005,0 -118.41262389999993,35.12949510000005,0 -118.41219659999993,35.128949600000055,0 -118.41181019999993,35.12829740000006,0 -118.41086949999993,35.12608900000006,0 -118.41035119999992,35.12530730000005,0 -118.40931489999993,35.124255500000054,0 -118.40858639999993,35.12372650000005,0 -118.40789969999993,35.123329700000056,0 -118.40645129999994,35.12275470000005,0 -118.37881639999993,35.11543040000006,0 -118.37726859999994,35.11520550000005,0 -118.36769319999995,35.11487000000005,0 -118.36645619999994,35.114683600000056,0 -118.35277399999994,35.110808000000056,0 -118.35105669999996,35.11047580000006,0 -118.34909399999995,35.110280200000055,0 -118.32430909999995,35.11020770000006,0 -118.32307049999996,35.11003980000006,0 -118.32220229999997,35.109814700000065,0 -118.32108469999997,35.109373900000065,0 -118.32055849999998,35.10909400000006,0 -118.31073479999998,35.102436800000056,0 -118.30989059999997,35.10165030000006,0 -118.30820599999997,35.09926920000006,0 -118.30751749999996,35.09854360000006,0 -118.30667299999998,35.097937600000066,0 -118.30612569999998,35.09764850000006,0 -118.30524669999998,35.09731590000006,0 -118.30415909999998,35.09708040000006,0 -118.30286919999999,35.09702070000006,0 -118.30209419999997,35.097095900000056,0 -118.27334849999997,35.10409150000006,0 -118.26961319999997,35.104735700000056,0 -118.26606079999998,35.105016500000055,0 -118.26400329999997,35.10503490000006,0 -118.25903409999997,35.104828100000056,0 -118.25678749999997,35.104949000000055,0 -118.25537449999999,35.10513960000005,0 -118.25337929999999,35.105572300000055,0 -118.24941299999999,35.106714800000056,0 -118.2483732,35.107089400000056,0 -118.2267071,35.117037700000054,0 -118.225122,35.11761130000006,0 -118.2239171,35.117900000000056,0 -118.22229559999998,35.118117600000055,0 -118.22079469999997,35.11815380000005,0 -118.19049459999995,35.11582980000005,0 -118.18607119999996,35.11515870000005,0 -118.18307569999996,35.11455670000005,0 -118.17841019999997,35.11337590000005,0 -118.17543359999998,35.11245780000005,0 -118.17200439999998,35.11123130000005,0 -118.16821519999999,35.109644100000054,0 -118.15013029999997,35.101278300000054,0 -118.15005679999997,35.10118920000005,0 -118.14897829999998,35.100550000000055,0 -118.14657249999998,35.098073400000054,0 -118.14560519999998,35.097506800000055,0 -118.14538509999997,35.09751080000006,0 -118.14516929999998,35.09760460000006,0 -118.10097609999997,35.15463910000006,0 -118.09717059999997,35.15898460000006,0 -118.05460609999997,35.21364360000006,0 -118.05408779999998,35.21446860000006,0 -118.05336159999997,35.215923300000064,0 -118.03429999999999,35.267823100000065,0 -118.03351189999998,35.26940930000007,0 -118.0329053,35.27034350000007,0 -118.0321201,35.271344100000064,0 -118.0211564,35.28302520000007,0 -118.0203012,35.28381810000007,0 -118.0059358,35.29556410000007,0 -118.00591320000001,35.29564870000007,0 -118.00516010000001,35.29629690000007,0 -118.00499880000001,35.29636010000007,0 -117.9910375,35.30803240000008,0 -117.9868382,35.312174500000076,0 -117.9864132,35.31227750000008,0 -117.97316880000001,35.31884430000007,0 -117.95172070000001,35.33376460000008,0 -117.87365290000001,35.37456900000008,0 -117.87186970000002,35.37536440000007,0 -117.86973420000001,35.37607080000008,0 -117.7974923,35.39306630000008,0 -117.7969693,35.393255900000085,0 -117.79643279999999,35.39359980000008,0 -117.79572169999999,35.39423220000009,0 -117.79230249999998,35.39798360000009,0 -117.79122219999999,35.39972390000008,0 -117.7901907,35.40305700000009,0 -117.7899501,35.40356720000009,0 -117.7896665,35.404002300000094,0 -117.78809679999999,35.405734700000096,0 -117.78652479999998,35.40723540000009,0 -117.78615599999999,35.40772200000009,0 -117.78542089999999,35.409319500000095,0 -117.78490099999999,35.410221200000095,0 -117.78464069999998,35.410566600000095,0 -117.78432499999998,35.41083800000009,0 -117.7841208,35.41095860000009,0 -117.78344239999998,35.41120090000009,0 -117.7806832,35.411895000000094,0 -117.7773541,35.41312250000009,0 -117.7769452,35.41343360000009,0 -117.77555010000002,35.41548380000009,0 -117.7750615,35.41591690000009,0 -117.7746209,35.41614290000009,0 -117.7732867,35.416582400000095,0 -117.7727055,35.416675500000096,0 -117.77064480000001,35.416780600000095,0 -117.7696363,35.416960000000095,0 -117.76501470000002,35.418092600000094,0 -117.76443040000001,35.41828450000009,0 -117.7633427,35.4187550000001,0 -117.7627954,35.418836900000095,0 -117.76236589999999,35.4188128000001,0 -117.76059029999999,35.418401700000096,0 -117.75805919999998,35.418146900000096,0 -117.75472119999999,35.4182471000001,0 -117.7510459,35.4185918000001,0 -117.7321444,35.4226835000001,0 -117.73107370000001,35.423073200000104,0 -117.72646,35.4254589000001,0 -117.7251936,35.426005700000104,0 -117.7234616,35.4264790000001,0 -117.72206579999998,35.4266600000001,0 -117.70035949999999,35.4263919000001,0 -117.6925426,35.4257658000001,0 -117.6883254,35.4257651000001,0 -117.68726079999999,35.4258491000001,0 -117.68665269999998,35.425960300000106,0 -117.68438829999997,35.426782300000106,0 -117.68153569999998,35.4280252000001,0 -117.68124409999999,35.42819540000011,0 -117.68044419999998,35.4288140000001,0 -117.67996079999999,35.42929790000011,0 -117.67845449999999,35.4314727000001,0 -117.67817539999999,35.4316961000001,0 -117.67776289999999,35.431889100000106,0 -117.6760784,35.4323168000001,0 -117.6744286,35.43254790000011,0 -117.67389349999999,35.432677000000105,0 -117.67247199999998,35.43328960000011,0 -117.67218399999999,35.43335770000011,0 -117.6717113,35.43337000000011,0 -117.67147320000001,35.434278100000114,0 -117.67122300000001,35.43492600000011,0 -117.6707701,35.435792900000116,0 -117.67024249999999,35.436551700000116,0 -117.65735009999999,35.45034910000012,0 -117.65537899999998,35.45185520000011,0 -117.65495919999996,35.45232800000011,0 -117.65462339999996,35.45286280000011,0 -117.65429119999995,35.45380400000011,0 -117.65422149999995,35.45436640000011,0 -117.65426559999995,35.45500190000011,0 -117.65539179999993,35.46046180000012,0 -117.65539969999995,35.460957800000116,0 -117.65395419999994,35.473345600000115,0 -117.65371229999995,35.473366900000116,0 -117.65278339999993,35.47331500000012,0 -117.65222199999994,35.47334960000012,0 -117.65182749999994,35.47342150000012,0 -117.65110849999995,35.47366840000012,0 -117.65068029999995,35.47390030000012,0 -117.65021509999994,35.474268000000116,0 -117.64448279999993,35.48154610000011,0 -117.64413939999993,35.48180940000012,0 -117.63531559999993,35.48652360000011,0 -117.63433839999993,35.487261500000116,0 -117.63361689999994,35.48795250000011,0 -117.62254779999994,35.50054270000011,0 -117.58374649999993,35.54026320000011,0 -117.58320959999995,35.54064740000011,0 -117.58278229999993,35.540885200000105,0 -117.58223749999995,35.541113800000105,0 -117.58192279999994,35.5412006000001,0 -117.58167069999993,35.541231700000104,0 -117.58094919999995,35.541200700000104,0 -117.58060519999994,35.5433610000001,0 -117.58037849999995,35.5441418000001,0 -117.57985339999993,35.545264600000095,0 -117.57732079999994,35.5485948000001,0 -117.56078919999993,35.5671996000001,0 -117.56001529999992,35.5678685000001,0 -117.55600119999993,35.57066030000011,0 </coordinates></LineString><TimeSpan><begin>2020-09-05T17:17:47.001Z</begin><end>2020-09-05T18:58:08.000Z</end></TimeSpan></Placemark><Placemark><name>temp</name><address>Dropped pin</address><ExtendedData><Data name="Email"><value>syugen.zhou@gmail.com</value></Data><Data name="Category"><value></value></Data><Data name="Distance"><value>0</value></Data></ExtendedData><description>  from 2020-09-05T18:58:08.000Z to 2020-09-05T19:00:18.000Z. Distance 0m </description><Point><coordinates>-117.5559621,35.5706228,0</coordinates></Point><TimeSpan><begin>2020-09-05T18:58:08.000Z</begin><end>2020-09-05T19:00:18.000Z</end></TimeSpan></Placemark><Placemark><name>Flying</name><address></address><ExtendedData><Data name="Email"><value>syugen.zhou@gmail.com</value></Data><Data name="Category"><value>Flying</value></Data><Data name="Distance"><value>131054</value></Data></ExtendedData><description> Flying from 2020-09-05T19:00:18.000Z to 2020-09-05T23:20:00.000Z. Distance 131054m </description><LineString><altitudeMode>clampToGround</altitudeMode><extrude>1</extrude><tesselate>1</tesselate><coordinates>-117.5559621,35.5706228,0 -117.5559621,35.5706228,0 -116.41465799999997,36.302202799999996,0 -116.41465799999997,36.302202799999996,0 </coordinates></LineString><TimeSpan><begin>2020-09-05T19:00:18.000Z</begin><end>2020-09-05T23:20:00.000Z</end></TimeSpan></Placemark><Placemark><name>Amargosa Opera House</name><address>608 Death Valley Jct, Death Valley, CA 92328</address><ExtendedData><Data name="Email"><value>syugen.zhou@gmail.com</value></Data><Data name="Category"><value>Hotel</value></Data><Data name="Distance"><value>0</value></Data></ExtendedData><description> Hotel from 2020-09-05T23:20:00.000Z to 2020-09-05T23:25:00.000Z. Distance 0m </description><Point><coordinates>-116.41465799999999,36.302202799999996,0</coordinates></Point><TimeSpan><begin>2020-09-05T23:20:00.000Z</begin><end>2020-09-05T23:25:00.000Z</end></TimeSpan></Placemark><Placemark><name>Driving</name><address></address><ExtendedData><Data name="Email"><value>syugen.zhou@gmail.com</value></Data><Data name="Category"><value>Driving</value></Data><Data name="Distance"><value>32887</value></Data></ExtendedData><description> Driving from 2020-09-05T23:25:00.000Z to 2020-09-05T23:55:00.000Z. Distance 32887m </description><LineString><altitudeMode>clampToGround</altitudeMode><extrude>1</extrude><tesselate>1</tesselate><coordinates>-116.4687985,36.303570799999996,0 -116.41520630000001,36.3046465,0 -116.4143778,36.3020825,0 -116.41356030000001,36.302288,0 -116.4134774,36.3023173,0 -116.41306,36.3025361,0 -116.4077426,36.30564199999999,0 -116.4058912,36.3066311,0 -116.3254458,36.34647089999999,0 -116.32442830000001,36.346996499999996,0 -116.3208994,36.3487316,0 -116.3205772,36.3488707,0 -116.319724,36.349175699999996,0 -116.31922719999999,36.3493153,0 -116.31873819999998,36.349431599999996,0 -116.31818639999999,36.3495302,0 -116.31750919999999,36.3496221,0 -116.3168506,36.3496671,0 -116.3161128,36.3496768,0 -116.3155524,36.34965079999999,0 -116.31472930000001,36.349565999999996,0 -116.2921191,36.3463488,0 -116.29094039999998,36.346105599999994,0 -116.29004689999998,36.3458756,0 -116.28893749999997,36.345529899999995,0 -116.28821609999999,36.3452632,0 -116.28762809999998,36.345022099999994,0 -116.28705759999997,36.344766299999996,0 -116.27876479999998,36.340675899999994,0 -116.27832179999997,36.3404319,0 -116.27803649999997,36.34024049999999,0 -116.27765799999997,36.339937799999994,0 -116.27746599999998,36.339751799999995,0 -116.27716819999996,36.339409599999996,0 -116.27685569999996,36.338955799999994,0 -116.27303609999996,36.3328011,0 -116.27276809999996,36.332422199999996,0 -116.27240119999996,36.331971599999996,0 -116.27226809999998,36.331825499999994,0 -116.27166359999997,36.3312324,0 -116.27135589999996,36.330969499999995,0 -116.27089299999996,36.330618699999995,0 -116.27061859999996,36.3304299,0 -116.27008189999997,36.330097599999995,0 -116.26957089999995,36.329823299999994,0 -116.25842859999995,36.324938899999985,0 -116.25807579999994,36.32479799999999,0 -116.25716059999995,36.32446819999999,0 -116.25667379999996,36.32431059999999,0 -116.25533869999994,36.32394389999999,0 -116.23877719999994,36.32001509999999,0 -116.20093069999994,36.30796509999999,0 -116.19991839999994,36.30757009999999,0 -116.19895649999995,36.3071272,0 -116.19807039999996,36.3066591,0 -116.19718399999996,36.3061211,0 -116.17009499999998,36.2866334,0 -116.16967719999997,36.28637809999999,0 -116.16926839999998,36.286162399999995,0 -116.16897589999998,36.28603169999999,0 -116.16883439999997,36.28597849999999,0 -116.16832149999996,36.28581729999999,0 -116.16790749999996,36.28570349999999,0 -116.16742499999995,36.28560629999999,0 -116.16719719999996,36.28557109999999,0 -116.16478609999997,36.28534349999999,0 -116.16438199999997,36.28531819999999,0 -116.16384179999999,36.28530349999999,0 -116.16320289999997,36.28532539999999,0 -116.16268879999997,36.28538869999999,0 -116.16060499999998,36.28574609999999,0 -116.16021989999999,36.28582869999999,0 -116.15947169999998,36.286042599999995,0 -116.15591609999998,36.28720709999999,0 -116.15551259999998,36.28731739999999,0 -116.15530119999997,36.28735629999999,0 -116.15501489999995,36.287390599999995,0 -116.15470019999995,36.287411199999994,0 -116.15438719999996,36.287400299999995,0 -116.15415979999996,36.28737439999999,0 -116.15384839999997,36.28731689999999,0 -116.15358149999997,36.28724869999999,0 -116.15321109999998,36.28711379999999,0 -116.14999519999998,36.28566349999999,0 -116.14882389999998,36.28512179999999,0 -116.14838309999999,36.284882999999994,0 -116.14808729999999,36.28470459999999,0 -116.14778449999999,36.284493099999985,0 -116.14756819999997,36.28432189999999,0 -116.14707609999996,36.28387089999998,0 -116.14275229999996,36.27906979999999,0 -116.14241749999995,36.27874279999998,0 -116.14213059999996,36.278500999999984,0 -116.14185109999997,36.27828669999998,0 -116.14135309999996,36.277968499999986,0 -116.13447849999996,36.27424959999998,0 -116.13398999999995,36.27403099999998,0 -116.13364619999996,36.27390619999998,0 -116.13327359999995,36.27379269999998,0 -116.13289989999994,36.27369889999998,0 -116.13263959999995,36.27364679999998,0 -116.13220989999994,36.27358139999998,0 -116.13172589999994,36.27352879999998,0 -116.12359359999992,36.273116199999976,0 -116.12291459999993,36.27305519999998,0 -116.12229579999993,36.27295009999998,0 -116.12163149999992,36.27278759999998,0 -116.12118059999992,36.27262539999998,0 -116.12078699999994,36.27245459999998,0 -116.10423729999994,36.26437029999998,0 -116.10382589999995,36.26421319999998,0 -116.10336079999993,36.26406869999998,0 -116.10307499999995,36.26399699999998,0 -116.10248399999995,36.26388599999998,0 -116.10214079999994,36.26384729999998,0 -116.10162839999994,36.26381449999998,0 -116.08643769999995,36.263610999999976,0 -116.06812359999995,36.26382599999997,0 -116.05036919999996,36.26382509999997,0 -116.05038489999995,36.26419129999997,0 </coordinates></LineString><TimeSpan><begin>2020-09-05T23:25:00.000Z</begin><end>2020-09-05T23:55:00.000Z</end></TimeSpan></Placemark><Placemark><name>Fastrip Gasoline</name><address>Pahrump, NV 89060</address><ExtendedData><Data name="Email"><value>syugen.zhou@gmail.com</value></Data><Data name="Category"><value>Gas station</value></Data><Data name="Distance"><value>0</value></Data></ExtendedData><description> Gas station from 2020-09-05T23:55:00.000Z to 2020-09-06T00:00:00.000Z. Distance 0m </description><Point><coordinates>-116.0507968,36.2641844,0</coordinates></Point><TimeSpan><begin>2020-09-05T23:55:00.000Z</begin><end>2020-09-06T00:00:00.000Z</end></TimeSpan></Placemark><Placemark><name>Driving</name><address></address><ExtendedData><Data name="Email"><value>syugen.zhou@gmail.com</value></Data><Data name="Category"><value>Driving</value></Data><Data name="Distance"><value>79971</value></Data></ExtendedData><description> Driving from 2020-09-06T00:00:00.000Z to 2020-09-06T01:00:00.000Z. Distance 79971m </description><LineString><altitudeMode>clampToGround</altitudeMode><extrude>1</extrude><tesselate>1</tesselate><coordinates>-116.050385,36.2641944,0 -116.0503692,36.2638251,0 -116.0031295,36.2637442,0 -116.00496240000001,36.2562443,0 -116.0051645,36.2550184,0 -116.00522860000001,36.2536583,0 -116.0051815,36.252742999999995,0 -116.0050028,36.2515365,0 -116.00472839999999,36.250486099999996,0 -115.99536730000001,36.22316849999999,0 -115.9954038,36.223046,0 -115.99275510000001,36.215379199999994,0 -115.99232450000001,36.21459209999999,0 -115.9922604,36.214509099999994,0 -115.99212740000002,36.214438099999995,0 -115.99191160000002,36.21413599999999,0 -115.99139410000002,36.21353799999999,0 -115.99100100000003,36.2131555,0 -115.99040030000003,36.21267579999999,0 -115.98644390000003,36.210096699999994,0 -115.98642510000002,36.21000469999999,0 -115.98347540000003,36.208086699999996,0 -115.98333080000003,36.208080499999994,0 -115.98120980000004,36.20658429999999,0 -115.98039470000005,36.20586749999999,0 -115.96284930000004,36.188754999999986,0 -115.96209870000006,36.18810049999999,0 -115.96069950000005,36.18704189999999,0 -115.95895490000005,36.18601089999999,0 -115.95788570000006,36.18553369999999,0 -115.95634490000006,36.184982899999994,0 -115.95609230000008,36.18492349999999,0 -115.91637910000007,36.17091879999999,0 -115.91482870000009,36.17022039999999,0 -115.91306570000009,36.16919289999999,0 -115.9118103000001,36.1682655,0 -115.9111113000001,36.167663399999995,0 -115.9071105000001,36.16353939999999,0 -115.90704130000012,36.163431599999996,0 -115.90034950000012,36.15653729999999,0 -115.90026110000011,36.15640849999999,0 -115.89487100000012,36.150850199999994,0 -115.89359810000012,36.1497026,0 -115.89235750000012,36.148713799999996,0 -115.89230890000012,36.14870679999999,0 -115.89062980000013,36.147498199999994,0 -115.88944180000013,36.14674259999999,0 -115.88939260000012,36.14667759999999,0 -115.88677340000012,36.14507889999999,0 -115.88669380000013,36.14507239999999,0 -115.86689670000013,36.13303399999999,0 -115.86681680000014,36.13295869999999,0 -115.86074560000013,36.129050499999984,0 -115.65973640000013,36.006481499999985,0 -115.65891110000013,36.00602789999999,0 -115.65722230000013,36.00526809999999,0 -115.65570370000013,36.00473999999999,0 -115.65464250000014,36.00445269999999,0 -115.65317300000014,36.004158799999985,0 -115.65154610000013,36.003956399999986,0 -115.64992630000015,36.00388129999998,0 -115.59006320000013,36.006716699999984,0 -115.58828630000012,36.006939199999984,0 -115.58671940000013,36.007273699999985,0 -115.58476880000015,36.00787959999998,0 -115.55438770000015,36.02108599999999,0 -115.55339450000014,36.021440799999986,0 -115.55169840000013,36.02191359999998,0 -115.54505930000013,36.02321989999999,0 -115.54303780000015,36.02344309999999,0 -115.53375500000016,36.023651399999984,0 -115.53245510000015,36.023606999999984,0 -115.52654130000015,36.023158999999985,0 -115.51819220000014,36.02275489999999,0 -115.51722830000014,36.022660899999984,0 -115.51671840000013,36.02255659999999,0 -115.51621130000014,36.02241259999999,0 -115.51378420000015,36.02156579999998,0 -115.51308780000015,36.02138569999999,0 -115.51101150000014,36.020974499999994,0 -115.51056410000014,36.02081199999999,0 -115.51010690000014,36.02056209999999,0 -115.50969920000014,36.02024759999999,0 -115.50870770000016,36.01927039999999,0 -115.50806450000016,36.018747899999994,0 -115.50770100000017,36.01852039999999,0 -115.50494850000015,36.017319099999995,0 -115.50451470000017,36.017080199999995,0 -115.50409420000017,36.016797499999996,0 -115.50029500000016,36.01356609999999,0 -115.50000420000015,36.013423599999996,0 -115.49982490000016,36.013300199999996,0 -115.49902490000015,36.0129194,0 -115.49761890000015,36.012370399999995,0 -115.49729460000015,36.0122081,0 -115.49572840000013,36.011111,0 -115.49505030000013,36.0108073,0 -115.49440250000013,36.010642600000004,0 -115.49252920000013,36.010341100000005,0 -115.49210030000015,36.010225000000005,0 -115.49122550000014,36.00982650000001,0 -115.49048390000016,36.009264300000005,0 -115.48965660000015,36.008434400000006,0 -115.48913960000014,36.00779150000001,0 -115.48874120000015,36.00701250000001,0 -115.48825570000015,36.00382360000001,0 -115.48809430000016,36.00329130000001,0 -115.48760540000016,36.00248270000001,0 -115.48745350000016,36.00231610000001,0 -115.48700030000016,36.00196820000001,0 -115.48638490000015,36.001630700000014,0 -115.48565370000014,36.00136620000001,0 -115.48507180000016,36.00125370000001,0 -115.48133100000017,36.00095680000001,0 -115.48052330000017,36.00078190000001,0 -115.48034270000016,36.00071790000001,0 -115.47597260000016,35.99843380000001,0 -115.47512240000016,35.99806290000001,0 -115.47429920000017,35.997846300000006,0 -115.47386520000016,35.99778370000001,0 -115.47294070000015,35.99758090000001,0 -115.47224420000016,35.99751100000001,0 -115.47189020000016,35.99744120000001,0 -115.47167720000016,35.99737130000001,0 -115.47004320000016,35.99660200000001,0 -115.46604540000014,35.99448210000001,0 -115.46547340000015,35.994285100000006,0 -115.46426330000016,35.99399910000001,0 -115.46329830000015,35.99385640000001,0 -115.46246760000014,35.99378480000001,0 -115.46179530000013,35.99378470000001,0 -115.46065460000015,35.99388840000001,0 -115.45932170000015,35.994175100000014,0 -115.45246020000015,35.996368900000014,0 -115.45143550000016,35.996755000000014,0 -115.44965240000016,35.997603300000016,0 -115.44621290000016,35.999680300000016,0 -115.44474870000015,36.00077790000001,0 -115.44397170000016,36.00146870000001,0 -115.44075310000017,36.004905700000016,0 -115.43986450000016,36.005679100000016,0 -115.43897950000017,36.00633600000001,0 -115.43774900000018,36.00711920000001,0 -115.43681780000018,36.007619100000014,0 -115.43587630000019,36.00805550000001,0 -115.4286326000002,36.01088040000002,0 -115.42721490000021,36.011592000000014,0 -115.4259071000002,36.01240040000002,0 -115.4248992000002,36.01314700000001,0 -115.4204593000002,36.01692760000001,0 -115.41899270000019,36.01793220000001,0 -115.4180546000002,36.01845930000001,0 -115.4171549000002,36.01889960000001,0 -115.40393410000021,36.02464280000002,0 -115.40281600000021,36.02530040000002,0 -115.40201270000023,36.02594850000002,0 -115.40150580000024,36.02649080000002,0 -115.40100120000024,36.027241600000025,0 -115.40003400000023,36.02917920000002,0 -115.39965780000023,36.02977500000002,0 -115.39874100000023,36.030796800000026,0 -115.39816600000023,36.031255800000025,0 -115.39754710000022,36.031650500000026,0 -115.39683890000022,36.03201910000002,0 -115.39617790000023,36.032288100000024,0 -115.39533490000024,36.032536200000024,0 -115.39473650000023,36.03265450000002,0 -115.39399100000023,36.03274340000002,0 -115.39322760000023,36.032768500000024,0 -115.38530970000024,36.032507100000025,0 -115.38389540000023,36.032545300000024,0 -115.36133830000023,36.03469970000002,0 -115.36121140000023,36.034692700000015,0 -115.35493660000022,36.03524490000002,0 -115.35328340000022,36.03524340000002,0 -115.35212710000022,36.03516140000002,0 -115.35024800000022,36.03488950000002,0 -115.33669540000021,36.03143090000002,0 -115.32610430000021,36.02813000000001,0 -115.32500910000022,36.027697300000014,0 -115.3243310000002,36.02735940000001,0 -115.31978510000022,36.02476080000001,0 -115.31886740000022,36.024319600000005,0 -115.31812250000023,36.02402560000001,0 -115.31440120000022,36.02301450000001,0 -115.30712790000022,36.021649900000014,0 -115.29839860000023,36.02045230000001,0 -115.29652110000022,36.02035640000001,0 -115.26124980000021,36.02004990000001,0 -115.25905150000021,36.02012050000002,0 -115.25543080000021,36.02038510000002,0 -115.25272070000021,36.02076550000002,0 -115.22302030000021,36.02591800000001,0 -115.22165290000021,36.02631330000001,0 -115.1881712000002,36.041286200000016,0 -115.1843929000002,36.04287440000002,0 -115.18330010000021,36.042963100000016,0 -115.18289290000021,36.04294750000002,0 -115.18171360000021,36.04274440000002,0 -115.1814404000002,36.04273990000002,0 -115.18100390000019,36.04280220000002,0 -115.1807444000002,36.04288230000002,0 -115.18050690000018,36.04299050000002,0 -115.1801419000002,36.04324650000002,0 -115.17998150000021,36.043410800000025,0 -115.17981430000022,36.04365740000002,0 -115.17973130000021,36.04384140000003,0 -115.17969440000022,36.04399110000003,0 -115.1796843000002,36.044279600000024,0 -115.17975110000019,36.04459050000003,0 -115.17997280000019,36.04504410000002,0 -115.1801333000002,36.04527770000002,0 -115.18033370000019,36.045678700000025,0 -115.18039460000018,36.04586560000002,0 -115.18053910000017,36.04909030000002,0 -115.18064960000017,36.049298100000016,0 -115.18058610000017,36.080790100000016,0 -115.18048920000015,36.08090110000002,0 -115.18039770000017,36.08187340000002,0 -115.18015560000018,36.08336840000002,0 -115.18012460000018,36.08385820000002,0 -115.18007250000018,36.08396090000002,0 -115.18004770000019,36.086199800000024,0 -115.18011040000019,36.08729080000003,0 -115.18040780000018,36.08969010000003,0 -115.1803978000002,36.09443270000002,0 -115.18035260000019,36.094537600000024,0 -115.1802610000002,36.09795000000002,0 -115.18001550000021,36.10046200000002,0 -115.18002680000022,36.10081340000002,0 -115.18111180000021,36.10082030000002,0 -115.18312050000023,36.10071110000002,0 -115.18307730000024,36.100313200000016,0 -115.18297140000026,36.10014390000002,0 -115.18283650000025,36.099995100000015,0 -115.18432110000025,36.09996820000001,0 -115.18436700000025,36.09995050000001,0 -115.18444730000026,36.099892400000016,0 -115.18447780000027,36.099840100000016,0 -115.18448040000027,36.099666800000016,0 </coordinates></LineString><TimeSpan><begin>2020-09-06T00:00:00.000Z</begin><end>2020-09-06T01:00:00.000Z</end></TimeSpan></Placemark><Placemark><name>Hampton Inn Tropicana</name><address>4975 Dean Martin Dr, Las Vegas, NV 89118</address><ExtendedData><Data name="Email"><value>syugen.zhou@gmail.com</value></Data><Data name="Category"><value>Hotel</value></Data><Data name="Distance"><value>0</value></Data></ExtendedData><description> Hotel from 2020-09-06T01:00:00.000Z to 2020-09-06T03:25:00.000Z. Distance 0m </description><Point><coordinates>-115.1833771,36.0996676,0</coordinates></Point><TimeSpan><begin>2020-09-06T01:00:00.000Z</begin><end>2020-09-06T03:25:00.000Z</end></TimeSpan></Placemark><Placemark><name>Driving</name><address></address><ExtendedData><Data name="Email"><value>syugen.zhou@gmail.com</value></Data><Data name="Category"><value>Driving</value></Data><Data name="Distance"><value>0</value></Data></ExtendedData><description> Driving from 2020-09-06T03:25:00.000Z to 2020-09-06T05:15:00.000Z. Distance 0m </description><LineString><altitudeMode>clampToGround</altitudeMode><extrude>1</extrude><tesselate>1</tesselate><coordinates>-115.1844793,36.0996479,0 -115.1844771,36.09961020000001,0 -115.1844689,36.0995786,0 -115.1844582,36.0995561,0 -115.18438619999999,36.099479800000005,0 -115.1841974,36.099318600000004,0 -115.1841233,36.0992722,0 -115.1840845,36.0992597,0 -115.1840545,36.0992551,0 -115.183703,36.0992634,0 -115.18336479999999,36.099261999999996,0 -115.18327599999999,36.09927939999999,0 -115.18317199999998,36.0993299,0 -115.18288329999999,36.0995668,0 -115.1825325,36.09978589999999,0 -115.18263189999999,36.0998933,0 -115.18263579999999,36.099994499999994,0 -115.18284469999998,36.1001878,0 -115.18292509999998,36.100288,0 -115.18294879999998,36.1003285,0 -115.18295539999998,36.1003745,0 -115.18296129999999,36.1003945,0 -115.18297849999999,36.100568200000005,0 -115.1829795,36.1007109,0 -115.1829513,36.1010304,0 -115.18289870000001,36.101212000000004,0 -115.18282480000002,36.1013773,0 -115.18278340000002,36.101458,0 -115.18270970000002,36.10158,0 -115.18269500000004,36.1016095,0 -115.18268140000005,36.101644300000004,0 -115.18265630000005,36.101747200000005,0 -115.18265810000005,36.10177300000001,0 -115.18252440000006,36.1019306,0 -115.18246860000006,36.101991500000004,0 -115.18233270000006,36.102112500000004,0 -115.18209860000005,36.10195360000001,0 -115.18246140000004,36.101586700000006,0 -115.18278550000005,36.101727800000006,0 -115.18299580000006,36.101401900000006,0 -115.18312290000004,36.1010095,0 -115.18312050000004,36.100711100000005,0 -115.18310550000004,36.100570700000006,0 -115.18182310000005,36.100567500000004,0 -115.18113730000005,36.10058720000001,0 -115.18109730000005,36.10058560000001,0 -115.18067690000004,36.100599900000006,0 -115.17958190000004,36.10060280000001,0 -115.17909970000005,36.10061350000001,0 -115.17858100000005,36.100666600000004,0 -115.17772390000005,36.100706300000006,0 -115.17763490000006,36.1007156,0 -115.17704660000005,36.1007018,0 -115.17614070000005,36.100708399999995,0 -115.17566850000004,36.1007178,0 -115.17525620000005,36.1007361,0 -115.17308640000005,36.1007456,0 -115.17281370000005,36.1007623,0 -115.17281850000005,36.1009401,0 -115.17278750000006,36.1017891,0 -115.17278040000005,36.103846999999995,0 -115.17279810000005,36.1039452,0 -115.17280850000006,36.104203899999995,0 -115.17278360000006,36.1048206,0 -115.17276770000007,36.10618409999999,0 -115.17278200000007,36.10661629999999,0 -115.17278110000007,36.10708079999999,0 -115.17280860000005,36.10765159999998,0 -115.17281550000007,36.10855869999999,0 -115.17280740000005,36.10874989999999,0 -115.17280130000006,36.10961779999999,0 -115.17281460000005,36.10990689999999,0 -115.17283000000006,36.111062299999986,0 -115.17281860000004,36.11120479999998,0 -115.17281280000005,36.11313749999998,0 -115.17276010000003,36.11417539999998,0 -115.17275110000003,36.11459769999998,0 -115.17275180000003,36.11536069999998,0 -115.17277940000002,36.11611959999998,0 -115.17277200000004,36.116207399999986,0 -115.17281840000003,36.11731839999998,0 -115.17280980000004,36.11750019999998,0 -115.17280820000005,36.11762629999998,0 -115.17278280000005,36.11799549999998,0 -115.17273560000005,36.118408299999984,0 -115.17263880000004,36.11900099999998,0 -115.17251480000003,36.11949009999998,0 -115.17239460000002,36.11990779999998,0 -115.17225540000001,36.12032449999998,0 -115.17183340000003,36.12136749999998,0 -115.17173800000002,36.12153989999997,0 -115.17144500000002,36.12202859999998,0 -115.17142160000002,36.12207179999998,0 -115.17126440000001,36.122295699999974,0 -115.17092600000001,36.12287599999997,0 -115.17077400000002,36.12310449999997,0 -115.17061220000001,36.12333159999997,0 -115.1704635,36.12347289999997,0 -115.16976079999999,36.12463629999996,0 -115.16927039999999,36.12539989999997,0 -115.16917149999998,36.12554639999997,0 -115.16895459999998,36.12583129999997,0 -115.16876799999997,36.12609829999997,0 -115.16844609999997,36.12659849999997,0 -115.16779539999996,36.12757259999997,0 -115.16770689999996,36.12769839999997,0 -115.16729499999995,36.128352099999965,0 -115.16702819999996,36.12873319999997,0 -115.16625009999997,36.12996089999997,0 -115.16614469999996,36.13013609999997,0 -115.16609839999997,36.130222599999975,0 -115.16564699999998,36.130910199999974,0 -115.16555669999998,36.13101689999997,0 -115.16547859999999,36.13112659999997,0 -115.16531989999999,36.131375499999976,0 -115.16528039999999,36.131414299999975,0 -115.1650326,36.13178929999997,0 -115.16460260000001,36.13247379999998,0 -115.16454379999999,36.132550199999976,0 -115.16295749999999,36.13501109999998,0 -115.16205939999998,36.13634519999997,0 -115.16176759999999,36.13681689999998,0 -115.16053549999998,36.13870319999998,0 -115.16069989999998,36.13876689999998,0 -115.16221559999998,36.13640759999998,0 -115.16226359999999,36.13632549999998,0 -115.1630859,36.135070899999974,0 -115.16342019999999,36.13454369999997,0 -115.16351549999999,36.13442399999998,0 -115.16385399999999,36.133884199999976,0 -115.16418219999998,36.133383099999975,0 -115.16471149999998,36.132618799999975,0 -115.16475479999998,36.13254619999998,0 -115.1650909,36.13203369999998,0 -115.16520489999999,36.13182349999998,0 -115.16565089999999,36.13113699999998,0 -115.16567969999998,36.131096699999986,0 -115.16575939999997,36.131001799999986,0 -115.16641739999999,36.12999609999998,0 -115.16648829999998,36.12986749999998,0 -115.16717019999999,36.12881319999998,0 -115.16736429999999,36.12855549999998,0 -115.1679772,36.127658199999985,0 -115.16805439999999,36.127552999999985,0 -115.1682343,36.12725969999998,0 -115.1685336,36.12679629999998,0 -115.1685597,36.12675079999998,0 -115.16870600000001,36.12654169999998,0 -115.17005800000001,36.12452429999998,0 -115.17076440000002,36.123429899999984,0 -115.17095350000002,36.12314809999998,0 -115.17098290000003,36.12311119999998,0 -115.17104380000002,36.12301479999998,0 -115.17162780000001,36.12215619999998,0 -115.17166580000001,36.122108499999975,0 -115.17196550000001,36.121585699999976,0 -115.1719812,36.121554099999976,0 -115.17220950000001,36.121015399999976,0 -115.1723107,36.12070619999997,0 -115.17246019999999,36.12030309999997,0 -115.1725654,36.12006659999997,0 -115.17261089999998,36.11980679999997,0 -115.1726533,36.119627699999974,0 -115.17275159999998,36.11927289999997,0 -115.17283099999999,36.118952199999974,0 -115.17292559999999,36.118364899999975,0 -115.17298439999999,36.11740869999998,0 -115.17300660000001,36.117252299999976,0 -115.1730152,36.11701799999997,0 -115.1730053,36.116172499999976,0 -115.17296580000001,36.11596309999998,0 -115.17294650000002,36.11527119999998,0 -115.17295930000003,36.11477249999998,0 -115.17295610000002,36.114604199999974,0 -115.17297370000003,36.114282599999974,0 -115.17297900000001,36.11425059999998,0 -115.172984,36.11409299999998,0 -115.1730568,36.112839999999984,0 -115.17308769999998,36.11167649999998,0 -115.17311629999999,36.11107269999998,0 -115.17311879999998,36.11074659999998,0 -115.17313139999999,36.11044719999998,0 -115.1731325,36.10945749999998,0 -115.1731534,36.10880009999998,0 -115.1731598,36.108206099999975,0 -115.17314969999998,36.10663449999998,0 -115.17317249999998,36.10644049999998,0 -115.17316699999996,36.10600619999998,0 -115.17315769999996,36.10582599999998,0 -115.17314929999996,36.10528869999998,0 -115.17316149999995,36.10495519999998,0 -115.17318549999995,36.104690399999974,0 -115.17316889999995,36.10394659999997,0 -115.17317169999994,36.10382119999997,0 -115.17316139999993,36.10320049999997,0 -115.17313159999993,36.10268689999997,0 -115.17310019999992,36.10135459999997,0 -115.17321289999992,36.10115629999997,0 -115.17323739999993,36.10112159999997,0 -115.17326519999992,36.10109019999997,0 -115.1732986999999,36.101059899999974,0 -115.17334549999993,36.10102969999998,0 -115.17351589999993,36.10093319999998,0 -115.17429389999992,36.10093999999997,0 -115.17537239999992,36.10092589999997,0 -115.17600909999993,36.100940699999974,0 -115.17662339999993,36.100962599999974,0 -115.17680489999992,36.10096429999997,0 -115.17696359999992,36.10097449999997,0 -115.17763659999991,36.10095679999997,0 -115.17812349999991,36.100930399999974,0 -115.1787762999999,36.10087409999998,0 -115.1790080999999,36.10084979999998,0 -115.1792685999999,36.100845999999976,0 -115.1796641999999,36.10082919999997,0 -115.1797729999999,36.100819899999976,0 -115.1800267999999,36.10081339999997,0 -115.18111179999988,36.100820299999974,0 -115.18297949999987,36.10071089999997,0 -115.18312049999987,36.10071109999997,0 -115.18307729999988,36.100313199999974,0 -115.18305319999989,36.10026379999997,0 -115.18297139999989,36.10014389999997,0 -115.1828364999999,36.09999509999997,0 -115.1830268999999,36.09998389999997,0 -115.1838663999999,36.09997209999997,0 -115.1842027999999,36.09997949999997,0 -115.18432109999989,36.09996819999997,0 -115.18434299999988,36.09996209999997,0 -115.18436699999988,36.09995049999997,0 -115.18444729999987,36.09989239999997,0 -115.18446769999987,36.099867699999976,0 -115.18447779999988,36.09984009999997,0 -115.18448139999988,36.099684599999975,0 -115.18448049999988,36.09966879999998,0 </coordinates></LineString><TimeSpan><begin>2020-09-06T03:25:00.000Z</begin><end>2020-09-06T05:15:00.000Z</end></TimeSpan></Placemark><Placemark><name>Hampton Inn Tropicana</name><address>4975 Dean Martin Dr, Las Vegas, NV 89118</address><ExtendedData><Data name="Email"><value>syugen.zhou@gmail.com</value></Data><Data name="Category"><value>Hotel</value></Data><Data name="Distance"><value>0</value></Data></ExtendedData><description> Hotel from 2020-09-06T05:15:00.000Z to 2020-09-06T17:15:14.000Z. Distance 0m </description><Point><coordinates>-115.1833771,36.0996676,0</coordinates></Point><TimeSpan><begin>2020-09-06T05:15:00.000Z</begin><end>2020-09-06T17:15:14.000Z</end></TimeSpan></Placemark></Document></kml>