<?xml version="1.0" encoding="UTF-8"?><kml xmlns="http://www.opengis.net/kml/2.2" xmlns:gx="http://www.google.com/kml/ext/2.2"><Document><name> Location history from 2021-02-15 to 2021-02-15 </name><open>1</open><description></description><StyleMap id="multiTrack"><Pair><key>normal</key><styleUrl>#multiTrack_n</styleUrl></Pair><Pair><key>highlight</key><styleUrl>#multiTrack_h</styleUrl></Pair></StyleMap><Style id="multiTrack_n"><IconStyle><Icon><href>https://earth.google.com/images/kml-icons/track-directional/track-0.png</href></Icon></IconStyle><LineStyle><color>99ffac59</color><width>6</width></LineStyle></Style><Style id="multiTrack_h"><IconStyle><scale>1.2</scale><Icon><href>https://earth.google.com/images/kml-icons/track-directional/track-0.png</href></Icon></IconStyle><LineStyle><color>99ffac59</color><width>8</width></LineStyle></Style><Placemark><name>Seven Gables Inn, A Kirkwood Collection Property</name><address>555 Ocean View Blvd, Pacific Grove, CA 93950</address><ExtendedData><Data name="Email"><value>syugen.zhou@gmail.com</value></Data><Data name="Category"><value>Hotel</value></Data><Data name="Distance"><value>0</value></Data></ExtendedData><description> Hotel from 2021-02-14T23:40:55.000Z to 2021-02-15T16:30:18.999Z. Distance 0m </description><Point><coordinates>-121.91552069999999,36.6237413,0</coordinates></Point><TimeSpan><begin>2021-02-14T23:40:55.000Z</begin><end>2021-02-15T16:30:18.999Z</end></TimeSpan></Placemark><Placemark><name>Driving</name><address></address><ExtendedData><Data name="Email"><value>syugen.zhou@gmail.com</value></Data><Data name="Category"><value>Driving</value></Data><Data name="Distance"><value>3761</value></Data></ExtendedData><description> Driving from 2021-02-15T16:30:18.999Z to 2021-02-15T16:38:12.999Z. Distance 3761m </description><LineString><altitudeMode>clampToGround</altitudeMode><extrude>1</extrude><tesselate>1</tesselate><coordinates>-121.9153361,36.6236302,0 -121.9158747,36.6224179,0 -121.9161018,36.621923200000005,0 -121.9158987,36.6218761,0 -121.9155281,36.621773600000004,0 -121.9149974,36.62161660000001,0 -121.9144993,36.621478200000006,0 -121.9140295,36.62134280000001,0 -121.91350759999999,36.62119970000001,0 -121.9129908,36.62104760000001,0 -121.91245849999999,36.620898200000006,0 -121.9119725,36.620761300000005,0 -121.91144709999999,36.620610600000006,0 -121.91049319999999,36.62034090000001,0 -121.90997009999998,36.620184900000005,0 -121.90948999999999,36.62004430000001,0 -121.90896129999999,36.619902200000006,0 -121.90849089999999,36.61975060000001,0 -121.90798029999999,36.61962600000001,0 -121.90775929999998,36.61961390000001,0 -121.9076535,36.61960140000001,0 -121.90761489999998,36.61959490000001,0 -121.90741999999997,36.61952980000001,0 -121.90707789999998,36.61928670000001,0 -121.90673269999996,36.61898580000001,0 -121.90665629999995,36.618959200000006,0 -121.90645379999995,36.61875090000001,0 -121.90571139999996,36.61803360000001,0 -121.90507859999997,36.617425100000006,0 -121.90446919999995,36.61681760000001,0 -121.90364419999995,36.61584540000001,0 -121.90320329999996,36.61533350000001,0 -121.90316429999996,36.61529100000001,0 -121.90292689999995,36.61501260000001,0 -121.90267139999995,36.614715900000014,0 -121.90230269999995,36.614262300000014,0 -121.90174029999996,36.61357420000001,0 -121.90150549999996,36.61332090000001,0 -121.90135689999995,36.61314670000001,0 -121.90084399999995,36.61253030000001,0 -121.90007119999994,36.61162180000001,0 -121.89993999999994,36.61146910000001,0 -121.89966949999996,36.61115130000001,0 -121.89945629999995,36.610898000000006,0 -121.89927659999995,36.61069150000001,0 -121.89839749999996,36.609641100000005,0 -121.89805879999996,36.6092438,0 -121.89777009999996,36.6089038,0 -121.89772809999997,36.6088351,0 -121.89755379999998,36.6086295,0 -121.89751359999998,36.6085929,0 -121.89743979999999,36.60853469999999,0 -121.89743729999999,36.608533099999995,0 -121.8974076,36.6085132,0 -121.89736199999997,36.6084863,0 -121.89730439999997,36.6084561,0 -121.89727099999998,36.6084414,0 -121.89688319999996,36.608280699999995,0 -121.89658419999995,36.608152,0 -121.89600479999996,36.607909299999996,0 -121.89566649999995,36.6077775,0 -121.89539219999995,36.6076507,0 -121.89515619999995,36.607541899999994,0 -121.89507409999996,36.6074917,0 -121.89496739999996,36.60742,0 -121.89485349999997,36.607317099999996,0 -121.89473449999996,36.6071737,0 -121.89463389999996,36.607005699999995,0 -121.89458259999996,36.606873099999994,0 -121.89455759999997,36.60677569999999,0 -121.89454359999996,36.606671299999995,0 -121.89455179999996,36.60644469999999,0 -121.89459699999996,36.606254499999984,0 -121.89466859999995,36.60606449999999,0 -121.89483669999994,36.605725499999984,0 -121.89488279999995,36.60561459999999,0 -121.89494709999994,36.605461099999985,0 -121.89499339999993,36.605302999999985,0 -121.89501399999993,36.60515609999999,0 -121.89501259999993,36.605031099999984,0 -121.89499879999993,36.60490499999999,0 -121.89496709999992,36.60478279999999,0 -121.89491159999992,36.604642699999985,0 -121.89483059999992,36.604446399999986,0 -121.89481859999992,36.60442799999999,0 -121.89438019999993,36.60376389999999,0 -121.89419959999992,36.60348289999999,0 -121.89380269999992,36.60286339999999,0 -121.89364169999993,36.60261159999999,0 -121.89361929999993,36.602583999999986,0 -121.89355439999993,36.60250469999999,0 -121.89329639999993,36.60210409999999,0 -121.89296009999993,36.60155559999999,0 -121.89241229999992,36.60075019999999,0 -121.89230189999992,36.60065309999999,0 -121.89115229999992,36.60044539999999,0 -121.89001489999991,36.60026369999999,0 -121.88886009999992,36.60007139999998,0 -121.88805579999993,36.599929999999986,0 -121.88805389999992,36.59993019999999,0 </coordinates></LineString><TimeSpan><begin>2021-02-15T16:30:18.999Z</begin><end>2021-02-15T16:38:12.999Z</end></TimeSpan></Placemark><Placemark><name>McDonald's</name><address>610 Del Monte Ave, Monterey, CA 93940</address><ExtendedData><Data name="Email"><value>syugen.zhou@gmail.com</value></Data><Data name="Category"><value>Fast Food</value></Data><Data name="Distance"><value>0</value></Data></ExtendedData><description> Fast Food from 2021-02-15T16:38:12.999Z to 2021-02-15T16:41:43.999Z. Distance 0m </description><Point><coordinates>-121.8880662,36.5996926,0</coordinates></Point><TimeSpan><begin>2021-02-15T16:38:12.999Z</begin><end>2021-02-15T16:41:43.999Z</end></TimeSpan></Placemark><Placemark><name>Driving</name><address></address><ExtendedData><Data name="Email"><value>syugen.zhou@gmail.com</value></Data><Data name="Category"><value>Driving</value></Data><Data name="Distance"><value>12620</value></Data></ExtendedData><description> Driving from 2021-02-15T16:41:43.999Z to 2021-02-15T16:52:07.999Z. Distance 12620m </description><LineString><altitudeMode>clampToGround</altitudeMode><extrude>1</extrude><tesselate>1</tesselate><coordinates>-121.8876074,36.5999734,0 -121.87601769999999,36.5997869,0 -121.87588209999997,36.599744699999995,0 -121.87527969999996,36.5997796,0 -121.87494039999996,36.5998376,0 -121.87292919999994,36.600339500000004,0 -121.87242159999994,36.6004091,0 -121.86961209999994,36.600638700000005,0 -121.86930839999992,36.6007085,0 -121.86894979999992,36.6008301,0 -121.86143469999993,36.6043134,0 -121.86095389999994,36.604570100000004,0 -121.86078679999994,36.6045692,0 -121.86057229999994,36.604528800000004,0 -121.86046299999995,36.60448890000001,0 -121.86035649999995,36.604481400000004,0 -121.85990419999995,36.60410170000001,0 -121.85984299999994,36.60375820000001,0 -121.85986809999994,36.603612700000006,0 -121.85996719999994,36.603463000000005,0 -121.86012179999996,36.603357100000004,0 -121.86021519999996,36.60332470000001,0 -121.86040759999997,36.6032899,0 -121.86050949999996,36.603297000000005,0 -121.86066509999996,36.6033351,0 -121.86073409999995,36.60336550000001,0 -121.86081689999995,36.603420500000006,0 -121.86090829999995,36.60351520000001,0 -121.86096139999995,36.60360800000001,0 -121.86098339999997,36.60367390000001,0 -121.86098169999997,36.604314500000015,0 -121.86098879999997,36.60432930000001,0 -121.86103959999997,36.604377800000016,0 -121.86086709999996,36.606565300000014,0 -121.86066829999997,36.60728850000001,0 -121.86046879999998,36.60772070000001,0 -121.86014269999998,36.608249400000005,0 -121.85992419999998,36.608532100000005,0 -121.85957549999996,36.60891190000001,0 -121.85896639999997,36.60942010000001,0 -121.85654569999997,36.61087620000001,0 -121.85523899999995,36.611760800000006,0 -121.85098619999995,36.615209300000004,0 -121.85026149999996,36.615913600000006,0 -121.84771419999997,36.618937200000005,0 -121.84717639999997,36.6196769,0 -121.84597839999996,36.62157620000001,0 -121.84575579999996,36.62187180000001,0 -121.84543939999998,36.62220910000001,0 -121.84507979999997,36.622526000000015,0 -121.84446499999997,36.62295860000002,0 -121.84353259999996,36.62344340000002,0 -121.84186439999996,36.62407370000002,0 -121.84127859999995,36.62436060000001,0 -121.84078189999994,36.62467080000001,0 -121.84017509999993,36.62514300000001,0 -121.83972429999993,36.62559770000001,0 -121.83925329999992,36.62617670000001,0 -121.83811539999992,36.62804700000001,0 -121.83738979999991,36.628997300000016,0 -121.83028709999992,36.63651190000001,0 -121.82976949999993,36.63698340000001,0 -121.8289411999999,36.63763990000001,0 -121.8226627999999,36.64197810000001,0 -121.81682719999989,36.64574390000001,0 -121.8161834999999,36.64630480000001,0 -121.81590539999989,36.646601300000015,0 -121.81555449999989,36.64704140000001,0 -121.81517409999991,36.64766520000001,0 -121.81491819999991,36.64824270000001,0 -121.81473219999991,36.64889690000001,0 -121.8146563999999,36.64937960000001,0 -121.81463259999991,36.64982420000001,0 -121.8146740999999,36.65046520000001,0 -121.81477309999993,36.65099090000001,0 -121.81493629999993,36.651504300000006,0 -121.81590729999992,36.65371060000001,0 -121.81619419999991,36.65460210000001,0 -121.81638919999992,36.655494200000014,0 -121.81647959999991,36.65616590000001,0 -121.81653639999992,36.65705690000001,0 -121.81651359999992,36.65785970000001,0 -121.81615109999993,36.662256500000005,0 -121.81606219999992,36.66269760000001,0 -121.81560609999993,36.66423730000001,0 -121.81533289999993,36.664994300000004,0 -121.81469699999992,36.666291900000004,0 -121.81127649999992,36.672161800000005,0 -121.81069359999994,36.67300410000001,0 -121.80920989999994,36.674596900000004,0 -121.80865309999994,36.67528270000001,0 -121.80854359999995,36.675322800000004,0 -121.80808519999997,36.6759131,0 -121.80745499999996,36.676900800000006,0 -121.80726879999997,36.677296600000005,0 -121.80655109999998,36.67952090000001,0 -121.80631679999998,36.68009560000001,0 -121.80615129999997,36.68038190000001,0 -121.80579199999998,36.680885200000006,0 -121.80550939999998,36.6807506,0 </coordinates></LineString><TimeSpan><begin>2021-02-15T16:41:43.999Z</begin><end>2021-02-15T16:52:07.999Z</end></TimeSpan></Placemark><Placemark><name>Shell</name><address>3030 Del Monte Blvd, Marina, CA 93933</address><ExtendedData><Data name="Email"><value>syugen.zhou@gmail.com</value></Data><Data name="Category"><value>Gas station</value></Data><Data name="Distance"><value>0</value></Data></ExtendedData><description> Gas station from 2021-02-15T16:52:07.999Z to 2021-02-15T16:59:08.000Z. Distance 0m </description><Point><coordinates>-121.8057261,36.680471,0</coordinates></Point><TimeSpan><begin>2021-02-15T16:52:07.999Z</begin><end>2021-02-15T16:59:08.000Z</end></TimeSpan></Placemark><Placemark><name>Driving</name><address></address><ExtendedData><Data name="Email"><value>syugen.zhou@gmail.com</value></Data><Data name="Category"><value>Driving</value></Data><Data name="Distance"><value>94573</value></Data></ExtendedData><description> Driving from 2021-02-15T16:59:08.000Z to 2021-02-15T18:10:28.000Z. Distance 94573m </description><LineString><altitudeMode>clampToGround</altitudeMode><extrude>1</extrude><tesselate>1</tesselate><coordinates>-121.80519410000001,36.6816234,0 -121.79861460000001,36.688723599999996,0 -121.79816230000002,36.6900748,0 -121.7980843,36.6920607,0 -121.79761860000002,36.6932298,0 -121.79739900000003,36.693461899999996,0 -121.79727930000003,36.693478999999996,0 -121.79718710000003,36.6936007,0 -121.79720340000003,36.6936568,0 -121.78948560000005,36.7026649,0 -121.78883490000004,36.7039319,0 -121.78863760000003,36.7047051,0 -121.78771400000002,36.72085599999999,0 -121.78787170000003,36.7215892,0 -121.78888540000001,36.72383299999999,0 -121.78962390000002,36.72362009999999,0 -121.78982170000002,36.723659999999995,0 -121.79003840000001,36.72383969999999,0 -121.79006170000002,36.7241149,0 -121.78964510000003,36.7247522,0 -121.78965150000002,36.72484409999999,0 -121.78762050000003,36.727253999999995,0 -121.77786710000002,36.73657709999999,0 -121.76797270000002,36.7495449,0 -121.7678321,36.749581199999994,0 -121.7631025,36.754183,0 -121.75739540000001,36.7582479,0 -121.752464,36.7611664,0 -121.7509914,36.762413300000006,0 -121.7478233,36.7660458,0 -121.74676399999998,36.7668646,0 -121.74560869999998,36.7674887,0 -121.69097709999998,36.7836028,0 -121.68260199999997,36.78725909999999,0 -121.68096059999998,36.787720199999995,0 -121.67322779999998,36.7888635,0 -121.67049309999997,36.7887252,0 -121.66680179999997,36.7896972,0 -121.66649319999996,36.789627,0 -121.66627639999996,36.7894707,0 -121.66617129999996,36.7890719,0 -121.66642339999996,36.7887472,0 -121.66665479999995,36.78866510000001,0 -121.66707779999994,36.788700600000006,0 -121.66732459999993,36.7888662,0 -121.66745849999992,36.7891909,0 -121.66741859999992,36.7895631,0 -121.66747349999991,36.7896949,0 -121.6663491999999,36.7951484,0 -121.6653897999999,36.7977243,0 -121.6646273999999,36.7988703,0 -121.6629531999999,36.8003649,0 -121.66093039999991,36.801352599999994,0 -121.65355949999993,36.80347089999999,0 -121.65116379999994,36.80462909999999,0 -121.64941809999995,36.8057982,0 -121.64580719999995,36.8089055,0 -121.64165429999993,36.8132651,0 -121.63914749999994,36.8151173,0 -121.63202189999994,36.8187163,0 -121.63124739999995,36.819317,0 -121.63081319999995,36.819943699999996,0 -121.63001299999993,36.8223868,0 -121.62830979999993,36.82548919999999,0 -121.62808789999994,36.82660309999999,0 -121.62813689999993,36.82739649999999,0 -121.62994089999994,36.831293499999994,0 -121.63039939999993,36.8361794,0 -121.63587589999992,36.8480503,0 -121.63606279999992,36.849377499999996,0 -121.63591019999993,36.8505148,0 -121.63535979999992,36.8518986,0 -121.63389769999992,36.853937499999994,0 -121.63264669999991,36.8551516,0 -121.6293992999999,36.857276899999995,0 -121.62038769999991,36.860798499999994,0 -121.6176636999999,36.86248839999999,0 -121.6168835999999,36.86273029999999,0 -121.6159882999999,36.86279239999999,0 -121.61310459999989,36.862350799999994,0 -121.6122006999999,36.86202809999999,0 -121.6095330999999,36.86039929999999,0 -121.60851299999989,36.860084499999985,0 -121.5988487999999,36.85908399999999,0 -121.59593549999988,36.85914849999999,0 -121.5851169999999,36.86128849999999,0 -121.5832873999999,36.861341299999985,0 -121.58318529999991,36.86129049999999,0 -121.5814654999999,36.861107199999985,0 -121.5792166999999,36.86118059999999,0 -121.5780978999999,36.86099669999999,0 -121.5773852999999,36.86066149999999,0 -121.56832469999989,36.8531821,0 -121.5594930999999,36.848905499999994,0 -121.5583135999999,36.848523899999996,0 -121.5503683999999,36.847035999999996,0 -121.54729699999989,36.845734799999995,0 -121.54034689999989,36.841394699999995,0 -121.5394969999999,36.84104229999999,0 -121.53746539999989,36.84059729999999,0 -121.4596187999999,36.84177029999999,0 -121.45882719999989,36.8419087,0 -121.45768679999989,36.8423662,0 -121.45737719999991,36.8420371,0 -121.4568477999999,36.8395423,0 -121.45642159999991,36.8387835,0 -121.4554900999999,36.8381056,0 -121.45463799999989,36.8378522,0 -121.4505574999999,36.8378755,0 -121.4452463999999,36.8356106,0 -121.44245749999989,36.8352616,0 -121.43974509999988,36.834185,0 -121.43081469999987,36.8283709,0 -121.42897979999987,36.8264909,0 -121.42835009999986,36.8261553,0 -121.42584869999986,36.8256178,0 -121.42496709999985,36.825630800000006,0 -121.42050969999984,36.8272228,0 -121.41925729999983,36.8272053,0 -121.41664269999984,36.826326,0 -121.40623979999985,36.8241205,0 -121.40525489999985,36.8242315,0 -121.40436039999986,36.824606200000005,0 -121.39972209999985,36.82785320000001,0 -121.39918749999984,36.82787650000001,0 -121.39022099999984,36.8267998,0 -121.38874559999984,36.8269054,0 -121.38477409999985,36.82670590000001,0 -121.38381329999986,36.8265017,0 -121.38326239999986,36.826499000000005,0 -121.38239769999987,36.8268232,0 -121.38082389999988,36.8253435,0 -121.3670111999999,36.8172841,0 -121.36534049999989,36.8166646,0 -121.35257119999989,36.8140838,0 -121.3509545999999,36.8133971,0 -121.3497954999999,36.8126897,0 -121.3359639999999,36.8000244,0 -121.33215779999989,36.7976173,0 -121.3264361999999,36.7949492,0 -121.32574699999991,36.794441899999995,0 -121.3241130999999,36.79168919999999,0 -121.3236242999999,36.79126039999999,0 -121.31650329999992,36.787590699999996,0 -121.3158359999999,36.78697079999999,0 -121.30894479999992,36.7729034,0 -121.30840939999992,36.7722741,0 -121.30779229999993,36.771869499999994,0 -121.30575389999991,36.7710369,0 -121.30132089999992,36.767450499999995,0 -121.29586529999992,36.7604438,0 -121.29545069999992,36.759188599999995,0 -121.29555149999992,36.75753289999999,0 -121.29536399999992,36.756699799999986,0 -121.29472989999991,36.75594799999999,0 -121.28929059999992,36.752658699999984,0 -121.28833299999991,36.75159689999999,0 -121.28582029999991,36.74787579999999,0 -121.28497439999992,36.74723639999999,0 -121.28154929999992,36.745504299999986,0 -121.28076019999993,36.744617199999986,0 -121.28055539999994,36.744114899999985,0 -121.28048019999993,36.74320669999999,0 -121.28128229999992,36.74136949999999,0 -121.28174359999991,36.73960349999999,0 -121.28172179999993,36.738007999999994,0 -121.27904699999993,36.73002709999999,0 -121.27894099999992,36.72813369999999,0 -121.27936589999993,36.72513679999999,0 -121.27931049999992,36.72404199999998,0 -121.27754729999992,36.71644209999998,0 -121.27544679999993,36.703015799999974,0 -121.27454559999993,36.70109649999998,0 -121.25319109999994,36.673803299999975,0 -121.21947749999993,36.61992779999997,0 -121.21561619999993,36.615453199999976,0 -121.21490529999994,36.61488659999998,0 -121.21373199999994,36.61436999999998,0 -121.20973349999994,36.61394839999998,0 -121.20887189999993,36.61366989999998,0 -121.20799119999994,36.613152899999974,0 -121.20095019999992,36.607003999999975,0 -121.19796149999993,36.60512289999998,0 -121.19686939999994,36.60411369999998,0 -121.19596959999994,36.60292619999998,0 -121.19471359999994,36.600625199999975,0 -121.19450519999994,36.59989719999998,0 -121.19455649999993,36.59487079999998,0 -121.19496719999994,36.59357669999998,0 -121.19642059999994,36.591862399999975,0 -121.19691959999993,36.590977199999976,0 -121.19699029999994,36.58992359999998,0 -121.19676199999994,36.589250999999976,0 -121.19562949999992,36.58731169999998,0 -121.19540849999991,36.58586379999998,0 -121.19513629999992,36.585194799999975,0 -121.19265169999993,36.58285229999998,0 -121.19159509999993,36.58058609999998,0 -121.19112259999994,36.58005819999998,0 -121.18806479999994,36.57801609999998,0 -121.18428169999993,36.57297669999998,0 -121.18406059999992,36.572201899999975,0 -121.18426809999993,36.568123999999976,0 -121.18414569999993,36.56764319999998,0 -121.18292399999993,36.56638399999998,0 -121.18186549999993,36.56565219999998,0 -121.18086329999994,36.56429419999998,0 -121.18021789999995,36.564050299999984,0 -121.17869829999995,36.562716399999985,0 -121.17780749999996,36.562596099999986,0 -121.17541179999998,36.56111829999998,0 -121.17518309999998,36.56086289999998,0 -121.17506259999998,36.560356699999986,0 -121.17475109999998,36.56011259999998,0 -121.17278219999997,36.55981459999998,0 -121.17256789999998,36.559722299999976,0 -121.17129479999998,36.55863339999998,0 -121.1694271,36.55474759999998,0 -121.1687796,36.55395349999998,0 -121.16681179999999,36.553160499999976,0 -121.1661898,36.552736599999974,0 -121.16560069999998,36.55250299999998,0 -121.16394369999998,36.55226039999997,0 -121.16238589999996,36.55226829999998,0 -121.16094979999997,36.551669599999975,0 -121.16031009999998,36.551112499999974,0 -121.15924229999997,36.549549299999974,0 -121.15800559999995,36.548639899999976,0 -121.15751019999996,36.54742879999998,0 -121.15741509999998,36.54616369999997,0 -121.15674409999997,36.54532809999998,0 -121.15649679999997,36.54469589999997,0 -121.15606839999997,36.54420929999998,0 -121.15519609999996,36.54210979999998,0 -121.15310939999996,36.540140799999975,0 -121.15264329999995,36.53900159999997,0 -121.15157189999995,36.53778669999998,0 -121.14947419999994,36.536316299999974,0 -121.14823999999996,36.53408459999997,0 -121.14669079999997,36.53322359999997,0 -121.14624989999997,36.53274749999997,0 -121.14593299999997,36.53173529999997,0 -121.14531359999998,36.53060839999997,0 -121.14423919999999,36.52945849999997,0 -121.14411679999999,36.52903449999997,0 -121.14417179999998,36.52789229999997,0 -121.14397979999998,36.52722069999997,0 -121.14123359999999,36.52428719999997,0 -121.1405236,36.52399719999997,0 -121.14006429999999,36.52360869999996,0 -121.13971999999998,36.522558299999965,0 -121.13917969999999,36.52212019999996,0 -121.13829689999999,36.52091889999996,0 -121.13815879999997,36.51970989999997,0 -121.13788119999998,36.51902889999997,0 -121.1370736,36.51806479999997,0 -121.13631989999998,36.51599929999997,0 -121.13640769999998,36.51564199999997,0 -121.13715629999997,36.51468899999997,0 -121.13744699999998,36.51194199999997,0 -121.13726999999999,36.51089629999997,0 -121.13777999999999,36.50963139999997,0 -121.1385818,36.50853389999997,0 -121.1394981,36.507921499999966,0 -121.1396257,36.50774419999997,0 -121.13965789999999,36.507331599999965,0 -121.1392311,36.50565059999997,0 -121.1393509,36.50533559999997,0 -121.1392872,36.50486959999997,0 -121.1394574,36.50376559999997,0 -121.13918960000001,36.503137699999975,0 -121.1392347,36.502511399999975,0 -121.13948300000001,36.50184419999997,0 -121.1401016,36.50095139999998,0 -121.14008179999999,36.50039719999997,0 -121.14026559999999,36.500126199999976,0 -121.140754,36.49985359999997,0 -121.1409889,36.49910779999997,0 -121.14265619999999,36.49687519999997,0 -121.14396079999999,36.49583679999997,0 -121.14626229999999,36.49493269999997,0 -121.14642379999998,36.49480369999997,0 -121.14704069999998,36.493797699999966,0 -121.1469102,36.49367999999997,0 </coordinates></LineString><TimeSpan><begin>2021-02-15T16:59:08.000Z</begin><end>2021-02-15T18:10:28.000Z</end></TimeSpan></Placemark><Placemark><name>Pinnacles Visitor Center</name><address>5000 CA-146, Paicines, CA 95043</address><ExtendedData><Data name="Email"><value>syugen.zhou@gmail.com</value></Data><Data name="Category"><value>Visitor center</value></Data><Data name="Distance"><value>0</value></Data></ExtendedData><description> Visitor center from 2021-02-15T18:10:28.000Z to 2021-02-15T18:23:42.000Z. Distance 0m </description><Point><coordinates>-121.14644279999999,36.493726599999995,0</coordinates></Point><TimeSpan><begin>2021-02-15T18:10:28.000Z</begin><end>2021-02-15T18:23:42.000Z</end></TimeSpan></Placemark><Placemark><name>Driving</name><address></address><ExtendedData><Data name="Email"><value>syugen.zhou@gmail.com</value></Data><Data name="Category"><value>Driving</value></Data><Data name="Distance"><value>1818</value></Data></ExtendedData><description> Driving from 2021-02-15T18:23:42.000Z to 2021-02-15T18:26:27.000Z. Distance 1818m </description><LineString><altitudeMode>clampToGround</altitudeMode><extrude>1</extrude><tesselate>1</tesselate><coordinates>-121.1466739,36.493466999999995,0 -121.1470407,36.493797699999995,0 -121.1472042,36.49358499999999,0 -121.1472966,36.493472999999994,0 -121.14738960000001,36.49336479999999,0 -121.14759540000001,36.49318019999999,0 -121.14784050000002,36.49299459999999,0 -121.14806980000003,36.49283209999999,0 -121.14863320000003,36.49242249999999,0 -121.14887820000003,36.49225109999999,0 -121.14894860000003,36.49217919999999,0 -121.14902990000003,36.49209089999999,0 -121.14911840000003,36.49197449999999,0 -121.14920230000004,36.49184269999999,0 -121.14934020000003,36.49158909999999,0 -121.14936460000004,36.4915573,0 -121.14944950000005,36.4914175,0 -121.14952150000005,36.491267,0 -121.14954530000004,36.49117,0 -121.14956360000004,36.49100349999999,0 -121.14957860000004,36.490940499999994,0 -121.14960150000003,36.4908806,0 -121.14963150000003,36.4908234,0 -121.14966860000001,36.490769199999995,0 -121.14971250000002,36.490717999999994,0 -121.14980840000001,36.490631099999995,0 -121.14989440000002,36.49056759999999,0 -121.14998350000002,36.49051149999999,0 -121.15008260000003,36.49044219999999,0 -121.15031560000003,36.490266099999985,0 -121.15067150000004,36.48996649999999,0 -121.15078760000004,36.48988039999999,0 -121.15135950000004,36.48947689999999,0 -121.15153040000003,36.48933949999999,0 -121.15168360000003,36.48920239999999,0 -121.15177760000002,36.4891064,0 -121.15186410000001,36.48902559999999,0 -121.15202870000002,36.4888882,0 -121.15218470000002,36.488786499999996,0 -121.1524349,36.48864389999999,0 -121.15261560000002,36.488544999999995,0 -121.15277390000003,36.48844999999999,0 -121.15292480000001,36.488354099999995,0 -121.15310970000002,36.48823289999999,0 -121.15318070000001,36.4881785,0 -121.15323970000001,36.48814069999999,0 -121.15341720000002,36.48805449999999,0 -121.15356130000002,36.48798839999999,0 -121.15378740000003,36.4878946,0 -121.15385620000002,36.48785999999999,0 -121.15390120000002,36.48783139999999,0 -121.1540331,36.48773159999999,0 -121.1541151,36.4876471,0 -121.1542078,36.4875573,0 -121.1543397,36.487427999999994,0 -121.154428,36.487318099999996,0 -121.1544898,36.4872472,0 -121.15460449999999,36.487077799999994,0 -121.1547247,36.4868673,0 -121.1549002,36.4865092,0 -121.15508299999999,36.4861447,0 -121.1551335,36.4860266,0 -121.15514449999999,36.4859786,0 -121.1551534,36.48593,0 -121.155148,36.485758000000004,0 -121.15514029999999,36.4856094,0 -121.15513829999998,36.485505,0 -121.15516289999998,36.485221900000006,0 -121.1551789,36.4848668,0 -121.1552462,36.4846407,0 -121.1553412,36.4843981,0 -121.15545599999999,36.4840911,0 -121.15552459999999,36.4838916,0 -121.15556659999999,36.4837435,0 -121.15561059999997,36.4835562,0 -121.15567219999998,36.4833741,0 -121.15572349999997,36.4832587,0 -121.15577629999999,36.48317,0 -121.15585959999997,36.4830361,0 -121.15606859999998,36.482749999999996,0 -121.15612649999998,36.4826749,0 -121.1562029,36.482602199999995,0 -121.1564322,36.482442899999995,0 -121.15651620000001,36.482386,0 -121.15661320000001,36.48231619999999,0 -121.15667780000003,36.482261699999995,0 -121.15674010000002,36.482195,0 -121.15681770000005,36.482092099999996,0 -121.15691700000005,36.48194209999999,0 -121.15711350000005,36.4815921,0 -121.15703320000004,36.481477399999996,0 -121.15695480000005,36.48139169999999,0 -121.15691250000003,36.48135249999999,0 -121.15686800000003,36.481322199999994,0 -121.15678510000002,36.48127399999999,0 -121.15675250000001,36.481234199999996,0 -121.15674310000001,36.481199399999994,0 -121.15675350000002,36.4811005,0 -121.15676040000002,36.4807396,0 -121.15675860000002,36.480685699999995,0 </coordinates></LineString><TimeSpan><begin>2021-02-15T18:23:42.000Z</begin><end>2021-02-15T18:26:27.000Z</end></TimeSpan></Placemark><Placemark><name>Walking</name><address></address><ExtendedData><Data name="Email"><value>syugen.zhou@gmail.com</value></Data><Data name="Category"><value>Walking</value></Data><Data name="Distance"><value>832</value></Data></ExtendedData><description> Walking from 2021-02-15T18:26:27.000Z to 2021-02-15T18:42:34.000Z. Distance 832m </description><LineString><altitudeMode>clampToGround</altitudeMode><extrude>1</extrude><tesselate>1</tesselate><coordinates>-121.16619050000001,36.4846662,0 -121.1661862,36.4846996,0 -121.16618509999999,36.4847084,0 -121.16614489999999,36.484811900000004,0 -121.1661305,36.484841100000004,0 -121.1661066,36.48486570000001,0 -121.16610500000002,36.484867400000006,0 -121.16607510000001,36.48487910000001,0 -121.16603860000002,36.48488210000001,0 -121.1659915,36.484880700000005,0 -121.16594370000001,36.48487230000001,0 -121.16582840000002,36.48483140000001,0 -121.16571310000003,36.48477100000001,0 -121.16556020000004,36.484695500000015,0 -121.16530000000003,36.48457690000001,0 -121.16455170000003,36.48422750000001,0 -121.16425130000003,36.48404640000001,0 -121.16411720000004,36.48392130000001,0 -121.16394280000004,36.48383070000001,0 -121.16369070000005,36.48376170000001,0 -121.16363440000003,36.48371860000001,0 -121.16355120000004,36.48363660000001,0 -121.16346890000003,36.48360430000001,0 -121.16331170000002,36.48354270000001,0 -121.16312740000001,36.48343390000001,0 -121.162878,36.483360600000005,0 -121.16287630000001,36.48335970000001,0 -121.16264190000001,36.483237700000004,0 -121.16249570000002,36.483170900000005,0 -121.16244350000002,36.483147100000004,0 -121.16231740000002,36.4830966,0 -121.1622325,36.483052,0 -121.16216510000001,36.4830004,0 -121.1617675,36.482705,0 -121.16153960000001,36.482599300000004,0 -121.16140450000002,36.482546500000005,0 -121.161264,36.48249150000001,0 -121.16123379999999,36.482469900000005,0 -121.16117859999999,36.482411000000006,0 -121.1611533,36.48239230000001,0 -121.1611224,36.48237280000001,0 -121.1610782,36.48235350000001,0 -121.1610404,36.48234780000001,0 -121.1609468,36.48234270000001,0 -121.16091279999999,36.48233040000001,0 -121.16073759999999,36.48220250000001,0 -121.1605154,36.48204050000001,0 -121.16045419999998,36.48199580000001,0 -121.16043179999998,36.48196740000001,0 -121.16041009999998,36.48194170000001,0 -121.16030739999998,36.48174240000001,0 -121.16028959999998,36.48171730000001,0 -121.16027199999998,36.481707700000015,0 -121.16014209999997,36.481654700000014,0 -121.16002139999996,36.48157280000001,0 -121.15989539999998,36.48145200000001,0 -121.15973169999998,36.48129890000001,0 -121.15960839999998,36.48119750000001,0 -121.15946079999998,36.48105520000001,0 -121.15936159999997,36.48094300000001,0 -121.15923289999996,36.48079210000001,0 -121.15918149999997,36.48073920000001,0 -121.15916309999997,36.4807295,0 -121.15914779999996,36.480726600000004,0 -121.15910529999996,36.4807178,0 -121.15909209999997,36.4807117,0 -121.15908569999998,36.4807007,0 -121.15908969999997,36.480684499999995,0 -121.15911239999996,36.4806465,0 -121.15911479999995,36.4806282,0 -121.15911399999995,36.480619,0 -121.15909169999995,36.48053,0 -121.15906919999995,36.4804405,0 -121.15897269999994,36.480324100000004,0 -121.15891979999992,36.48026600000001,0 -121.15887879999991,36.48024,0 -121.15886109999991,36.480237300000006,0 -121.15870709999992,36.480214100000005,0 -121.15866089999992,36.48021260000001,0 -121.15863589999992,36.480207400000005,0 -121.15861079999992,36.480199400000004,0 -121.15860119999994,36.480179400000004,0 -121.15858689999993,36.4801523,0 -121.15849259999992,36.479942300000005,0 -121.15840669999992,36.479897,0 -121.15834239999992,36.4798992,0 -121.15827259999992,36.4799984,0 -121.1582115999999,36.4800788,0 -121.1581786999999,36.4800976,0 -121.15808219999988,36.48011270000001,0 -121.1579777999999,36.48011290000001,0 -121.15791859999989,36.480119200000004,0 -121.15790329999989,36.480124700000005,0 -121.15786339999988,36.4801392,0 -121.1577173999999,36.480227000000006,0 -121.1572586999999,36.48038660000001,0 -121.15709589999989,36.480461000000005,0 -121.1570387999999,36.48050090000001,0 -121.15691799999989,36.480607500000005,0 -121.15687709999989,36.48063330000001,0 </coordinates></LineString><TimeSpan><begin>2021-02-15T18:26:27.000Z</begin><end>2021-02-15T18:42:34.000Z</end></TimeSpan></Placemark><Placemark><name>Driving</name><address></address><ExtendedData><Data name="Email"><value>syugen.zhou@gmail.com</value></Data><Data name="Category"><value>Driving</value></Data><Data name="Distance"><value>1725</value></Data></ExtendedData><description> Driving from 2021-02-15T18:42:34.000Z to 2021-02-15T18:51:39.000Z. Distance 1725m </description><LineString><altitudeMode>clampToGround</altitudeMode><extrude>1</extrude><tesselate>1</tesselate><coordinates>-121.156758,36.4808654,0 -121.15674309999999,36.481199399999994,0 -121.1567525,36.481234199999996,0 -121.15678510000001,36.48127399999999,0 -121.15691250000002,36.48135249999999,0 -121.15703320000001,36.481477399999996,0 -121.15711350000002,36.4815921,0 -121.15726790000001,36.481477,0 -121.1574316,36.4813772,0 -121.1577112,36.4812289,0 -121.1583409,36.4809869,0 -121.1585553,36.48093419999999,0 -121.1587269,36.480914799999994,0 -121.15886970000001,36.48093259999999,0 -121.15903560000001,36.480983099999996,0 -121.15912740000002,36.48102909999999,0 -121.15921010000002,36.48108059999999,0 -121.16017650000002,36.48192499999999,0 -121.16047160000001,36.48213849999999,0 -121.1618904,36.48302739999999,0 -121.16273509999999,36.48347619999999,0 -121.16766659999999,36.48578839999999,0 -121.16789649999998,36.48594409999999,0 -121.16823509999999,36.48621139999999,0 -121.168461,36.48644579999999,0 -121.1688526,36.48692589999999,0 -121.16904129999999,36.48708699999999,0 -121.16931319999999,36.48706769999999,0 -121.16936059999999,36.48705609999999,0 -121.1694543,36.487019399999994,0 -121.16955189999999,36.48695579999999,0 -121.169677,36.486826099999995,0 -121.16970419999998,36.486770099999994,0 -121.1697123,36.4867297,0 -121.1697177,36.486607799999994,0 -121.1696938,36.486488099999995,0 -121.16967200000002,36.4864309,0 -121.16963760000002,36.4863727,0 -121.16944070000002,36.4861611,0 -121.16926260000004,36.4860074,0 -121.16900310000004,36.4858104,0 -121.16878820000004,36.4856692,0 -121.16838380000002,36.485433799999996,0 -121.16817,36.4852688,0 -121.16792980000001,36.485041599999995,0 -121.1674514,36.484497,0 -121.16740110000002,36.4844252,0 -121.16735220000002,36.484306399999994,0 -121.16734020000003,36.484244499999996,0 -121.16733270000005,36.4841231,0 -121.16734390000003,36.48404539999999,0 -121.16736870000003,36.483958599999994,0 -121.16744870000004,36.48379679999999,0 -121.16750640000005,36.483708899999996,0 -121.16757090000003,36.4836301,0 -121.16778280000004,36.4834566,0 -121.16785750000004,36.4834095,0 -121.16793130000002,36.4833727,0 -121.16815080000002,36.4832842,0 -121.16823490000002,36.4832602,0 -121.1683916,36.4832459,0 -121.1685003,36.483251200000005,0 -121.1689339,36.4833148,0 -121.16911669999999,36.483316900000005,0 -121.16924959999999,36.4833009,0 -121.16960529999997,36.48323330000001,0 -121.17005429999998,36.48318650000001,0 -121.17033989999997,36.48317970000001,0 -121.17077389999997,36.4831939,0 -121.17117639999998,36.48327960000001,0 -121.17166209999998,36.48341540000001,0 -121.17202339999997,36.48348150000001,0 -121.17348539999998,36.483532300000014,0 -121.17363769999999,36.48351730000001,0 -121.17377679999997,36.48348710000001,0 -121.17441169999996,36.48330430000001,0 -121.17456219999997,36.48327460000001,0 -121.17482919999998,36.483268200000005,0 -121.17513619999997,36.48331900000001,0 -121.17563079999998,36.48342990000001,0 -121.17583939999997,36.48345060000001,0 -121.17616479999998,36.48346290000001,0 -121.17699449999998,36.483423000000016,0 -121.17741359999998,36.48337130000001,0 -121.1776132,36.483328600000014,0 -121.17775079999998,36.48328190000001,0 -121.1779363,36.48320500000001,0 -121.17830359999999,36.48301250000001,0 -121.17881409999998,36.48265030000001,0 -121.17896079999998,36.48255930000001,0 -121.1799514,36.482217300000016,0 -121.18090009999999,36.481792200000015,0 -121.1812765,36.48152020000001,0 -121.18143689999998,36.48133880000002,0 -121.18162679999998,36.481001100000015,0 -121.18173559999997,36.48075950000001,0 -121.18159979999996,36.480816900000015,0 -121.18152199999996,36.48086760000001,0 -121.18143079999996,36.48094740000002,0 -121.18136339999995,36.48109370000002,0 </coordinates></LineString><TimeSpan><begin>2021-02-15T18:42:34.000Z</begin><end>2021-02-15T18:51:39.000Z</end></TimeSpan></Placemark><Placemark><name>Walking</name><address></address><ExtendedData><Data name="Email"><value>syugen.zhou@gmail.com</value></Data><Data name="Category"><value>Walking</value></Data><Data name="Distance"><value>1301</value></Data></ExtendedData><description> Walking from 2021-02-15T18:51:39.000Z to 2021-02-15T19:29:58.000Z. Distance 1301m </description><LineString><altitudeMode>clampToGround</altitudeMode><extrude>1</extrude><tesselate>1</tesselate><coordinates>-121.18136340000001,36.481093699999995,0 -121.18124700000001,36.481315599999995,0 -121.18121610000001,36.481353299999995,0 -121.18108210000003,36.4814758,0 -121.18105530000001,36.4815189,0 -121.18103070000001,36.4816139,0 -121.18126720000001,36.4814304,0 -121.1813636,36.4814279,0 -121.18150859999999,36.4814606,0 -121.18165079999999,36.4815124,0 -121.18173659999998,36.481572799999995,0 -121.18199939999998,36.4818208,0 -121.18218449999996,36.4819114,0 -121.18227299999998,36.4820084,0 -121.18264849999997,36.4823513,0 -121.18271829999998,36.482523799999996,0 -121.18272359999996,36.482638099999996,0 -121.18261639999994,36.4827848,0 -121.18262169999994,36.482836500000005,0 -121.18264849999994,36.4828667,0 -121.18271559999995,36.4828603,0 -121.18284969999995,36.4828301,0 -121.18299719999996,36.4828322,0 -121.18356589999995,36.4829055,0 -121.18362219999996,36.4829336,0 -121.18378309999996,36.4830802,0 -121.18388239999997,36.4831385,0 -121.18401109999998,36.4832484,0 -121.18408619999997,36.483352,0 -121.18415059999995,36.483423099999996,0 -121.18423639999995,36.4834512,0 -121.18434369999996,36.483461899999995,0 -121.18446709999995,36.4835202,0 -121.18466819999995,36.4836604,0 -121.18484259999994,36.4837531,0 -121.18496869999996,36.4838048,0 -121.18504109999995,36.4838911,0 -121.18503569999994,36.484070100000004,0 -121.18504379999995,36.48413480000001,0 -121.18501689999994,36.48420160000001,0 -121.18505719999993,36.48428790000001,0 -121.18513489999994,36.48438060000001,0 -121.18517789999994,36.48440650000001,0 -121.18522609999994,36.48438280000001,0 -121.18525559999995,36.484320300000014,0 -121.18533069999994,36.48423620000002,0 -121.18564989999994,36.48400110000002,0 -121.18575719999995,36.48396660000002,0 -121.18588859999996,36.48396660000002,0 -121.18603619999996,36.483981700000015,0 -121.18618909999996,36.48396010000002,0 -121.18664229999996,36.483867400000015,0 -121.18678989999998,36.48380480000002,0 -121.18691859999998,36.48377030000002,0 -121.18701789999999,36.48375960000002,0 -121.18787079999997,36.483525600000014,0 -121.18810949999998,36.48349000000002,0 -121.18825969999999,36.48352660000002,0 -121.18835359999999,36.48349430000002,0 -121.18841259999999,36.48342740000002,0 -121.18849309999999,36.48338860000002,0 -121.1887345,36.48337570000002,0 -121.18892759999999,36.48331310000002,0 -121.18910729999999,36.48321180000002,0 -121.18935409999997,36.48315360000002,0 -121.18968929999998,36.48302850000002,0 -121.18992809999999,36.48297890000001,0 -121.19004339999998,36.48297890000001,0 -121.19014259999999,36.48303060000001,0 -121.1904618,36.483315300000015,0 -121.1905396,36.48345980000002,0 -121.19066570000001,36.483505100000016,0 -121.19081320000002,36.48353100000002,0 -121.19104920000001,36.483867400000015,0 -121.19107870000002,36.484186600000015,0 -121.19106650000002,36.48429860000001,0 -121.19105720000002,36.48430480000001,0 -121.19105060000001,36.48430600000001,0 -121.191045,36.484303900000015,0 -121.19082279999999,36.48397570000001,0 -121.1908177,36.48397180000001,0 -121.19080780000002,36.48397310000001,0 -121.1908036,36.48397810000001,0 -121.1908049,36.48407250000001,0 -121.19076759999999,36.484449700000006,0 -121.19076909999998,36.484609100000014,0 -121.19097679999997,36.48479250000001,0 -121.19105989999996,36.484852900000014,0 -121.19107359999997,36.48485830000001,0 -121.19116039999997,36.48487330000001,0 -121.19118089999996,36.484885700000014,0 -121.19127179999997,36.48498880000001,0 -121.19143279999996,36.48511820000001,0 -121.19152669999995,36.48516350000001,0 -121.19163389999997,36.485243300000015,0 -121.19173849999996,36.48528420000002,0 -121.19222669999995,36.48535970000001,0 -121.19249219999995,36.485366200000016,0 -121.19261829999996,36.48539210000001,0 -121.19265969999996,36.48542180000001,0 </coordinates></LineString><TimeSpan><begin>2021-02-15T18:51:39.000Z</begin><end>2021-02-15T19:29:58.000Z</end></TimeSpan></Placemark><Placemark><name>Condor Gulch</name><address>Dropped pin</address><ExtendedData><Data name="Email"><value>syugen.zhou@gmail.com</value></Data><Data name="Category"><value></value></Data><Data name="Distance"><value>0</value></Data></ExtendedData><description>  from 2021-02-15T19:29:58.000Z to 2021-02-15T19:51:00.000Z. Distance 0m </description><Point><coordinates>-121.1926662,36.4854153,0</coordinates></Point><TimeSpan><begin>2021-02-15T19:29:58.000Z</begin><end>2021-02-15T19:51:00.000Z</end></TimeSpan></Placemark><Placemark><name>Walking</name><address></address><ExtendedData><Data name="Email"><value>syugen.zhou@gmail.com</value></Data><Data name="Category"><value>Walking</value></Data><Data name="Distance"><value>1243</value></Data></ExtendedData><description> Walking from 2021-02-15T19:51:00.000Z to 2021-02-15T20:21:04.000Z. Distance 1243m </description><LineString><altitudeMode>clampToGround</altitudeMode><extrude>1</extrude><tesselate>1</tesselate><coordinates>-121.19265969999998,36.4854218,0 -121.19261829999998,36.4853921,0 -121.19249219999998,36.485366199999994,0 -121.19222669999998,36.4853597,0 -121.19173849999999,36.485284199999995,0 -121.1916339,36.48524329999999,0 -121.19152669999998,36.48516349999999,0 -121.19143279999999,36.485118199999995,0 -121.1912718,36.484988799999996,0 -121.19118089999998,36.4848857,0 -121.19116039999999,36.4848733,0 -121.1910736,36.48485829999999,0 -121.19105989999998,36.48485289999999,0 -121.19097679999999,36.4847925,0 -121.1907691,36.48460909999999,0 -121.19076760000002,36.48444969999999,0 -121.19080490000002,36.48407249999999,0 -121.19080360000002,36.483978099999995,0 -121.19080780000004,36.48397309999999,0 -121.19081770000003,36.48397179999999,0 -121.19082280000002,36.483975699999995,0 -121.19104500000003,36.48430389999999,0 -121.19105060000004,36.48430599999999,0 -121.19105720000005,36.48430479999999,0 -121.19106650000005,36.484298599999995,0 -121.19107870000005,36.484186599999994,0 -121.19104920000004,36.483867399999994,0 -121.19081320000005,36.483531,0 -121.19066570000004,36.483505099999995,0 -121.19053960000002,36.4834598,0 -121.19046180000002,36.4833153,0 -121.1901426,36.4830306,0 -121.19004340000001,36.4829789,0 -121.18992810000002,36.4829789,0 -121.1896893,36.483028499999996,0 -121.1893541,36.4831536,0 -121.18910730000002,36.48321180000001,0 -121.18892760000001,36.483313100000004,0 -121.18873450000001,36.483375699999996,0 -121.18849310000002,36.4833886,0 -121.1884126,36.483427400000004,0 -121.18835360000001,36.483494300000004,0 -121.18825970000002,36.4835266,0 -121.18810950000001,36.483489999999996,0 -121.1878708,36.48352559999999,0 -121.18701790000001,36.4837596,0 -121.18691860000001,36.483770299999996,0 -121.1867899,36.4838048,0 -121.18664229999999,36.483867399999994,0 -121.18618909999998,36.4839601,0 -121.18603619999999,36.483981699999994,0 -121.18588859999998,36.483966599999995,0 -121.18575719999998,36.483966599999995,0 -121.18564989999997,36.4840011,0 -121.18533069999997,36.4842362,0 -121.18525559999998,36.4843203,0 -121.18522609999997,36.4843828,0 -121.18517789999996,36.4844065,0 -121.18513489999997,36.484380599999994,0 -121.18505719999996,36.48428789999999,0 -121.18501689999997,36.48420159999999,0 -121.18504379999997,36.484134799999985,0 -121.18503569999996,36.48407009999999,0 -121.18504109999998,36.48389109999999,0 -121.18496869999998,36.48380479999998,0 -121.18484259999997,36.48375309999998,0 -121.18466819999998,36.483660399999984,0 -121.18446709999996,36.48352019999998,0 -121.18434369999997,36.48346189999998,0 -121.18423639999996,36.483451199999976,0 -121.18415059999998,36.48342309999998,0 -121.18408619999998,36.48335199999998,0 -121.1840111,36.48324839999998,0 -121.18388239999999,36.48313849999998,0 -121.18378309999999,36.48308019999998,0 -121.18362219999999,36.48293359999998,0 -121.18356589999998,36.48290549999998,0 -121.18299719999999,36.48283219999998,0 -121.18284969999998,36.48283009999998,0 -121.18271559999998,36.482860299999984,0 -121.18264849999997,36.48286669999998,0 -121.18262169999996,36.48283649999998,0 -121.18261639999997,36.48278479999998,0 -121.18272359999999,36.48263809999998,0 -121.18271829999999,36.48252379999998,0 -121.1826485,36.482351299999976,0 -121.182273,36.482008399999984,0 -121.18218449999999,36.48191139999998,0 -121.1819994,36.48182079999998,0 -121.1817366,36.48157279999998,0 -121.18165080000001,36.48151239999998,0 -121.18150860000002,36.48146059999998,0 -121.18136360000003,36.481427899999986,0 -121.18126720000004,36.48143039999998,0 -121.18103070000004,36.48161389999998,0 -121.18105530000004,36.481518899999976,0 -121.18108210000004,36.48147579999998,0 -121.18121610000004,36.481353299999974,0 -121.18124700000004,36.48131559999998,0 -121.18132520000003,36.48117679999998,0 </coordinates></LineString><TimeSpan><begin>2021-02-15T19:51:00.000Z</begin><end>2021-02-15T20:21:04.000Z</end></TimeSpan></Placemark><Placemark><name>Driving</name><address></address><ExtendedData><Data name="Email"><value>syugen.zhou@gmail.com</value></Data><Data name="Category"><value>Driving</value></Data><Data name="Distance"><value>129458</value></Data></ExtendedData><description> Driving from 2021-02-15T20:21:04.000Z to 2021-02-15T21:57:46.000Z. Distance 129458m </description><LineString><altitudeMode>clampToGround</altitudeMode><extrude>1</extrude><tesselate>1</tesselate><coordinates>-121.18132519999999,36.4811768,0 -121.18105529999998,36.481518900000005,0 -121.18100559999999,36.481713500000005,0 -121.18090009999999,36.4817922,0 -121.17896079999998,36.482559300000005,0 -121.17830359999999,36.48301250000001,0 -121.1776132,36.48332860000001,0 -121.1761648,36.483462900000006,0 -121.17456219999998,36.48327460000001,0 -121.17363769999999,36.48351730000001,0 -121.1720234,36.48348150000001,0 -121.1707739,36.4831939,0 -121.1700543,36.48318650000001,0 -121.16911669999999,36.48331690000001,0 -121.16823489999999,36.483260200000004,0 -121.16785749999998,36.4834095,0 -121.16757089999999,36.4836301,0 -121.16736869999998,36.4839586,0 -121.16733269999999,36.484123100000005,0 -121.16740109999999,36.484425200000004,0 -121.1683838,36.4854338,0 -121.1690031,36.485810400000005,0 -121.1696376,36.486372700000004,0 -121.1697177,36.4866078,0 -121.16967700000002,36.48682610000001,0 -121.16945430000001,36.48701940000001,0 -121.16904130000002,36.487087,0 -121.1682351,36.4862114,0 -121.16766660000002,36.485788400000004,0 -121.1618904,36.483027400000005,0 -121.16017649999999,36.481925000000004,0 -121.15903559999998,36.4809831,0 -121.15872689999998,36.48091480000001,0 -121.15834089999997,36.480986900000005,0 -121.15771119999997,36.48122890000001,0 -121.15711349999997,36.48159210000001,0 -121.15674009999998,36.48219500000001,0 -121.15612649999998,36.482674900000006,0 -121.1557235,36.48325870000001,0 -121.1551789,36.484866800000006,0 -121.1551335,36.48602660000001,0 -121.1544898,36.487247200000006,0 -121.15385619999999,36.487860000000005,0 -121.15202869999999,36.488888200000005,0 -121.14971249999999,36.49071800000001,0 -121.1495786,36.490940500000015,0 -121.1495215,36.49126700000001,0 -121.14887820000001,36.49225110000001,0 -121.14738960000001,36.493364800000016,0 -121.14642380000001,36.49480370000001,0 -121.14626230000002,36.494932700000014,0 -121.14396080000002,36.49583680000001,0 -121.1426562,36.49687520000001,0 -121.14098890000001,36.49910780000001,0 -121.14087600000002,36.49940770000001,0 -121.14086170000003,36.49969380000002,0 -121.14075400000003,36.499853600000016,0 -121.14026560000002,36.50012620000002,0 -121.14008180000002,36.50039720000002,0 -121.14010160000002,36.50095140000002,0 -121.14003980000003,36.50111500000002,0 -121.13948300000004,36.50184420000002,0 -121.13923470000003,36.502511400000024,0 -121.13918960000004,36.503137700000025,0 -121.13942180000004,36.503571800000024,0 -121.13945740000003,36.50376560000003,0 -121.13928720000003,36.50486960000003,0 -121.13935090000003,36.50533560000002,0 -121.13923110000003,36.505650600000024,0 -121.13965790000002,36.50733160000002,0 -121.13962570000002,36.507744200000026,0 -121.13949810000003,36.50792150000002,0 -121.13858180000001,36.508533900000025,0 -121.13778000000002,36.509631400000025,0 -121.13761250000003,36.510167800000026,0 -121.13739090000004,36.510517800000024,0 -121.13727000000004,36.51089630000003,0 -121.13744700000002,36.511942000000026,0 -121.13734770000002,36.51382210000003,0 -121.13715630000002,36.51468900000003,0 -121.13640770000002,36.515642000000035,0 -121.13631990000003,36.51599930000003,0 -121.13707360000004,36.51806480000003,0 -121.13732480000003,36.51828060000003,0 -121.13788120000004,36.51902890000003,0 -121.13815880000003,36.51970990000003,0 -121.13829690000003,36.52091890000003,0 -121.13917970000004,36.522120200000025,0 -121.13972000000004,36.52255830000002,0 -121.14006430000003,36.523608700000025,0 -121.14052360000004,36.52399720000003,0 -121.14123360000005,36.52428720000003,0 -121.14397980000004,36.527220700000036,0 -121.14407440000004,36.52739430000003,0 -121.14417180000004,36.527892300000026,0 -121.14411680000005,36.52903450000003,0 -121.14423920000003,36.529458500000025,0 -121.14531360000002,36.53060840000003,0 -121.14593300000003,36.53173530000003,0 -121.14624990000003,36.53274750000003,0 -121.14669080000002,36.53322360000003,0 -121.14807200000003,36.533938500000026,0 -121.14824000000003,36.53408460000003,0 -121.14947420000003,36.53631630000003,0 -121.14978150000003,36.53659810000003,0 -121.15157190000004,36.537786700000034,0 -121.15214390000003,36.53853430000004,0 -121.15264330000004,36.539001600000034,0 -121.15310940000005,36.54014080000004,0 -121.15519610000003,36.542109800000034,0 -121.15554950000002,36.54274260000004,0 -121.15565160000001,36.54325570000004,0 -121.15606840000001,36.54420930000004,0 -121.15649680000001,36.544695900000036,0 -121.15674410000003,36.54532810000004,0 -121.15741510000002,36.54616370000004,0 -121.15750860000003,36.54644550000004,0 -121.15751020000002,36.54742880000004,0 -121.15800560000001,36.54863990000004,0 -121.1581359,36.548783000000036,0 -121.15924229999999,36.54954930000004,0 -121.1603101,36.55111250000004,0 -121.16094979999998,36.55166960000004,0 -121.16238589999999,36.55226830000004,0 -121.1639437,36.55226040000004,0 -121.16560070000001,36.552503000000044,0 -121.16618980000003,36.55273660000004,0 -121.16681180000002,36.55316050000004,0 -121.16877960000001,36.55395350000004,0 -121.16942710000002,36.55474760000004,0 -121.17101760000001,36.55793820000004,0 -121.17107680000001,36.55825220000004,0 -121.1712948,36.55863340000004,0 -121.1725679,36.55972230000004,0 -121.1727822,36.559814600000045,0 -121.1747511,36.560112600000046,0 -121.17494470000001,36.560219400000044,0 -121.17506260000002,36.56035670000005,0 -121.17518310000003,36.560862900000046,0 -121.17541180000002,36.56111830000005,0 -121.17766150000003,36.56254750000004,0 -121.17780750000001,36.56259610000004,0 -121.17848820000002,36.56264750000005,0 -121.17869830000001,36.56271640000005,0 -121.18021789999999,36.56405030000004,0 -121.18086329999998,36.56429420000004,0 -121.18111679999998,36.56453790000004,0 -121.18186549999997,36.565652200000045,0 -121.18292399999997,36.56638400000004,0 -121.18414569999999,36.56764320000004,0 -121.18423159999999,36.56781290000004,0 -121.1842681,36.56812400000004,0 -121.18412450000001,36.56890470000004,0 -121.18406060000001,36.57220190000004,0 -121.18428170000001,36.57297670000004,0 -121.18741280000002,36.577320700000044,0 -121.18806480000003,36.57801610000004,0 -121.19112260000004,36.580058200000046,0 -121.19159510000004,36.58058610000004,0 -121.19184470000005,36.58102820000004,0 -121.19227220000005,36.58225640000004,0 -121.19265170000006,36.58285230000004,0 -121.19460900000006,36.584553500000034,0 -121.19513630000004,36.58519480000004,0 -121.19540850000004,36.58586380000004,0 -121.19562950000005,36.58731170000004,0 -121.19676200000006,36.58925100000004,0 -121.19699030000007,36.58992360000004,0 -121.19701160000007,36.59056820000004,0 -121.19691960000006,36.59097720000004,0 -121.19642060000007,36.591862400000046,0 -121.19561910000007,36.59266810000005,0 -121.19496720000006,36.59357670000005,0 -121.19455650000006,36.594870800000045,0 -121.19450520000007,36.59989720000005,0 -121.19471360000007,36.600625200000046,0 -121.19596960000007,36.60292620000005,0 -121.19686940000007,36.60411370000005,0 -121.19796150000006,36.60512290000004,0 -121.20095020000005,36.607004000000046,0 -121.20341940000004,36.60891830000004,0 -121.20799120000004,36.61315290000004,0 -121.20887190000003,36.61366990000004,0 -121.20973350000004,36.61394840000004,0 -121.21326690000004,36.614268600000045,0 -121.21373200000004,36.614370000000044,0 -121.21490530000004,36.61488660000005,0 -121.21561620000003,36.61545320000005,0 -121.21947750000002,36.61992780000004,0 -121.25319110000004,36.673803300000046,0 -121.27454560000004,36.70109650000005,0 -121.27515700000002,36.70218270000005,0 -121.27544680000003,36.70301580000005,0 -121.27754730000002,36.71644210000006,0 -121.27931050000002,36.72404200000006,0 -121.27936590000003,36.725136800000065,0 -121.27894100000002,36.728133700000065,0 -121.27904700000003,36.730027100000065,0 -121.28172180000003,36.738008000000065,0 -121.28174360000003,36.739603500000065,0 -121.28128230000002,36.74136950000006,0 -121.28062510000001,36.74264560000006,0 -121.28048020000003,36.743206700000066,0 -121.28055540000004,36.74411490000006,0 -121.28076020000003,36.744617200000064,0 -121.28112170000003,36.74511180000006,0 -121.28154930000002,36.745504300000064,0 -121.28497440000002,36.74723640000006,0 -121.28582030000001,36.74787580000007,0 -121.28636120000002,36.74849610000007,0 -121.28833300000001,36.75159690000007,0 -121.28929060000002,36.75265870000007,0 -121.28987950000001,36.75310250000006,0 -121.29472990000002,36.75594800000006,0 -121.29505620000002,36.75625020000006,0 -121.29536400000002,36.756699800000064,0 -121.29555150000002,36.757532900000065,0 -121.29545070000002,36.759188600000066,0 -121.29586530000002,36.76044380000007,0 -121.30132090000002,36.76745050000007,0 -121.30575390000001,36.77103690000007,0 -121.30779230000003,36.77186950000007,0 -121.30840940000002,36.772274100000075,0 -121.30894480000002,36.772903400000075,0 -121.315836,36.78697080000007,0 -121.31650330000002,36.78759070000007,0 -121.3236243,36.79126040000007,0 -121.3241131,36.79168920000007,0 -121.3244272,36.79211640000007,0 -121.3252765,36.79385940000007,0 -121.32574699999999,36.79444190000007,0 -121.32643619999999,36.794949200000076,0 -121.33215779999998,36.79761730000008,0 -121.33465529999997,36.799060000000075,0 -121.33596399999995,36.800024400000076,0 -121.34979549999996,36.81268970000008,0 -121.35095459999995,36.81339710000008,0 -121.35257119999994,36.81408380000008,0 -121.35382439999994,36.81443010000008,0 -121.36534049999995,36.81666460000008,0 -121.36701119999994,36.81728410000008,0 -121.37959519999993,36.824508900000076,0 -121.38159489999993,36.825993700000076,0 -121.38282529999992,36.827309900000074,0 -121.38795249999991,36.83473100000008,0 -121.38796559999992,36.83486480000008,0 -121.3904868999999,36.83871130000008,0 -121.39070279999989,36.839317400000084,0 -121.39078529999989,36.84026610000008,0 -121.3901018999999,36.85015570000008,0 -121.3907487999999,36.85622560000008,0 -121.3905726999999,36.86204750000008,0 -121.39064509999989,36.86250940000008,0 -121.3908921999999,36.86313320000008,0 -121.3915143999999,36.86390800000008,0 -121.3923329999999,36.86446440000008,0 -121.39270289999988,36.864627700000085,0 -121.39369299999987,36.86488100000009,0 -121.40129739999989,36.86521120000009,0 -121.40201519999988,36.86538040000009,0 -121.40304309999988,36.86586010000009,0 -121.40355139999987,36.866278000000094,0 -121.40913109999987,36.8726286000001,0 -121.41406139999987,36.8805036000001,0 -121.41633769999989,36.883085700000095,0 -121.41635949999987,36.883158100000095,0 -121.41868199999988,36.8857083000001,0 -121.42285259999987,36.8910877000001,0 -121.43200799999988,36.900447800000094,0 -121.43205209999986,36.9004592000001,0 -121.44143629999988,36.910076100000104,0 -121.44143609999988,36.910130800000104,0 -121.44851319999987,36.9173650000001,0 -121.44979739999988,36.9184642000001,0 -121.44985889999988,36.9184782000001,0 -121.45111599999989,36.9193464000001,0 -121.45116639999989,36.9194168000001,0 -121.45190219999988,36.919853100000104,0 -121.50469269999988,36.944750600000106,0 -121.50479019999987,36.9448348000001,0 -121.51109289999987,36.947729300000105,0 -121.51331219999986,36.9483941000001,0 -121.52351119999986,36.9507412000001,0 -121.52563259999987,36.9515898000001,0 -121.52689729999986,36.95241310000009,0 -121.53467999999985,36.9600247000001,0 -121.53655979999986,36.9612427000001,0 -121.53756009999987,36.961650300000095,0 -121.53919739999986,36.9620908000001,0 -121.54489849999986,36.9628071000001,0 -121.54582009999986,36.96279440000009,0 -121.54654099999986,36.9626744000001,0 -121.54831449999986,36.9621214000001,0 -121.54838279999987,36.962236700000105,0 -121.54851609999987,36.9622973000001,0 -121.55074709999987,36.9619696000001,0 -121.55089139999987,36.962034200000105,0 -121.55103759999986,36.9621811000001,0 -121.55111609999985,36.9622157000001,0 -121.55444159999986,36.9734902000001,0 -121.55840189999986,36.983052900000104,0 -121.55855539999988,36.985016300000105,0 -121.55596899999988,36.9987107000001,0 -121.55591219999988,37.0007214000001,0 -121.55607539999988,37.002059200000105,0 -121.55650779999988,37.003696000000105,0 -121.5570721999999,37.00507110000011,0 -121.57641149999989,37.04103860000011,0 -121.59032119999989,37.07269490000011,0 -121.60434019999987,37.098046800000105,0 -121.60522839999987,37.099268200000104,0 -121.60666219999987,37.100844400000106,0 -121.62111039999986,37.112331800000106,0 -121.62336649999988,37.114787400000104,0 -121.62680339999989,37.1204213000001,0 -121.6268076999999,37.12049460000011,0 -121.6361692999999,37.13609060000011,0 -121.6374321999999,37.137637600000104,0 -121.65689059999991,37.157654400000105,0 -121.65866579999991,37.159237700000105,0 -121.66242019999991,37.162035900000106,0 -121.66427379999992,37.163714600000105,0 -121.66930639999994,37.16956640000011,0 -121.67998149999993,37.17909060000011,0 -121.68469999999992,37.184516400000106,0 -121.68656469999992,37.18620010000011,0 -121.70398699999993,37.19845220000011,0 -121.72062499999991,37.20808670000011,0 -121.72280669999992,37.20964990000011,0 -121.73063429999992,37.217435300000105,0 -121.74231259999993,37.226637200000106,0 -121.74464739999993,37.22819640000011,0 -121.79453459999993,37.25616430000011,0 -121.79688149999993,37.25788150000011,0 -121.79849289999993,37.259582400000106,0 -121.79994659999993,37.2617637000001,0 -121.80062769999992,37.263291800000104,0 -121.80472089999992,37.2758442000001,0 -121.80536099999993,37.277227800000105,0 -121.80843119999993,37.2820510000001,0 -121.80893069999993,37.283237000000106,0 -121.80921069999992,37.284541200000106,0 -121.80977979999993,37.2940570000001,0 -121.81007259999993,37.2953624000001,0 -121.81096279999993,37.2971748000001,0 -121.81164379999991,37.2980577000001,0 -121.85621939999993,37.3441569000001,0 -121.86292409999993,37.3514251000001,0 -121.86961869999993,37.3573567000001,0 -121.87123679999993,37.358519800000096,0 -121.87361089999993,37.359859300000096,0 -121.87623369999993,37.360918400000095,0 -121.87916709999993,37.3616956000001,0 -121.89868409999994,37.3637617000001,0 -121.89889939999993,37.363885000000096,0 -121.89957039999994,37.3640038000001,0 -121.89983899999994,37.36411580000009,0 -121.90001089999994,37.36424880000009,0 -121.90085359999995,37.365447000000096,0 -121.90099689999995,37.36578780000009,0 -121.90102419999995,37.366030100000096,0 -121.90111039999995,37.366133900000094,0 -121.90102089999995,37.36758820000009,0 -121.90341829999994,37.37843250000009,0 -121.90334919999995,37.37854850000009,0 -121.90347289999994,37.37984580000009,0 -121.90343029999994,37.38003180000009,0 -121.90282329999994,37.38105000000009,0 -121.90264519999995,37.381711400000086,0 -121.90203569999994,37.38171610000009,0 -121.90144239999994,37.381827500000085,0 -121.89934029999995,37.38269430000008,0 -121.89865119999996,37.38280480000008,0 -121.89855519999996,37.38286710000008,0 -121.89816459999996,37.38287950000008,0 -121.89804969999996,37.38294890000007,0 -121.89807209999995,37.383149600000074,0 -121.89817319999995,37.38332990000008,0 -121.89819439999995,37.383553400000075,0 -121.89808579999995,37.38352320000008,0 -121.89780919999993,37.383151400000074,0 -121.89761559999992,37.38321980000008,0 -121.89747629999991,37.383343700000076,0 -121.89712289999993,37.38333670000007,0 </coordinates></LineString><TimeSpan><begin>2021-02-15T20:21:04.000Z</begin><end>2021-02-15T21:57:46.000Z</end></TimeSpan></Placemark><Placemark><name>Noodle Talk San Jose福牛堂湘味馆</name><address>1095 E Brokaw Rd Ste 30, San Jose, CA 95131</address><ExtendedData><Data name="Email"><value>syugen.zhou@gmail.com</value></Data><Data name="Category"><value>Noodle Shop</value></Data><Data name="Distance"><value>0</value></Data></ExtendedData><description> Noodle Shop from 2021-02-15T21:57:46.000Z to 2021-02-15T22:11:40.000Z. Distance 0m </description><Point><coordinates>-121.89703829999999,37.383142,0</coordinates></Point><TimeSpan><begin>2021-02-15T21:57:46.000Z</begin><end>2021-02-15T22:11:40.000Z</end></TimeSpan></Placemark><Placemark><name>Driving</name><address></address><ExtendedData><Data name="Email"><value>syugen.zhou@gmail.com</value></Data><Data name="Category"><value>Driving</value></Data><Data name="Distance"><value>38939</value></Data></ExtendedData><description> Driving from 2021-02-15T22:11:40.000Z to 2021-02-15T22:41:17.000Z. Distance 38939m </description><LineString><altitudeMode>clampToGround</altitudeMode><extrude>1</extrude><tesselate>1</tesselate><coordinates>-121.8971229,37.38333670000001,0 -121.89698620000001,37.3833312,0 -121.8974734,37.384046600000005,0 -121.89753769999999,37.38404560000001,0 -121.89812509999999,37.383802700000004,0 -121.8981922,37.383736600000006,0 -121.89820439999998,37.3836876,0 -121.8981732,37.38332990000001,0 -121.89807210000001,37.3831496,0 -121.8980497,37.3829489,0 -121.89852390000001,37.3829507,0 -121.89923740000003,37.3828735,0 -121.89968170000002,37.382759,0 -121.90012680000002,37.382595800000004,0 -121.90121460000003,37.382071200000006,0 -121.90164510000004,37.38190680000001,0 -121.90185890000005,37.381858400000006,0 -121.90230070000004,37.38181570000001,0 -121.90278000000005,37.38185610000001,0 -121.90302240000005,37.3819171,0 -121.90392950000006,37.3822398,0 -121.90432400000005,37.38233290000001,0 -121.90481380000006,37.38236090000001,0 -121.90524310000006,37.38232810000001,0 -121.90577570000008,37.382163700000014,0 -121.91208250000008,37.37818810000001,0 -121.91283000000007,37.37764600000001,0 -121.91494560000008,37.37628100000001,0 -121.91532330000007,37.37597860000001,0 -121.91534060000008,37.37595170000001,0 -121.91821310000007,37.37336550000001,0 -121.91840130000008,37.373232400000006,0 -121.91894950000008,37.372740300000004,0 -121.9194143000001,37.3726033,0 -121.91966710000011,37.372589700000006,0 -121.92343770000011,37.37293590000001,0 -121.9237471000001,37.3729877,0 -121.9240042000001,37.37294970000001,0 -121.93397050000011,37.37530930000001,0 -121.9508675000001,37.378635200000005,0 -121.95090260000012,37.37865560000001,0 -121.9540984000001,37.37934620000001,0 -121.99605380000013,37.39131980000001,0 -121.99627390000012,37.39140710000001,0 -122.00211660000014,37.39311500000001,0 -122.00865710000012,37.394856300000015,0 -122.01456740000013,37.396152500000014,0 -122.01475570000012,37.39621290000001,0 -122.05074970000014,37.40407800000001,0 -122.05517680000014,37.405259600000015,0 -122.06743680000014,37.40797360000001,0 -122.06848220000015,37.408274700000014,0 -122.08093620000015,37.41322140000001,0 -122.08198300000015,37.41373330000001,0 -122.08318530000014,37.41443610000001,0 -122.08431610000014,37.41518800000001,0 -122.09678190000014,37.42424280000001,0 -122.09841020000013,37.425579000000006,0 -122.10614680000012,37.43291460000001,0 -122.10628830000013,37.43308220000001,0 -122.12478690000013,37.45070990000001,0 -122.12622020000015,37.45188910000001,0 -122.12759580000015,37.45277340000001,0 -122.17777750000016,37.482158200000015,0 -122.17896050000016,37.48273970000002,0 -122.18120390000017,37.483636300000015,0 -122.18347740000016,37.484371500000016,0 -122.18544050000015,37.48487850000002,0 -122.18789090000017,37.48536690000002,0 -122.20691490000017,37.48774690000002,0 -122.20894930000017,37.48807360000002,0 -122.21108010000017,37.48853210000002,0 -122.21302040000019,37.48906800000002,0 -122.21592800000019,37.49009640000002,0 -122.2242333000002,37.49372700000002,0 -122.22692990000021,37.49467270000002,0 -122.23577750000021,37.49726210000002,0 -122.23682970000023,37.49768810000002,0 -122.23792860000022,37.49827010000001,0 -122.23871710000022,37.49878440000002,0 -122.23940460000023,37.499316100000016,0 -122.27421680000022,37.53006190000002,0 -122.27570370000022,37.53152550000002,0 -122.29208050000022,37.54919170000002,0 -122.29205170000023,37.54932090000002,0 -122.29328990000023,37.55092900000002,0 -122.29329730000023,37.55096820000002,0 -122.29377980000025,37.55180400000002,0 -122.29382610000025,37.55202210000002,0 -122.29379650000024,37.55234970000002,0 -122.29363750000024,37.55268310000002,0 -122.29345220000023,37.552883600000015,0 -122.29328270000025,37.55301610000002,0 -122.29301220000025,37.55315900000002,0 -122.29158300000026,37.55375780000002,0 -122.29154060000025,37.55384100000002,0 -122.28806380000024,37.55505280000002,0 -122.28500030000025,37.55640120000002,0 -122.28270900000025,37.55767710000002,0 -122.27613630000026,37.56180390000002,0 -122.27595620000027,37.561818000000024,0 -122.27444100000027,37.562568300000024,0 -122.27409290000026,37.56267630000003,0 -122.27381650000027,37.56269090000002,0 -122.27369430000027,37.562674800000025,0 -122.27347410000027,37.562611500000024,0 -122.27329600000029,37.562520500000026,0 -122.27250080000027,37.56180440000003,0 -122.27216060000029,37.56202350000003,0 -122.27167930000027,37.56254270000003,0 -122.27146520000026,37.56261160000003,0 -122.27128050000027,37.56263400000003,0 -122.27058350000026,37.56225570000003,0 -122.26945980000026,37.561486300000034,0 -122.25567050000028,37.553721200000034,0 -122.25520250000028,37.554249800000036,0 </coordinates></LineString><TimeSpan><begin>2021-02-15T22:11:40.000Z</begin><end>2021-02-15T22:41:17.000Z</end></TimeSpan></Placemark><Placemark><name>702 Marlin Ave</name><address>702 Marlin Ave, Foster City, CA 94404</address><ExtendedData><Data name="Email"><value>syugen.zhou@gmail.com</value></Data><Data name="Category"><value></value></Data><Data name="Distance"><value>0</value></Data></ExtendedData><description>  from 2021-02-15T22:41:17.000Z to 2021-02-16T16:30:12.000Z. Distance 0m </description><Point><coordinates>-122.25498479999999,37.5541321,0</coordinates></Point><TimeSpan><begin>2021-02-15T22:41:17.000Z</begin><end>2021-02-16T16:30:12.000Z</end></TimeSpan></Placemark></Document></kml>
