<?xml version="1.0" encoding="UTF-8"?><kml xmlns="http://www.opengis.net/kml/2.2" xmlns:gx="http://www.google.com/kml/ext/2.2"><Document><name> Location history from 2020-01-20 to 2020-01-20 </name><open>1</open><description></description><StyleMap id="multiTrack"><Pair><key>normal</key><styleUrl>#multiTrack_n</styleUrl></Pair><Pair><key>highlight</key><styleUrl>#multiTrack_h</styleUrl></Pair></StyleMap><Style id="multiTrack_n"><IconStyle><Icon><href>https://earth.google.com/images/kml-icons/track-directional/track-0.png</href></Icon></IconStyle><LineStyle><color>99ffac59</color><width>6</width></LineStyle></Style><Style id="multiTrack_h"><IconStyle><scale>1.2</scale><Icon><href>https://earth.google.com/images/kml-icons/track-directional/track-0.png</href></Icon></IconStyle><LineStyle><color>99ffac59</color><width>8</width></LineStyle></Style><Placemark><name>Best Western Premier Miami Intl Airport Hotel &amp; Suites Coral Gables</name><address>4100 W Flagler St, Miami, FL 33134</address><ExtendedData><Data name="Email"><value>syugen.zhou@gmail.com</value></Data><Data name="Category"><value>Hotel</value></Data><Data name="Distance"><value>0</value></Data></ExtendedData><description> Hotel from 2020-01-20T00:56:46.000Z to 2020-01-20T13:41:49.999Z. Distance 0m </description><Point><coordinates>-80.262816,25.771276999999998,0</coordinates></Point><TimeSpan><begin>2020-01-20T00:56:46.000Z</begin><end>2020-01-20T13:41:49.999Z</end></TimeSpan></Placemark><Placemark><name>Driving</name><address></address><ExtendedData><Data name="Email"><value>syugen.zhou@gmail.com</value></Data><Data name="Category"><value>Driving</value></Data><Data name="Distance"><value>61201</value></Data></ExtendedData><description> Driving from 2020-01-20T13:41:49.999Z to 2020-01-20T14:55:22.999Z. Distance 61201m </description><LineString><altitudeMode>clampToGround</altitudeMode><extrude>1</extrude><tesselate>1</tesselate><coordinates>-80.2635547,25.771252999999998,0 -80.26357619999999,25.7716987,0 -80.2724349,25.7714402,0 -80.2731939,25.7714,0 -80.27347209999999,25.771395599999998,0 -80.2737484,25.7713717,0 -80.276569,25.771262,0 -80.2768555,25.7712388,0 -80.28811080000001,25.7707977,0 -80.28903120000001,25.7707838,0 -80.28931650000001,25.770769,0 -80.28979730000002,25.7707618,0 -80.28984720000001,25.7707843,0 -80.28988410000001,25.7708059,0 -80.294079,25.770729199999998,0 -80.29410120000001,25.7707255,0 -80.29814960000002,25.7706631,0 -80.29822890000001,25.7706694,0 -80.29947540000002,25.770631,0 -80.30420200000002,25.7705554,0 -80.30667870000002,25.770453800000002,0 -80.30674030000002,25.770462400000003,0 -80.30712640000002,25.7704343,0 -80.30840650000002,25.770384500000002,0 -80.30847600000001,25.770329300000004,0 -80.30896340000001,25.770306500000004,0 -80.30906510000001,25.7703388,0 -80.3106222,25.770314200000005,0 -80.312189,25.770248500000005,0 -80.3123494,25.770234100000003,0 -80.31310500000001,25.770205600000004,0 -80.3132241,25.770206400000003,0 -80.3182918,25.7699862,0 -80.31881469999999,25.770016599999998,0 -80.32120339999999,25.7699157,0 -80.3213703,25.7699875,0 -80.3215331,25.7700274,0 -80.3215897,25.7700468,0 -80.321698,25.7701076,0 -80.321761,25.7701705,0 -80.32187839999999,25.7703136,0 -80.32196069999999,25.771236,0 -80.32196329999998,25.771381099999996,0 -80.32195259999999,25.771444,0 -80.32192799999999,25.7715051,0 -80.32185399999999,25.771631399999997,0 -80.32178959999997,25.771690899999996,0 -80.32169459999999,25.771748199999998,0 -80.32162049999998,25.771778299999994,0 -80.32154799999999,25.771795399999995,0 -80.3215069,25.771800999999996,0 -80.3214132,25.771799799999997,0 -80.3213416,25.771789799999997,0 -80.3212759,25.771770799999995,0 -80.32116090000001,25.771715899999997,0 -80.3211217,25.771689199999997,0 -80.3210509,25.7716146,0 -80.32102160000001,25.7715734,0 -80.32097490000001,25.7714623,0 -80.32093,25.7711768,0 -80.3208839,25.771034599999997,0 -80.3208391,25.769821499999995,0 -80.320721,25.768765399999996,0 -80.3206279,25.766850899999998,0 -80.3206315,25.766469199999996,0 -80.32059190000001,25.766345099999995,0 -80.3205532,25.765280499999996,0 -80.32057300000001,25.764806399999998,0 -80.320572,25.764800599999997,0 -80.3205009,25.7646348,0 -80.3205788,25.7640272,0 -80.3211756,25.7608618,0 -80.3212267,25.7604557,0 -80.32124490000001,25.7601467,0 -80.32124010000001,25.7597098,0 -80.32121440000002,25.7593811,0 -80.32117540000002,25.7590882,0 -80.32111990000001,25.758784000000002,0 -80.32026690000001,25.7548491,0 -80.3201984,25.754404700000002,0 -80.320154,25.7539644,0 -80.3201291,25.7535298,0 -80.3200731,25.746615300000002,0 -80.3200154,25.7450164,0 -80.3197881,25.741175600000002,0 -80.3197478,25.7391705,0 -80.3196883,25.7384512,0 -80.3196597,25.7382218,0 -80.3195525,25.737581300000002,0 -80.319469,25.737180300000002,0 -80.3189311,25.734994200000003,0 -80.3187519,25.734009200000003,0 -80.3186429,25.733110300000003,0 -80.3185936,25.732450900000003,0 -80.31856930000001,25.731823500000004,0 -80.31850510000001,25.727773200000005,0 -80.31855540000001,25.727673600000006,0 -80.3185576,25.727662000000006,0 -80.31856820000002,25.727188200000008,0 -80.31861230000001,25.726385200000006,0 -80.3188463,25.724283000000007,0 -80.3188732,25.72375090000001,0 -80.3188766,25.723396300000008,0 -80.318837,25.722181400000007,0 -80.3186458,25.71937980000001,0 -80.31861669999999,25.71917980000001,0 -80.3182821,25.71580720000001,0 -80.31799939999999,25.71222620000001,0 -80.3175161,25.70242820000001,0 -80.31700790000001,25.687427300000014,0 -80.3170101,25.686976900000012,0 -80.31703990000001,25.686294500000013,0 -80.3170776,25.685865500000013,0 -80.31766840000002,25.68080380000001,0 -80.31771280000001,25.680322100000012,0 -80.3178309,25.67944430000001,0 -80.3178852,25.67912350000001,0 -80.31799110000001,25.67872420000001,0 -80.31806610000001,25.678503200000012,0 -80.31819910000002,25.67818230000001,0 -80.31918950000002,25.676261700000012,0 -80.31919080000002,25.67625640000001,0 -80.31918300000002,25.676135000000013,0 -80.32029790000001,25.67392070000001,0 -80.32031550000002,25.67380990000001,0 -80.33812010000003,25.63555040000001,0 -80.33823720000002,25.63523480000001,0 -80.33840210000002,25.63487000000001,0 -80.33843700000003,25.63480420000001,0 -80.33915720000003,25.63322580000001,0 -80.33982470000004,25.63188360000001,0 -80.34115560000004,25.62892980000001,0 -80.34130230000004,25.62865080000001,0 -80.34482310000004,25.62105720000001,0 -80.34493360000005,25.620765800000008,0 -80.34517970000005,25.620264100000007,0 -80.34524130000004,25.620116400000008,0 -80.34566630000005,25.619235100000008,0 -80.34571950000004,25.619138600000007,0 -80.34590920000004,25.618702300000006,0 -80.34601100000005,25.618419400000004,0 -80.34624940000005,25.617546400000005,0 -80.34635120000004,25.617050100000007,0 -80.34648460000004,25.616231500000005,0 -80.34664930000004,25.615457300000006,0 -80.34682760000004,25.614786600000006,0 -80.34695570000004,25.61442660000001,0 -80.34732850000003,25.613559500000008,0 -80.34747770000004,25.613267600000007,0 -80.35658070000004,25.59369770000001,0 -80.35686590000005,25.593137700000007,0 -80.35725240000004,25.59243730000001,0 -80.35770880000004,25.59169710000001,0 -80.35815710000004,25.59102120000001,0 -80.35890560000003,25.59002370000001,0 -80.35973500000003,25.589022400000008,0 -80.36499180000004,25.583612500000008,0 -80.36737060000003,25.580998000000008,0 -80.36851950000003,25.57982210000001,0 -80.36859370000003,25.579753200000006,0 -80.37068570000004,25.57759370000001,0 -80.37085990000003,25.57742880000001,0 -80.37322410000003,25.57499540000001,0 -80.37331330000004,25.57491400000001,0 -80.37529170000005,25.57286880000001,0 -80.37573340000004,25.57243590000001,0 -80.38173640000004,25.56629190000001,0 -80.38177640000004,25.56624530000001,0 -80.38199980000003,25.56603150000001,0 -80.38370170000005,25.564299200000008,0 -80.38440290000003,25.563548700000005,0 -80.38637190000003,25.56155110000001,0 -80.38698570000004,25.560904700000005,0 -80.38808740000003,25.559818600000007,0 -80.38915650000004,25.558696000000005,0 -80.39581940000004,25.551917500000005,0 -80.39815170000004,25.549699200000006,0 -80.41271650000004,25.534801700000006,0 -80.41279980000004,25.534727100000005,0 -80.41469720000005,25.532796800000003,0 -80.41492540000003,25.532549500000005,0 -80.42188090000003,25.525438400000006,0 -80.42202550000003,25.525275500000003,0 -80.42248260000002,25.524822700000005,0 -80.42286710000002,25.524381700000006,0 -80.42316130000002,25.524009200000005,0 -80.42355320000003,25.523427600000005,0 -80.42431710000001,25.522152900000005,0 -80.42464670000003,25.521713600000005,0 -80.42467950000001,25.521654000000005,0 -80.42516780000001,25.521057800000005,0 -80.42563950000002,25.520556200000005,0 -80.42930240000001,25.516811900000004,0 -80.42949430000002,25.5166302,0 -80.4306377,25.515449100000005,0 -80.430735,25.515338400000005,0 -80.4318593,25.514187100000004,0 -80.4327986,25.513264300000007,0 -80.4391769,25.506701700000008,0 -80.4394206,25.506427900000006,0 -80.4446367,25.50108700000001,0 -80.4449776,25.500760400000008,0 -80.44543780000001,25.50026720000001,0 -80.4463848,25.49929820000001,0 -80.44658890000001,25.49911200000001,0 -80.44795560000001,25.49777470000001,0 -80.45013740000002,25.49577720000001,0 -80.45153660000003,25.49440640000001,0 -80.45163630000002,25.49431800000001,0 -80.46041360000002,25.485314900000013,0 -80.46053320000003,25.485182400000014,0 -80.46091840000003,25.484797600000014,0 -80.46184600000004,25.483822500000013,0 -80.46205100000003,25.483584100000012,0 -80.46249870000003,25.48299090000001,0 -80.46278360000002,25.48252880000001,0 -80.46300650000002,25.482122100000012,0 -80.46325700000003,25.481571800000015,0 -80.46351180000002,25.480954800000013,0 -80.46435560000002,25.479077900000014,0 -80.46512070000001,25.47728600000001,0 -80.46516900000002,25.47721190000001,0 -80.46566600000001,25.476256800000012,0 -80.46602330000003,25.475657200000015,0 -80.46624930000003,25.475353800000015,0 -80.46655560000002,25.474988200000013,0 -80.46837090000002,25.473109100000013,0 -80.46867660000001,25.472813500000015,0 -80.46932900000002,25.472130600000014,0 -80.46972490000002,25.471739000000014,0 -80.47009060000002,25.471352000000014,0 -80.47041810000002,25.471030300000013,0 -80.47091140000002,25.470508300000013,0 -80.4711199,25.470307000000016,0 -80.47283530000001,25.468532400000015,0 -80.47339380000001,25.467819000000013,0 -80.47357380000001,25.467568100000015,0 -80.47384260000001,25.467146700000015,0 -80.47410760000001,25.466690300000014,0 -80.47436310000002,25.466184300000016,0 -80.47526290000002,25.466189500000016,0 -80.47575910000002,25.466173600000015,0 -80.47950740000002,25.466168500000016,0 -80.47968150000003,25.46616090000002,0 -80.48543800000002,25.46611500000002,0 -80.48539000000002,25.46426900000002,0 -80.48538800000003,25.46338700000002,0 -80.48536300000004,25.46245900000002,0 -80.49138690000004,25.46242790000002,0 -80.49145090000003,25.46245500000002,0 -80.49349120000002,25.462451200000018,0 -80.49440500000003,25.46243330000002,0 -80.49453550000003,25.462436600000018,0 -80.49457240000002,25.462432600000017,0 -80.49460290000003,25.462421700000018,0 -80.50157010000002,25.462384000000014,0 -80.50158450000002,25.447713600000014,0 -80.50134670000001,25.418442200000015,0 -80.51187740000003,25.418422100000015,0 -80.51200300000002,25.418411300000013,0 -80.51209150000001,25.418397300000013,0 -80.51220590000001,25.41837070000001,0 -80.51230930000001,25.418338600000013,0 -80.51242400000002,25.418294600000014,0 -80.51255640000002,25.418228900000013,0 -80.51268270000003,25.418146900000014,0 -80.51280630000002,25.41805150000001,0 -80.52544330000002,25.40642030000001,0 -80.52560160000002,25.40626270000001,0 -80.52752950000001,25.40450390000001,0 -80.52773910000002,25.40434560000001,0 -80.52801870000002,25.40417000000001,0 -80.52816600000001,25.404088600000012,0 -80.52844070000002,25.40396810000001,0 -80.52858980000002,25.403912000000012,0 -80.52892340000002,25.40381150000001,0 -80.52906070000003,25.403780200000014,0 -80.52936640000001,25.403726300000013,0 -80.52950140000002,25.403709200000012,0 -80.55920050000002,25.403595800000012,0 -80.55967350000002,25.403553600000013,0 -80.56003660000002,25.403478600000014,0 -80.56019030000002,25.403438700000013,0 -80.56061110000002,25.40329810000001,0 -80.57894920000003,25.39545030000001,0 -80.57955940000002,25.395204500000013,0 -80.58029810000004,25.39494570000001,0 -80.58071300000003,25.39489120000001,0 -80.58164510000005,25.39482980000001,0 -80.58360160000004,25.39487900000001,0 -80.58376820000004,25.395236300000008,0 -80.58381010000004,25.39528480000001,0 </coordinates></LineString><TimeSpan><begin>2020-01-20T13:41:49.999Z</begin><end>2020-01-20T14:55:22.999Z</end></TimeSpan></Placemark><Placemark><name>Ernest F. Coe Visitor Center</name><address>40001 State Hwy 9336, Homestead, FL 33034</address><ExtendedData><Data name="Email"><value>syugen.zhou@gmail.com</value></Data><Data name="Category"><value>Visitor center</value></Data><Data name="Distance"><value>0</value></Data></ExtendedData><description> Visitor center from 2020-01-20T14:55:22.999Z to 2020-01-20T15:11:15.000Z. Distance 0m </description><Point><coordinates>-80.58307219999999,25.3953191,0</coordinates></Point><TimeSpan><begin>2020-01-20T14:55:22.999Z</begin><end>2020-01-20T15:11:15.000Z</end></TimeSpan></Placemark><Placemark><name>Driving</name><address></address><ExtendedData><Data name="Email"><value>syugen.zhou@gmail.com</value></Data><Data name="Category"><value>Driving</value></Data><Data name="Distance"><value>3018</value></Data></ExtendedData><description> Driving from 2020-01-20T15:11:15.000Z to 2020-01-20T15:28:18.000Z. Distance 3018m </description><LineString><altitudeMode>clampToGround</altitudeMode><extrude>1</extrude><tesselate>1</tesselate><coordinates>-80.5837061,25.3951088,0 -80.5836016,25.394879,0 -80.58391959999999,25.394880399999998,0 -80.58401209999998,25.394874099999996,0 -80.58432039999998,25.394821399999998,0 -80.584505,25.394764099999996,0 -80.58460699999999,25.394724599999996,0 -80.58497899999998,25.394549599999998,0 -80.58501929999998,25.394466599999998,0 -80.58503749999998,25.394438599999997,0 -80.58513889999998,25.3943405,0 -80.58523299999997,25.3942631,0 -80.58530739999999,25.3942119,0 -80.58540749999999,25.394156999999996,0 -80.58553919999997,25.394100299999998,0 -80.58591669999998,25.393994,0 -80.58662659999997,25.3939998,0 -80.58706909999998,25.3940168,0 -80.58723909999998,25.394028999999996,0 -80.58746239999996,25.394053599999996,0 -80.58758719999997,25.394105099999997,0 -80.58828629999996,25.394216699999998,0 -80.58994719999998,25.394559599999997,0 -80.59023469999998,25.3946114,0 -80.59092639999997,25.3947178,0 -80.59113329999997,25.394742599999997,0 -80.59173179999998,25.3948389,0 -80.59176429999997,25.3948385,0 -80.59179059999997,25.394834,0 -80.59199799999996,25.3948906,0 -80.59221709999996,25.394960499999996,0 -80.59279229999997,25.395161799999997,0 -80.59354429999996,25.395462299999995,0 -80.59399309999996,25.395656299999995,0 -80.59484529999996,25.396069599999997,0 -80.61273069999996,25.4053418,0 -80.61366179999996,25.405860299999997,0 -80.61506489999996,25.403604999999995,0 -80.61585829999996,25.4022907,0 -80.61638489999997,25.401244099999996,0 -80.61664779999997,25.400631999999998,0 -80.61681479999997,25.4001982,0 -80.61709109999997,25.3993731,0 -80.61734579999997,25.398368099999995,0 -80.61747859999996,25.397576499999996,0 -80.61756619999996,25.397154699999994,0 -80.61764069999997,25.396502299999995,0 -80.61767269999996,25.395618199999994,0 -80.61767769999996,25.394795799999994,0 -80.61764869999996,25.394177499999994,0 -80.61758399999997,25.393663899999993,0 -80.61751999999996,25.393354099999996,0 -80.61745729999996,25.393108799999997,0 -80.61730359999996,25.392621799999993,0 -80.61721509999997,25.392389899999994,0 -80.61714369999996,25.392224199999994,0 -80.61697469999996,25.39188619999999,0 -80.61682729999997,25.39162629999999,0 -80.61662999999997,25.391313299999993,0 -80.61638079999997,25.390972699999995,0 -80.61619949999996,25.390749099999994,0 -80.61590659999997,25.390431099999994,0 -80.61548429999998,25.39002439999999,0 -80.61507129999997,25.38970799999999,0 -80.61248099999996,25.38790609999999,0 -80.61224729999996,25.38771849999999,0 -80.61201889999995,25.387509399999992,0 -80.61191449999995,25.387401199999992,0 -80.61172929999996,25.38717769999999,0 -80.61156679999996,25.386943699999993,0 -80.61138549999997,25.38662859999999,0 -80.61130509999997,25.38645149999999,0 -80.61119359999996,25.38614729999999,0 -80.61116309999997,25.38603309999999,0 -80.61114979999996,25.38599979999999,0 -80.61108999999998,25.38574939999999,0 -80.61088609999997,25.38463789999999,0 -80.61083509999997,25.38444719999999,0 -80.61076779999998,25.38425639999999,0 -80.61052259999998,25.383675799999992,0 -80.61043169999996,25.38342049999999,0 -80.61038689999997,25.38318799999999,0 -80.61035049999997,25.382939599999993,0 -80.61031649999998,25.38259909999999,0 -80.61030849999997,25.38255189999999,0 -80.61028059999997,25.38247139999999,0 -80.61024069999998,25.382394099999992,0 -80.61021849999997,25.38236549999999,0 -80.61020359999998,25.38235059999999,0 -80.61017599999997,25.382328499999993,0 -80.61014199999997,25.382310799999992,0 -80.61009299999998,25.38229379999999,0 -80.61004229999996,25.38228329999999,0 -80.60998249999997,25.38228129999999,0 -80.60993219999996,25.382284899999988,0 -80.60989029999996,25.382297799999986,0 -80.60986379999996,25.382313799999988,0 -80.60981719999995,25.382352699999988,0 -80.60979489999995,25.382381699999986,0 -80.60977209999994,25.382444399999986,0 </coordinates></LineString><TimeSpan><begin>2020-01-20T15:11:15.000Z</begin><end>2020-01-20T15:28:18.000Z</end></TimeSpan></Placemark><Placemark><name>Miami-Dade County</name><address>Florida</address><ExtendedData><Data name="Email"><value>syugen.zhou@gmail.com</value></Data><Data name="Category"><value></value></Data><Data name="Distance"><value>0</value></Data></ExtendedData><description>  from 2020-01-20T15:28:18.000Z to 2020-01-20T15:49:20.083Z. Distance 0m </description><Point><coordinates>-80.6326916,25.551603399999998,0</coordinates></Point><TimeSpan><begin>2020-01-20T15:28:18.000Z</begin><end>2020-01-20T15:49:20.083Z</end></TimeSpan></Placemark><Placemark><name>Walking</name><address></address><ExtendedData><Data name="Email"><value>syugen.zhou@gmail.com</value></Data><Data name="Category"><value>Walking</value></Data><Data name="Distance"><value>502</value></Data></ExtendedData><description> Walking from 2020-01-20T15:49:20.083Z to 2020-01-20T16:11:04.541Z. Distance 502m </description><LineString><altitudeMode>clampToGround</altitudeMode><extrude>1</extrude><tesselate>1</tesselate><coordinates>-80.6097716,25.382583699999998,0 -80.6097699,25.382472299999996,0 -80.60965010000001,25.382471799999998,0 -80.6095775,25.3824556,0 -80.60956540000001,25.382449899999997,0 -80.60954830000001,25.3824355,0 -80.60952390000001,25.38239,0 -80.60948440000001,25.3823455,0 -80.60947850000001,25.382342299999998,0 -80.60944940000002,25.382339499999997,0 -80.60942840000001,25.382332399999996,0 -80.60942150000001,25.3823273,0 -80.60941700000001,25.382320999999997,0 -80.609395,25.382109999999997,0 -80.60938630000001,25.382088299999996,0 -80.60934250000001,25.382024899999998,0 -80.605776,25.3820198,0 -80.6057291,25.382036999999997,0 -80.6056528,25.3820885,0 -80.6056336,25.382114599999994,0 -80.60559160000001,25.382225499999993,0 -80.60558730000001,25.382250199999994,0 -80.60559200000002,25.382278599999996,0 -80.60561770000001,25.382356799999993,0 -80.6056748,25.382457399999996,0 -80.6057001,25.382523499999998,0 -80.60570050000001,25.382539299999998,0 -80.60569480000001,25.3825634,0 -80.6055972,25.382752899999996,0 -80.6055771,25.382806399999996,0 -80.60558280000001,25.382868399999996,0 -80.6055864,25.382876199999995,0 -80.6055977,25.382887899999997,0 -80.6056432,25.382909899999998,0 -80.6057191,25.382899099999996,0 -80.6058372,25.382834099999997,0 -80.6058625,25.382826799999997,0 -80.6058862,25.3828256,0 -80.6059868,25.382849899999997,0 -80.6061445,25.382971899999998,0 -80.60619630000001,25.3829933,0 -80.60632890000001,25.383006099999996,0 -80.6063901,25.383161799999996,0 -80.6063956,25.383197599999995,0 -80.6063719,25.383339699999997,0 -80.60632799999999,25.383394799999994,0 -80.60629449999999,25.383407399999996,0 -80.60626339999999,25.383413999999995,0 -80.60614879999999,25.383402499999995,0 -80.60610369999998,25.383404699999996,0 -80.60605189999997,25.383422799999995,0 -80.60602019999997,25.383445399999996,0 -80.60599579999997,25.383482899999994,0 -80.60598659999997,25.383538099999996,0 -80.60599579999997,25.383482899999994,0 -80.60602019999997,25.383445399999996,0 -80.60605189999997,25.383422799999995,0 -80.60610369999998,25.383404699999996,0 -80.60614879999999,25.383402499999995,0 -80.60626339999999,25.383413999999995,0 -80.60629449999999,25.383407399999996,0 -80.60632799999999,25.383394799999994,0 -80.6063719,25.383339699999997,0 -80.6063956,25.383197599999995,0 -80.6063901,25.383161799999996,0 -80.60632890000001,25.383006099999996,0 -80.6064235,25.382956399999998,0 -80.60648010000001,25.382936799999996,0 -80.60667550000001,25.3829097,0 -80.60679550000002,25.382907,0 -80.60689900000001,25.382892199999997,0 -80.60695510000002,25.3828756,0 -80.60702620000002,25.3828419,0 -80.60712640000001,25.3827751,0 -80.60715540000001,25.382741799999998,0 -80.60717710000002,25.3826842,0 -80.60719700000003,25.3825985,0 -80.60719170000002,25.382534200000002,0 -80.60716890000002,25.382491,0 -80.60707560000002,25.3823808,0 -80.6070267,25.3823485,0 -80.6069827,25.382301700000003,0 -80.60695410000001,25.382255900000004,0 -80.60694170000001,25.382219900000003,0 -80.60694980000001,25.382022700000004,0 -80.60934250000003,25.382024900000005,0 -80.60938630000003,25.382088300000003,0 -80.60939500000002,25.382110000000004,0 -80.60941700000002,25.382321000000008,0 -80.60942150000002,25.382327300000007,0 -80.60942840000003,25.382332400000006,0 -80.60944940000003,25.382339500000008,0 -80.60947850000002,25.38234230000001,0 -80.60948440000003,25.382345500000007,0 -80.60952390000003,25.382390000000008,0 -80.60954830000003,25.382435500000007,0 -80.60956540000002,25.382449900000008,0 -80.60957750000001,25.382455600000007,0 -80.60965010000002,25.38247180000001,0 -80.60974530000003,25.38247220000001,0 </coordinates></LineString><TimeSpan><begin>2020-01-20T15:49:20.083Z</begin><end>2020-01-20T16:11:04.541Z</end></TimeSpan></Placemark><Placemark><name>Driving</name><address></address><ExtendedData><Data name="Email"><value>syugen.zhou@gmail.com</value></Data><Data name="Category"><value>Driving</value></Data><Data name="Distance"><value>74062</value></Data></ExtendedData><description> Driving from 2020-01-20T16:11:04.541Z to 2020-01-20T16:58:33.271Z. Distance 74062m </description><LineString><altitudeMode>clampToGround</altitudeMode><extrude>1</extrude><tesselate>1</tesselate><coordinates>-80.6102619,25.382431999999998,0 -80.6102185,25.3823655,0 -80.610176,25.382328499999996,0 -80.61009299999999,25.3822938,0 -80.6100366,25.382283100000002,0 -80.6100325,25.382946800000003,0 -80.61005010000001,25.383104700000004,0 -80.6101052,25.3832786,0 -80.61018370000001,25.383428400000003,0 -80.61037490000001,25.3836945,0 -80.6105226,25.383675800000002,0 -80.6108351,25.384447200000004,0 -80.61119360000001,25.3861473,0 -80.61138550000001,25.3866286,0 -80.6115668,25.3869437,0 -80.6119145,25.3874012,0 -80.61224729999999,25.387718500000002,0 -80.61548429999999,25.3900244,0 -80.6161995,25.390749100000004,0 -80.61662999999999,25.391313300000004,0 -80.61697469999999,25.391886200000002,0 -80.6173036,25.3926218,0 -80.6174573,25.393108800000004,0 -80.617584,25.393663900000004,0 -80.61764869999999,25.3941775,0 -80.6176777,25.394795800000004,0 -80.6176407,25.396502300000005,0 -80.61756619999998,25.397154700000005,0 -80.6173458,25.398368100000006,0 -80.6170911,25.399373100000005,0 -80.61681479999999,25.400198200000005,0 -80.6163849,25.401244100000007,0 -80.61585829999999,25.40229070000001,0 -80.61366179999999,25.405860300000008,0 -80.63275079999998,25.415695600000006,0 -80.63357009999999,25.416049200000007,0 -80.63492249999999,25.416529500000003,0 -80.63592479999998,25.416813300000005,0 -80.63691569999999,25.417037700000005,0 -80.63871369999998,25.417299400000005,0 -80.63982699999998,25.417376200000003,0 -80.64081219999998,25.417389100000005,0 -80.65878779999998,25.416789800000004,0 -80.66156189999998,25.416834900000005,0 -80.66381429999998,25.41702370000001,0 -80.66548299999998,25.417249000000005,0 -80.66771619999997,25.417676500000006,0 -80.66918919999998,25.418032000000007,0 -80.67158339999997,25.41875050000001,0 -80.67333279999997,25.41938860000001,0 -80.67521989999997,25.42019610000001,0 -80.67811139999998,25.42168790000001,0 -80.67975589999998,25.42269850000001,0 -80.68069379999997,25.423338500000007,0 -80.68237489999997,25.424602000000007,0 -80.69041169999997,25.431586200000005,0 -80.69144329999997,25.432405600000006,0 -80.69254709999998,25.43318440000001,0 -80.69404529999998,25.434097000000005,0 -80.6952226,25.434716100000006,0 -80.6961568,25.435147000000008,0 -80.69769199999999,25.43575510000001,0 -80.6998438,25.436416700000006,0 -80.70199339999999,25.436883100000006,0 -80.70311889999999,25.437041500000007,0 -80.7045503,25.437173700000002,0 -80.70614049999999,25.437226200000005,0 -80.7078275,25.437173900000005,0 -80.71007939999998,25.436975000000007,0 -80.71464629999998,25.436352500000005,0 -80.72986609999998,25.433540700000005,0 -80.73372009999999,25.433025500000007,0 -80.73654729999998,25.432817200000006,0 -80.73816659999997,25.43276120000001,0 -80.74139439999998,25.43278680000001,0 -80.74423839999997,25.43295900000001,0 -80.75033329999998,25.433640600000007,0 -80.75234569999998,25.43372500000001,0 -80.75396009999997,25.433698400000008,0 -80.75521589999997,25.433620800000007,0 -80.75664709999997,25.433470000000007,0 -80.75838299999997,25.43320240000001,0 -80.76097529999997,25.432610900000007,0 -80.76255099999997,25.432135800000008,0 -80.76454789999997,25.43139770000001,0 -80.76599009999997,25.43076540000001,0 -80.76780309999998,25.42983240000001,0 -80.76918319999997,25.42901190000001,0 -80.77057999999997,25.42806930000001,0 -80.77158499999997,25.42731600000001,0 -80.77366769999998,25.42551150000001,0 -80.77505969999997,25.42407140000001,0 -80.77605079999996,25.42290710000001,0 -80.77692479999996,25.42175280000001,0 -80.78199169999996,25.413847400000012,0 -80.78580619999995,25.408524900000014,0 -80.78956909999995,25.403963100000013,0 -80.79339469999995,25.399845500000012,0 -80.80204139999995,25.391495900000013,0 -80.80450909999993,25.38889220000001,0 -80.80697789999994,25.38603570000001,0 -80.80867039999994,25.38390990000001,0 -80.81055739999994,25.38135160000001,0 -80.81257679999995,25.37834420000001,0 -80.81443849999994,25.375278900000012,0 -80.81557969999994,25.37321880000001,0 -80.81720459999995,25.369993100000013,0 -80.81865619999995,25.366737800000013,0 -80.82015619999994,25.362822400000013,0 -80.82057309999995,25.36152230000001,0 -80.82093299999995,25.36003010000001,0 -80.82117709999994,25.35850390000001,0 -80.82128559999994,25.35718660000001,0 -80.82130919999994,25.356112700000008,0 -80.82126889999994,25.355051100000008,0 -80.82111079999994,25.35352770000001,0 -80.82071589999994,25.35152190000001,0 -80.82032409999994,25.35018840000001,0 -80.81990939999993,25.34906630000001,0 -80.81895069999995,25.34701440000001,0 -80.81810499999993,25.34559170000001,0 -80.81706739999993,25.344131900000008,0 -80.81634229999993,25.34325680000001,0 -80.81520439999993,25.34204240000001,0 -80.81377629999993,25.34075170000001,0 -80.81230459999993,25.33963220000001,0 -80.81101709999993,25.338791500000013,0 -80.81014959999995,25.338293500000013,0 -80.80711579999993,25.336772800000013,0 -80.80595239999994,25.33611720000001,0 -80.80480679999994,25.335348900000014,0 -80.80368329999993,25.334462800000015,0 -80.80270219999994,25.33354010000001,0 -80.80197979999994,25.332761600000012,0 -80.80083669999995,25.331255900000013,0 -80.79992549999994,25.329735600000014,0 -80.79964049999995,25.329147200000012,0 -80.79898229999995,25.327442600000012,0 -80.79868739999995,25.32638400000001,0 -80.79841299999994,25.32486230000001,0 -80.79830449999994,25.32346470000001,0 -80.79844149999994,25.25113280000001,0 -80.79851309999995,25.25055540000001,0 -80.79870899999995,25.24968840000001,0 -80.79893379999994,25.24903900000001,0 -80.79924339999995,25.24836430000001,0 -80.79966979999995,25.24763390000001,0 -80.79995199999995,25.24723720000001,0 -80.80040659999995,25.24669450000001,0 -80.80131589999995,25.24582960000001,0 -80.80177509999996,25.24548320000001,0 -80.87295329999996,25.20202450000001,0 -80.87596829999995,25.19998360000001,0 -80.88687689999996,25.19302810000001,0 -80.88772369999995,25.19243120000001,0 -80.89004359999996,25.19047990000001,0 -80.89320779999996,25.187476900000007,0 -80.90580419999996,25.17422800000001,0 -80.90665559999997,25.17319460000001,0 -80.90759159999996,25.17193930000001,0 -80.90876979999996,25.17014640000001,0 -80.90991479999995,25.16808950000001,0 -80.91064149999995,25.166558900000012,0 -80.91125019999996,25.165067300000015,0 -80.91174579999995,25.163630000000012,0 -80.91267829999995,25.160099500000012,0 -80.91307699999994,25.15886170000001,0 -80.91337709999995,25.15812420000001,0 -80.91415459999995,25.156574500000012,0 -80.91491709999994,25.155383400000012,0 -80.91565509999995,25.15442320000001,0 -80.91632809999994,25.15365990000001,0 -80.91773279999995,25.15233400000001,0 -80.91904249999995,25.15133740000001,0 -80.92307009999995,25.148669900000012,0 -80.92361159999994,25.148237400000014,0 -80.92386849999994,25.14797240000001,0 -80.92427359999994,25.147435000000012,0 -80.92454349999994,25.14692550000001,0 -80.92475829999995,25.14624440000001,0 -80.92478909999994,25.14621430000001,0 -80.92481169999994,25.14616280000001,0 -80.92514799999994,25.14416370000001,0 -80.92530989999993,25.143502200000007,0 -80.92543559999993,25.143153700000006,0 -80.92459969999993,25.14295280000001,0 -80.92422819999993,25.142916000000007,0 -80.92324819999993,25.14290650000001,0 </coordinates></LineString><TimeSpan><begin>2020-01-20T16:11:04.541Z</begin><end>2020-01-20T16:58:33.271Z</end></TimeSpan></Placemark><Placemark><name>Everglades National Park</name><address>Florida</address><ExtendedData><Data name="Email"><value>syugen.zhou@gmail.com</value></Data><Data name="Category"><value>National park</value></Data><Data name="Distance"><value>0</value></Data></ExtendedData><description> National park from 2020-01-20T16:58:33.271Z to 2020-01-20T17:22:49.000Z. Distance 0m </description><Point><coordinates>-80.89865089999999,25.2866155,0</coordinates></Point><TimeSpan><begin>2020-01-20T16:58:33.271Z</begin><end>2020-01-20T17:22:49.000Z</end></TimeSpan></Placemark><Placemark><name>Driving</name><address></address><ExtendedData><Data name="Email"><value>syugen.zhou@gmail.com</value></Data><Data name="Category"><value>Driving</value></Data><Data name="Distance"><value>147628</value></Data></ExtendedData><description> Driving from 2020-01-20T17:22:49.000Z to 2020-01-20T20:00:44.000Z. Distance 147628m </description><LineString><altitudeMode>clampToGround</altitudeMode><extrude>1</extrude><tesselate>1</tesselate><coordinates>-80.92361129999999,25.142479899999998,0 -80.92360509999999,25.142497799999997,0 -80.92360889999999,25.142690899999998,0 -80.92361919999999,25.1427197,0 -80.92362989999998,25.1427395,0 -80.92367429999999,25.142790599999998,0 -80.92374319999998,25.1428526,0 -80.92381829999998,25.1429105,0 -80.92422819999997,25.142916,0 -80.92459969999999,25.1429528,0 -80.92490569999998,25.143013099999997,0 -80.92505069999999,25.1430471,0 -80.92514949999999,25.1430753,0 -80.92507439999999,25.1432816,0 -80.92500609999999,25.143502,0 -80.92496139999999,25.1436848,0 -80.92493149999997,25.1438427,0 -80.92489189999998,25.1441823,0 -80.92483729999998,25.1451192,0 -80.92475649999999,25.1460344,0 -80.92474129999998,25.1461503,0 -80.92474249999998,25.146171,0 -80.92475829999998,25.1462444,0 -80.92470029999998,25.1464693,0 -80.92464189999998,25.146663800000002,0 -80.92454349999998,25.1469255,0 -80.92447849999998,25.1470647,0 -80.92437969999997,25.1472533,0 -80.92427359999998,25.147435,0 -80.92410899999997,25.147674100000003,0 -80.92400799999997,25.147806600000003,0 -80.92386849999997,25.1479724,0 -80.92370589999997,25.1481453,0 -80.92361159999997,25.1482374,0 -80.92337049999998,25.1484421,0 -80.92307009999998,25.148669899999998,0 -80.91904249999999,25.1513374,0 -80.91863679999999,25.1516248,0 -80.9182058,25.1519495,0 -80.9177328,25.152334,0 -80.91735359999998,25.1526656,0 -80.91685469999997,25.1531305,0 -80.91632809999997,25.1536599,0 -80.91565509999997,25.154423199999997,0 -80.91535629999997,25.154797799999997,0 -80.91491709999997,25.155383399999998,0 -80.91453959999997,25.155949699999997,0 -80.91415459999996,25.156574499999998,0 -80.91385809999997,25.157113,0 -80.91362839999996,25.1575736,0 -80.91337709999998,25.1581242,0 -80.91307699999997,25.1588617,0 -80.91288139999997,25.159422199999998,0 -80.91275269999998,25.1598318,0 -80.91267829999998,25.160099499999998,0 -80.91223419999999,25.161905299999997,0 -80.91185839999997,25.1632574,0 -80.91174579999998,25.163629999999998,0 -80.91125019999998,25.1650673,0 -80.91097039999998,25.1657803,0 -80.91064149999997,25.166558900000002,0 -80.91033549999997,25.167229900000002,0 -80.90991479999997,25.1680895,0 -80.90939159999996,25.169078600000002,0 -80.90876979999997,25.1701464,0 -80.90802749999996,25.1713075,0 -80.90759159999998,25.171939300000002,0 -80.90665559999997,25.173194600000002,0 -80.90580419999998,25.174228,0 -80.90534899999997,25.1747475,0 -80.90467659999997,25.175479199999998,0 -80.89854969999996,25.1817935,0 -80.89634909999997,25.1840978,0 -80.89468919999997,25.1859203,0 -80.89320779999997,25.1874769,0 -80.89187409999997,25.188789000000003,0 -80.89085369999997,25.189747000000004,0 -80.89004359999997,25.190479900000003,0 -80.88856059999998,25.191759200000003,0 -80.88796579999998,25.192245500000002,0 -80.88772369999997,25.192431200000005,0 -80.88720539999997,25.192804400000004,0 -80.88687689999996,25.193028100000006,0 -80.87596829999995,25.199983600000007,0 -80.87295329999996,25.202024500000007,0 -80.87137619999996,25.203027300000006,0 -80.85213189999996,25.214776300000008,0 -80.85194649999995,25.214555400000005,0 -80.85190459999995,25.214516800000006,0 -80.85186989999995,25.214490400000006,0 -80.85181579999995,25.214462300000008,0 -80.85171899999995,25.214419800000005,0 -80.85167549999996,25.214405900000006,0 -80.85163479999996,25.21439610000001,0 -80.85148889999996,25.214372900000008,0 -80.85135719999997,25.214366200000008,0 -80.85119029999996,25.214364400000008,0 -80.85100219999995,25.214371100000008,0 -80.85091789999997,25.214379900000004,0 -80.85073089999996,25.214414600000005,0 -80.85061829999997,25.214458100000005,0 -80.85052099999997,25.214503200000006,0 -80.85048429999998,25.214527000000007,0 -80.85044929999997,25.21456660000001,0 -80.85043209999998,25.214596100000005,0 -80.85041949999997,25.214640800000005,0 -80.85041509999998,25.214675600000007,0 -80.85041509999998,25.214710000000004,0 -80.85042809999999,25.214740700000004,0 -80.85044859999999,25.214765100000005,0 -80.85047099999998,25.214787000000005,0 -80.85049759999998,25.214801300000005,0 -80.85053979999998,25.214809800000005,0 -80.85058149999998,25.214805500000004,0 -80.85061679999998,25.2147958,0 -80.85064169999998,25.2147785,0 -80.85066149999997,25.214756700000002,0 -80.85067809999998,25.2147289,0 -80.85068739999998,25.214701200000004,0 -80.85069029999998,25.214668300000003,0 -80.85068059999999,25.214590100000006,0 -80.85067159999998,25.214555900000004,0 -80.8506532,25.214514200000004,0 -80.8506183,25.214458100000005,0 -80.85073089999999,25.214414600000005,0 -80.85091789999998,25.214379900000004,0 -80.85100219999998,25.214371100000008,0 -80.85119029999998,25.214364400000008,0 -80.8513572,25.214366200000008,0 -80.85148889999998,25.214372900000008,0 -80.85163479999997,25.21439610000001,0 -80.85167549999998,25.214405900000006,0 -80.85171899999997,25.214419800000005,0 -80.85181579999998,25.214462300000008,0 -80.85186989999997,25.214490400000006,0 -80.85190459999998,25.214516800000006,0 -80.85194649999998,25.214555400000005,0 -80.85213189999997,25.214776300000008,0 -80.80220969999998,25.24519780000001,0 -80.80177509999999,25.245483200000006,0 -80.80147459999998,25.24570380000001,0 -80.80131589999998,25.245829600000008,0 -80.80082449999998,25.24627390000001,0 -80.80040659999997,25.246694500000007,0 -80.80013549999998,25.24700620000001,0 -80.79995199999998,25.247237200000008,0 -80.79966979999998,25.247633900000007,0 -80.79947729999998,25.247942100000007,0 -80.79924339999998,25.248364300000006,0 -80.79908299999997,25.248694100000005,0 -80.79893379999997,25.249039000000003,0 -80.79884769999998,25.249267500000006,0 -80.79870899999999,25.249688400000004,0 -80.79858699999998,25.250164900000005,0 -80.79851309999998,25.250555400000007,0 -80.79847459999998,25.250829100000008,0 -80.79844149999998,25.251132800000008,0 -80.79843029999998,25.251317800000006,0 -80.79840439999998,25.252900500000006,0 -80.79839029999998,25.282510900000005,0 -80.79836629999997,25.283817500000005,0 -80.79829519999997,25.322985500000005,0 -80.79830449999997,25.323464700000006,0 -80.79833149999997,25.324019000000003,0 -80.79836479999997,25.324427600000003,0 -80.79841299999997,25.324862300000003,0 -80.79848159999997,25.325343300000004,0 -80.79854359999997,25.325709500000002,0 -80.79868739999998,25.326384,0 -80.79881279999998,25.3268701,0 -80.79898229999998,25.327442599999998,0 -80.79921519999996,25.328109799999996,0 -80.79942999999997,25.328651899999997,0 -80.79954069999997,25.3289007,0 -80.79964049999998,25.329147199999998,0 -80.79992549999997,25.3297356,0 -80.80032679999998,25.330438100000002,0 -80.80055909999997,25.3308213,0 -80.80083669999996,25.331255900000002,0 -80.80106999999997,25.3315942,0 -80.80153889999997,25.3322211,0 -80.80197979999997,25.332761600000005,0 -80.80270219999997,25.333540100000004,0 -80.80307069999996,25.333903400000004,0 -80.80368329999996,25.334462800000004,0 -80.80398009999996,25.334710900000005,0 -80.80452879999996,25.335142200000003,0 -80.80480679999997,25.335348900000003,0 -80.80542149999997,25.335780300000003,0 -80.80595239999997,25.336117200000004,0 -80.80646889999996,25.336420600000004,0 -80.80711579999996,25.336772800000002,0 -80.80934099999996,25.337868300000004,0 -80.81014959999996,25.338293500000002,0 -80.81101709999996,25.338791500000003,0 -80.81152539999997,25.3391096,0 -80.81230459999996,25.3396322,0 -80.81287259999995,25.3400422,0 -80.81348279999996,25.3405129,0 -80.81377629999996,25.340751700000002,0 -80.81463339999996,25.3415004,0 -80.81520439999997,25.3420424,0 -80.81591009999997,25.3427743,0 -80.81634229999997,25.3432568,0 -80.81680239999997,25.3438019,0 -80.81706739999997,25.3441319,0 -80.81738129999997,25.3445475,0 -80.81790449999997,25.3452912,0 -80.81810499999997,25.345591699999996,0 -80.81845669999997,25.346154799999997,0 -80.81881139999997,25.3467611,0 -80.81895069999996,25.347014400000003,0 -80.81925909999997,25.3476147,0 -80.81951639999997,25.3481589,0 -80.81990939999997,25.3490663,0 -80.82012659999998,25.349626,0 -80.82032409999998,25.3501884,0 -80.82058719999998,25.3510573,0 -80.82071589999997,25.3515219,0 -80.82086849999997,25.3521699,0 -80.82102279999998,25.352976799999997,0 -80.82111079999999,25.353527699999997,0 -80.82120469999998,25.354290399999996,0 -80.82126889999998,25.355051099999997,0 -80.82129249999998,25.355495099999995,0 -80.82130919999997,25.356112699999997,0 -80.82130799999997,25.356470699999996,0 -80.82128559999998,25.357186599999995,0 -80.82125889999998,25.3576101,0 -80.82117709999999,25.358503899999995,0 -80.82109739999997,25.359110499999996,0 -80.82093299999997,25.3600301,0 -80.82073849999996,25.3608922,0 -80.82057309999998,25.361522299999997,0 -80.82039009999997,25.362123099999994,0 -80.82015619999997,25.362822399999995,0 -80.81982419999997,25.363740999999997,0 -80.81924669999997,25.365264499999995,0 -80.81865619999998,25.366737799999996,0 -80.81799849999997,25.3682648,0 -80.81720459999997,25.3699931,0 -80.81646309999996,25.371511899999998,0 -80.81557969999997,25.373218799999997,0 -80.81443849999997,25.375278899999998,0 -80.81380659999998,25.376352199999996,0 -80.81310649999996,25.377502899999996,0 -80.81257679999996,25.378344199999997,0 -80.81152009999997,25.379952799999998,0 -80.81055739999996,25.3813516,0 -80.80985919999998,25.382321299999997,0 -80.80867039999997,25.3839099,0 -80.80803849999998,25.384718499999998,0 -80.80697789999998,25.386035699999997,0 -80.80571099999997,25.387530899999998,0 -80.80450909999998,25.388892199999997,0 -80.80328399999998,25.390208,0 -80.80204139999998,25.3914959,0 -80.80076289999998,25.3927553,0 -80.79443319999999,25.3988121,0 -80.79339469999998,25.3998455,0 -80.79139589999998,25.4019357,0 -80.78956909999998,25.403963100000002,0 -80.78853679999999,25.4051603,0 -80.78713539999998,25.406851,0 -80.7858062,25.4085249,0 -80.78545519999999,25.4090071,0 -80.78502999999999,25.4095651,0 -80.78350649999999,25.4116519,0 -80.78199169999998,25.413847399999998,0 -80.78085999999998,25.415583299999998,0 -80.77777319999998,25.4205076,0 -80.77730109999999,25.4212209,0 -80.77692479999999,25.4217528,0 -80.77636329999999,25.422505900000004,0 -80.7760508,25.422907100000003,0 -80.77542649999998,25.423655600000004,0 -80.77505969999997,25.4240714,0 -80.77430329999997,25.4248793,0 -80.77366769999998,25.425511500000002,0 -80.77294529999998,25.4261765,0 -80.77222619999996,25.426795300000002,0 -80.77158499999997,25.427316,0 -80.77115699999997,25.427645599999998,0 -80.77057999999997,25.4280693,0 -80.76985899999997,25.428570800000003,0 -80.76918319999996,25.4290119,0 -80.76847029999996,25.4294487,0 -80.76780309999997,25.4298324,0 -80.76690429999996,25.4303125,0 -80.76599009999997,25.4307654,0 -80.76541219999997,25.4310294,0 -80.76454789999997,25.4313977,0 -80.76373429999998,25.431717,0 -80.76315819999998,25.4319273,0 -80.76255099999997,25.4321358,0 -80.76196169999999,25.4323238,0 -80.76097529999998,25.4326109,0 -80.76026699999998,25.432796000000003,0 -80.75981479999999,25.4329044,0 -80.75897509999999,25.4330867,0 -80.758383,25.433202400000003,0 -80.757533,25.433346500000003,0 -80.7566471,25.433470000000003,0 -80.75574859999999,25.433573700000004,0 -80.7552159,25.433620800000003,0 -80.7539601,25.4336984,0 -80.75329980000001,25.4337188,0 -80.75234569999999,25.433725000000003,0 -80.7513586,25.433698300000003,0 -80.75033330000001,25.433640600000004,0 -80.7494106,25.4335589,0 -80.7459988,25.433140300000005,0 -80.7442384,25.432959000000004,0 -80.7425546,25.432843500000004,0 -80.7413944,25.432786800000006,0 -80.73997899999999,25.432754500000005,0 -80.73816659999999,25.432761200000005,0 -80.7365473,25.432817200000006,0 -80.73449049999999,25.432954800000005,0 -80.73396170000001,25.433012500000004,0 -80.7337201,25.433025500000007,0 -80.73213530000001,25.433204100000008,0 -80.73148470000001,25.43329080000001,0 -80.72986610000001,25.43354070000001,0 -80.71464630000001,25.43635250000001,0 -80.71272290000002,25.436646500000013,0 -80.71113890000001,25.43685210000001,0 -80.7100794,25.436975000000007,0 -80.7085646,25.437117000000008,0 -80.70782750000001,25.437173900000005,0 -80.7072095,25.437207600000008,0 -80.7061405,25.43722620000001,0 -80.7051968,25.437205700000007,0 -80.7045503,25.437173700000006,0 -80.7037174,25.43710490000001,0 -80.70311889999999,25.437041500000007,0 -80.7019934,25.43688310000001,0 -80.70126880000001,25.436746700000008,0 -80.7006011,25.43660210000001,0 -80.69984380000001,25.436416700000006,0 -80.69877910000001,25.436116900000005,0 -80.6982825,25.435957500000008,0 -80.69769200000002,25.435755100000005,0 -80.69709180000001,25.435528500000004,0 -80.69615680000001,25.435147000000004,0 -80.69522260000002,25.434716100000003,0 -80.69475090000002,25.434477800000003,0 -80.69404530000001,25.434097000000005,0 -80.69326200000002,25.433643000000004,0 -80.69254710000001,25.433184400000002,0 -80.69204870000002,25.4328417,0 -80.6914433,25.4324056,0 -80.6907522,25.431867399999998,0 -80.69041170000001,25.431586199999998,0 -80.6830953,25.4251941,0 -80.68237490000001,25.424601999999997,0 -80.68153950000001,25.423959299999996,0 -80.68097570000002,25.423543299999995,0 -80.68082830000002,25.423445499999996,0 -80.68069380000001,25.423338499999993,0 -80.68022720000002,25.423012699999994,0 -80.67975590000002,25.422698499999996,0 -80.67892210000004,25.422168799999994,0 -80.67811140000003,25.4216879,0 -80.67701080000003,25.421084599999997,0 -80.67621810000004,25.420676299999997,0 -80.67521990000004,25.420196099999995,0 -80.67423910000004,25.419762999999996,0 -80.67333280000004,25.419388599999998,0 -80.67242680000004,25.419044799999998,0 -80.67158340000003,25.418750499999994,0 -80.67041250000004,25.418376099999996,0 -80.66918920000003,25.418031999999993,0 -80.66771620000004,25.417676499999995,0 -80.66630350000004,25.417390799999996,0 -80.66548300000005,25.417248999999995,0 -80.66440510000004,25.4170952,0 -80.66381430000004,25.417023699999998,0 -80.66278370000005,25.4169223,0 -80.66156190000004,25.416834899999998,0 -80.66018710000004,25.416787799999998,0 -80.65878780000004,25.4167898,0 -80.64081220000004,25.417389099999998,0 -80.64017440000005,25.417386499999996,0 -80.63982700000005,25.417376199999996,0 -80.63923030000005,25.417342699999995,0 -80.63871370000004,25.417299399999994,0 -80.63820760000004,25.417243099999997,0 -80.63772250000005,25.417176999999995,0 -80.63691570000005,25.417037699999995,0 -80.63592480000004,25.416813299999998,0 -80.63534010000004,25.416654899999997,0 -80.63492250000004,25.4165295,0 -80.63424980000005,25.416301799999996,0 -80.63357010000006,25.416049199999996,0 -80.63275080000005,25.415695599999996,0 -80.63192420000006,25.415284699999997,0 -80.62192320000005,25.4100955,0 -80.62188220000006,25.4100712,0 -80.61486280000005,25.406439,0 -80.61396520000007,25.406017600000002,0 -80.61366180000006,25.4058603,0 -80.61273070000006,25.405341800000002,0 -80.59484530000006,25.3960696,0 -80.59399310000005,25.3956563,0 -80.59354430000005,25.3954623,0 -80.59279230000006,25.3951618,0 -80.59221710000004,25.3949605,0 -80.59199800000005,25.3948906,0 -80.59179060000005,25.394834000000003,0 -80.59178190000006,25.394818400000005,0 -80.59177610000005,25.394812100000003,0 -80.59174870000005,25.394798800000004,0 -80.59122600000005,25.3946575,0 -80.59008490000005,25.3943766,0 -80.58951760000005,25.3942707,0 -80.58849560000006,25.3941291,0 -80.58814920000006,25.3940884,0 -80.58759180000006,25.394038600000002,0 -80.58746240000005,25.3940536,0 -80.58723910000005,25.394029,0 -80.58706910000005,25.394016800000003,0 -80.58662660000006,25.393999800000003,0 -80.58591670000006,25.393994000000003,0 -80.58503440000007,25.3940279,0 -80.58437570000005,25.394079700000002,0 -80.58379250000006,25.394147800000002,0 -80.58326460000006,25.3942205,0 -80.58305690000006,25.394255,0 -80.58239380000006,25.3943847,0 -80.58159890000006,25.3945668,0 -80.58078640000006,25.394788399999996,0 -80.57989390000006,25.395081599999997,0 -80.57955940000005,25.395204499999995,0 -80.57894920000005,25.395450299999997,0 -80.56061110000005,25.403298099999997,0 -80.56043970000005,25.403359799999997,0 -80.56019030000004,25.403438699999995,0 -80.56003660000005,25.403478599999996,0 -80.55967350000005,25.4035536,0 -80.55949330000006,25.4035743,0 -80.55920050000005,25.403595799999998,0 -80.54166250000004,25.4036628,0 -80.54168350000005,25.4070306,0 -80.54167800000005,25.4073119,0 -80.54196830000004,25.447533999999997,0 -80.54196330000005,25.447620599999997,0 -80.54255660000004,25.505986399999998,0 -80.54275170000005,25.5162712,0 -80.54266900000005,25.5225014,0 -80.54289300000005,25.5497032,0 -80.54290530000004,25.549981,0 -80.53495290000005,25.5499987,0 -80.52784070000004,25.550054300000003,0 -80.52686880000005,25.5500839,0 -80.52655250000005,25.5501006,0 -80.52025640000005,25.5502313,0 -80.50659790000006,25.5502739,0 -80.50681920000005,25.5868509,0 -80.51073960000005,25.5868171,0 -80.51076710000005,25.586818700000002,0 -80.51077810000005,25.5868208,0 -80.51079450000006,25.5868262,0 -80.51080920000005,25.586833100000003,0 -80.51082980000005,25.586846,0 -80.51085220000006,25.586868600000003,0 -80.51087280000006,25.586896300000003,0 -80.51109010000006,25.60872,0 -80.51018710000007,25.608735800000005,0 -80.49496510000007,25.608793100000003,0 -80.48701880000007,25.608776700000004,0 -80.47965320000007,25.608800800000004,0 -80.47933850000007,25.608791600000004,0 -80.47930370000006,25.608783000000003,0 -80.47921400000006,25.608749900000003,0 -80.47918350000005,25.6076577,0 -80.47909820000005,25.605746900000003,0 -80.47908390000005,25.605184400000002,0 -80.47905470000005,25.604750900000003,0 -80.47894090000005,25.6036122,0 -80.47883810000005,25.6029159,0 -80.47853570000005,25.5998397,0 -80.47847900000005,25.5996207,0 -80.47844190000005,25.5994241,0 -80.47841500000006,25.599183700000005,0 -80.47840200000005,25.598352000000002,0 -80.47839520000005,25.598315500000002,0 -80.47838840000006,25.5982966,0 -80.47837730000006,25.598280199999998,0 -80.47835720000006,25.598259399999996,0 -80.47829800000005,25.598212099999998,0 -80.47833580000005,25.600102699999994,0 -80.47844290000006,25.601254899999994,0 -80.47885190000007,25.604976899999993,0 -80.47894150000006,25.606922099999995,0 -80.47894550000007,25.60714829999999,0 -80.47897980000006,25.60764959999999,0 -80.47910280000006,25.61176979999999,0 -80.47911670000006,25.61186849999999,0 -80.47914770000006,25.61314979999999,0 -80.47914350000005,25.61325799999999,0 -80.47917270000005,25.61489799999999,0 -80.47917920000005,25.61497259999999,0 -80.47919600000004,25.61585729999999,0 -80.47964110000005,25.62917629999999,0 -80.47965400000005,25.631360299999994,0 -80.47952150000005,25.634818699999993,0 -80.47953980000005,25.63638569999999,0 -80.47968690000005,25.640533599999994,0 -80.47981960000004,25.643480399999994,0 -80.47997870000005,25.645893599999994,0 -80.48075300000005,25.666743099999994,0 -80.48075130000004,25.667090899999994,0 -80.48079700000004,25.667808399999995,0 -80.48084830000005,25.668382199999993,0 -80.48102550000004,25.66994259999999,0 -80.48119510000004,25.67111569999999,0 -80.48125050000004,25.671600099999992,0 -80.48130930000004,25.67260669999999,0 -80.48131770000003,25.67313499999999,0 -80.48130590000004,25.67363299999999,0 -80.48123200000003,25.674833399999994,0 -80.48116480000003,25.675419199999993,0 -80.48106710000002,25.676087699999993,0 -80.48092910000003,25.676784599999994,0 -80.48081040000002,25.677311999999993,0 -80.48069310000002,25.677760099999993,0 -80.48049850000002,25.678387199999996,0 -80.47928180000002,25.681812499999992,0 -80.47908780000002,25.682328999999996,0 -80.47876120000001,25.683275099999996,0 -80.47861270000001,25.683778699999998,0 -80.47855230000002,25.6840375,0 -80.47845150000002,25.684549099999998,0 -80.47841290000002,25.684842699999997,0 -80.47837600000003,25.685210599999998,0 -80.47834550000002,25.6856492,0 -80.47838230000002,25.6878821,0 -80.4784625,25.6885562,0 -80.47845750000002,25.688668800000002,0 -80.47909190000001,25.7063008,0 -80.47915670000002,25.707692899999998,0 -80.4791811,25.7088551,0 -80.4793415,25.7121182,0 -80.4793415,25.7123842,0 -80.4798312,25.7253321,0 -80.4799084,25.7269246,0 -80.4807434,25.7486486,0 -80.48106369999999,25.7558804,0 -80.4811431,25.7587375,0 -80.48113889999999,25.7589117,0 -80.4811998,25.7601901,0 -80.4812072,25.7606441,0 -80.48114140000001,25.760778900000002,0 -80.4811236,25.7608083,0 -80.4810987,25.7608319,0 -80.48108500000001,25.7608423,0 -80.4810721,25.7608494,0 -80.4809818,25.760883,0 -80.4473509,25.7609055,0 -80.4409401,25.760851799999998,0 -80.4369272,25.7608504,0 -80.4354629,25.7608751,0 -80.4208953,25.7608883,0 -80.41733409999999,25.760868900000002,0 -80.41692859999999,25.7608783,0 -80.40301859999998,25.760865500000005,0 -80.40071029999999,25.760887400000005,0 -80.3926891,25.760885100000003,0 -80.3925,25.7608782,0 -80.3901537,25.7608748,0 -80.38714510000001,25.7609141,0 -80.3842577,25.7609254,0 -80.3838157,25.7609192,0 -80.374601,25.761067,0 -80.3744812,25.761078800000003,0 -80.3711205,25.761139000000004,0 -80.3697748,25.761177500000002,0 -80.3695436,25.761190600000006,0 -80.3678026,25.761226500000006,0 -80.3676322,25.761221500000005,0 -80.3541104,25.761480800000005,0 -80.3536726,25.761500200000004,0 -80.33623189999999,25.761858000000007,0 -80.3360898,25.761864800000005,0 -80.3351414,25.761875200000006,0 -80.33381069999999,25.761938700000005,0 -80.330107,25.762053100000006,0 -80.3230141,25.762201900000004,0 -80.3221005,25.762238600000003,0 -80.3205281,25.762367700000002,0 -80.3199391,25.762395800000004,0 -80.31907460000001,25.762473300000003,0 -80.31841870000001,25.762514300000007,0 -80.3182675,25.762510200000005,0 -80.31742670000001,25.762556000000004,0 -80.31721680000001,25.762577800000003,0 -80.31578180000001,25.7626625,0 -80.31503510000002,25.762687800000002,0 -80.3150004,25.7626964,0 -80.31497650000001,25.7627062,0 -80.31495220000001,25.7627228,0 -80.31493180000002,25.762742999999997,0 -80.31422750000002,25.7627568,0 -80.312019,25.762835599999995,0 -80.3118457,25.762835699999997,0 -80.31137010000002,25.762850699999994,0 -80.3110264,25.762869699999992,0 -80.30389720000001,25.763112199999995,0 -80.29267220000001,25.763419799999994,0 -80.29191910000002,25.763451699999997,0 -80.28704110000001,25.763597299999997,0 -80.283832,25.7637294,0 -80.27926350000001,25.763872199999998,0 -80.27829910000001,25.763926,0 -80.26757270000002,25.7643165,0 -80.2642393,25.764414300000002,0 -80.264095,25.764413200000003,0 -80.2632256,25.764437400000006,0 -80.2632417,25.764600000000005,0 -80.26339060000001,25.767808600000006,0 -80.2634068,25.767956600000005,0 -80.2635217,25.770114600000007,0 -80.2635221,25.770344800000004,0 -80.263274,25.770343300000004,0 -80.2631611,25.770347700000006,0 -80.26302170000001,25.770347000000005,0 -80.26302700000001,25.771206300000003,0 </coordinates></LineString><TimeSpan><begin>2020-01-20T17:22:49.000Z</begin><end>2020-01-20T20:00:44.000Z</end></TimeSpan></Placemark><Placemark><name>Best Western Premier Miami Intl Airport Hotel &amp; Suites Coral Gables</name><address>4100 W Flagler St, Miami, FL 33134</address><ExtendedData><Data name="Email"><value>syugen.zhou@gmail.com</value></Data><Data name="Category"><value>Hotel</value></Data><Data name="Distance"><value>0</value></Data></ExtendedData><description> Hotel from 2020-01-20T20:00:44.000Z to 2020-01-20T21:06:51.000Z. Distance 0m </description><Point><coordinates>-80.262816,25.771276999999998,0</coordinates></Point><TimeSpan><begin>2020-01-20T20:00:44.000Z</begin><end>2020-01-20T21:06:51.000Z</end></TimeSpan></Placemark><Placemark><name>Driving</name><address></address><ExtendedData><Data name="Email"><value>syugen.zhou@gmail.com</value></Data><Data name="Category"><value>Driving</value></Data><Data name="Distance"><value>22699</value></Data></ExtendedData><description> Driving from 2020-01-20T21:06:51.000Z to 2020-01-20T22:08:49.000Z. Distance 22699m </description><LineString><altitudeMode>clampToGround</altitudeMode><extrude>1</extrude><tesselate>1</tesselate><coordinates>-80.26302629999999,25.7713133,0 -80.26301799999999,25.771708,0 -80.26199689999999,25.771716700000002,0 -80.26057829999999,25.7717699,0 -80.2534498,25.7718755,0 -80.2436971,25.772172500000003,0 -80.2427028,25.772219300000003,0 -80.2412584,25.772255200000004,0 -80.2411119,25.772265400000002,0 -80.2397686,25.772302300000003,0 -80.2391626,25.772301100000004,0 -80.2390289,25.7723146,0 -80.23807670000001,25.772361600000004,0 -80.23795890000001,25.772358800000003,0 -80.23761160000001,25.772381300000003,0 -80.237182,25.772395200000002,0 -80.2370764,25.772362200000003,0 -80.23694610000001,25.772357200000002,0 -80.23547500000001,25.7723976,0 -80.2352798,25.772395300000003,0 -80.2349455,25.772371300000003,0 -80.2346204,25.772313,0 -80.2340791,25.772173600000002,0 -80.2329459,25.7716555,0 -80.2328017,25.7716083,0 -80.23274350000001,25.7715966,0 -80.23211630000002,25.7714083,0 -80.23196420000001,25.7714033,0 -80.23173630000001,25.7713851,0 -80.2314427,25.771380699999998,0 -80.2312404,25.7714051,0 -80.23117030000002,25.7714086,0 -80.23097790000001,25.7714336,0 -80.23028940000002,25.771452500000002,0 -80.23021570000002,25.7714675,0 -80.22685520000002,25.7715645,0 -80.22611870000001,25.771646099999998,0 -80.22478740000001,25.7718263,0 -80.2234705,25.772094,0 -80.22280370000001,25.7722494,0 -80.2226986,25.7722682,0 -80.2179859,25.772416500000002,0 -80.2178558,25.7724358,0 -80.2065482,25.772766999999998,0 -80.2060178,25.7727965,0 -80.20434859999999,25.772835899999997,0 -80.20348829999999,25.7728735,0 -80.20120949999999,25.7729343,0 -80.20104509999999,25.772957299999998,0 -80.2002146,25.7731073,0 -80.20001299999998,25.7731329,0 -80.19956669999999,25.7731543,0 -80.19624159999998,25.7732422,0 -80.19597809999998,25.7732581,0 -80.19356499999999,25.773321799999998,0 -80.19354769999998,25.772843599999998,0 -80.193711,25.772736,0 -80.19374529999999,25.772717399999998,0 -80.19378699999999,25.772701499999997,0 -80.1938443,25.7726902,0 -80.1940626,25.772683599999997,0 -80.19418859999999,25.7726716,0 -80.19429939999999,25.7726514,0 -80.1948362,25.772630200000002,0 -80.1950009,25.772633600000002,0 -80.19504359999999,25.7726582,0 -80.19508559999998,25.772671300000003,0 -80.1961068,25.772887200000003,0 -80.19641299999999,25.7729666,0 -80.19672929999999,25.773023600000002,0 -80.19707639999999,25.773050599999998,0 -80.19741249999998,25.773048,0 -80.19780979999999,25.773027299999995,0 -80.19796059999999,25.773005399999995,0 -80.19811689999999,25.773014299999996,0 -80.19824689999999,25.773039299999997,0 -80.19836229999999,25.773076299999996,0 -80.19850439999999,25.7731452,0 -80.19867909999999,25.7732742,0 -80.19874279999999,25.773333599999997,0 -80.19880599999999,25.7734094,0 -80.1988789,25.7735371,0 -80.1991027,25.7740848,0 -80.19917079999999,25.7742284,0 -80.19956289999999,25.775193399999996,0 -80.19962369999999,25.7754004,0 -80.19966709999998,25.7756226,0 -80.19968159999998,25.775730999999997,0 -80.19970329999998,25.7761884,0 -80.19961599999999,25.776313899999998,0 -80.1997524,25.7799533,0 -80.19980369999999,25.7804961,0 -80.1998634,25.780806799999997,0 -80.20002319999999,25.781465599999997,0 -80.2001671,25.781927099999997,0 -80.20028459999999,25.782239699999995,0 -80.20048669999998,25.782703299999994,0 -80.20301529999998,25.787606499999995,0 -80.20350369999998,25.788515199999996,0 -80.20366839999998,25.788863099999997,0 -80.20452219999997,25.790499499999996,0 -80.20474469999998,25.791018399999995,0 -80.20486919999998,25.791370899999997,0 -80.20513259999997,25.792313199999995,0 -80.20517799999998,25.792532399999995,0 -80.20522769999998,25.792847999999996,0 -80.20530359999998,25.793727099999995,0 -80.20539599999998,25.796360299999993,0 -80.20541939999998,25.798337499999995,0 -80.20564039999998,25.803457699999996,0 -80.20557519999998,25.803642199999995,0 -80.20571679999998,25.807724499999996,0 -80.20564419999997,25.807815299999998,0 -80.20560649999997,25.808548,0 -80.20551869999997,25.8096264,0 -80.20549749999996,25.8097902,0 -80.20542419999997,25.810062600000002,0 -80.20535739999997,25.8102462,0 -80.20531059999996,25.8103506,0 -80.20520249999996,25.8105423,0 -80.20506709999995,25.810725299999998,0 -80.20498809999997,25.810814999999998,0 -80.20481079999996,25.810982299999996,0 -80.20462319999997,25.811121899999996,0 -80.20442399999997,25.811238099999997,0 -80.20419829999997,25.811340399999995,0 -80.20398609999998,25.811409299999998,0 -80.20375609999998,25.811463099999997,0 -80.20356149999998,25.811494099999997,0 -80.20331479999997,25.811508399999997,0 -80.20188189999998,25.811512399999998,0 -80.20171589999998,25.8115594,0 -80.19140599999997,25.8113627,0 -80.19018609999996,25.811372799999997,0 -80.18717739999997,25.811460299999997,0 -80.18683699999997,25.811484199999995,0 -80.18630629999998,25.811498299999997,0 -80.18599259999998,25.811490199999994,0 -80.18576659999998,25.811472399999996,0 -80.18552029999998,25.811438599999995,0 -80.18515119999998,25.8113662,0 -80.18355509999998,25.810987299999997,0 -80.18333209999997,25.8109538,0 -80.18277159999998,25.810821,0 -80.18238999999997,25.8107543,0 -80.18181759999997,25.810692,0 -80.17166979999996,25.810589599999997,0 -80.16985629999998,25.8105409,0 -80.15338879999997,25.8103874,0 -80.15151659999997,25.8104046,0 -80.14409299999997,25.810336099999997,0 -80.14386179999995,25.810354699999998,0 -80.14378819999996,25.8103671,0 -80.14368079999997,25.8103105,0 -80.14367399999998,25.8103088,0 -80.13941219999998,25.810187300000003,0 -80.13901989999997,25.8101959,0 -80.13886329999997,25.810172100000003,0 -80.13835009999997,25.8101579,0 -80.13815339999996,25.810168,0 -80.13799359999997,25.8101963,0 -80.13782049999998,25.810241899999998,0 -80.13766289999998,25.8102996,0 -80.13730599999997,25.8104793,0 -80.13720059999997,25.810523099999997,0 -80.13709799999998,25.810553199999998,0 -80.13697059999998,25.810564,0 -80.13688979999999,25.8105598,0 -80.13679399999998,25.8105423,0 -80.13671889999998,25.8105194,0 -80.13660489999998,25.8104673,0 -80.13655499999999,25.810433800000002,0 -80.13646699999998,25.8103571,0 -80.13634389999997,25.8102001,0 -80.13630109999998,25.8100909,0 -80.13626969999999,25.8099809,0 -80.13625159999998,25.809865600000002,0 -80.13624809999997,25.8097944,0 -80.13625459999997,25.8097033,0 -80.13642399999998,25.8087487,0 -80.13645649999998,25.8086232,0 -80.13653489999997,25.8084003,0 -80.13660609999997,25.8082522,0 -80.13669449999996,25.8080957,0 -80.13681459999997,25.807923199999998,0 -80.13695379999996,25.807755099999998,0 -80.13787039999995,25.8068487,0 -80.13805179999996,25.8066333,0 -80.13812099999996,25.806534000000003,0 -80.13827189999995,25.8062815,0 -80.13834379999994,25.806126,0 -80.13836229999994,25.8060938,0 -80.13843889999994,25.8058608,0 -80.13848779999995,25.8056614,0 -80.13853359999995,25.8053502,0 -80.13853209999994,25.8051103,0 -80.13852119999994,25.804986500000002,0 -80.13848099999994,25.8047404,0 -80.13838989999994,25.8043781,0 -80.13836889999995,25.8042661,0 -80.13835319999994,25.8041116,0 -80.13822069999993,25.7991611,0 -80.13820569999994,25.7989893,0 -80.13821319999994,25.798899799999997,0 -80.13825489999994,25.798613699999997,0 -80.13828639999993,25.7984704,0 -80.13835619999993,25.7982988,0 -80.13851109999995,25.7980151,0 -80.13856459999994,25.797937599999997,0 -80.13865119999993,25.7978344,0 -80.13878389999994,25.7976952,0 -80.13948239999993,25.7968883,0 -80.14033989999993,25.7960277,0 -80.14064459999993,25.7957058,0 -80.14083019999994,25.795541399999998,0 -80.14111759999993,25.7952147,0 -80.14121429999993,25.795078399999998,0 -80.14129479999993,25.7949293,0 -80.14134499999993,25.794815000000003,0 -80.14137879999993,25.794720100000003,0 -80.14141859999992,25.7945227,0 -80.14142689999993,25.794330100000003,0 -80.14139349999992,25.793396800000004,0 -80.14138409999993,25.793293300000006,0 -80.14137849999993,25.7930622,0 -80.14136259999992,25.792925700000005,0 -80.14120519999993,25.788192300000002,0 -80.14118169999992,25.7878414,0 -80.14115369999993,25.7863265,0 -80.14111429999993,25.785316400000003,0 -80.14111609999992,25.785191300000005,0 -80.14108049999993,25.784517700000006,0 -80.14098329999993,25.780514100000005,0 -80.14097269999992,25.7804153,0 -80.14094909999993,25.779797300000002,0 -80.14092049999992,25.7797768,0 -80.14090029999993,25.779756,0 -80.14087839999993,25.7796882,0 -80.14086479999993,25.7793787,0 -80.14084169999992,25.7793274,0 -80.14081389999993,25.779287799999995,0 -80.13961649999992,25.7793282,0 -80.13620299999992,25.779389199999997,0 -80.13610929999993,25.776009499999997,0 </coordinates></LineString><TimeSpan><begin>2020-01-20T21:06:51.000Z</begin><end>2020-01-20T22:08:49.000Z</end></TimeSpan></Placemark><Placemark><name>Miami Beach Parking Lot</name><address>833 6th St, Miami Beach, FL 33139</address><ExtendedData><Data name="Email"><value>syugen.zhou@gmail.com</value></Data><Data name="Category"><value>Parking lot</value></Data><Data name="Distance"><value>0</value></Data></ExtendedData><description> Parking lot from 2020-01-20T22:08:49.000Z to 2020-01-20T22:11:18.000Z. Distance 0m </description><Point><coordinates>-80.1367959,25.7760699,0</coordinates></Point><TimeSpan><begin>2020-01-20T22:08:49.000Z</begin><end>2020-01-20T22:11:18.000Z</end></TimeSpan></Placemark><Placemark><name>Walking</name><address></address><ExtendedData><Data name="Email"><value>syugen.zhou@gmail.com</value></Data><Data name="Category"><value>Walking</value></Data><Data name="Distance"><value>1800</value></Data></ExtendedData><description> Walking from 2020-01-20T22:11:18.000Z to 2020-01-20T23:04:42.000Z. Distance 1800m </description><LineString><altitudeMode>clampToGround</altitudeMode><extrude>1</extrude><tesselate>1</tesselate><coordinates>-80.1361463,25.7759575,0 -80.1361403,25.775855200000002,0 -80.1360604,25.775857200000004,0 -80.1360604,25.775857200000004,0 -80.1355761,25.77587,0 -80.1354962,25.7758715,0 -80.1350055,25.775877500000004,0 -80.1349256,25.775879000000003,0 -80.13445279999999,25.775891400000003,0 -80.13437289999999,25.775892700000004,0 -80.13397189999999,25.775895100000003,0 -80.1338812,25.7758892,0 -80.1337873,25.775873900000004,0 -80.133794,25.775840600000002,0 -80.133794,25.775840600000002,0 -80.1338347,25.775585400000004,0 -80.1338347,25.775585400000004,0 -80.1334303,25.775591300000006,0 -80.13334929999999,25.775589200000006,0 -80.13288969999999,25.775564300000006,0 -80.1327572,25.775599600000007,0 -80.132824,25.775576000000008,0 -80.13272599999999,25.77559410000001,0 -80.13229089999999,25.775601500000008,0 -80.1322091,25.775602900000006,0 -80.1317313,25.77561130000001,0 -80.1316529,25.775597700000006,0 -80.1316582,25.775571700000008,0 -80.1312693,25.77553080000001,0 -80.130747,25.77526170000001,0 -80.1307007,25.775240900000007,0 -80.13068150000001,25.775215500000005,0 -80.13060240000001,25.775153700000004,0 -80.1305026,25.775074800000006,0 -80.1304471,25.775046700000004,0 -80.1303555,25.775006300000005,0 -80.1303555,25.775006300000005,0 -80.1303717,25.774946800000006,0 -80.1303685,25.774930500000004,0 -80.1303557,25.774899200000007,0 -80.13033459999998,25.774854700000006,0 -80.1303303,25.77481600000001,0 -80.1303312,25.774761200000007,0 -80.13033539999999,25.77472000000001,0 -80.130372,25.77439570000001,0 -80.1304145,25.77409960000001,0 -80.13046609999999,25.77381790000001,0 -80.13048289999999,25.773702400000012,0 -80.1305004,25.77360980000001,0 -80.13059,25.77320430000001,0 -80.130648,25.77292330000001,0 -80.1306571,25.77287560000001,0 -80.13078939999998,25.772236500000012,0 -80.13080909999998,25.77213900000001,0 -80.13080909999998,25.77213900000001,0 -80.13090579999998,25.772171100000012,0 -80.13105849999998,25.77222280000001,0 -80.13111259999997,25.772242700000007,0 -80.13123299999997,25.772287000000006,0 -80.13123299999997,25.772287000000006,0 -80.13110129999997,25.773056200000006,0 -80.13110129999997,25.773056200000006,0 -80.13149949999998,25.773135800000006,0 -80.13157009999998,25.773186000000006,0 -80.13218699999997,25.773292800000007,0 -80.13226509999997,25.773308000000007,0 -80.13268959999998,25.773399800000007,0 -80.13276769999997,25.773415000000007,0 -80.13323569999999,25.773495900000007,0 -80.13331439999997,25.773508700000008,0 -80.13374699999999,25.77357350000001,0 -80.13382539999998,25.773587700000007,0 -80.13426609999998,25.773680500000008,0 -80.13426609999998,25.773680500000008,0 -80.13408799999998,25.774414600000007,0 -80.13416979999997,25.774414300000007,0 -80.13416979999997,25.774414300000007,0 -80.13422349999998,25.774415400000006,0 -80.13430559999998,25.774413900000006,0 -80.13427849999998,25.77450500000001,0 -80.13427849999998,25.77450500000001,0 -80.13424809999998,25.774583600000007,0 -80.13421959999998,25.774674800000007,0 -80.13421959999998,25.774674800000007,0 -80.13488019999998,25.774647300000005,0 -80.13495999999998,25.774645700000004,0 -80.13521739999999,25.774645800000005,0 -80.13542369999998,25.774636100000006,0 -80.13547189999997,25.774635300000007,0 -80.13555179999997,25.774631200000005,0 -80.13570529999997,25.774617400000007,0 -80.13604039999997,25.77460020000001,0 -80.13612019999998,25.774597400000008,0 -80.13612019999998,25.774597400000008,0 -80.13612809999997,25.774894500000006,0 -80.13613779999997,25.775783300000004,0 -80.13614029999997,25.775855200000006,0 -80.13614399999996,25.775918500000007,0 </coordinates></LineString><TimeSpan><begin>2020-01-20T22:11:18.000Z</begin><end>2020-01-20T23:04:42.000Z</end></TimeSpan></Placemark><Placemark><name>Miami Beach Parking Lot</name><address>833 6th St, Miami Beach, FL 33139</address><ExtendedData><Data name="Email"><value>syugen.zhou@gmail.com</value></Data><Data name="Category"><value>Parking lot</value></Data><Data name="Distance"><value>0</value></Data></ExtendedData><description> Parking lot from 2020-01-20T23:04:42.000Z to 2020-01-20T23:13:39.000Z. Distance 0m </description><Point><coordinates>-80.1367959,25.7760699,0</coordinates></Point><TimeSpan><begin>2020-01-20T23:04:42.000Z</begin><end>2020-01-20T23:13:39.000Z</end></TimeSpan></Placemark><Placemark><name>Driving</name><address></address><ExtendedData><Data name="Email"><value>syugen.zhou@gmail.com</value></Data><Data name="Category"><value>Driving</value></Data><Data name="Distance"><value>16318</value></Data></ExtendedData><description> Driving from 2020-01-20T23:13:39.998Z to 2020-01-21T00:47:51.315Z. Distance 16318m </description><LineString><altitudeMode>clampToGround</altitudeMode><extrude>1</extrude><tesselate>1</tesselate><coordinates>-80.1361072,25.7759739,0 -80.1360983,25.7758202,0 -80.1360882,25.7748951,0 -80.1360791,25.7745532,0 -80.13664320000001,25.774543599999998,0 -80.1371756,25.774527799999998,0 -80.13773250000001,25.7744999,0 -80.13829940000001,25.774487799999996,0 -80.13889150000001,25.774461099999996,0 -80.13924760000002,25.774442199999996,0 -80.13948850000001,25.774433199999997,0 -80.13965940000001,25.774424399999997,0 -80.13974910000003,25.774417899999996,0 -80.13975970000003,25.774418299999997,0 -80.13985050000002,25.7744096,0 -80.13997860000002,25.7744127,0 -80.14004040000002,25.774415599999998,0 -80.14006870000001,25.774418299999997,0 -80.1401689,25.7744258,0 -80.14028150000001,25.7744413,0 -80.14036550000002,25.7744583,0 -80.14041680000001,25.7744675,0 -80.14064800000001,25.7745118,0 -80.14077200000001,25.7745239,0 -80.14108700000001,25.774546899999997,0 -80.14142300000002,25.774525399999998,0 -80.14167400000002,25.7745109,0 -80.14191660000002,25.774499499999997,0 -80.14206520000002,25.774480599999997,0 -80.14221420000003,25.774450899999998,0 -80.14236520000003,25.774416299999995,0 -80.14238280000002,25.7744111,0 -80.14250190000003,25.774381999999996,0 -80.14257880000002,25.774356999999995,0 -80.14287650000003,25.774251099999994,0 -80.14379130000002,25.773882799999992,0 -80.14528330000002,25.773348399999993,0 -80.14780030000003,25.772365199999992,0 -80.14806100000001,25.772265599999994,0 -80.14832420000002,25.77217049999999,0 -80.14847630000003,25.77212699999999,0 -80.14875550000004,25.772072699999992,0 -80.14891910000003,25.77203759999999,0 -80.14914210000003,25.772004399999993,0 -80.14942710000003,25.771970299999992,0 -80.14970080000002,25.771965699999996,0 -80.14979420000002,25.771967599999993,0 -80.15011730000002,25.771999499999996,0 -80.15037150000002,25.772031799999993,0 -80.15049890000002,25.772054099999995,0 -80.15070690000002,25.772098399999994,0 -80.15093830000002,25.772155399999995,0 -80.15123700000002,25.772236799999995,0 -80.15132290000003,25.772256099999993,0 -80.15167790000002,25.772360399999993,0 -80.15182220000003,25.772406699999994,0 -80.15229060000003,25.772605799999994,0 -80.15231750000002,25.772618399999992,0 -80.15279370000002,25.77282329999999,0 -80.15309970000001,25.77295759999999,0 -80.15401330000002,25.773351499999993,0 -80.15479700000002,25.773694099999993,0 -80.15583650000002,25.77413889999999,0 -80.15685560000001,25.77458229999999,0 -80.1587779,25.775405899999992,0 -80.161438,25.776552399999993,0 -80.1628628,25.777160799999994,0 -80.16310650000001,25.777266899999994,0 -80.1636419,25.777485999999993,0 -80.1637098,25.777512199999993,0 -80.1646968,25.777945999999993,0 -80.1650428,25.778090999999993,0 -80.16637979999999,25.77869159999999,0 -80.1670607,25.778984599999994,0 -80.16799269999999,25.779380599999993,0 -80.17134989999998,25.780836199999992,0 -80.17170099999998,25.780994199999995,0 -80.17181719999998,25.781056299999996,0 -80.17202709999998,25.781174799999995,0 -80.17212899999998,25.7812368,0 -80.17224119999999,25.781308699999997,0 -80.17234539999998,25.781378299999997,0 -80.1724479,25.781448799999996,0 -80.17264909999999,25.781599799999995,0 -80.17274759999998,25.781679099999995,0 -80.17287909999999,25.781790899999994,0 -80.17310799999998,25.782001499999993,0 -80.17319319999999,25.78206919999999,0 -80.17327019999999,25.782150099999992,0 -80.1734772,25.782383999999993,0 -80.17362589999999,25.78256739999999,0 -80.1737862,25.78278899999999,0 -80.17463409999999,25.78415829999999,0 -80.17477579999998,25.784367199999988,0 -80.17483569999999,25.784440499999988,0 -80.17497649999999,25.784647199999988,0 -80.1755238,25.785534799999986,0 -80.17566029999999,25.78576949999999,0 -80.17579199999999,25.785971399999987,0 -80.17580519999999,25.785992399999987,0 -80.17595159999998,25.78619009999999,0 -80.17617909999998,25.786431999999987,0 -80.17625609999997,25.786510299999986,0 -80.17643779999997,25.786666999999987,0 -80.17653179999998,25.786740899999987,0 -80.17668979999998,25.786857099999985,0 -80.17691999999998,25.787007299999985,0 -80.17730479999999,25.787206499999986,0 -80.17754959999999,25.787312299999986,0 -80.1777882,25.787399399999988,0 -80.17811449999999,25.787464999999987,0 -80.17818199999999,25.787477199999987,0 -80.17838979999999,25.787517999999988,0 -80.17868589999999,25.787555299999987,0 -80.17907259999998,25.787575099999987,0 -80.17974749999998,25.78755939999999,0 -80.18081559999997,25.78750049999999,0 -80.18118359999998,25.78747679999999,0 -80.18193619999998,25.78740719999999,0 -80.18336409999998,25.787308499999988,0 -80.18442999999999,25.78724289999999,0 -80.1847282,25.78722999999999,0 -80.18544929999999,25.78718699999999,0 -80.18566499999999,25.78721499999999,0 -80.18603879999998,25.787175999999988,0 -80.18629469999998,25.787147599999987,0 -80.18658669999996,25.787112299999986,0 -80.18668309999997,25.787101599999986,0 -80.18682409999997,25.787087699999987,0 -80.18700849999996,25.787064599999987,0 -80.18750659999996,25.787035699999986,0 -80.18793229999996,25.787074199999985,0 -80.18804999999996,25.787074099999984,0 -80.18911459999995,25.787046299999986,0 -80.19033219999996,25.786999799999986,0 -80.19069819999996,25.786998199999985,0 -80.19116049999995,25.786989199999983,0 -80.19238069999996,25.786954699999985,0 -80.19241469999994,25.787607799999986,0 -80.19336019999994,25.787573099999985,0 -80.19329879999994,25.787027199999986,0 -80.19406929999995,25.787005499999985,0 -80.19402989999995,25.785904199999983,0 -80.19402939999995,25.785900599999987,0 -80.19398899999995,25.784749599999987,0 -80.19398489999995,25.784698199999987,0 -80.19396719999995,25.784285199999985,0 -80.19396089999994,25.784078899999987,0 -80.19395509999994,25.783778199999986,0 -80.19387529999993,25.781861999999986,0 -80.19574429999993,25.781804499999986,0 -80.19588529999993,25.781808499999986,0 -80.19604849999993,25.781798999999985,0 -80.19609709999993,25.781797199999986,0 -80.19635399999993,25.781782899999985,0 -80.19649779999993,25.781772499999985,0 -80.19731069999993,25.781746999999985,0 -80.19751439999993,25.781744199999984,0 -80.19798929999993,25.781726899999985,0 -80.19880109999993,25.781710199999985,0 -80.19968119999993,25.781686499999985,0 -80.19984259999994,25.781680399999985,0 -80.20006799999993,25.781676899999987,0 -80.20056269999994,25.781656499999986,0 -80.20068429999993,25.781661699999983,0 -80.20063359999993,25.781485199999985,0 -80.20057719999994,25.781306199999985,0 -80.20052609999993,25.781128899999985,0 -80.20047869999993,25.780953899999986,0 -80.20040749999994,25.780708099999984,0 -80.20035569999993,25.780453499999986,0 -80.20022639999995,25.779749099999986,0 -80.20015409999995,25.778780199999982,0 -80.20011449999994,25.777798399999984,0 -80.20008799999994,25.77686089999998,0 -80.20004799999994,25.77589049999998,0 -80.20002509999993,25.77570409999998,0 -80.19997779999993,25.77539999999998,0 -80.19996359999993,25.775333399999983,0 -80.19988649999993,25.775003299999984,0 -80.19982859999993,25.77481999999998,0 -80.19982279999992,25.774742299999982,0 -80.19982269999993,25.774722599999983,0 -80.19982209999993,25.77471429999998,0 -80.19981989999992,25.774702599999983,0 -80.19979659999993,25.774595799999982,0 -80.19975439999993,25.77443149999998,0 -80.19975409999992,25.77442619999998,0 -80.19975439999993,25.774425199999982,0 -80.19975409999992,25.774423999999982,0 -80.19975059999993,25.77441429999998,0 -80.19972299999992,25.774297399999977,0 -80.19971749999992,25.774276899999975,0 -80.19966489999992,25.774097099999977,0 -80.19962259999993,25.773960999999975,0 -80.19959539999992,25.773878699999976,0 -80.19939229999993,25.773316399999977,0 -80.19937929999993,25.773274099999977,0 -80.19934319999993,25.773174399999974,0 -80.19934119999994,25.773169599999978,0 -80.19934109999994,25.773165299999977,0 -80.19930829999994,25.773077399999977,0 -80.19927039999995,25.772964699999978,0 -80.19922569999993,25.772817499999977,0 -80.19919979999993,25.772715399999978,0 -80.19917799999993,25.772597899999976,0 -80.19916599999993,25.772488199999977,0 -80.19916139999992,25.772423499999977,0 -80.19916129999993,25.772391199999976,0 -80.19916579999993,25.77236259999998,0 -80.19917179999993,25.77233219999998,0 -80.19916619999994,25.772217999999977,0 -80.19916569999994,25.77210019999998,0 -80.19917379999994,25.77192379999998,0 -80.19919629999994,25.771784199999978,0 -80.19922809999994,25.771662599999978,0 -80.19927769999995,25.77150039999998,0 -80.19931759999994,25.77139089999998,0 -80.19943369999994,25.771109599999978,0 -80.19959349999995,25.770729099999976,0 -80.19971289999995,25.770469099999975,0 -80.19994919999995,25.769944999999975,0 -80.20005519999995,25.769664799999976,0 -80.20007239999994,25.769622699999978,0 -80.20016159999994,25.769341399999977,0 -80.20020059999995,25.769191199999977,0 -80.20025419999996,25.768995799999978,0 -80.20026239999996,25.76895549999998,0 -80.20046119999996,25.768259199999978,0 -80.20048599999996,25.76815629999998,0 -80.20049869999995,25.76811499999998,0 -80.20051469999996,25.76805399999998,0 -80.20051259999995,25.768015999999978,0 -80.20052679999995,25.767952999999977,0 -80.20059159999994,25.767711999999978,0 -80.20062249999994,25.76760669999998,0 -80.20067679999994,25.76743279999998,0 -80.20069489999995,25.76738479999998,0 -80.20078899999994,25.767164399999984,0 -80.20081749999994,25.767164099999984,0 -80.20413369999996,25.767068799999983,0 -80.20428479999995,25.767065799999983,0 -80.20580719999995,25.76701789999998,0 -80.20663999999995,25.76699809999998,0 -80.21125769999995,25.76684439999998,0 -80.21446689999995,25.76674819999998,0 -80.21461249999996,25.76673939999998,0 -80.21506569999995,25.766730199999984,0 -80.21656659999995,25.766682799999984,0 -80.21670469999995,25.766680799999982,0 -80.21781749999995,25.76664699999998,0 -80.21947899999996,25.766587799999982,0 -80.22032959999996,25.76656299999998,0 -80.22116289999997,25.766543999999982,0 -80.22127689999998,25.766542899999983,0 -80.22128949999997,25.766542099999985,0 -80.22254779999997,25.766510099999987,0 -80.22291279999997,25.766515299999984,0 -80.22297439999998,25.766517999999984,0 -80.22300319999998,25.766518099999985,0 -80.22327479999998,25.766523399999986,0 -80.22690639999999,25.766434799999985,0 -80.23074929999999,25.766332499999987,0 -80.23113399999998,25.766336699999986,0 -80.23212459999999,25.766301599999984,0 -80.23277069999997,25.766267999999986,0 -80.23683679999998,25.766140899999986,0 -80.23722689999998,25.766117199999986,0 -80.23826809999997,25.766095499999984,0 -80.23878059999998,25.766080899999984,0 -80.23879979999998,25.766290799999982,0 -80.23881059999998,25.76660649999998,0 -80.23881899999996,25.766665899999982,0 -80.23882709999998,25.76697569999998,0 -80.23884889999998,25.76743749999998,0 -80.23885839999997,25.76768129999998,0 -80.23887389999997,25.768170899999976,0 -80.23887749999997,25.76841459999998,0 -80.23890469999998,25.76902359999998,0 -80.23891239999998,25.769423999999976,0 -80.23893519999999,25.77003739999998,0 -80.23894279999998,25.77038129999998,0 -80.23899049999999,25.77134849999998,0 -80.2390289,25.77231459999998,0 -80.23916259999999,25.772301099999982,0 -80.23919869999999,25.77230179999998,0 -80.23976859999999,25.772302299999982,0 -80.240113,25.77229199999998,0 -80.24020859999999,25.77229359999998,0 -80.24033199999998,25.77228739999998,0 -80.2404359,25.77228569999998,0 -80.240579,25.772277399999982,0 -80.24111189999999,25.77226539999998,0 -80.24125839999999,25.772255199999982,0 -80.24184729999999,25.77224039999998,0 -80.24211229999999,25.77222649999998,0 -80.24270279999999,25.77221929999998,0 -80.24369709999999,25.77217249999998,0 -80.2447382,25.77214229999998,0 -80.245711,25.77212369999998,0 -80.2466881,25.77209659999998,0 -80.24677059999999,25.77209719999998,0 -80.247271,25.772072999999978,0 -80.247672,25.772066699999975,0 -80.24801469999998,25.772055099999978,0 -80.24803909999999,25.772055899999977,0 -80.24815729999999,25.772047599999976,0 -80.24828679999999,25.77204299999998,0 -80.24895899999999,25.772028899999977,0 -80.24902699999998,25.772025999999975,0 -80.2491333,25.772018899999978,0 -80.25186719999999,25.77193359999998,0 -80.252444,25.77190709999998,0 -80.25344979999998,25.771875499999975,0 -80.2540138,25.77186909999998,0 -80.2543084,25.771859099999975,0 -80.2545645,25.771852099999975,0 -80.2548122,25.771849499999977,0 -80.25544339999999,25.771835999999976,0 -80.25605459999998,25.771835899999974,0 -80.25662179999999,25.771833199999975,0 -80.25891049999998,25.771796799999976,0 -80.25904039999998,25.771792099999974,0 -80.26020189999998,25.771772699999975,0 -80.26057829999998,25.771769899999974,0 -80.26120639999998,25.771749499999974,0 -80.26147109999998,25.771738999999975,0 -80.26158609999997,25.771731599999974,0 -80.26199689999999,25.771716699999974,0 -80.26261739999998,25.771708299999972,0 -80.26260969999998,25.771452199999974,0 -80.26259919999997,25.770901599999974,0 -80.26302899999997,25.770901099999975,0 -80.26302529999998,25.771457599999977,0 </coordinates></LineString><TimeSpan><begin>2020-01-20T23:13:39.998Z</begin><end>2020-01-21T00:47:51.315Z</end></TimeSpan></Placemark><Placemark><name>Best Western Premier Miami Intl Airport Hotel &amp; Suites Coral Gables</name><address>4100 W Flagler St, Miami, FL 33134</address><ExtendedData><Data name="Email"><value>syugen.zhou@gmail.com</value></Data><Data name="Category"><value>Hotel</value></Data><Data name="Distance"><value>0</value></Data></ExtendedData><description> Hotel from 2020-01-21T00:47:51.315Z to 2020-01-21T02:20:41.999Z. Distance 0m </description><Point><coordinates>-80.262816,25.771276999999998,0</coordinates></Point><TimeSpan><begin>2020-01-21T00:47:51.315Z</begin><end>2020-01-21T02:20:41.999Z</end></TimeSpan></Placemark><Placemark><name>Driving</name><address></address><ExtendedData><Data name="Email"><value>syugen.zhou@gmail.com</value></Data><Data name="Category"><value>Driving</value></Data><Data name="Distance"><value>1024</value></Data></ExtendedData><description> Driving from 2020-01-21T02:20:41.999Z to 2020-01-21T02:23:51.000Z. Distance 1024m </description><LineString><altitudeMode>clampToGround</altitudeMode><extrude>1</extrude><tesselate>1</tesselate><coordinates>-80.26260719999999,25.7713231,0 -80.26259919999998,25.770901600000002,0 -80.26258679999998,25.7703448,0 -80.26258679999998,25.7703448,0 -80.26154499999998,25.770373300000003,0 -80.26154499999998,25.770373300000003,0 -80.26154059999999,25.769833700000003,0 -80.26153749999999,25.769456100000003,0 -80.2615136,25.768562000000003,0 -80.26149609999999,25.767774800000005,0 -80.26149609999999,25.767774800000005,0 -80.26098739999999,25.767780400000003,0 -80.26098739999999,25.767780400000003,0 -80.26092489999999,25.766679400000005,0 -80.26089909999999,25.765963900000003,0 -80.26087279999999,25.765272000000003,0 -80.26085069999999,25.764827100000005,0 -80.26084639999999,25.764723400000005,0 -80.2608376,25.764508400000004,0 -80.2608376,25.764508400000004,0 -80.26130049999999,25.764497300000002,0 -80.2615935,25.764487400000004,0 -80.2615935,25.764487400000004,0 -80.2615771,25.7641744,0 -80.2615517,25.763688000000002,0 -80.2615517,25.763688000000002,0 -80.26280739999999,25.7636615,0 -80.26280739999999,25.7636615,0 -80.2627947,25.763489600000003,0 -80.26282760000001,25.763488400000004,0 -80.26289179999999,25.763487300000005,0 -80.2629551,25.763485700000004,0 -80.2629792,25.763483000000004,0 -80.262993,25.763478800000005,0 -80.2630001,25.763474600000006,0 -80.2630069,25.763469100000005,0 -80.2630173,25.76345690000001,0 -80.2630251,25.763446700000006,0 -80.2630272,25.76344180000001,0 -80.2630307,25.763433700000007,0 -80.2630336,25.76341160000001,0 -80.2630268,25.76331020000001,0 </coordinates></LineString><TimeSpan><begin>2020-01-21T02:20:41.999Z</begin><end>2020-01-21T02:23:51.000Z</end></TimeSpan></Placemark><Placemark><name>McDonald's</name><address>4180 SW 9th St, Miami, FL 33134</address><ExtendedData><Data name="Email"><value>syugen.zhou@gmail.com</value></Data><Data name="Category"><value>Fast Food</value></Data><Data name="Distance"><value>0</value></Data></ExtendedData><description> Fast Food from 2020-01-21T02:23:51.000Z to 2020-01-21T02:25:09.000Z. Distance 0m </description><Point><coordinates>-80.262902,25.763313,0</coordinates></Point><TimeSpan><begin>2020-01-21T02:23:51.000Z</begin><end>2020-01-21T02:25:09.000Z</end></TimeSpan></Placemark><Placemark><name>Driving</name><address></address><ExtendedData><Data name="Email"><value>syugen.zhou@gmail.com</value></Data><Data name="Category"><value>Driving</value></Data><Data name="Distance"><value>922</value></Data></ExtendedData><description> Driving from 2020-01-21T02:25:09.000Z to 2020-01-21T02:38:17.999Z. Distance 922m </description><LineString><altitudeMode>clampToGround</altitudeMode><extrude>1</extrude><tesselate>1</tesselate><coordinates>-80.26302679999999,25.7633102,0 -80.2632577,25.763311299999998,0 -80.2632577,25.763311299999998,0 -80.2632587,25.7633792,0 -80.26325779999999,25.7634503,0 -80.2632593,25.7634728,0 -80.2632672,25.763652599999997,0 -80.2632725,25.763868199999997,0 -80.26327739999999,25.763973199999995,0 -80.26328469999999,25.764061499999997,0 -80.26329599999998,25.764303399999996,0 -80.26322559999998,25.764437399999995,0 -80.26324169999998,25.764599999999998,0 -80.26327209999998,25.765346799999996,0 -80.26329779999998,25.765901999999993,0 -80.26333379999997,25.766629299999995,0 -80.26339059999998,25.767808599999995,0 -80.26340679999997,25.767956599999994,0 -80.26341929999997,25.768175799999995,0 -80.26342409999997,25.768284699999995,0 -80.26343089999996,25.76841719999999,0 -80.26343989999997,25.768535099999994,0 -80.26345329999997,25.76880659999999,0 -80.26346219999996,25.769066999999993,0 -80.26348129999997,25.769443299999992,0 -80.26350979999997,25.769945399999994,0 -80.26352169999996,25.770114599999992,0 -80.26352209999996,25.770344799999993,0 -80.26352209999996,25.770344799999993,0 -80.26327399999997,25.770343299999993,0 -80.26316109999996,25.77034769999999,0 -80.26302169999997,25.77034699999999,0 -80.26302169999997,25.77034699999999,0 -80.26302899999996,25.770901099999993,0 -80.26302679999996,25.77123589999999,0 </coordinates></LineString><TimeSpan><begin>2020-01-21T02:25:09.000Z</begin><end>2020-01-21T02:38:17.999Z</end></TimeSpan></Placemark><Placemark><name>Best Western Premier Miami Intl Airport Hotel &amp; Suites Coral Gables</name><address>4100 W Flagler St, Miami, FL 33134</address><ExtendedData><Data name="Email"><value>syugen.zhou@gmail.com</value></Data><Data name="Category"><value>Hotel</value></Data><Data name="Distance"><value>0</value></Data></ExtendedData><description> Hotel from 2020-01-21T02:38:17.999Z to 2020-01-21T10:01:10.993Z. Distance 0m </description><Point><coordinates>-80.262816,25.771276999999998,0</coordinates></Point><TimeSpan><begin>2020-01-21T02:38:17.999Z</begin><end>2020-01-21T10:01:10.993Z</end></TimeSpan></Placemark></Document></kml>
